{
"type": "FeatureCollection",
"name": "1100205",
"crs": { "type": "name", "properties": { "name": "urn:ogc:def:crs:OGC:1.3:CRS84" } },
"features": [
{ "type": "Feature", "properties": { "CD_MUN": "1100205", "NM_MUN": "Porto Velho" }, "geometry": { "type": "MultiPolygon", "coordinates": [ [ [ [ -66.358091799999954, -9.785645499999923 ], [ -66.358344299999942, -9.785329699999956 ], [ -66.358616799999936, -9.784801799999956 ], [ -66.358692099999985, -9.784439599999926 ], [ -66.358913899999948, -9.784324099999926 ], [ -66.359096, -9.784002299999932 ], [ -66.359421199999986, -9.783059099999937 ], [ -66.35964, -9.782677299999916 ], [ -66.360059899999953, -9.782040099999946 ], [ -66.360481499999935, -9.781459 ], [ -66.361279399999944, -9.781035699999963 ], [ -66.361605599999962, -9.780895299999912 ], [ -66.361852399999975, -9.780482299999971 ], [ -66.361994599999946, -9.780306499999933 ], [ -66.361994699999983, -9.780194899999985 ], [ -66.361995799999988, -9.780101 ], [ -66.36192269999998, -9.780014 ], [ -66.361828199999934, -9.779953 ], [ -66.361722099999952, -9.779896499999923 ], [ -66.36173169999995, -9.77982509999994 ], [ -66.361785499999939, -9.779767 ], [ -66.361865799999975, -9.779681399999944 ], [ -66.361829799999953, -9.779617799999922 ], [ -66.361686, -9.779541599999964 ], [ -66.36169289999998, -9.779464199999964 ], [ -66.36172849999997, -9.779387599999948 ], [ -66.361674, -9.779321099999944 ], [ -66.361560499999939, -9.77929639999997 ], [ -66.361487099999977, -9.779203 ], [ -66.361463499999957, -9.779086599999985 ], [ -66.361473399999966, -9.778995 ], [ -66.361511099999973, -9.778882299999962 ], [ -66.361655899999974, -9.778770599999971 ], [ -66.36175819999994, -9.778655 ], [ -66.361745, -9.778555899999963 ], [ -66.361544899999956, -9.778185099999975 ], [ -66.361369899999943, -9.777835099999942 ], [ -66.361291299999948, -9.777353399999964 ], [ -66.361269099999959, -9.777312199999914 ], [ -66.361206899999956, -9.777264 ], [ -66.368885799999987, -9.778521499999949 ], [ -66.369948099999988, -9.772917799999943 ], [ -66.370001699999932, -9.772590399999949 ], [ -66.369983099999956, -9.770350299999958 ], [ -66.369961899999964, -9.768597299999952 ], [ -66.369956299999956, -9.767623499999967 ], [ -66.36999, -9.767028599999962 ], [ -66.369995699999947, -9.766897899999945 ], [ -66.36996709999994, -9.766646399999948 ], [ -66.36996019999998, -9.766487099999946 ], [ -66.369960299999946, -9.762864199999953 ], [ -66.356443199999944, -9.762739799999972 ], [ -66.347102, -9.763102499999942 ], [ -66.347147599999971, -9.765644799999942 ], [ -66.347207499999968, -9.766737199999952 ], [ -66.347216899999978, -9.770722199999941 ], [ -66.34723979999994, -9.770815699999927 ], [ -66.34676909999996, -9.785161 ], [ -66.346689399999946, -9.78762709999994 ], [ -66.346677499999956, -9.787813199999954 ], [ -66.351169699999957, -9.788331099999926 ], [ -66.355601099999959, -9.788222599999909 ], [ -66.357160799999988, -9.788236199999943 ], [ -66.357420399999967, -9.787324 ], [ -66.357494, -9.78688379999994 ], [ -66.357661699999937, -9.786357699999929 ], [ -66.357877299999984, -9.786087399999927 ], [ -66.358091799999954, -9.785645499999923 ] ] ], [ [ [ -66.615506399999958, -9.774248099999971 ], [ -66.616293699999972, -9.773797599999977 ], [ -66.617081199999973, -9.773347 ], [ -66.617856199999949, -9.772903499999941 ], [ -66.618608299999948, -9.7724732 ], [ -66.620185099999958, -9.771570899999972 ], [ -66.620610599999964, -9.771327499999913 ], [ -66.621409599999936, -9.770870199999944 ], [ -66.624180499999966, -9.769256499999912 ], [ -66.624986799999988, -9.768821699999942 ], [ -66.631602699999974, -9.765473299999957 ], [ -66.631029099999978, -9.764444299999978 ], [ -66.630199299999958, -9.762926299999945 ], [ -66.629680499999949, -9.7619774 ], [ -66.629110899999944, -9.760935399999932 ], [ -66.628201299999944, -9.759271399999927 ], [ -66.62777269999998, -9.75848739999997 ], [ -66.626627, -9.756391699999954 ], [ -66.626070399999946, -9.755373499999951 ], [ -66.625050899999962, -9.753508599999957 ], [ -66.624645099999952, -9.752766299999976 ], [ -66.624094899999932, -9.751759699999981 ], [ -66.622232799999949, -9.748364499999962 ], [ -66.620986599999981, -9.746104499999946 ], [ -66.62014709999994, -9.746582799999942 ], [ -66.612999699999946, -9.750628 ], [ -66.611556399999984, -9.751445199999976 ], [ -66.610460499999988, -9.752065699999939 ], [ -66.606942199999935, -9.754057699999963 ], [ -66.605012399999964, -9.755150399999929 ], [ -66.601345699999968, -9.757226499999938 ], [ -66.602426099999946, -9.75903729999993 ], [ -66.608202899999981, -9.768707699999936 ], [ -66.608318299999951, -9.76890089999994 ], [ -66.612530499999934, -9.775951 ], [ -66.613202099999967, -9.775566599999927 ], [ -66.613298799999939, -9.775511299999936 ], [ -66.613396299999977, -9.775455499999961 ], [ -66.613494899999978, -9.775399099999973 ], [ -66.613592899999958, -9.775343 ], [ -66.613788299999953, -9.775231199999963 ], [ -66.613983299999973, -9.77511959999992 ], [ -66.614181, -9.775006499999973 ], [ -66.61472109999994, -9.77469749999994 ], [ -66.615506399999958, -9.774248099999971 ] ] ], [ [ [ -65.519408299999952, -9.790880899999939 ], [ -65.521295499999951, -9.789361899999962 ], [ -65.522124, -9.787704799999972 ], [ -65.523228699999947, -9.787382599999948 ], [ -65.525254, -9.787474699999946 ], [ -65.527647599999966, -9.787290599999947 ], [ -65.528798299999963, -9.784298699999962 ], [ -65.530409299999974, -9.781675 ], [ -65.530774899999983, -9.781337599999954 ], [ -65.53155449999997, -9.779746699999965 ], [ -65.52990189999997, -9.7774712 ], [ -65.525260399999979, -9.775311299999949 ], [ -65.522699599999953, -9.776483899999965 ], [ -65.519204699999932, -9.790685899999966 ], [ -65.519408299999952, -9.790880899999939 ] ] ], [ [ [ -65.374455899999987, -9.692012699999964 ], [ -65.374342799999965, -9.691995099999913 ], [ -65.374248, -9.691984799999938 ], [ -65.374154, -9.691981899999972 ], [ -65.374043799999981, -9.691981099999945 ], [ -65.373954199999957, -9.691989199999972 ], [ -65.37386749999996, -9.692005 ], [ -65.373755799999969, -9.692045 ], [ -65.373525799999982, -9.692144099999966 ], [ -65.373336499999937, -9.69224169999994 ], [ -65.373272199999974, -9.692255599999937 ], [ -65.373225199999979, -9.692255599999955 ], [ -65.373130199999935, -9.692242399999921 ], [ -65.373061899999982, -9.692215599999924 ], [ -65.372934799999939, -9.69216419999996 ], [ -65.37279, -9.692101399999977 ], [ -65.372675399999935, -9.692066199999935 ], [ -65.372523299999969, -9.692036199999956 ], [ -65.372326099999952, -9.692023499999941 ], [ -65.372126599999945, -9.692017699999942 ], [ -65.371871, -9.692021 ], [ -65.371622799999955, -9.692007 ], [ -65.371354699999983, -9.691888799999971 ], [ -65.371196699999985, -9.691813699999971 ], [ -65.370665199999962, -9.691625199999987 ], [ -65.370533, -9.691947 ], [ -65.370387599999958, -9.692204799999972 ], [ -65.370048199999985, -9.692696299999968 ], [ -65.369550099999969, -9.693128299999966 ], [ -65.369166599999971, -9.69339049999996 ], [ -65.362202299999979, -9.699356399999944 ], [ -65.358109699999943, -9.702595 ], [ -65.361184099999946, -9.706222599999947 ], [ -65.361596299999974, -9.706608299999976 ], [ -65.363811199999986, -9.7099229 ], [ -65.364423399999964, -9.710900299999926 ], [ -65.368210499999975, -9.706719799999979 ], [ -65.378304399999934, -9.697125399999948 ], [ -65.379823599999952, -9.696040599999934 ], [ -65.379763899999944, -9.695990099999962 ], [ -65.37904, -9.695344299999929 ], [ -65.375239799999974, -9.692218399999939 ], [ -65.375154199999955, -9.69213949999995 ], [ -65.375037, -9.692061199999939 ], [ -65.375005, -9.692046899999966 ], [ -65.374974899999984, -9.692044899999944 ], [ -65.374698699999954, -9.692043199999949 ], [ -65.374580099999946, -9.692035099999941 ], [ -65.374455899999987, -9.692012699999964 ] ] ], [ [ [ -64.537786, -9.702291499999944 ], [ -64.537582499999985, -9.702176399999932 ], [ -64.537458299999969, -9.702365099999941 ], [ -64.537328799999955, -9.702466 ], [ -64.537054599999976, -9.702287499999958 ], [ -64.536705799999936, -9.702102699999951 ], [ -64.536632399999974, -9.701733699999984 ], [ -64.536658399999965, -9.701206899999944 ], [ -64.536629099999971, -9.700833699999974 ], [ -64.536442399999942, -9.700545299999911 ], [ -64.536249199999986, -9.700446699999944 ], [ -64.53595729999995, -9.700510499999936 ], [ -64.540191, -9.697314599999954 ], [ -64.539122299999974, -9.695835099999961 ], [ -64.538926899999979, -9.69563819999998 ], [ -64.538803199999961, -9.695726799999935 ], [ -64.536787899999979, -9.697390299999942 ], [ -64.536395699999957, -9.697653599999956 ], [ -64.53553409999995, -9.698280499999953 ], [ -64.53523789999997, -9.698556499999949 ], [ -64.53498639999998, -9.698779399999973 ], [ -64.534840299999985, -9.698867099999973 ], [ -64.534774599999935, -9.69859619999994 ], [ -64.534563699999978, -9.698364499999972 ], [ -64.533854799999972, -9.698118599999924 ], [ -64.53331129999998, -9.697684 ], [ -64.533099799999945, -9.696942099999948 ], [ -64.532702299999983, -9.696067199999947 ], [ -64.53231569999997, -9.695177499999952 ], [ -64.531037, -9.693806 ], [ -64.530442099999959, -9.693299899999941 ], [ -64.530021099999942, -9.69379209999993 ], [ -64.529808799999955, -9.693984399999989 ], [ -64.529752799999983, -9.694454499999962 ], [ -64.529407299999946, -9.69481919999992 ], [ -64.528950599999973, -9.694915299999943 ], [ -64.528452899999934, -9.69554669999998 ], [ -64.528134799999975, -9.696288299999939 ], [ -64.527940299999955, -9.696772299999958 ], [ -64.527297899999951, -9.697482099999945 ], [ -64.526717799999972, -9.69821669999993 ], [ -64.526280499999984, -9.69879969999994 ], [ -64.525681799999973, -9.698892099999981 ], [ -64.524850599999979, -9.699444199999959 ], [ -64.524480399999959, -9.699703599999969 ], [ -64.52423349999998, -9.699534099999932 ], [ -64.523920899999951, -9.699553499999972 ], [ -64.52244989999997, -9.699069299999987 ], [ -64.521727199999987, -9.699063199999953 ], [ -64.520152499999938, -9.701012299999944 ], [ -64.520065199999976, -9.701158099999919 ], [ -64.51969459999998, -9.701668699999988 ], [ -64.51949419999994, -9.701813199999943 ], [ -64.51907749999998, -9.702004599999945 ], [ -64.518669499999987, -9.702210599999946 ], [ -64.518300799999963, -9.702404699999917 ], [ -64.518014299999948, -9.702599899999946 ], [ -64.517775599999936, -9.702678799999941 ], [ -64.517549899999949, -9.702702499999939 ], [ -64.517367599999943, -9.702706799999914 ], [ -64.517197299999964, -9.702747 ], [ -64.51598649999994, -9.702963299999965 ], [ -64.515571399999942, -9.703031299999953 ], [ -64.515183, -9.703071799999982 ], [ -64.514921099999981, -9.703085399999967 ], [ -64.514906899999971, -9.70345769999995 ], [ -64.51501, -9.703644899999976 ], [ -64.515046499999983, -9.70409349999994 ], [ -64.51513749999998, -9.704582799999972 ], [ -64.515183599999943, -9.704862099999964 ], [ -64.515176699999984, -9.705226 ], [ -64.515295299999934, -9.705525399999935 ], [ -64.515438499999959, -9.705798499999954 ], [ -64.516012699999976, -9.706752799999924 ], [ -64.516529, -9.707600399999926 ], [ -64.516608099999985, -9.707643099999945 ], [ -64.517571399999952, -9.709158499999932 ], [ -64.518051699999944, -9.709913899999936 ], [ -64.518230499999959, -9.710180799999947 ], [ -64.518242799999939, -9.710268699999954 ], [ -64.51820859999998, -9.710371299999958 ], [ -64.518223799999987, -9.710477399999961 ], [ -64.51843, -9.710809 ], [ -64.51858459999994, -9.711004799999973 ], [ -64.51891349999994, -9.711992599999961 ], [ -64.520598199999938, -9.7144178 ], [ -64.524439899999948, -9.719994099999962 ], [ -64.524955199999965, -9.720742099999915 ], [ -64.526430199999936, -9.722990699999961 ], [ -64.529817199999968, -9.728154 ], [ -64.540488, -9.720584899999928 ], [ -64.549349699999937, -9.714765299999955 ], [ -64.5417149, -9.706956099999962 ], [ -64.540911099999974, -9.706317899999938 ], [ -64.540536099999954, -9.705815799999904 ], [ -64.539806499999941, -9.705211299999968 ], [ -64.53884069999998, -9.703680799999969 ], [ -64.53858, -9.703673699999955 ], [ -64.538362199999938, -9.70359489999993 ], [ -64.538351099999943, -9.703420099999958 ], [ -64.538260499999978, -9.703120299999943 ], [ -64.53806189999996, -9.702515699999948 ], [ -64.537786, -9.702291499999944 ] ] ], [ [ [ -65.712445, -9.663132099999908 ], [ -65.712208899999936, -9.663712599999949 ], [ -65.711917799999981, -9.664563299999958 ], [ -65.711774399999967, -9.664958199999962 ], [ -65.711427699999945, -9.666115899999957 ], [ -65.71112949999997, -9.666774499999965 ], [ -65.710882699999956, -9.6674 ], [ -65.710674799999936, -9.668151599999936 ], [ -65.710492499999987, -9.668665899999933 ], [ -65.710314799999935, -9.669032599999987 ], [ -65.71006959999994, -9.669675399999944 ], [ -65.709691299999974, -9.670711099999961 ], [ -65.709600799999976, -9.671260399999925 ], [ -65.709548, -9.671632599999972 ], [ -65.709417499999972, -9.672293699999967 ], [ -65.709323099999949, -9.672660399999932 ], [ -65.708885399999986, -9.674531699999918 ], [ -65.708792599999981, -9.674843699999929 ], [ -65.708684099999971, -9.675099299999914 ], [ -65.708404099999939, -9.676131 ], [ -65.708315199999959, -9.676500499999953 ], [ -65.708251299999972, -9.676814799999928 ], [ -65.708107299999938, -9.677139299999972 ], [ -65.708026799999971, -9.677542099999931 ], [ -65.707737899999984, -9.678606399999989 ], [ -65.707685199999958, -9.678867599999936 ], [ -65.707496, -9.67950949999995 ], [ -65.707415199999957, -9.679872499999915 ], [ -65.707326299999977, -9.680211399999953 ], [ -65.707142099999942, -9.681122699999928 ], [ -65.706869199999971, -9.68204219999997 ], [ -65.706766399999935, -9.682542199999929 ], [ -65.706616699999984, -9.683071099999939 ], [ -65.7064678, -9.683869 ], [ -65.706367799999953, -9.684294 ], [ -65.706021499999963, -9.685137699999929 ], [ -65.705831, -9.686021499999985 ], [ -65.705643, -9.686667599999947 ], [ -65.705436599999985, -9.68769559999992 ], [ -65.705359699999974, -9.688022 ], [ -65.705294399999957, -9.688295399999937 ], [ -65.705236, -9.688462 ], [ -65.705190399999935, -9.688993099999928 ], [ -65.719935499999977, -9.691489499999918 ], [ -65.722576899999979, -9.676941499999945 ], [ -65.724313099999961, -9.677103 ], [ -65.726937499999963, -9.677385599999957 ], [ -65.729602299999954, -9.677627799999938 ], [ -65.733115, -9.677829699999958 ], [ -65.733693699999947, -9.664846599999969 ], [ -65.734792499999969, -9.664874199999932 ], [ -65.735160699999938, -9.66488279999993 ], [ -65.735867, -9.664889399999936 ], [ -65.73781809999997, -9.664907399999949 ], [ -65.73776289999995, -9.667522099999925 ], [ -65.741938399999981, -9.667781299999948 ], [ -65.746776299999965, -9.667925299999965 ], [ -65.751930899999934, -9.66798289999997 ], [ -65.752523599999961, -9.660141799999938 ], [ -65.752661599999954, -9.658588399999934 ], [ -65.753428299999939, -9.649956099999944 ], [ -65.743406399999969, -9.649355899999932 ], [ -65.739342699999952, -9.649043599999985 ], [ -65.734955699999944, -9.649114899999963 ], [ -65.724562299999945, -9.64881839999992 ], [ -65.724416699999949, -9.654323499999965 ], [ -65.724363, -9.656357 ], [ -65.715968699999962, -9.653239 ], [ -65.715200799999934, -9.655040799999931 ], [ -65.714995199999976, -9.655577 ], [ -65.714753599999938, -9.656163099999954 ], [ -65.714517499999943, -9.656827 ], [ -65.714314799999954, -9.6574353 ], [ -65.713941599999941, -9.65849879999997 ], [ -65.713764499999968, -9.659027 ], [ -65.713273299999969, -9.660610399999928 ], [ -65.713098, -9.661121499999952 ], [ -65.712931399999945, -9.661649199999959 ], [ -65.712650899999971, -9.662427 ], [ -65.712570299999982, -9.662782599999945 ], [ -65.712445, -9.663132099999908 ] ] ], [ [ [ -63.976614699999971, -9.6298 ], [ -63.976822399999946, -9.629294 ], [ -63.976908199999976, -9.629045899999932 ], [ -63.977050899999931, -9.628686399999939 ], [ -63.977321399999937, -9.627742499999952 ], [ -63.97760489999996, -9.627029 ], [ -63.9776485, -9.626878399999949 ], [ -63.977783199999969, -9.626493699999976 ], [ -63.978599, -9.624460699999917 ], [ -63.977859599999981, -9.624258099999958 ], [ -63.97712319999993, -9.624016899999953 ], [ -63.976784099999982, -9.623948299999936 ], [ -63.976619, -9.623893099999988 ], [ -63.976346, -9.623786599999951 ], [ -63.975398099999943, -9.623451699999963 ], [ -63.975122699999986, -9.623373399999949 ], [ -63.974883199999965, -9.623265899999973 ], [ -63.974702899999947, -9.623230499999988 ], [ -63.974519, -9.623133499999946 ], [ -63.974213599999985, -9.62301689999992 ], [ -63.973879699999941, -9.622947699999953 ], [ -63.973400799999979, -9.622782099999956 ], [ -63.972803799999951, -9.622515399999948 ], [ -63.972081899999978, -9.622271799999968 ], [ -63.971592, -9.622067399999938 ], [ -63.971345099999951, -9.62194379999992 ], [ -63.971228, -9.621889299999955 ], [ -63.971057799999983, -9.621850099999952 ], [ -63.970672099999945, -9.621628199999961 ], [ -63.970171299999947, -9.6213625 ], [ -63.969997099999951, -9.621298 ], [ -63.961091199999935, -9.618330599999974 ], [ -63.957713099999978, -9.627441399999972 ], [ -63.957181199999987, -9.628875899999976 ], [ -63.952407299999948, -9.640920299999944 ], [ -63.96019119999994, -9.643893799999962 ], [ -63.961083, -9.644233899999952 ], [ -63.970135699999965, -9.647657099999957 ], [ -63.97471029999997, -9.635089699999977 ], [ -63.975118, -9.63395449999998 ], [ -63.975904799999974, -9.631764099999934 ], [ -63.97643149999994, -9.630283399999943 ], [ -63.976614699999971, -9.6298 ] ] ], [ [ [ -64.558917299999962, -9.290092499999941 ], [ -64.557878899999935, -9.289652799999944 ], [ -64.55713929999996, -9.2893665 ], [ -64.550307699999962, -9.286609499999921 ], [ -64.545604599999933, -9.284694699999916 ], [ -64.543081399999949, -9.283670899999931 ], [ -64.542320699999948, -9.285714399999964 ], [ -64.545464, -9.286786499999934 ], [ -64.543465899999944, -9.291513499999958 ], [ -64.540986, -9.290387199999923 ], [ -64.539355299999954, -9.295213399999962 ], [ -64.540143199999932, -9.296855899999963 ], [ -64.538037499999973, -9.296794699999953 ], [ -64.538004599999965, -9.300896099999937 ], [ -64.538104499999974, -9.300896099999944 ], [ -64.541200099999969, -9.300896099999919 ], [ -64.541727199999968, -9.301406699999951 ], [ -64.541546, -9.301785599999961 ], [ -64.541381299999955, -9.302180899999939 ], [ -64.541331899999932, -9.302592699999915 ], [ -64.541381299999955, -9.303004499999929 ], [ -64.541397699999962, -9.303696299999972 ], [ -64.545433299999956, -9.303679799999951 ], [ -64.545464, -9.303379799999973 ], [ -64.54982549999994, -9.303355499999947 ], [ -64.549801099999968, -9.301381799999936 ], [ -64.549874199999977, -9.299846799999971 ], [ -64.550268899999935, -9.298595299999919 ], [ -64.550532099999941, -9.297483199999933 ], [ -64.551092499999982, -9.296606099999956 ], [ -64.551458, -9.296971599999932 ], [ -64.552359599999988, -9.297190799999942 ], [ -64.554284499999937, -9.299408199999947 ], [ -64.556063199999983, -9.300504599999956 ], [ -64.560128799999973, -9.290538899999957 ], [ -64.559693699999968, -9.290396399999985 ], [ -64.558917299999962, -9.290092499999941 ] ] ], [ [ [ -64.415799799999945, -9.257612199999951 ], [ -64.421523, -9.2573214 ], [ -64.425174199999958, -9.25713739999996 ], [ -64.425627299999974, -9.257153899999919 ], [ -64.426019, -9.257208599999945 ], [ -64.426402399999972, -9.257275299999932 ], [ -64.429786, -9.257965 ], [ -64.431677, -9.248852599999944 ], [ -64.423870199999953, -9.24683049999993 ], [ -64.419763399999965, -9.245734899999931 ], [ -64.418335799999966, -9.245404 ], [ -64.417774599999973, -9.245546599999958 ], [ -64.417354399999965, -9.245629299999976 ], [ -64.416887199999962, -9.245735799999975 ], [ -64.416644599999984, -9.245764899999928 ], [ -64.416448, -9.245773299999934 ], [ -64.416314799999952, -9.245762599999965 ], [ -64.416209199999969, -9.245743399999988 ], [ -64.415841399999977, -9.245663699999971 ], [ -64.415762699999959, -9.245634899999979 ], [ -64.415687099999957, -9.2455912 ], [ -64.414845199999945, -9.245188799999921 ], [ -64.414457699999957, -9.245017 ], [ -64.414292299999943, -9.244947199999968 ], [ -64.414434899999947, -9.244616499999958 ], [ -64.411827099999982, -9.2432 ], [ -64.409611299999952, -9.241959799999952 ], [ -64.408317299999965, -9.241225 ], [ -64.40748659999997, -9.240763499999957 ], [ -64.406631599999969, -9.240290399999942 ], [ -64.406534599999986, -9.240241499999966 ], [ -64.40630509999994, -9.240102199999969 ], [ -64.406120099999953, -9.239999499999952 ], [ -64.405899499999975, -9.239864599999958 ], [ -64.405791499999964, -9.239785299999932 ], [ -64.405722599999933, -9.239719899999962 ], [ -64.405604899999958, -9.239842899999914 ], [ -64.405426299999988, -9.240071299999954 ], [ -64.40496149999997, -9.240702199999927 ], [ -64.404319399999963, -9.241585299999947 ], [ -64.404256399999952, -9.241675799999951 ], [ -64.403646699999967, -9.242547099999964 ], [ -64.403428499999961, -9.242832799999986 ], [ -64.403338, -9.242968499999947 ], [ -64.403282499999932, -9.243073899999969 ], [ -64.403169, -9.243311299999968 ], [ -64.403093599999977, -9.243479399999934 ], [ -64.400103399999978, -9.242938099999961 ], [ -64.400003599999934, -9.2430856 ], [ -64.399963899999932, -9.243346299999931 ], [ -64.399877899999979, -9.243955599999936 ], [ -64.399933099999942, -9.244203 ], [ -64.399943699999938, -9.244297 ], [ -64.399885099999949, -9.244469599999967 ], [ -64.399721799999952, -9.244702499999979 ], [ -64.399611299999947, -9.244887499999942 ], [ -64.399488799999972, -9.245425399999922 ], [ -64.399409599999956, -9.246035399999911 ], [ -64.399440799999979, -9.246138699999966 ], [ -64.399677399999973, -9.246413699999922 ], [ -64.399912699999959, -9.246625 ], [ -64.400385799999981, -9.246982799999945 ], [ -64.400582799999938, -9.247189399999957 ], [ -64.400779699999987, -9.247424699999948 ], [ -64.400914199999988, -9.247664899999979 ], [ -64.401072699999986, -9.24791459999993 ], [ -64.401279199999976, -9.248140399999972 ], [ -64.401495399999988, -9.248346899999961 ], [ -64.401841199999978, -9.248639899999944 ], [ -64.402042899999969, -9.248937699999923 ], [ -64.402331099999969, -9.24926909999995 ], [ -64.402307099999973, -9.249634199999937 ], [ -64.402427199999977, -9.249927199999927 ], [ -64.402547199999958, -9.250128899999943 ], [ -64.40253759999996, -9.250465099999914 ], [ -64.402696099999957, -9.253981 ], [ -64.402854599999955, -9.258277399999946 ], [ -64.395534599999962, -9.258668899999972 ], [ -64.394499599999961, -9.258846599999957 ], [ -64.392696, -9.259545499999945 ], [ -64.392079199999955, -9.260155199999927 ], [ -64.392959799999971, -9.26052619999995 ], [ -64.393545299999971, -9.260508299999971 ], [ -64.393969899999945, -9.260418899999925 ], [ -64.395020299999942, -9.26059769999994 ], [ -64.395534299999952, -9.260646899999921 ], [ -64.395619199999942, -9.260570899999969 ], [ -64.395909699999947, -9.260106 ], [ -64.3962405, -9.259878099999964 ], [ -64.39643719999998, -9.259788699999968 ], [ -64.396835, -9.25969039999997 ], [ -64.397232799999983, -9.259672499999962 ], [ -64.397532199999944, -9.2597082 ], [ -64.397724399999959, -9.259784199999965 ], [ -64.398479799999961, -9.259998799999963 ], [ -64.3997849, -9.260405499999939 ], [ -64.400116199999957, -9.260612199999962 ], [ -64.400386099999935, -9.260725099999947 ], [ -64.400461, -9.26080889999996 ], [ -64.400983899999972, -9.2616179 ], [ -64.40144429999998, -9.262212399999934 ], [ -64.401591799999949, -9.262458199999987 ], [ -64.401779499999975, -9.262511799999981 ], [ -64.402195199999937, -9.262230199999964 ], [ -64.402289099999962, -9.262225799999948 ], [ -64.402427599999953, -9.262328599999915 ], [ -64.402749399999948, -9.262422399999927 ], [ -64.402847799999961, -9.26257889999995 ], [ -64.403196399999956, -9.262498399999959 ], [ -64.403352799999951, -9.262333 ], [ -64.403721599999983, -9.262321799999951 ], [ -64.403402899999946, -9.262579699999931 ], [ -64.402225199999975, -9.262701199999979 ], [ -64.40229469999997, -9.264156199999942 ], [ -64.403742899999941, -9.266647099999966 ], [ -64.409761299999957, -9.264367 ], [ -64.413168599999949, -9.263076199999935 ], [ -64.413094899999976, -9.257752899999954 ], [ -64.413094799999953, -9.257746599999948 ], [ -64.415799799999945, -9.257612199999951 ] ] ], [ [ [ -64.057343099999969, -8.872958199999957 ], [ -64.058503499999972, -8.87151549999993 ], [ -64.053178699999933, -8.867539599999937 ], [ -64.048976899999957, -8.873152699999935 ], [ -64.054264699999976, -8.877163899999987 ], [ -64.055257599999948, -8.875764099999982 ], [ -64.057343099999969, -8.872958199999957 ] ] ], [ [ [ -64.00442929999997, -8.702507899999938 ], [ -63.991099099999978, -8.70017089999992 ], [ -63.988960599999984, -8.704324 ], [ -63.989185199999959, -8.704347899999942 ], [ -64.002763899999934, -8.706658099999975 ], [ -64.00442929999997, -8.702507899999938 ] ] ], [ [ [ -63.831391599999968, -8.814900299999985 ], [ -63.828221099999951, -8.809019199999959 ], [ -63.824575, -8.808937899999938 ], [ -63.824451199999949, -8.808962899999925 ], [ -63.825393099999985, -8.810966499999944 ], [ -63.832742, -8.825493099999976 ], [ -63.832830099999967, -8.8251946 ], [ -63.832810499999944, -8.814166399999959 ], [ -63.831391599999968, -8.814900299999985 ] ] ], [ [ [ -63.919245199999978, -8.787681499999952 ], [ -63.919315899999965, -8.787409699999943 ], [ -63.919665699999939, -8.786853199999941 ], [ -63.919766599999946, -8.786584199999936 ], [ -63.919668799999961, -8.786588699999989 ], [ -63.919423799999947, -8.786384499999922 ], [ -63.9194442, -8.785976199999935 ], [ -63.919791299999986, -8.785567899999926 ], [ -63.92002389999994, -8.78479 ], [ -63.92002309999998, -8.784788699999977 ], [ -63.918194099999937, -8.781735499999989 ], [ -63.917631699999966, -8.780796799999967 ], [ -63.917091399999947, -8.780063099999934 ], [ -63.916416299999973, -8.778973599999958 ], [ -63.913041699999958, -8.773986199999968 ], [ -63.91118739999996, -8.771245599999938 ], [ -63.910741, -8.769668099999945 ], [ -63.910689099999956, -8.769484799999951 ], [ -63.910653399999944, -8.769379799999941 ], [ -63.91055839999995, -8.769100699999985 ], [ -63.910278199999944, -8.7682776 ], [ -63.910551699999985, -8.767639499999957 ], [ -63.910825199999984, -8.767001399999948 ], [ -63.911554499999973, -8.766029 ], [ -63.911876499999948, -8.765292899999963 ], [ -63.911979899999949, -8.7650566 ], [ -63.912347799999971, -8.764523199999912 ], [ -63.913195299999984, -8.763294199999967 ], [ -63.913290299999971, -8.76316009999994 ], [ -63.91364, -8.762666499999966 ], [ -63.914467699999932, -8.761498199999949 ], [ -63.915231199999937, -8.759455499999948 ], [ -63.916833799999949, -8.755167899999956 ], [ -63.917040599999957, -8.754614499999962 ], [ -63.918865699999969, -8.747805 ], [ -63.919851299999948, -8.744127899999972 ], [ -63.920095599999975, -8.743216399999914 ], [ -63.920100399999974, -8.742437599999974 ], [ -63.92041659999996, -8.73972 ], [ -63.92048259999995, -8.739153599999964 ], [ -63.920558299999982, -8.738503099999944 ], [ -63.92067469999995, -8.737507199999911 ], [ -63.920700899999979, -8.73727949999995 ], [ -63.921204299999935, -8.733733799999921 ], [ -63.9214037, -8.733542 ], [ -63.921653599999949, -8.728393599999963 ], [ -63.921912499999962, -8.721857 ], [ -63.922228899999944, -8.717468499999949 ], [ -63.921705599999939, -8.717471399999967 ], [ -63.920556799999986, -8.717477699999947 ], [ -63.920404499999961, -8.717478599999922 ], [ -63.920260699999979, -8.717479299999972 ], [ -63.919693699999989, -8.717482499999946 ], [ -63.919505, -8.71747119999997 ], [ -63.915073399999983, -8.716948 ], [ -63.9147751, -8.716942299999959 ], [ -63.914312499999937, -8.71448979999998 ], [ -63.907844399999988, -8.714840099999966 ], [ -63.909147, -8.71638529999997 ], [ -63.90817549999997, -8.717017799999949 ], [ -63.907942099999957, -8.717281499999942 ], [ -63.906024199999926, -8.717493099999965 ], [ -63.904052899999954, -8.717207199999944 ], [ -63.904053299999987, -8.718629499999956 ], [ -63.904395, -8.719318299999951 ], [ -63.904591099999955, -8.719693499999956 ], [ -63.904851899999983, -8.720000199999969 ], [ -63.905227499999967, -8.720215199999933 ], [ -63.905439599999958, -8.720282499999939 ], [ -63.90580279999994, -8.720281599999975 ], [ -63.9057787, -8.7268703 ], [ -63.905787299999986, -8.727009399999931 ], [ -63.905776599999975, -8.732861899999943 ], [ -63.905232699999942, -8.732979 ], [ -63.905016699999976, -8.732990199999948 ], [ -63.904024299999946, -8.732913499999913 ], [ -63.903822599999955, -8.73289629999994 ], [ -63.903609499999952, -8.732884299999977 ], [ -63.903426199999963, -8.732887599999975 ], [ -63.90308159999995, -8.732898799999926 ], [ -63.902486099999976, -8.732941499999987 ], [ -63.901858599999976, -8.732957 ], [ -63.900964899999956, -8.732986299999951 ], [ -63.900674299999928, -8.733004899999965 ], [ -63.895420099999974, -8.733233699999969 ], [ -63.893512099999946, -8.733116599999963 ], [ -63.891502599999967, -8.733026099999984 ], [ -63.89163769999994, -8.732629299999919 ], [ -63.892015599999986, -8.730997799999942 ], [ -63.892042599999968, -8.73089449999998 ], [ -63.891439099999957, -8.730301499999923 ], [ -63.891226899999936, -8.730066399999945 ], [ -63.890968799999939, -8.72988859999997 ], [ -63.890504299999975, -8.72967639999997 ], [ -63.890177399999978, -8.7295445 ], [ -63.889896399999941, -8.729538799999947 ], [ -63.888978799999954, -8.729544499999985 ], [ -63.888451199999963, -8.729630599999934 ], [ -63.888067, -8.729779699999947 ], [ -63.887831899999988, -8.729974699999948 ], [ -63.887482, -8.730198299999905 ], [ -63.886983099999959, -8.730582499999969 ], [ -63.886742199999958, -8.730657099999958 ], [ -63.886208899999978, -8.730634199999933 ], [ -63.885492099999965, -8.730639899999975 ], [ -63.884855499999958, -8.730674299999972 ], [ -63.884207499999938, -8.730685799999948 ], [ -63.883829, -8.730794699999942 ], [ -63.88355939999996, -8.731110099999952 ], [ -63.883387399999947, -8.731379699999943 ], [ -63.883359599999942, -8.731427499999917 ], [ -63.883360699999969, -8.730890199999982 ], [ -63.883366299999977, -8.728030299999944 ], [ -63.883321599999988, -8.725839899999906 ], [ -63.883319899999947, -8.725753899999956 ], [ -63.883297699999964, -8.72328189999997 ], [ -63.883299799999968, -8.720141299999977 ], [ -63.883297399999947, -8.720141499999983 ], [ -63.88333669999998, -8.711921499999953 ], [ -63.881233799999968, -8.71134879999995 ], [ -63.880884899999963, -8.71141939999996 ], [ -63.879236399999968, -8.711036399999962 ], [ -63.879235499999936, -8.710897 ], [ -63.879196499999971, -8.710517399999949 ], [ -63.879107, -8.710124799999948 ], [ -63.878894699999933, -8.709511399999959 ], [ -63.878826499999946, -8.709193899999953 ], [ -63.878795699999962, -8.7089784 ], [ -63.87876509999996, -8.708274299999959 ], [ -63.878778599999976, -8.707234399999919 ], [ -63.878800199999944, -8.706486899999955 ], [ -63.87871709999996, -8.703424699999983 ], [ -63.878718199999987, -8.700569099999949 ], [ -63.878712299999961, -8.699639399999961 ], [ -63.878502199999957, -8.699690899999943 ], [ -63.877224399999925, -8.700317399999967 ], [ -63.876249199999954, -8.700882099999967 ], [ -63.87605, -8.701067699999957 ], [ -63.87589, -8.701290199999944 ], [ -63.875798399999951, -8.701395499999952 ], [ -63.875685899999937, -8.701449099999913 ], [ -63.875557299999969, -8.701421899999977 ], [ -63.875428299999953, -8.701331699999983 ], [ -63.875416599999937, -8.70132349999993 ], [ -63.874304299999949, -8.700732099999923 ], [ -63.87354229999994, -8.700346499999943 ], [ -63.873014399999981, -8.700098 ], [ -63.872601399999958, -8.69990359999996 ], [ -63.871375099999973, -8.699275799999961 ], [ -63.870876699999947, -8.699012199999984 ], [ -63.871322299999974, -8.703769699999953 ], [ -63.871082499999936, -8.703820899999906 ], [ -63.870757199999957, -8.703908599999963 ], [ -63.868519699999979, -8.70456839999995 ], [ -63.864302499999951, -8.707155 ], [ -63.864752199999941, -8.711009899999977 ], [ -63.863185399999963, -8.710613699999929 ], [ -63.862910399999983, -8.711614799999943 ], [ -63.862812099999985, -8.711969399999937 ], [ -63.8626589, -8.712429499999919 ], [ -63.861981399999934, -8.712145199999936 ], [ -63.855478199999936, -8.711720099999974 ], [ -63.856261899999936, -8.712020699999943 ], [ -63.856313099999973, -8.712155199999915 ], [ -63.856367899999952, -8.712176099999949 ], [ -63.856550699999957, -8.712554699999949 ], [ -63.856875199999941, -8.713270199999942 ], [ -63.854198599999968, -8.71478279999995 ], [ -63.851247499999943, -8.716465299999975 ], [ -63.850680099999977, -8.716791299999956 ], [ -63.849545299999939, -8.717470799999973 ], [ -63.84908589999997, -8.717736499999935 ], [ -63.848925, -8.717819899999917 ], [ -63.849205299999937, -8.7182 ], [ -63.849525599999936, -8.718633799999946 ], [ -63.849936499999963, -8.719111599999975 ], [ -63.8495, -8.71944289999996 ], [ -63.849212899999941, -8.719639199999946 ], [ -63.848871599999939, -8.719862599999939 ], [ -63.848368299999947, -8.720171699999987 ], [ -63.8477802, -8.720526499999933 ], [ -63.847295899999942, -8.720773799999979 ], [ -63.847025399999957, -8.720896499999981 ], [ -63.84670049999994, -8.721078 ], [ -63.846432799999945, -8.721231299999953 ], [ -63.846284699999956, -8.721333099999969 ], [ -63.845456099999979, -8.721879499999943 ], [ -63.844993899999963, -8.722122399999927 ], [ -63.844735699999937, -8.722224299999928 ], [ -63.84388609999997, -8.72261989999993 ], [ -63.843615099999965, -8.722735499999958 ], [ -63.843440299999941, -8.722794099999913 ], [ -63.84308939999994, -8.722881299999917 ], [ -63.842869599999972, -8.722914099999972 ], [ -63.842243799999942, -8.722998299999956 ], [ -63.841910599999956, -8.723081599999933 ], [ -63.841345899999965, -8.723246799999966 ], [ -63.840694599999956, -8.723411899999983 ], [ -63.840409299999983, -8.723472099999965 ], [ -63.840067599999948, -8.723514399999946 ], [ -63.839535699999935, -8.72358089999994 ], [ -63.839147699999955, -8.723624499999977 ], [ -63.83894719999995, -8.723649799999963 ], [ -63.838638399999986, -8.72365159999991 ], [ -63.838416699999982, -8.723671 ], [ -63.837954, -8.723665199999964 ], [ -63.837742499999941, -8.723683799999957 ], [ -63.837565199999972, -8.723718399999946 ], [ -63.837416699999942, -8.723797399999967 ], [ -63.837282599999973, -8.723915899999932 ], [ -63.837099399999943, -8.72413109999998 ], [ -63.836966899999943, -8.724274399999947 ], [ -63.836870399999952, -8.724378499999924 ], [ -63.836544599999968, -8.724853499999938 ], [ -63.836382899999933, -8.725051 ], [ -63.836253699999986, -8.725184599999983 ], [ -63.836060699999962, -8.725331899999979 ], [ -63.835840699999949, -8.72542039999998 ], [ -63.8357941, -8.725439199999922 ], [ -63.834862599999951, -8.725736399999956 ], [ -63.834408599999961, -8.725896 ], [ -63.833506599999971, -8.726265699999953 ], [ -63.833356599999945, -8.726299899999967 ], [ -63.833006799999957, -8.726300299999936 ], [ -63.832007, -8.726267099999975 ], [ -63.831531599999948, -8.72629119999992 ], [ -63.831123799999943, -8.726336699999926 ], [ -63.830573499999964, -8.726476299999959 ], [ -63.830443299999963, -8.726532399999936 ], [ -63.830032699999947, -8.726795699999981 ], [ -63.829746099999973, -8.726972199999965 ], [ -63.829359099999984, -8.727153 ], [ -63.828580799999941, -8.727353799999953 ], [ -63.828251399999942, -8.727421799999957 ], [ -63.827692099999979, -8.727479199999959 ], [ -63.827366199999972, -8.727571 ], [ -63.826966099999936, -8.727782099999944 ], [ -63.826688199999978, -8.727840399999925 ], [ -63.826328899999965, -8.727890299999938 ], [ -63.826031099999966, -8.727925299999985 ], [ -63.824816599999956, -8.727851199999973 ], [ -63.824273699999935, -8.727830199999971 ], [ -63.823933899999986, -8.727833499999967 ], [ -63.823349, -8.727805499999908 ], [ -63.823207199999956, -8.727812199999956 ], [ -63.823039099999967, -8.727843499999929 ], [ -63.82278069999996, -8.727902399999961 ], [ -63.822527699999966, -8.727994399999954 ], [ -63.8217633, -8.72831989999996 ], [ -63.821585099999943, -8.72838219999996 ], [ -63.821469799999939, -8.728428299999953 ], [ -63.821127, -8.728476599999979 ], [ -63.820435299999986, -8.728609399999941 ], [ -63.819422699999961, -8.728785599999954 ], [ -63.818909799999972, -8.728911699999989 ], [ -63.8179947, -8.729178 ], [ -63.817472599999981, -8.729319399999925 ], [ -63.816864599999981, -8.7294651 ], [ -63.816395899999975, -8.729555799999956 ], [ -63.81605, -8.729606 ], [ -63.815817699999968, -8.729598299999978 ], [ -63.814708199999984, -8.729482399999947 ], [ -63.814441099999954, -8.729452199999955 ], [ -63.814144599999963, -8.729387799999925 ], [ -63.813445, -8.729190299999988 ], [ -63.812714199999967, -8.729034099999989 ], [ -63.812122099999954, -8.728901699999923 ], [ -63.811941399999967, -8.728861299999929 ], [ -63.811214, -8.728729599999941 ], [ -63.8107035, -8.72866349999993 ], [ -63.810049499999941, -8.728569 ], [ -63.8099668, -8.728560599999962 ], [ -63.809698099999935, -8.728533199999944 ], [ -63.809303799999952, -8.728504399999938 ], [ -63.807646099999943, -8.728423599999926 ], [ -63.807037299999934, -8.72837949999998 ], [ -63.806089, -8.728349199999947 ], [ -63.805906199999981, -8.728364099999983 ], [ -63.805200499999955, -8.728471299999965 ], [ -63.80498869999996, -8.732476499999974 ], [ -63.804956299999958, -8.733090199999918 ], [ -63.804812599999934, -8.735599899999967 ], [ -63.80465449999997, -8.7383432 ], [ -63.804626099999957, -8.738837199999971 ], [ -63.768947799999985, -8.742661699999951 ], [ -63.768371599999973, -8.743801299999948 ], [ -63.766502799999955, -8.747199 ], [ -63.765517499999987, -8.749067699999967 ], [ -63.7649952, -8.751223599999969 ], [ -63.766174099999951, -8.751237599999969 ], [ -63.766634599999975, -8.751289299999934 ], [ -63.767214799999977, -8.751431499999972 ], [ -63.76755, -8.751547499999949 ], [ -63.767923, -8.751744199999942 ], [ -63.7684536, -8.752146 ], [ -63.768974299999975, -8.752576399999974 ], [ -63.769448299999965, -8.753009899999954 ], [ -63.77025679999997, -8.754083299999955 ], [ -63.771154799999984, -8.755427599999969 ], [ -63.771657299999958, -8.756125199999914 ], [ -63.772154899999975, -8.756744799999977 ], [ -63.772675699999979, -8.757427099999967 ], [ -63.773050099999978, -8.757961299999966 ], [ -63.773570299999967, -8.758467199999906 ], [ -63.774324799999981, -8.758922199999953 ], [ -63.775206099999934, -8.759297799999969 ], [ -63.775766399999959, -8.759447899999943 ], [ -63.7755552, -8.760166199999972 ], [ -63.772488399999986, -8.768384599999933 ], [ -63.765838, -8.766368699999937 ], [ -63.771247899999942, -8.776344399999969 ], [ -63.773675099999942, -8.77599449999998 ], [ -63.775436799999966, -8.776718099999913 ], [ -63.780254499999955, -8.786353499999949 ], [ -63.780920699999974, -8.787956699999935 ], [ -63.777003699999966, -8.7880522 ], [ -63.774904, -8.788082 ], [ -63.772673899999965, -8.788172199999943 ], [ -63.772672499999949, -8.788172199999972 ], [ -63.77926419999995, -8.800546899999988 ], [ -63.783197, -8.800515899999947 ], [ -63.785989399999949, -8.800487499999971 ], [ -63.787593799999968, -8.800510599999926 ], [ -63.789313399999976, -8.800486499999971 ], [ -63.790035299999943, -8.800485699999962 ], [ -63.790916099999947, -8.800482099999929 ], [ -63.792043699999958, -8.800475399999939 ], [ -63.793952399999974, -8.80047059999991 ], [ -63.794176599999965, -8.800470499999941 ], [ -63.79634869999996, -8.800382799999955 ], [ -63.796962599999972, -8.8003735 ], [ -63.799189299999966, -8.800406299999963 ], [ -63.800976899999974, -8.8004046 ], [ -63.801389799999981, -8.800397399999948 ], [ -63.801622699999939, -8.800550099999937 ], [ -63.80193729999997, -8.800604199999961 ], [ -63.802061699999967, -8.800658599999958 ], [ -63.802089399999943, -8.800892399999972 ], [ -63.802178899999944, -8.801063 ], [ -63.802181699999949, -8.801923699999978 ], [ -63.801446, -8.802013 ], [ -63.801464899999985, -8.802766 ], [ -63.800936, -8.80306 ], [ -63.8017766, -8.804633499999971 ], [ -63.803235599999944, -8.807358299999967 ], [ -63.804105899999968, -8.808996199999964 ], [ -63.805094599999968, -8.810895 ], [ -63.805722899999971, -8.812041399999934 ], [ -63.805842699999971, -8.812376899999935 ], [ -63.805891699999961, -8.812536399999948 ], [ -63.808068499999933, -8.816423399999978 ], [ -63.811139699999963, -8.816514899999937 ], [ -63.811156799999935, -8.816546 ], [ -63.811242199999981, -8.81667969999994 ], [ -63.811466899999978, -8.816960099999953 ], [ -63.81219109999995, -8.817762399999927 ], [ -63.812698099999977, -8.81841419999995 ], [ -63.813696799999938, -8.817867499999977 ], [ -63.814193, -8.817591499999965 ], [ -63.813561599999957, -8.816429 ], [ -63.813682299999982, -8.816390099999982 ], [ -63.814445599999942, -8.814981 ], [ -63.808471499999939, -8.8041876 ], [ -63.806433599999941, -8.800398099999951 ], [ -63.806277899999941, -8.800395499999963 ], [ -63.805915399999947, -8.800403499999939 ], [ -63.805484, -8.800401599999928 ], [ -63.80496769999997, -8.800405099999969 ], [ -63.804254, -8.800402599999936 ], [ -63.803976699999971, -8.800402299999954 ], [ -63.803253099999949, -8.800399299999988 ], [ -63.802572399999974, -8.800398499999977 ], [ -63.802232199999942, -8.799590899999949 ], [ -63.802056499999942, -8.799205099999956 ], [ -63.8019872, -8.799012 ], [ -63.801944, -8.798799099999933 ], [ -63.80191079999998, -8.798577099999932 ], [ -63.80191559999998, -8.79834329999996 ], [ -63.801925799999935, -8.795677799999964 ], [ -63.801929, -8.794621899999983 ], [ -63.80193179999997, -8.793158899999979 ], [ -63.801944899999974, -8.790350599999954 ], [ -63.801972299999932, -8.787149499999938 ], [ -63.801978699999943, -8.785031599999973 ], [ -63.801975899999938, -8.784492299999961 ], [ -63.80197359999994, -8.784417499999947 ], [ -63.804403699999966, -8.784426799999965 ], [ -63.806778399999985, -8.7844239 ], [ -63.810900499999946, -8.784464499999945 ], [ -63.812799399999967, -8.784476699999988 ], [ -63.812889, -8.784465099999972 ], [ -63.813025099999948, -8.784418399999943 ], [ -63.813175799999954, -8.78433349999993 ], [ -63.813237899999933, -8.784253599999934 ], [ -63.813419199999942, -8.784048799999947 ], [ -63.813671, -8.783759099999935 ], [ -63.814024299999978, -8.783976199999929 ], [ -63.814435399999986, -8.784454399999959 ], [ -63.815724199999984, -8.784447699999914 ], [ -63.816402799999942, -8.78379589999996 ], [ -63.817889199999968, -8.782368099999932 ], [ -63.818124199999943, -8.782716299999935 ], [ -63.818344899999943, -8.78304349999997 ], [ -63.81850229999997, -8.783361299999951 ], [ -63.818632199999968, -8.7836518 ], [ -63.818739599999965, -8.783886099999958 ], [ -63.8192155, -8.784647299999975 ], [ -63.818926, -8.784790899999948 ], [ -63.819769199999932, -8.786552499999976 ], [ -63.820666199999941, -8.788237899999981 ], [ -63.821176299999934, -8.787968099999938 ], [ -63.822102, -8.789790099999951 ], [ -63.823757899999976, -8.788915399999965 ], [ -63.82468659999995, -8.790716299999934 ], [ -63.828568599999983, -8.788685899999946 ], [ -63.828571099999984, -8.788686099999923 ], [ -63.828756199999987, -8.788596599999934 ], [ -63.828839399999943, -8.788558 ], [ -63.828895399999972, -8.788564299999935 ], [ -63.828942199999972, -8.788595799999925 ], [ -63.828979499999946, -8.788639799999943 ], [ -63.829040299999974, -8.788762599999911 ], [ -63.829111299999965, -8.788894899999944 ], [ -63.829118699999981, -8.789011499999972 ], [ -63.829098299999934, -8.789092 ], [ -63.828743199999963, -8.789523399999945 ], [ -63.828393699999943, -8.789979 ], [ -63.828175399999964, -8.790238299999961 ], [ -63.82783759999996, -8.790654799999981 ], [ -63.82768729999998, -8.790841799999956 ], [ -63.827459, -8.79110849999994 ], [ -63.827358199999942, -8.791263 ], [ -63.827211799999986, -8.791436799999946 ], [ -63.827147099999934, -8.791525299999948 ], [ -63.827094499999987, -8.791592499999986 ], [ -63.82701, -8.791714699999917 ], [ -63.826878199999953, -8.791781 ], [ -63.825978299999981, -8.79223329999998 ], [ -63.825593499999968, -8.792420499999924 ], [ -63.825714499999947, -8.792637299999983 ], [ -63.826199899999949, -8.793518099999945 ], [ -63.826486699999982, -8.794115199999965 ], [ -63.826520699999953, -8.794234 ], [ -63.826749199999938, -8.795241899999956 ], [ -63.827039799999966, -8.796492099999979 ], [ -63.827488, -8.798476499999939 ], [ -63.827707799999985, -8.799566599999917 ], [ -63.827857399999978, -8.800223499999976 ], [ -63.827938299999971, -8.800599499999949 ], [ -63.828010099999979, -8.800836799999944 ], [ -63.8280362, -8.80108809999996 ], [ -63.8283373, -8.801155 ], [ -63.828741499999985, -8.80121379999995 ], [ -63.82919359999994, -8.801264899999985 ], [ -63.829745699999933, -8.801272799999939 ], [ -63.830178899999972, -8.801243899999973 ], [ -63.830592499999966, -8.801196299999935 ], [ -63.831053, -8.8010983 ], [ -63.831419099999948, -8.800993099999953 ], [ -63.831857499999948, -8.800839199999938 ], [ -63.832287799999968, -8.800643699999956 ], [ -63.83275169999996, -8.8003975 ], [ -63.833329799999952, -8.800059199999936 ], [ -63.8339519, -8.799705299999957 ], [ -63.834359499999948, -8.799465799999931 ], [ -63.834818599999956, -8.799206799999963 ], [ -63.83575639999998, -8.798663599999943 ], [ -63.836618199999982, -8.798162099999947 ], [ -63.836834399999987, -8.798014899999956 ], [ -63.8371049, -8.79786619999993 ], [ -63.837187099999944, -8.797815899999954 ], [ -63.838567, -8.800209799999946 ], [ -63.840618599999971, -8.799102099999978 ], [ -63.839811199999986, -8.797610199999953 ], [ -63.841219299999977, -8.796769699999958 ], [ -63.840614, -8.795845 ], [ -63.84188469999998, -8.795094 ], [ -63.84377, -8.794043699999989 ], [ -63.8447068, -8.7935199 ], [ -63.845786199999957, -8.792876099999969 ], [ -63.846650599999982, -8.792368099999988 ], [ -63.847894799999949, -8.791673699999919 ], [ -63.848399699999966, -8.791368799999937 ], [ -63.848482199999985, -8.791319 ], [ -63.849077499999964, -8.790978499999939 ], [ -63.849274499999979, -8.790858799999985 ], [ -63.849601099999973, -8.790669899999973 ], [ -63.849743, -8.790587399999923 ], [ -63.849983499999958, -8.791032099999923 ], [ -63.851202399999984, -8.793220899999957 ], [ -63.852261899999974, -8.795203099999982 ], [ -63.853134199999943, -8.796966099999958 ], [ -63.855952799999955, -8.802662899999957 ], [ -63.856330499999956, -8.803426199999937 ], [ -63.856511599999976, -8.803855499999933 ], [ -63.8570261, -8.805074799999955 ], [ -63.857277299999964, -8.8054974 ], [ -63.857547699999941, -8.805987199999937 ], [ -63.857821799999954, -8.806496399999949 ], [ -63.857994699999949, -8.80678169999994 ], [ -63.858379099999986, -8.807461499999942 ], [ -63.859008499999959, -8.807327399999961 ], [ -63.859091699999965, -8.807746299999936 ], [ -63.85907339999995, -8.808016 ], [ -63.859047399999945, -8.808304099999932 ], [ -63.859066299999938, -8.808534 ], [ -63.859085799999953, -8.808809399999957 ], [ -63.859055799999972, -8.809262699999975 ], [ -63.859050499999974, -8.809443399999985 ], [ -63.8592857, -8.809804099999948 ], [ -63.859455499999967, -8.81015429999996 ], [ -63.85965369999996, -8.810511899999922 ], [ -63.859795, -8.810779199999972 ], [ -63.860122499999932, -8.811325899999918 ], [ -63.860271299999965, -8.811673499999912 ], [ -63.862380699999967, -8.811606299999942 ], [ -63.863304, -8.811594099999962 ], [ -63.863529399999948, -8.811604899999953 ], [ -63.863691099999983, -8.811605399999964 ], [ -63.864085599999953, -8.811601199999936 ], [ -63.864444099999957, -8.811597 ], [ -63.864429299999983, -8.81172569999995 ], [ -63.865413199999985, -8.812112299999946 ], [ -63.865367099999958, -8.811186799999986 ], [ -63.866101, -8.810126299999967 ], [ -63.866743699999979, -8.809339899999916 ], [ -63.867412699999939, -8.808223599999963 ], [ -63.867591, -8.807762399999941 ], [ -63.867665599999953, -8.807493699999936 ], [ -63.867679099999975, -8.807332099999948 ], [ -63.867785199999965, -8.807172699999974 ], [ -63.868115899999964, -8.807001799999982 ], [ -63.868340699999983, -8.806892499999948 ], [ -63.868725499999982, -8.806925 ], [ -63.869686, -8.807666899999941 ], [ -63.870618199999967, -8.80788889999995 ], [ -63.870479, -8.807988799999976 ], [ -63.868940199999933, -8.810229199999966 ], [ -63.867935399999965, -8.809733099999978 ], [ -63.867240599999946, -8.811451199999979 ], [ -63.866596399999935, -8.81312549999995 ], [ -63.866035, -8.814479199999933 ], [ -63.865753599999948, -8.815243299999944 ], [ -63.865700299999958, -8.815403799999963 ], [ -63.864411399999938, -8.818667 ], [ -63.864255799999974, -8.819008299999959 ], [ -63.863808399999982, -8.819701399999953 ], [ -63.862631199999953, -8.82148349999993 ], [ -63.862106099999949, -8.822193899999965 ], [ -63.884978, -8.840982099999938 ], [ -63.886419399999959, -8.825599299999942 ], [ -63.887583, -8.82561859999994 ], [ -63.901540299999972, -8.826194 ], [ -63.902575199999944, -8.82613729999998 ], [ -63.903958299999935, -8.826043899999945 ], [ -63.905289399999958, -8.825935499999972 ], [ -63.906373699999961, -8.825952 ], [ -63.926461099999976, -8.826263599999944 ], [ -63.928924699999982, -8.823599499999936 ], [ -63.927759, -8.822886 ], [ -63.926511599999976, -8.822062499999948 ], [ -63.925576799999988, -8.821444899999976 ], [ -63.925222599999984, -8.82119459999997 ], [ -63.924943599999949, -8.820952299999922 ], [ -63.924694599999953, -8.820736599999989 ], [ -63.924428299999988, -8.820484399999959 ], [ -63.924049, -8.820102399999925 ], [ -63.923752699999966, -8.819793499999939 ], [ -63.923457399999968, -8.819395899999934 ], [ -63.9233852, -8.819301199999922 ], [ -63.923167, -8.819015 ], [ -63.921922399999978, -8.817386199999943 ], [ -63.920601299999987, -8.815541299999941 ], [ -63.920336799999966, -8.815186599999938 ], [ -63.919751199999943, -8.814414399999984 ], [ -63.919486, -8.814058099999954 ], [ -63.919239, -8.813705799999969 ], [ -63.918968099999972, -8.813216 ], [ -63.918843299999942, -8.812951899999966 ], [ -63.918560599999971, -8.812354 ], [ -63.916961, -8.808799499999969 ], [ -63.916511899999932, -8.80780269999997 ], [ -63.913452899999989, -8.801027899999944 ], [ -63.913085399999943, -8.800335399999948 ], [ -63.912656099999936, -8.79966669999992 ], [ -63.912229299999986, -8.799183 ], [ -63.910238499999934, -8.797281499999952 ], [ -63.908630299999977, -8.795751599999981 ], [ -63.9154281, -8.790012199999959 ], [ -63.915434399999981, -8.790016899999959 ], [ -63.915463599999953, -8.790038499999955 ], [ -63.915930599999967, -8.790597 ], [ -63.916070299999944, -8.790819799999973 ], [ -63.916412299999934, -8.791421499999942 ], [ -63.917104299999949, -8.792847499999953 ], [ -63.917148499999939, -8.793009699999967 ], [ -63.917166599999973, -8.793076199999971 ], [ -63.917184399999947, -8.793697 ], [ -63.917116799999974, -8.795571699999915 ], [ -63.917258099999977, -8.79619779999995 ], [ -63.918295499999942, -8.798918899999935 ], [ -63.919101699999949, -8.80103359999992 ], [ -63.919569199999948, -8.801621099999988 ], [ -63.919832099999951, -8.801798499999954 ], [ -63.920411799999961, -8.8020744 ], [ -63.921625799999966, -8.802386499999978 ], [ -63.922113899999943, -8.802512 ], [ -63.923475499999945, -8.802825099999936 ], [ -63.923613599999953, -8.802856799999988 ], [ -63.925185699999986, -8.803173299999965 ], [ -63.926167099999986, -8.803557499999972 ], [ -63.92630239999994, -8.803610499999944 ], [ -63.927018699999969, -8.803982799999984 ], [ -63.927090099999987, -8.804021399999971 ], [ -63.927372399999975, -8.800892099999935 ], [ -63.923619599999938, -8.797476399999956 ], [ -63.921480499999973, -8.795362799999964 ], [ -63.922680599999978, -8.793634899999963 ], [ -63.922327899999978, -8.793392699999972 ], [ -63.923501699999981, -8.791858 ], [ -63.923574699999961, -8.791762499999948 ], [ -63.923604799999964, -8.791737299999944 ], [ -63.923656799999939, -8.791636 ], [ -63.92362949999994, -8.791611 ], [ -63.923341599999958, -8.790544199999937 ], [ -63.921375, -8.792116199999937 ], [ -63.920238099999956, -8.791376799999968 ], [ -63.9197372, -8.790041199999969 ], [ -63.919245199999978, -8.787681499999952 ] ] ], [ [ [ -63.932045, -8.744755499999924 ], [ -63.931964399999977, -8.745249099999976 ], [ -63.93511239999998, -8.74528369999995 ], [ -63.937931399999968, -8.741078699999964 ], [ -63.936799799999967, -8.740813099999972 ], [ -63.937853299999972, -8.736180899999979 ], [ -63.937994899999978, -8.735625899999947 ], [ -63.936846399999979, -8.735379599999915 ], [ -63.936855799999933, -8.735326699999984 ], [ -63.934574699999985, -8.734865899999948 ], [ -63.934049599999987, -8.736822099999927 ], [ -63.933210199999955, -8.739955699999934 ], [ -63.932964399999946, -8.739894499999927 ], [ -63.932917899999957, -8.740039299999964 ], [ -63.932901, -8.740127 ], [ -63.932904699999931, -8.740404199999929 ], [ -63.932892799999934, -8.740741399999916 ], [ -63.932833499999965, -8.742026299999967 ], [ -63.932759399999952, -8.743028899999951 ], [ -63.93258579999997, -8.743017799999963 ], [ -63.932280599999963, -8.742948099999973 ], [ -63.93224849999995, -8.7430017 ], [ -63.9312, -8.744654199999937 ], [ -63.931556599999965, -8.744683299999982 ], [ -63.931702799999989, -8.744717499999973 ], [ -63.931808699999976, -8.7447673 ], [ -63.931897099999958, -8.744797799999938 ], [ -63.932045, -8.744755499999924 ] ] ], [ [ [ -63.901882599999965, -8.716764899999941 ], [ -63.902349399999935, -8.708461399999981 ], [ -63.90277159999993, -8.7013689 ], [ -63.903041099999946, -8.697263799999948 ], [ -63.897715699999942, -8.697162299999928 ], [ -63.895142199999952, -8.69928649999998 ], [ -63.893571, -8.700583299999936 ], [ -63.893406799999987, -8.705530899999914 ], [ -63.893250899999941, -8.710230699999951 ], [ -63.893141499999963, -8.713530399999962 ], [ -63.893113099999937, -8.714481899999935 ], [ -63.893600199999973, -8.714510699999938 ], [ -63.89492659999997, -8.714557299999965 ], [ -63.896844399999964, -8.714654799999932 ], [ -63.896828699999958, -8.715147199999931 ], [ -63.896675799999976, -8.717956 ], [ -63.896681599999965, -8.718489099999948 ], [ -63.896715099999945, -8.718771699999921 ], [ -63.896782899999948, -8.719095699999951 ], [ -63.896912199999981, -8.719441 ], [ -63.897061899999983, -8.719757799999956 ], [ -63.897178, -8.71987749999993 ], [ -63.897286099999974, -8.719977099999946 ], [ -63.90177139999998, -8.720308199999984 ], [ -63.901966199999954, -8.717223099999957 ], [ -63.901882599999965, -8.716764899999941 ] ] ], [ [ [ -63.912879099999941, -8.705745299999942 ], [ -63.910520899999945, -8.705704899999944 ], [ -63.910365499999948, -8.710971099999961 ], [ -63.911309199999948, -8.710636799999946 ], [ -63.9116916, -8.710376899999977 ], [ -63.912161499999968, -8.710343699999941 ], [ -63.912535399999967, -8.710222399999958 ], [ -63.912998899999934, -8.710133699999961 ], [ -63.913748199999986, -8.709956299999927 ], [ -63.914114099999949, -8.709938099999935 ], [ -63.91458479999995, -8.710056399999942 ], [ -63.915668099999948, -8.710516599999957 ], [ -63.916941799999968, -8.710579499999932 ], [ -63.916167, -8.701487199999967 ], [ -63.912852099999959, -8.701608399999962 ], [ -63.912879099999941, -8.705745299999942 ] ] ], [ [ [ -63.87920759999998, -8.697767199999937 ], [ -63.879263699999967, -8.700763199999917 ], [ -63.882313599999982, -8.700655399999951 ], [ -63.882302399999958, -8.697677399999984 ], [ -63.87920759999998, -8.697767199999937 ] ] ], [ [ [ -63.501065899999965, -8.44077319999994 ], [ -63.501162399999934, -8.440828599999984 ], [ -63.50137559999996, -8.440951 ], [ -63.501702199999954, -8.441138599999913 ], [ -63.502432299999946, -8.441557899999966 ], [ -63.504130199999956, -8.442533099999954 ], [ -63.504418, -8.442698399999907 ], [ -63.504738199999956, -8.442872199999947 ], [ -63.505407799999944, -8.443235699999965 ], [ -63.507217799999978, -8.444517799999966 ], [ -63.50876789999996, -8.44235569999997 ], [ -63.510083499999958, -8.44052079999995 ], [ -63.496182, -8.430641399999944 ], [ -63.492923499999961, -8.435175699999951 ], [ -63.494727, -8.436443299999945 ], [ -63.497237799999944, -8.438208 ], [ -63.497751799999953, -8.438564 ], [ -63.499050699999941, -8.439463499999942 ], [ -63.499196099999956, -8.439564199999948 ], [ -63.499302299999947, -8.439637799999971 ], [ -63.499512899999957, -8.439773599999947 ], [ -63.500186099999951, -8.440207799999948 ], [ -63.500732099999937, -8.440559899999906 ], [ -63.501065899999965, -8.44077319999994 ] ] ], [ [ [ -62.782844299999965, -8.168118 ], [ -62.783041199999957, -8.167756 ], [ -62.783273899999983, -8.166950799999952 ], [ -62.783201199999958, -8.16682319999995 ], [ -62.781580099999985, -8.166100399999959 ], [ -62.781108599999982, -8.167502899999951 ], [ -62.78046169999994, -8.167334799999935 ], [ -62.780264, -8.168550499999961 ], [ -62.780217799999953, -8.168927599999945 ], [ -62.779536599999972, -8.16887709999998 ], [ -62.778920899999946, -8.168820599999941 ], [ -62.778644199999981, -8.17104549999992 ], [ -62.777122799999979, -8.170908799999976 ], [ -62.776787399999932, -8.170877299999969 ], [ -62.776756099999943, -8.171445899999984 ], [ -62.776944099999973, -8.171481399999955 ], [ -62.777950199999971, -8.171550099999937 ], [ -62.777881499999985, -8.17205629999996 ], [ -62.777994, -8.17205 ], [ -62.778681399999982, -8.172131299999917 ], [ -62.778191299999953, -8.175957799999924 ], [ -62.782203299999942, -8.176099399999959 ], [ -62.781788899999981, -8.17356289999997 ], [ -62.78168519999997, -8.172046099999912 ], [ -62.781749599999955, -8.17133779999995 ], [ -62.781974899999959, -8.170436199999944 ], [ -62.78232909999997, -8.169599099999948 ], [ -62.782631, -8.168800399999951 ], [ -62.782844299999965, -8.168118 ] ] ], [ [ [ -63.321655399999941, -8.161777799999982 ], [ -63.321735899999965, -8.160385199999951 ], [ -63.321563199999957, -8.160096899999914 ], [ -63.321653499999968, -8.159443299999952 ], [ -63.32205359999994, -8.158907 ], [ -63.322473699999932, -8.158458 ], [ -63.32281229999996, -8.158345799999944 ], [ -63.323209299999981, -8.158499 ], [ -63.323537099999953, -8.158455599999986 ], [ -63.324026799999956, -8.1585737 ], [ -63.324217199999971, -8.158453 ], [ -63.324415299999934, -8.158023499999947 ], [ -63.326915799999938, -8.147309599999986 ], [ -63.320432299999936, -8.146820499999951 ], [ -63.3189043, -8.160573599999944 ], [ -63.315465299999964, -8.160655899999929 ], [ -63.315710099999933, -8.16613369999993 ], [ -63.321439299999952, -8.166809499999927 ], [ -63.321082299999937, -8.165720599999903 ], [ -63.320581599999976, -8.164562599999938 ], [ -63.320378799999958, -8.163942 ], [ -63.320469, -8.1635 ], [ -63.320764499999939, -8.163283699999955 ], [ -63.321307099999956, -8.163101899999949 ], [ -63.321590599999979, -8.16290709999992 ], [ -63.321633199999958, -8.162646499999937 ], [ -63.321583299999986, -8.16231319999995 ], [ -63.321655399999941, -8.161777799999982 ] ] ], [ [ [ -62.878392099999985, -8.037365799999977 ], [ -62.878700099999953, -8.037103599999956 ], [ -62.87907679999995, -8.036834899999965 ], [ -62.879457099999968, -8.036750899999939 ], [ -62.879606599999939, -8.036911599999932 ], [ -62.879788699999956, -8.036889399999941 ], [ -62.880049399999962, -8.036899299999966 ], [ -62.880538099999967, -8.036768499999937 ], [ -62.88091669999995, -8.036734799999982 ], [ -62.8811338, -8.037085799999947 ], [ -62.881402099999953, -8.036973799999943 ], [ -62.881180599999944, -8.03642409999995 ], [ -62.880834199999981, -8.035723299999985 ], [ -62.880749599999938, -8.034955 ], [ -62.880163399999958, -8.034079099999927 ], [ -62.879388199999937, -8.032767 ], [ -62.879232899999977, -8.032294899999942 ], [ -62.878915699999936, -8.031855399999927 ], [ -62.878730799999971, -8.031561 ], [ -62.878604699999983, -8.031281699999937 ], [ -62.878587399999958, -8.030998299999949 ], [ -62.878403699999978, -8.030441 ], [ -62.878171199999947, -8.029990599999948 ], [ -62.877539899999988, -8.029445099999952 ], [ -62.877187499999927, -8.028940599999949 ], [ -62.877041699999943, -8.028680299999964 ], [ -62.876797, -8.028517599999958 ], [ -62.87677709999997, -8.028424299999934 ], [ -62.876959599999964, -8.028309799999908 ], [ -62.8767893, -8.027808599999956 ], [ -62.876663699999938, -8.027551099999899 ], [ -62.876438399999984, -8.0271223 ], [ -62.876262, -8.026624299999984 ], [ -62.87560069999995, -8.025056499999931 ], [ -62.875527699999964, -8.023820599999953 ], [ -62.87525119999998, -8.023347699999908 ], [ -62.87511839999997, -8.022894 ], [ -62.874815799999972, -8.0226532 ], [ -62.874644599999961, -8.022044299999934 ], [ -62.874443199999973, -8.021516399999934 ], [ -62.874333199999974, -8.02131849999996 ], [ -62.874081299999943, -8.020597899999906 ], [ -62.874157499999974, -8.019646399999962 ], [ -62.874146199999984, -8.018963899999966 ], [ -62.872020499999969, -8.02004 ], [ -62.870520199999987, -8.020838699999944 ], [ -62.869236, -8.021521099999966 ], [ -62.869080799999956, -8.021603599999921 ], [ -62.868881199999983, -8.02171 ], [ -62.86781609999997, -8.022276 ], [ -62.865999, -8.023135299999989 ], [ -62.869179599999939, -8.035798499999945 ], [ -62.870626, -8.036764099999958 ], [ -62.871256199999948, -8.037227099999962 ], [ -62.872081699999967, -8.037589599999942 ], [ -62.872966599999977, -8.037687899999971 ], [ -62.874649299999987, -8.038241099999951 ], [ -62.875077699999963, -8.038370799999935 ], [ -62.87511139999998, -8.038772099999939 ], [ -62.875509399999935, -8.039322599999934 ], [ -62.875847699999959, -8.03937009999991 ], [ -62.876379899999961, -8.039347199999948 ], [ -62.876628499999981, -8.038849199999945 ], [ -62.87718359999996, -8.038360499999939 ], [ -62.877817799999946, -8.037916099999979 ], [ -62.878064599999959, -8.037510899999974 ], [ -62.878392099999985, -8.037365799999977 ] ] ] ] } }
]
}
