{
"type": "FeatureCollection",
"name": "1200328",
"crs": { "type": "name", "properties": { "name": "urn:ogc:def:crs:OGC:1.3:CRS84" } },
"features": [
{ "type": "Feature", "properties": { "CD_MUN": "1200328", "NM_MUN": "Jordão" }, "geometry": { "type": "Polygon", "coordinates": [ [ [ -71.948020699999972, -9.197365399999963 ], [ -71.948344499999962, -9.1974696 ], [ -71.948686399999985, -9.197515299999976 ], [ -71.948961, -9.197539599999978 ], [ -71.949577699999963, -9.197514799999972 ], [ -71.950609499999985, -9.197197199999959 ], [ -71.951438899999971, -9.19680149999993 ], [ -71.95234419999997, -9.196241799999962 ], [ -71.953108, -9.195565499999942 ], [ -71.953557099999955, -9.194978899999979 ], [ -71.954097899999965, -9.194317799999983 ], [ -71.953994699999953, -9.193838699999949 ], [ -71.953889899999979, -9.193352099999979 ], [ -71.953741699999966, -9.192672199999963 ], [ -71.953528499999948, -9.191696299999938 ], [ -71.953315399999951, -9.190715499999948 ], [ -71.953117899999938, -9.190128599999978 ], [ -71.952831299999943, -9.188954799999987 ], [ -71.95281719999997, -9.188545499999986 ], [ -71.952823099999989, -9.187717399999944 ], [ -71.952890399999944, -9.186793 ], [ -71.953133299999934, -9.184859399999921 ], [ -71.95345489999994, -9.183405 ], [ -71.953598899999974, -9.182963399999959 ], [ -71.953939699999978, -9.182493 ], [ -71.954318899999976, -9.181989 ], [ -71.954672399999936, -9.181179 ], [ -71.954702599999976, -9.180311699999935 ], [ -71.954757799999967, -9.179171299999942 ], [ -71.954666299999985, -9.17887509999996 ], [ -71.954258099999961, -9.177553099999969 ], [ -71.953225399999951, -9.176386799999948 ], [ -71.953030399999989, -9.176244399999963 ], [ -71.951837199999943, -9.175254499999957 ], [ -71.950790799999936, -9.174990499999987 ], [ -71.949917199999959, -9.175076899999958 ], [ -71.949226, -9.175480099999954 ], [ -71.948458, -9.176056099999915 ], [ -71.947555599999987, -9.176531299999967 ], [ -71.947027599999956, -9.176560099999968 ], [ -71.94661, -9.17645929999998 ], [ -71.946307499999989, -9.176060899999973 ], [ -71.945995499999981, -9.175398499999977 ], [ -71.9459523, -9.174889699999955 ], [ -71.946168299999954, -9.174299199999947 ], [ -71.945340199999976, -9.174571099999982 ], [ -71.945118399999956, -9.174832799999958 ], [ -71.945100699999955, -9.175376799999984 ], [ -71.945266499999946, -9.17562569999996 ], [ -71.945349599999986, -9.17632869999993 ], [ -71.945502499999975, -9.176925 ], [ -71.9454, -9.17710519999998 ], [ -71.944839199999933, -9.177046399999933 ], [ -71.944351299999937, -9.176845299999989 ], [ -71.944040099999953, -9.176584499999954 ], [ -71.943667599999955, -9.176644799999947 ], [ -71.943453499999976, -9.176991199999961 ], [ -71.94357789999998, -9.177246199999949 ], [ -71.943847799999958, -9.177364699999925 ], [ -71.944058, -9.177365799999953 ], [ -71.944331299999988, -9.177682099999982 ], [ -71.944190799999944, -9.178119599999958 ], [ -71.943867, -9.178261599999944 ], [ -71.943549899999937, -9.178343 ], [ -71.943199, -9.178286199999951 ], [ -71.942801799999984, -9.178288 ], [ -71.942132, -9.178293499999924 ], [ -71.941517299999987, -9.178473299999965 ], [ -71.94109919999994, -9.178640399999974 ], [ -71.940842799999984, -9.179098199999922 ], [ -71.940996199999972, -9.17954169999995 ], [ -71.941165599999977, -9.179906499999978 ], [ -71.941426099999944, -9.180141 ], [ -71.941800099999966, -9.180030299999959 ], [ -71.942103599999939, -9.179737099999967 ], [ -71.942503199999976, -9.179582899999955 ], [ -71.94286, -9.179462699999943 ], [ -71.943345199999953, -9.179466599999978 ], [ -71.943742899999961, -9.179806699999961 ], [ -71.943759, -9.180086199999936 ], [ -71.943736, -9.180262499999962 ], [ -71.94362609999996, -9.18050509999995 ], [ -71.943473399999959, -9.180809 ], [ -71.9433, -9.181151099999965 ], [ -71.942844699999966, -9.181624699999915 ], [ -71.94272639999997, -9.18179659999994 ], [ -71.9428319, -9.182118799999975 ], [ -71.943025799999987, -9.18245 ], [ -71.943095, -9.182571199999922 ], [ -71.943254599999989, -9.182632499999936 ], [ -71.943429199999969, -9.182613399999974 ], [ -71.943509199999937, -9.182766199999943 ], [ -71.943215899999984, -9.182984399999945 ], [ -71.943093499999975, -9.183402499999943 ], [ -71.9429934, -9.1837444 ], [ -71.942676, -9.183886899999965 ], [ -71.942503, -9.183860899999983 ], [ -71.942314099999976, -9.183655699999987 ], [ -71.942028499999935, -9.1836906 ], [ -71.94181679999997, -9.183899099999977 ], [ -71.94181709999998, -9.184107799999918 ], [ -71.941956599999969, -9.18434019999996 ], [ -71.942038499999967, -9.184609899999963 ], [ -71.942043099999978, -9.184899399999946 ], [ -71.942052299999943, -9.185273399999986 ], [ -71.942041, -9.185594799999926 ], [ -71.941852899999958, -9.185634899999979 ], [ -71.941904399999942, -9.186509099999961 ], [ -71.942283399999937, -9.18702049999998 ], [ -71.945070799999939, -9.186662899999924 ], [ -71.945979599999987, -9.187788199999957 ], [ -71.945967799999949, -9.18837119999994 ], [ -71.947466799999972, -9.189010199999951 ], [ -71.943684, -9.19210659999994 ], [ -71.939870199999973, -9.193563499999913 ], [ -71.940889899999931, -9.195249199999965 ], [ -71.942551699999967, -9.197578699999926 ], [ -71.942678399999977, -9.197150199999953 ], [ -71.942713099999935, -9.197032699999983 ], [ -71.943237799999963, -9.196334899999952 ], [ -71.943395599999974, -9.196289199999981 ], [ -71.943627799999945, -9.196222 ], [ -71.94427509999997, -9.196251299999977 ], [ -71.945057499999962, -9.196488899999983 ], [ -71.945888, -9.196741899999944 ], [ -71.94630049999995, -9.196867599999972 ], [ -71.946988499999975, -9.197042199999927 ], [ -71.947522799999945, -9.197225 ], [ -71.948020699999972, -9.197365399999963 ] ] ] } }
]
}
