{
"type": "FeatureCollection",
"name": "1300300",
"crs": { "type": "name", "properties": { "name": "urn:ogc:def:crs:OGC:1.3:CRS84" } },
"features": [
{ "type": "Feature", "properties": { "CD_MUN": "1300300", "NM_MUN": "Autazes" }, "geometry": { "type": "MultiPolygon", "coordinates": [ [ [ [ -59.135107699999935, -3.598986 ], [ -59.135411399999946, -3.597714799999911 ], [ -59.135829299999962, -3.596826599999951 ], [ -59.13582939999997, -3.596669899999897 ], [ -59.135853899999965, -3.596562 ], [ -59.135857699999974, -3.596108199999925 ], [ -59.135868299999977, -3.596013799999964 ], [ -59.135970099999952, -3.59586330000001 ], [ -59.135998299999983, -3.595744199999932 ], [ -59.1361, -3.5956113 ], [ -59.136258099999971, -3.595472399999951 ], [ -59.136268599999937, -3.595465399999971 ], [ -59.136279099999967, -3.595454899999901 ], [ -59.136293199999955, -3.5954409 ], [ -59.136300199999944, -3.595430399999961 ], [ -59.136314199999958, -3.595419899999955 ], [ -59.136324799999947, -3.5954093 ], [ -59.1363353, -3.595398799999933 ], [ -59.136345799999958, -3.595384799999979 ], [ -59.13635289999997, -3.595370799999928 ], [ -59.136363399999937, -3.595356799999923 ], [ -59.136367, -3.595342799999977 ], [ -59.136367, -3.595321799999931 ], [ -59.136367099999966, -3.595300799999928 ], [ -59.136363599999981, -3.595286799999896 ], [ -59.136325099999965, -3.595206199999986 ], [ -59.136311099999936, -3.595188699999973 ], [ -59.136297099999986, -3.595167699999885 ], [ -59.136286599999941, -3.595157199999963 ], [ -59.136279499999944, -3.595143099999982 ], [ -59.136269, -3.595132599999987 ], [ -59.136223499999979, -3.59508 ], [ -59.136213, -3.595069500000019 ], [ -59.136205899999936, -3.595055499999932 ], [ -59.13619539999997, -3.595037900000012 ], [ -59.13618839999998, -3.5950239 ], [ -59.13617789999995, -3.595009900000033 ], [ -59.136170799999952, -3.594992399999968 ], [ -59.136167299999947, -3.594971399999954 ], [ -59.136163799999963, -3.5949573 ], [ -59.136163799999963, -3.59493979999997 ], [ -59.136163799999963, -3.594922299999969 ], [ -59.136170799999952, -3.594911799999928 ], [ -59.1361778, -3.594897799999978 ], [ -59.136184799999967, -3.594880299999978 ], [ -59.136191799999942, -3.594869799999988 ], [ -59.136202399999945, -3.5948558 ], [ -59.136212899999975, -3.594845299999989 ], [ -59.136223399999956, -3.594834799999957 ], [ -59.136233899999979, -3.594824300000015 ], [ -59.136262, -3.594789299999923 ], [ -59.136272499999968, -3.594782299999927 ], [ -59.136293599999981, -3.594775399999987 ], [ -59.136304099999961, -3.594775399999904 ], [ -59.136318099999976, -3.594775399999937 ], [ -59.136332099999947, -3.594764899999932 ], [ -59.136346199999934, -3.5947543999999 ], [ -59.136356699999965, -3.594743899999966 ], [ -59.136356699999965, -3.594726399999969 ], [ -59.136356599999942, -3.594705399999929 ], [ -59.136269299999981, -3.594514 ], [ -59.136186299999963, -3.594379399999949 ], [ -59.136037899999955, -3.594037199999902 ], [ -59.13598269999995, -3.593733699999933 ], [ -59.136044599999941, -3.59347779999997 ], [ -59.136113, -3.593170799999964 ], [ -59.136171699999984, -3.592895899999979 ], [ -59.136297599999978, -3.592651199999938 ], [ -59.136305199999974, -3.592471499999905 ], [ -59.136242099999947, -3.592117499999925 ], [ -59.13624219999997, -3.592099099999905 ], [ -59.13624839999995, -3.592074599999949 ], [ -59.136267, -3.592050199999981 ], [ -59.136273299999978, -3.592025699999974 ], [ -59.136291899999947, -3.592001299999926 ], [ -59.136298099999976, -3.591976799999895 ], [ -59.136310599999952, -3.591946100000015 ], [ -59.136316799999982, -3.591921599999956 ], [ -59.136329199999984, -3.591897099999892 ], [ -59.136335499999973, -3.591872599999905 ], [ -59.136335599999931, -3.591841899999957 ], [ -59.136335699999954, -3.591805 ], [ -59.136335699999954, -3.591774299999924 ], [ -59.136335799999983, -3.59174360000002 ], [ -59.136323499999953, -3.591712799999895 ], [ -59.136311199999959, -3.591682 ], [ -59.136305099999966, -3.591657399999918 ], [ -59.136305099999966, -3.591620399999902 ], [ -59.136305099999966, -3.591595799999943 ], [ -59.136305199999974, -3.59157109999992 ], [ -59.136305199999974, -3.5915403 ], [ -59.136305299999947, -3.591509499999987 ], [ -59.136305299999947, -3.591472499999924 ], [ -59.136299199999939, -3.591441699999969 ], [ -59.136299199999939, -3.591410899999949 ], [ -59.136299199999939, -3.591398499999946 ], [ -59.136299299999962, -3.591367699999965 ], [ -59.136305499999935, -3.591336899999906 ], [ -59.136305599999957, -3.591306 ], [ -59.136305599999957, -3.591275199999902 ], [ -59.136311799999987, -3.5912567 ], [ -59.136324299999963, -3.591225899999957 ], [ -59.136349099999961, -3.591201199999944 ], [ -59.136361499999964, -3.591176599999958 ], [ -59.136398799999938, -3.591151899999897 ], [ -59.136417399999971, -3.591133399999897 ], [ -59.136436, -3.591127299999959 ], [ -59.136776699999984, -3.591096599999908 ], [ -59.137054199999959, -3.591189099999978 ], [ -59.137270099999967, -3.591096699999986 ], [ -59.137323899999956, -3.591080799999892 ], [ -59.1374211, -3.591037299999972 ], [ -59.137501, -3.590982799999938 ], [ -59.137692399999935, -3.590930199999953 ], [ -59.137733099999934, -3.590762099999942 ], [ -59.137757599999986, -3.590647 ], [ -59.137774899999954, -3.590537 ], [ -59.1376863, -3.590319 ], [ -59.13756809999996, -3.590026599999916 ], [ -59.137597599999935, -3.5898391 ], [ -59.137573199999963, -3.589359299999938 ], [ -59.137948899999969, -3.58873919999992 ], [ -59.138122799999962, -3.588488799999895 ], [ -59.138135499999976, -3.588385399999948 ], [ -59.138447299999946, -3.587961699999976 ], [ -59.138434, -3.587879199999973 ], [ -59.138446199999983, -3.587688699999914 ], [ -59.138380499999982, -3.587459499999949 ], [ -59.138294499999972, -3.587275099999899 ], [ -59.138210399999934, -3.587151799999966 ], [ -59.138126399999969, -3.587028599999952 ], [ -59.137879899999973, -3.586748400000021 ], [ -59.137871899999929, -3.58663719999991 ], [ -59.137799899999955, -3.586501899999958 ], [ -59.13770059999996, -3.586468300000027 ], [ -59.13768939999995, -3.586244199999968 ], [ -59.137579599999981, -3.586072 ], [ -59.137474799999957, -3.585669399999974 ], [ -59.137621799999977, -3.585321299999973 ], [ -59.137588599999965, -3.585030799999974 ], [ -59.137734799999976, -3.584716499999919 ], [ -59.137824, -3.584378899999886 ], [ -59.137729799999931, -3.583674899999944 ], [ -59.137800899999945, -3.583568299999988 ], [ -59.137871899999929, -3.583461799999968 ], [ -59.137943, -3.5834144 ], [ -59.138179799999932, -3.5831539 ], [ -59.138535, -3.582775 ], [ -59.138984899999969, -3.582301399999983 ], [ -59.139305199999967, -3.582072599999933 ], [ -59.139625599999924, -3.581843799999897 ], [ -59.139648, -3.581827799999924 ], [ -59.139813799999956, -3.581662 ], [ -59.139861099999969, -3.5814725 ], [ -59.140597099999979, -3.580719599999961 ], [ -59.140163399999949, -3.580579 ], [ -59.139543699999933, -3.580240899999959 ], [ -59.1378716, -3.579153899999951 ], [ -59.137438399999951, -3.578843699999952 ], [ -59.136902199999959, -3.578459599999984 ], [ -59.136712899999971, -3.578324 ], [ -59.135474599999952, -3.577425199999976 ], [ -59.133963, -3.576321599999957 ], [ -59.131898699999972, -3.574674099999898 ], [ -59.13089279999997, -3.573862 ], [ -59.130498499999987, -3.573544699999943 ], [ -59.128276199999959, -3.571835599999944 ], [ -59.1270315, -3.570482699999967 ], [ -59.126253299999973, -3.570899299999982 ], [ -59.125679299999945, -3.571225099999922 ], [ -59.125060899999937, -3.5711378 ], [ -59.124941899999953, -3.571049800000022 ], [ -59.1248394, -3.57099039999998 ], [ -59.124788899999942, -3.570952599999905 ], [ -59.124704599999973, -3.5709302 ], [ -59.124576899999973, -3.570894899999925 ], [ -59.124455, -3.570809099999934 ], [ -59.12431319999996, -3.570717699999889 ], [ -59.12417929999998, -3.57062849999991 ], [ -59.123987399999983, -3.570534699999961 ], [ -59.124058899999973, -3.570377199999891 ], [ -59.123949099999948, -3.570281099999896 ], [ -59.124049399999933, -3.570152299999922 ], [ -59.124017599999938, -3.570086300000014 ], [ -59.123940899999987, -3.570009399999977 ], [ -59.123845199999941, -3.569932499999912 ], [ -59.123787799999945, -3.569894 ], [ -59.123673099999969, -3.569817 ], [ -59.123079199999957, -3.569393399999946 ], [ -59.123021699999981, -3.569354799999881 ], [ -59.122964099999933, -3.5693163 ], [ -59.122829699999947, -3.569200799999952 ], [ -59.122772099999963, -3.569181499999985 ], [ -59.122675799999975, -3.569104599999888 ], [ -59.122541199999944, -3.569027499999941 ], [ -59.122425799999981, -3.568969699999975 ], [ -59.122329699999966, -3.568912 ], [ -59.122252699999933, -3.56887339999993 ], [ -59.1221566, -3.5688349 ], [ -59.12206029999998, -3.568757899999932 ], [ -59.121964199999972, -3.568719299999911 ], [ -59.121829699999978, -3.568699799999972 ], [ -59.121714499999932, -3.5686995 ], [ -59.121560899999963, -3.568699 ], [ -59.121407299999987, -3.568698599999979 ], [ -59.121349599999974, -3.568698399999976 ], [ -59.121253499999966, -3.568698199999962 ], [ -59.121157199999978, -3.568698099999964 ], [ -59.121003099999946, -3.568697899999916 ], [ -59.120868199999968, -3.568697799999901 ], [ -59.120752499999988, -3.568697799999983 ], [ -59.120636799999943, -3.568697699999922 ], [ -59.120521099999955, -3.5686977 ], [ -59.120347599999945, -3.568697599999942 ], [ -59.120231899999965, -3.568697499999937 ], [ -59.120096699999984, -3.568697699999967 ], [ -59.119980799999951, -3.568678799999908 ], [ -59.119864899999975, -3.568640600000028 ], [ -59.119787699999954, -3.568602299999974 ], [ -59.119671899999965, -3.5685642 ], [ -59.119594699999944, -3.568545199999954 ], [ -59.119459699999929, -3.56848779999998 ], [ -59.119324899999981, -3.568449099999917 ], [ -59.119209399999932, -3.568429799999892 ], [ -59.119055299999957, -3.568410399999983 ], [ -59.118959, -3.568391099999905 ], [ -59.118843399999946, -3.568371699999965 ], [ -59.11876639999997, -3.568352400000011 ], [ -59.118670099999981, -3.568352299999955 ], [ -59.118554499999959, -3.56835219999996 ], [ -59.118477399999961, -3.568352099999982 ], [ -59.118438899999951, -3.568352099999931 ], [ -59.1183233, -3.568352 ], [ -59.118226899999961, -3.568332599999958 ], [ -59.118130599999972, -3.5682939 ], [ -59.118053499999974, -3.5682553 ], [ -59.117976399999975, -3.568216599999974 ], [ -59.11788, -3.568178 ], [ -59.117802899999965, -3.568158599999926 ], [ -59.117725799999953, -3.56812 ], [ -59.117629399999942, -3.568062 ], [ -59.117533, -3.5680234 ], [ -59.117475199999944, -3.568004099999914 ], [ -59.117398099999953, -3.5679848 ], [ -59.117301799999943, -3.567946499999982 ], [ -59.117224799999974, -3.567908099999959 ], [ -59.117128599999944, -3.5679084 ], [ -59.117051599999968, -3.567908599999907 ], [ -59.116955399999938, -3.567908899999955 ], [ -59.116859299999987, -3.567909199999934 ], [ -59.116744099999949, -3.567909899999931 ], [ -59.116667199999931, -3.56791 ], [ -59.116590199999962, -3.567910099999958 ], [ -59.116513299999959, -3.567910199999946 ], [ -59.116417099999978, -3.567910299999907 ], [ -59.116340399999956, -3.567968399999971 ], [ -59.116263899999971, -3.568045899999928 ], [ -59.116206499999976, -3.568103899999914 ], [ -59.116149499999949, -3.568181599999904 ], [ -59.116092599999938, -3.568259199999935 ], [ -59.116054799999979, -3.568336699999987 ], [ -59.116036199999947, -3.568414099999957 ], [ -59.115998099999963, -3.568510399999961 ], [ -59.115959699999962, -3.568587099999944 ], [ -59.115921299999968, -3.56866389999991 ], [ -59.115863699999977, -3.568740599999941 ], [ -59.115806, -3.568817299999961 ], [ -59.11572879999995, -3.568855399999932 ], [ -59.115630299999964, -3.568911399999888 ], [ -59.115551899999957, -3.568948899999973 ], [ -59.115416499999981, -3.569006099999932 ], [ -59.115339099999979, -3.569044199999944 ], [ -59.11526159999994, -3.569082399999915 ], [ -59.115203599999973, -3.569101399999963 ], [ -59.115068299999955, -3.569120399999924 ], [ -59.114933099999973, -3.56913929999992 ], [ -59.114855899999952, -3.56913919999997 ], [ -59.114778599999958, -3.569139099999951 ], [ -59.114682099999989, -3.569139 ], [ -59.114508599999965, -3.569138899999879 ], [ -59.114392099999975, -3.569176899999906 ], [ -59.114334099999944, -3.569176799999983 ], [ -59.11419879999994, -3.569195799999915 ], [ -59.114082799999956, -3.569195699999959 ], [ -59.114005499999962, -3.569234 ], [ -59.113889499999971, -3.569272299999957 ], [ -59.113812199999977, -3.56933 ], [ -59.113734899999933, -3.569368299999929 ], [ -59.113657499999931, -3.56938749999992 ], [ -59.113580199999937, -3.569425899999922 ], [ -59.1134641, -3.569464199999982 ], [ -59.113425399999983, -3.569464099999909 ], [ -59.113348099999939, -3.569483299999955 ], [ -59.113213, -3.569521699999916 ], [ -59.113116499999933, -3.569560099999948 ], [ -59.113020099999964, -3.569617799999889 ], [ -59.112962199999963, -3.569675499999925 ], [ -59.112904299999975, -3.569752499999982 ], [ -59.112846499999932, -3.569829399999956 ], [ -59.1127886, -3.569944899999946 ], [ -59.112749899999983, -3.5700411 ], [ -59.112711299999951, -3.570118 ], [ -59.112672699999962, -3.570195 ], [ -59.112653399999949, -3.570291199999983 ], [ -59.11263409999998, -3.570348899999979 ], [ -59.112595499999948, -3.570483599999921 ], [ -59.112537599999939, -3.57057979999993 ], [ -59.112518299999977, -3.570637499999946 ], [ -59.112498899999935, -3.570733699999988 ], [ -59.112460299999952, -3.570829900000017 ], [ -59.112421699999963, -3.570945400000014 ], [ -59.112363799999976, -3.571060799999934 ], [ -59.1123252, -3.571176299999931 ], [ -59.112286599999955, -3.571272499999974 ], [ -59.112228699999953, -3.571349400000027 ], [ -59.112170799999951, -3.571426399999976 ], [ -59.112132199999962, -3.571484099999967 ], [ -59.11209359999998, -3.571599499999905 ], [ -59.112055, -3.571695699999957 ], [ -59.112035699999979, -3.571753499999973 ], [ -59.112016399999959, -3.571801600000014 ], [ -59.11199709999994, -3.571849699999982 ], [ -59.111978199999953, -3.571926599999936 ], [ -59.11195859999998, -3.572003599999915 ], [ -59.111958499999957, -3.572099799999891 ], [ -59.111730499999958, -3.572365299999943 ], [ -59.111598599999979, -3.572760199999943 ], [ -59.111532699999934, -3.572858899999987 ], [ -59.111301899999944, -3.572957699999967 ], [ -59.111071, -3.573023499999969 ], [ -59.110939099999946, -3.5730563999999 ], [ -59.110642399999961, -3.573221 ], [ -59.11060939999998, -3.573253899999982 ], [ -59.110510499999968, -3.573385499999923 ], [ -59.110378699999956, -3.573583 ], [ -59.110246799999977, -3.573648799999914 ], [ -59.110140299999962, -3.573720099999938 ], [ -59.110113199999944, -3.5737382 ], [ -59.110046299999972, -3.573782899999915 ], [ -59.109979499999959, -3.573837 ], [ -59.109298699999954, -3.574221499999955 ], [ -59.108387899999961, -3.575073 ], [ -59.108388, -3.575153499999925 ], [ -59.108388099999956, -3.575244199999953 ], [ -59.108387799999939, -3.575325299999949 ], [ -59.108387499999935, -3.575416499999977 ], [ -59.108387299999954, -3.575507599999983 ], [ -59.108387, -3.575598599999986 ], [ -59.108386799999948, -3.575709899999946 ], [ -59.108386599999967, -3.575760399999984 ], [ -59.108386399999972, -3.575871600000013 ], [ -59.108386099999962, -3.5759828 ], [ -59.108386099999962, -3.576093699999913 ], [ -59.108386099999962, -3.576174399999913 ], [ -59.108386, -3.576275299999939 ], [ -59.108386, -3.5763661 ], [ -59.108386, -3.576466899999956 ], [ -59.108385899999966, -3.5765577 ], [ -59.108385899999966, -3.576658599999937 ], [ -59.108396, -3.576759399999913 ], [ -59.108406199999941, -3.576850199999944 ], [ -59.108416399999946, -3.576910699999921 ], [ -59.108416399999946, -3.5769913999999 ], [ -59.108426599999973, -3.577092299999978 ], [ -59.108436799999929, -3.5771629 ], [ -59.108447, -3.57726380000001 ], [ -59.108447299999973, -3.577344500000032 ], [ -59.108446899999933, -3.5774152 ], [ -59.108446699999945, -3.577465599999956 ], [ -59.108446599999972, -3.577516099999951 ], [ -59.108446499999964, -3.577566599999919 ], [ -59.108446499999964, -3.577617 ], [ -59.108446399999941, -3.57767749999991 ], [ -59.108446299999969, -3.577728 ], [ -59.108446199999946, -3.577768299999963 ], [ -59.108435899999961, -3.5778389 ], [ -59.108435799999938, -3.577859099999907 ], [ -59.108405, -3.577899299999975 ], [ -59.10838449999995, -3.577939599999943 ], [ -59.108363899999972, -3.578 ], [ -59.108333099999982, -3.578080399999927 ], [ -59.108312499999954, -3.57814079999997 ], [ -59.108281699999971, -3.578201 ], [ -59.108261199999966, -3.578251199999976 ], [ -59.10822079999997, -3.578321699999903 ], [ -59.108170499999964, -3.578392299999929 ], [ -59.108150399999943, -3.578432699999905 ], [ -59.108050299999945, -3.578705399999924 ], [ -59.108030299999939, -3.578766099999887 ], [ -59.108020199999942, -3.578786299999931 ], [ -59.107979899999982, -3.578836799999986 ], [ -59.107939499999979, -3.57888729999995 ], [ -59.107899199999956, -3.578968099999886 ], [ -59.107899299999978, -3.578998499999924 ], [ -59.107879099999934, -3.579028799999926 ], [ -59.107859, -3.579059099999908 ], [ -59.107843699999933, -3.579574899999943 ], [ -59.107853899999952, -3.579595199999934 ], [ -59.107894399999957, -3.579635699999919 ], [ -59.107934899999982, -3.579676199999959 ], [ -59.10796529999994, -3.579706599999915 ], [ -59.108005699999985, -3.579736899999963 ], [ -59.108036099999943, -3.579767199999945 ], [ -59.108076599999947, -3.579797499999964 ], [ -59.108127, -3.579817499999901 ], [ -59.108207599999957, -3.579837499999938 ], [ -59.108288399999942, -3.579847500000018 ], [ -59.10831879999995, -3.57986769999991 ], [ -59.108349, -3.579867699999966 ], [ -59.108399599999977, -3.57987769999994 ], [ -59.108429799999954, -3.579877699999973 ], [ -59.108500499999934, -3.579877499999949 ], [ -59.108551, -3.579877399999937 ], [ -59.108621699999965, -3.579887400000011 ], [ -59.108692499999954, -3.579897599999978 ], [ -59.108763399999987, -3.579917800000026 ], [ -59.108793699999985, -3.579917899999974 ], [ -59.108844299999987, -3.579948199999891 ], [ -59.108894899999946, -3.579958299999967 ], [ -59.108965699999935, -3.579988600000036 ], [ -59.109026299999982, -3.580019 ], [ -59.109087, -3.58003919999991 ], [ -59.10914769999993, -3.580069599999952 ], [ -59.109208799999983, -3.5800906 ], [ -59.109279799999968, -3.580131899999927 ], [ -59.109350899999981, -3.580163099999894 ], [ -59.109431899999947, -3.5802244 ], [ -59.109472299999943, -3.580265 ], [ -59.10950269999995, -3.580285399999938 ], [ -59.109543099999946, -3.580326 ], [ -59.109573399999931, -3.580366399999916 ], [ -59.10960369999998, -3.58038679999994 ], [ -59.109654199999966, -3.580447399999944 ], [ -59.109704599999986, -3.580508 ], [ -59.109724799999988, -3.580538299999918 ], [ -59.10976519999997, -3.580578799999913 ], [ -59.109795399999946, -3.580639099999974 ], [ -59.109845799999952, -3.58070959999998 ], [ -59.109855899999957, -3.580729799999984 ], [ -59.109876, -3.58079 ], [ -59.10987589999997, -3.58084 ], [ -59.10987589999997, -3.58088019999998 ], [ -59.10987589999997, -3.580930599999888 ], [ -59.10987589999997, -3.580991099999915 ], [ -59.109875799999948, -3.581021399999925 ], [ -59.109875799999948, -3.581081899999969 ], [ -59.109875799999948, -3.581142299999942 ], [ -59.109875799999948, -3.581192699999916 ], [ -59.109865699999951, -3.581243099999885 ], [ -59.109855599999946, -3.581273299999953 ], [ -59.109815199999964, -3.581333699999926 ], [ -59.109795, -3.58138409999998 ], [ -59.109774799999968, -3.581434400000025 ], [ -59.109754599999967, -3.581504899999974 ], [ -59.109734399999979, -3.581555199999921 ], [ -59.109714199999985, -3.581605499999958 ], [ -59.109704, -3.5816457 ], [ -59.109683799999978, -3.5816859 ], [ -59.109663499999954, -3.581726099999972 ], [ -59.109643299999959, -3.58174619999998 ], [ -59.109592699999951, -3.581806599999967 ], [ -59.109562299999943, -3.581836799999941 ], [ -59.109511699999985, -3.581887099999959 ], [ -59.109461099999976, -3.581937499999955 ], [ -59.109420499999949, -3.581977799999983 ], [ -59.109369799999968, -3.5820282 ], [ -59.109339399999961, -3.582048299999927 ], [ -59.109278599999982, -3.582098799999937 ], [ -59.109227899999951, -3.582129 ], [ -59.109167099999986, -3.582179499999939 ], [ -59.109126899999985, -3.5822097 ], [ -59.109086799999943, -3.582270099999957 ], [ -59.109056799999962, -3.582320399999965 ], [ -59.109037, -3.582380699999945 ], [ -59.109032099999972, -3.5823958 ], [ -59.109027099999942, -3.5824109 ], [ -59.109027499999968, -3.582481199999917 ], [ -59.109027799999978, -3.582541499999977 ], [ -59.109028, -3.582571599999919 ], [ -59.109028199999955, -3.582621699999939 ], [ -59.109028499999965, -3.582671899999964 ], [ -59.10904869999996, -3.582722099999987 ], [ -59.109079099999967, -3.582792299999974 ], [ -59.109089199999971, -3.582802399999982 ], [ -59.109129499999945, -3.582852699999976 ], [ -59.1091699, -3.582912899999926 ], [ -59.10919, -3.582933 ], [ -59.109220499999935, -3.582962899999937 ], [ -59.109261, -3.583002799999934 ], [ -59.109291399999961, -3.5830326 ], [ -59.109352099999967, -3.583072399999915 ], [ -59.109382399999966, -3.583092199999977 ], [ -59.109422799999948, -3.583122 ], [ -59.109493299999933, -3.583141699999937 ], [ -59.109543699999961, -3.58316149999993 ], [ -59.109604099999956, -3.583191199999893 ], [ -59.109644399999986, -3.583201 ], [ -59.109704699999945, -3.583240599999902 ], [ -59.109765, -3.583270199999942 ], [ -59.109825299999947, -3.583289899999989 ], [ -59.109895499999944, -3.583310299999978 ], [ -59.109965699999975, -3.583330799999973 ], [ -59.109995799999979, -3.583341 ], [ -59.110066099999976, -3.583361399999919 ], [ -59.110106199999954, -3.583361599999966 ], [ -59.110146399999955, -3.583371899999932 ], [ -59.110206699999935, -3.583382199999952 ], [ -59.110247, -3.583392499999972 ], [ -59.110287199999959, -3.583402699999949 ], [ -59.11032739999996, -3.583423099999966 ], [ -59.110367699999983, -3.583433299999983 ], [ -59.110438199999969, -3.5834538 ], [ -59.110488599999947, -3.583464200000034 ], [ -59.110539, -3.583484599999966 ], [ -59.110579299999984, -3.583504900000019 ], [ -59.110619499999984, -3.583524899999965 ], [ -59.110689799999932, -3.583544899999904 ], [ -59.11073, -3.583554799999931 ], [ -59.110760099999936, -3.5835648 ], [ -59.110810399999934, -3.583584799999936 ], [ -59.110880699999939, -3.583614899999975 ], [ -59.110910799999942, -3.583624799999981 ], [ -59.11096109999994, -3.5836449 ], [ -59.111001399999971, -3.583675099999932 ], [ -59.111021499999943, -3.58370539999998 ], [ -59.1110417, -3.5837356 ], [ -59.111062499999953, -3.58407849999996 ], [ -59.111336599999966, -3.5857799 ], [ -59.111492399999975, -3.586747599999925 ], [ -59.1122726, -3.587899499999921 ], [ -59.112370899999974, -3.588225299999959 ], [ -59.112494799999986, -3.588247 ], [ -59.112880799999971, -3.588314499999961 ], [ -59.113180199999938, -3.587900099999945 ], [ -59.114177799999936, -3.587671599999979 ], [ -59.114824499999941, -3.587717099999936 ], [ -59.114974699999948, -3.58799 ], [ -59.115119, -3.588308799999973 ], [ -59.115329199999962, -3.58842389999998 ], [ -59.115909699999982, -3.588174199999987 ], [ -59.116408599999943, -3.587773 ], [ -59.116723799999939, -3.587485899999877 ], [ -59.117036299999938, -3.587485800000015 ], [ -59.117508299999933, -3.587326799999937 ], [ -59.117809499999964, -3.587034499999987 ], [ -59.118113499999929, -3.587022099999981 ], [ -59.118544499999985, -3.587199599999989 ], [ -59.119228899999946, -3.587338699999947 ], [ -59.119950799999977, -3.5869997 ], [ -59.120872499999962, -3.586532299999978 ], [ -59.120924399999979, -3.5864414 ], [ -59.12109559999994, -3.586326199999951 ], [ -59.121182499999982, -3.586082699999941 ], [ -59.121264799999956, -3.585869699999924 ], [ -59.121356799999951, -3.585624 ], [ -59.121566599999944, -3.585274199999921 ], [ -59.121814699999959, -3.5848609 ], [ -59.122100799999942, -3.584600099999971 ], [ -59.122486899999949, -3.584291299999932 ], [ -59.122636599999964, -3.583792599999981 ], [ -59.122836099999979, -3.583508400000013 ], [ -59.123025399999968, -3.583228399999948 ], [ -59.123266799999961, -3.582759699999932 ], [ -59.123325499999972, -3.582588099999918 ], [ -59.123297899999947, -3.5823062 ], [ -59.123324699999962, -3.582214899999964 ], [ -59.123358799999956, -3.582226299999909 ], [ -59.123392899999942, -3.582237599999972 ], [ -59.123837899999963, -3.582392 ], [ -59.124055899999973, -3.582464699999897 ], [ -59.124546099999968, -3.582474199999983 ], [ -59.12479929999995, -3.582428199999942 ], [ -59.125165699999975, -3.582355499999913 ], [ -59.125441599999938, -3.58239489999996 ], [ -59.126252199999961, -3.582980299999965 ], [ -59.1274274, -3.583618099999949 ], [ -59.12839409999998, -3.584229399999983 ], [ -59.127709399999965, -3.5852697 ], [ -59.127287899999942, -3.585882899999898 ], [ -59.126803599999967, -3.586659899999975 ], [ -59.126646099999967, -3.586895199999962 ], [ -59.125842099999943, -3.588124900000012 ], [ -59.12476149999997, -3.5896918 ], [ -59.124409799999974, -3.590196599999917 ], [ -59.124281099999969, -3.590403799999916 ], [ -59.123811199999977, -3.591245 ], [ -59.123420399999986, -3.592063899999987 ], [ -59.122984699999961, -3.5930621 ], [ -59.122709699999973, -3.593692 ], [ -59.122272, -3.5946804 ], [ -59.122127399999954, -3.594949899999967 ], [ -59.121937, -3.59543719999991 ], [ -59.121833299999935, -3.5956274 ], [ -59.122455599999974, -3.595951899999973 ], [ -59.131168299999956, -3.601525200000016 ], [ -59.133084, -3.602587 ], [ -59.134529599999958, -3.603268299999969 ], [ -59.134497099999976, -3.602397499999938 ], [ -59.134373, -3.6016592 ], [ -59.134227099999983, -3.6009309 ], [ -59.134060199999965, -3.600324899999958 ], [ -59.134741199999951, -3.600226599999961 ], [ -59.135145799999982, -3.600168299999969 ], [ -59.135107699999935, -3.598986 ] ] ], [ [ [ -59.274305099999935, -3.395219299999921 ], [ -59.274796499999987, -3.395113099999965 ], [ -59.275151299999948, -3.394798599999943 ], [ -59.275375, -3.394504299999922 ], [ -59.275588899999939, -3.394219799999978 ], [ -59.275797599999976, -3.3939637 ], [ -59.275796199999952, -3.393689399999934 ], [ -59.275823099999975, -3.393279099999946 ], [ -59.276031499999988, -3.392925 ], [ -59.2762661, -3.3927327 ], [ -59.2764433, -3.3926378999999 ], [ -59.276759499999976, -3.39266220000002 ], [ -59.277061699999933, -3.392758600000029 ], [ -59.277669699999933, -3.392394099999979 ], [ -59.277934699999946, -3.391628499999971 ], [ -59.278167699999976, -3.390084099999959 ], [ -59.278286499999986, -3.3896452 ], [ -59.278321099999978, -3.388762799999926 ], [ -59.276344299999955, -3.387099099999945 ], [ -59.275884799999972, -3.38674209999991 ], [ -59.275326899999989, -3.385732 ], [ -59.27496089999994, -3.384756799999941 ], [ -59.274873899999939, -3.384199599999945 ], [ -59.274455499999988, -3.38364229999997 ], [ -59.273903799999971, -3.383107499999989 ], [ -59.273444099999956, -3.382684399999918 ], [ -59.273308899999961, -3.382662599999972 ], [ -59.273173799999938, -3.382640799999926 ], [ -59.272903399999961, -3.382597199999959 ], [ -59.27163019999994, -3.382405199999887 ], [ -59.271124399999962, -3.382352899999972 ], [ -59.270531499999954, -3.382021899999968 ], [ -59.270217599999967, -3.381760599999936 ], [ -59.269504099999949, -3.383688799999947 ], [ -59.269227199999932, -3.383812399999917 ], [ -59.269067199999938, -3.384060699999976 ], [ -59.269053699999972, -3.384526199999887 ], [ -59.269019299999975, -3.385161399999974 ], [ -59.269012699999962, -3.385770899999978 ], [ -59.269009299999929, -3.386320099999982 ], [ -59.269034899999959, -3.387002499999904 ], [ -59.269000299999959, -3.388246899999947 ], [ -59.26532, -3.387772499999889 ], [ -59.2655405, -3.390301 ], [ -59.266167099999961, -3.393847199999936 ], [ -59.266696199999963, -3.3936701 ], [ -59.2680453, -3.3932154 ], [ -59.269727899999957, -3.392682099999887 ], [ -59.26979579999994, -3.392660599999952 ], [ -59.269827, -3.392780099999891 ], [ -59.270670099999968, -3.396008799999908 ], [ -59.273071899999941, -3.395189099999869 ], [ -59.273516, -3.395109599999896 ], [ -59.273815499999962, -3.3952259 ], [ -59.274305099999935, -3.395219299999921 ] ] ] ] } }
]
}
