{
"type": "FeatureCollection",
"name": "1300839",
"crs": { "type": "name", "properties": { "name": "urn:ogc:def:crs:OGC:1.3:CRS84" } },
"features": [
{ "type": "Feature", "properties": { "CD_MUN": "1300839", "NM_MUN": "Caapiranga" }, "geometry": { "type": "Polygon", "coordinates": [ [ [ -61.208968099999936, -3.330337799999886 ], [ -61.209038799999981, -3.3303223 ], [ -61.209155699999933, -3.3302568 ], [ -61.209246299999961, -3.330212199999919 ], [ -61.209296, -3.330187699999954 ], [ -61.209465899999948, -3.330264299999986 ], [ -61.20963949999998, -3.330432299999883 ], [ -61.209846899999938, -3.330744399999985 ], [ -61.209985199999949, -3.3312218 ], [ -61.210040899999967, -3.331716799999985 ], [ -61.210204499999975, -3.332404199999944 ], [ -61.210237099999979, -3.332508 ], [ -61.210321799999974, -3.332777299999917 ], [ -61.210437199999951, -3.333026399999912 ], [ -61.210535799999946, -3.333085599999976 ], [ -61.210654199999972, -3.333112199999942 ], [ -61.210672799999941, -3.333116299999973 ], [ -61.210840599999983, -3.333056799999912 ], [ -61.211000399999932, -3.332941900000013 ], [ -61.211228099999978, -3.332654699999973 ], [ -61.211327199999971, -3.3325479 ], [ -61.211426399999937, -3.3324412 ], [ -61.211513499999967, -3.33231939999993 ], [ -61.211570899999977, -3.332239099999875 ], [ -61.211581099999933, -3.332224899999962 ], [ -61.211626799999969, -3.332161799999988 ], [ -61.211644, -3.332137899999928 ], [ -61.211647899999953, -3.332132499999928 ], [ -61.211649499999965, -3.332130299999922 ], [ -61.211651099999983, -3.33212810000003 ], [ -61.211653, -3.332125499999989 ], [ -61.211655099999973, -3.332122599999895 ], [ -61.211657199999927, -3.332119699999975 ], [ -61.21166, -3.332115799999912 ], [ -61.211662099999948, -3.332112900000011 ], [ -61.2116645, -3.332109599999985 ], [ -61.211666899999962, -3.332106299999973 ], [ -61.211669599999944, -3.332102599999969 ], [ -61.211671399999943, -3.332100099999968 ], [ -61.211673399999938, -3.3320972999999 ], [ -61.211675299999975, -3.33209470000002 ], [ -61.211677899999977, -3.3320912 ], [ -61.211679399999987, -3.3320891 ], [ -61.211681599999963, -3.33208619999995 ], [ -61.211684299999945, -3.33208259999996 ], [ -61.211805399999946, -3.331922299999934 ], [ -61.211843499999986, -3.33186409999992 ], [ -61.211881699999935, -3.331806 ], [ -61.212004599999943, -3.331603599999945 ], [ -61.212055699999951, -3.331527799999938 ], [ -61.212184799999939, -3.331403799999935 ], [ -61.212192699999946, -3.331396199999924 ], [ -61.21220569999997, -3.331385199999918 ], [ -61.212216, -3.331376599999904 ], [ -61.212300499999969, -3.331305499999906 ], [ -61.21232949999996, -3.33128109999996 ], [ -61.212511799999959, -3.331142799999933 ], [ -61.212572899999941, -3.331112499999915 ], [ -61.212659199999962, -3.331069699999904 ], [ -61.212869299999959, -3.330979399999983 ], [ -61.212922799999944, -3.330944299999957 ], [ -61.212983699999945, -3.3309044 ], [ -61.213023699999951, -3.330883 ], [ -61.213075599999968, -3.33085519999993 ], [ -61.213134799999978, -3.330823499999931 ], [ -61.213176899999951, -3.330793499999935 ], [ -61.213269599999933, -3.3307892 ], [ -61.213381499999969, -3.330754199999982 ], [ -61.213456699999945, -3.330677599999892 ], [ -61.213530399999961, -3.330602599999968 ], [ -61.213676199999945, -3.330504599999924 ], [ -61.21374969999993, -3.330422399999968 ], [ -61.213756199999985, -3.3304152 ], [ -61.213811299999968, -3.330401399999959 ], [ -61.213877199999956, -3.330365799999892 ], [ -61.21394319999996, -3.330330099999915 ], [ -61.214052299999928, -3.330253299999888 ], [ -61.214118699999965, -3.330201899999929 ], [ -61.214175, -3.330149399999878 ], [ -61.214234, -3.330094399999958 ], [ -61.214293599999962, -3.3300494 ], [ -61.2143574, -3.330006300000016 ], [ -61.214413299999933, -3.329968599999977 ], [ -61.214492499999949, -3.3299026 ], [ -61.214543599999956, -3.329869599999941 ], [ -61.214544899999964, -3.329869099999946 ], [ -61.214672899999975, -3.329819099999978 ], [ -61.214724699999969, -3.329794699999921 ], [ -61.214832, -3.329755299999909 ], [ -61.214878, -3.329736399999986 ], [ -61.214949099999956, -3.329707099999915 ], [ -61.215072699999951, -3.329656099999935 ], [ -61.215215199999939, -3.32959739999998 ], [ -61.215706299999972, -3.329263299999937 ], [ -61.215737699999984, -3.329242199999903 ], [ -61.21605, -3.328968799999888 ], [ -61.21606039999994, -3.328947899999931 ], [ -61.21638159999997, -3.328509099999958 ], [ -61.21653409999994, -3.328413799999965 ], [ -61.216546499999943, -3.328405700000014 ], [ -61.219158, -3.325844099999986 ], [ -61.219117499999982, -3.325550799999945 ], [ -61.218887799999955, -3.32512 ], [ -61.2187517, -3.324805 ], [ -61.218988, -3.31208839999994 ], [ -61.21871109999995, -3.312049 ], [ -61.211084199999966, -3.310961399999932 ], [ -61.208444099999952, -3.310583199999882 ], [ -61.208376699999974, -3.310586499999931 ], [ -61.208313199999964, -3.3105896 ], [ -61.208286799999946, -3.310597299999878 ], [ -61.207543699999974, -3.310813099999971 ], [ -61.202499099999955, -3.312389499999933 ], [ -61.2023238, -3.312372899999951 ], [ -61.202003599999955, -3.312367099999955 ], [ -61.201238899999964, -3.312458699999953 ], [ -61.200568299999986, -3.312460599999981 ], [ -61.199534099999937, -3.312438099999947 ], [ -61.198865299999966, -3.312431499999965 ], [ -61.19833669999997, -3.3126579 ], [ -61.198113499999984, -3.313347899999929 ], [ -61.198235499999953, -3.313977499999985 ], [ -61.198438799999963, -3.314321399999963 ], [ -61.198602199999989, -3.314886199999899 ], [ -61.1990057, -3.315868199999979 ], [ -61.199757799999972, -3.316736399999945 ], [ -61.199841, -3.317281799999952 ], [ -61.200089199999972, -3.317847399999947 ], [ -61.200174199999928, -3.3183951 ], [ -61.199909599999955, -3.318618899999902 ], [ -61.199899899999934, -3.319047699999969 ], [ -61.200005299999987, -3.319186900000016 ], [ -61.200230899999958, -3.319232199999926 ], [ -61.200416699999948, -3.319261899999965 ], [ -61.200551799999971, -3.319376299999965 ], [ -61.200732399999929, -3.319521099999934 ], [ -61.200856, -3.319753199999934 ], [ -61.201040299999931, -3.319862799999919 ], [ -61.20106409999994, -3.319863 ], [ -61.201174099999946, -3.31998679999995 ], [ -61.201121499999942, -3.320099899999979 ], [ -61.201117599999975, -3.320183 ], [ -61.201160499999958, -3.320281399999907 ], [ -61.201302299999945, -3.320405600000019 ], [ -61.201382499999966, -3.320648 ], [ -61.201470699999952, -3.320857599999947 ], [ -61.201679899999988, -3.3209099 ], [ -61.201837799999964, -3.321004 ], [ -61.201852899999949, -3.321223299999978 ], [ -61.201939799999934, -3.3214106999999 ], [ -61.201940099999945, -3.32142109999994 ], [ -61.202184499999987, -3.3217326 ], [ -61.202538899999972, -3.321887799999963 ], [ -61.202778, -3.321980799999963 ], [ -61.202943699999942, -3.322083899999977 ], [ -61.203089199999965, -3.322217899999955 ], [ -61.203255699999943, -3.322393099999921 ], [ -61.203370499999956, -3.322547499999939 ], [ -61.203545399999932, -3.322599 ], [ -61.203873499999986, -3.32255779999995 ], [ -61.204073399999977, -3.322538399999931 ], [ -61.204192499999969, -3.322526799999981 ], [ -61.204223399999933, -3.322557699999972 ], [ -61.204378199999951, -3.322764099999963 ], [ -61.204409899999966, -3.322970299999917 ], [ -61.204688099999942, -3.3231979 ], [ -61.204894199999956, -3.323147 ], [ -61.205028399999946, -3.323033699999898 ], [ -61.204966, -3.322868299999874 ], [ -61.204976299999949, -3.322857900000016 ], [ -61.205121399999946, -3.32272339999995 ], [ -61.205214799999958, -3.322899299999934 ], [ -61.205335799999943, -3.3230695 ], [ -61.205492099999958, -3.323225499999952 ], [ -61.205636499999969, -3.323393899999894 ], [ -61.205817799999977, -3.323613699999927 ], [ -61.205886799999973, -3.32375249999998 ], [ -61.205959799999953, -3.323882699999911 ], [ -61.20599, -3.323954599999937 ], [ -61.206062399999951, -3.324177699999938 ], [ -61.206094099999966, -3.3243444 ], [ -61.206170799999938, -3.324523699999882 ], [ -61.20630959999994, -3.324636099999971 ], [ -61.2063199, -3.32464909999989 ], [ -61.206387, -3.324734099999943 ], [ -61.206437299999948, -3.324884799999989 ], [ -61.20644139999996, -3.324897199999929 ], [ -61.206486599999941, -3.32503189999993 ], [ -61.206541699999946, -3.325121299999933 ], [ -61.206547199999939, -3.3251282 ], [ -61.206574799999942, -3.325195600000025 ], [ -61.206607899999945, -3.325258899999986 ], [ -61.206659599999966, -3.325329 ], [ -61.206662699999974, -3.325371499999969 ], [ -61.206652499999969, -3.325403699999897 ], [ -61.206631899999941, -3.32541939999996 ], [ -61.206600099999946, -3.325436099999886 ], [ -61.206558, -3.325438499999968 ], [ -61.20653139999996, -3.325447899999952 ], [ -61.206513099999931, -3.325474799999978 ], [ -61.206513099999931, -3.32547889999993 ], [ -61.206513199999961, -3.325499499999969 ], [ -61.206544, -3.325524099999932 ], [ -61.206574699999969, -3.325537400000015 ], [ -61.206601399999954, -3.3255579 ], [ -61.20662, -3.325581499999967 ], [ -61.206622099999947, -3.32561239999996 ], [ -61.20662219999997, -3.325644299999961 ], [ -61.206629499999963, -3.325682299999888 ], [ -61.206652, -3.325718499999981 ], [ -61.206669499999983, -3.325747699999928 ], [ -61.206718299999977, -3.325749499999989 ], [ -61.206767099999986, -3.325759099999944 ], [ -61.206788599999982, -3.325802 ], [ -61.20683269999995, -3.325886499999971 ], [ -61.206884399999986, -3.32594169999994 ], [ -61.206904899999984, -3.32601419999998 ], [ -61.20689589999995, -3.326086399999895 ], [ -61.206873799999983, -3.326166599999907 ], [ -61.206846599999956, -3.326216899999963 ], [ -61.206809399999941, -3.326232399999961 ], [ -61.206777299999942, -3.326258199999902 ], [ -61.20679389999998, -3.326299099999956 ], [ -61.206822099999961, -3.326328499999967 ], [ -61.20686569999998, -3.326354 ], [ -61.20690419999994, -3.326352799999893 ], [ -61.206934699999984, -3.3263527 ], [ -61.206956199999979, -3.326376900000013 ], [ -61.206953399999975, -3.326435499999917 ], [ -61.206934199999978, -3.326494 ], [ -61.206896, -3.326554899999989 ], [ -61.206894599999941, -3.3266127 ], [ -61.20691839999995, -3.326698799999988 ], [ -61.207003399999969, -3.3268077 ], [ -61.207007099999942, -3.326810599999897 ], [ -61.207052699999963, -3.3268472 ], [ -61.207077499999968, -3.326867 ], [ -61.20708639999998, -3.326913199999986 ], [ -61.207078799999977, -3.3269207 ], [ -61.207056, -3.326943199999965 ], [ -61.207051699999965, -3.32701 ], [ -61.207075399999951, -3.327071 ], [ -61.207125099999985, -3.32712319999997 ], [ -61.207184899999959, -3.32717669999996 ], [ -61.207234399999955, -3.327205700000033 ], [ -61.20733039999994, -3.327212799999901 ], [ -61.207396399999936, -3.327214 ], [ -61.207483799999977, -3.327222299999978 ], [ -61.207514, -3.327266899999906 ], [ -61.207584699999984, -3.327347299999914 ], [ -61.207619199999954, -3.327419499999906 ], [ -61.207627799999962, -3.327449600000012 ], [ -61.2076158, -3.327502499999947 ], [ -61.207568, -3.327529800000029 ], [ -61.207491499999954, -3.3275472 ], [ -61.207442699999945, -3.327573399999985 ], [ -61.207427299999956, -3.3276081 ], [ -61.207442199999939, -3.327654399999975 ], [ -61.207488399999924, -3.327658699999935 ], [ -61.207580699999944, -3.327658599999983 ], [ -61.207729, -3.327659399999915 ], [ -61.207853099999966, -3.327685699999922 ], [ -61.20796329999996, -3.327737399999939 ], [ -61.20803, -3.327817 ], [ -61.208062499999983, -3.3279087 ], [ -61.208080699999982, -3.328050399999982 ], [ -61.208077699999933, -3.328156700000016 ], [ -61.208053899999989, -3.328226699999917 ], [ -61.208025899999939, -3.328313499999932 ], [ -61.208014699999978, -3.32845109999988 ], [ -61.208042799999987, -3.328570499999986 ], [ -61.208114299999977, -3.328681799999923 ], [ -61.208210799999961, -3.328717399999922 ], [ -61.208302, -3.328757499999949 ], [ -61.208410799999967, -3.3287695 ], [ -61.20847109999994, -3.32880169999998 ], [ -61.208556599999952, -3.328851499999975 ], [ -61.208637499999952, -3.328891799999988 ], [ -61.208731499999942, -3.328922499999957 ], [ -61.208836799999972, -3.328938 ], [ -61.208901799999985, -3.328983 ], [ -61.20893929999994, -3.32906250000001 ], [ -61.208955399999979, -3.329159 ], [ -61.208953299999962, -3.329231 ], [ -61.208944199999962, -3.32925709999994 ], [ -61.208919, -3.329282299999915 ], [ -61.208907599999975, -3.329338099999974 ], [ -61.2089122, -3.329420399999945 ], [ -61.208938899999964, -3.329487199999977 ], [ -61.208964699999967, -3.329562799999924 ], [ -61.208967199999968, -3.329631899999887 ], [ -61.208961599999959, -3.329733399999939 ], [ -61.208929699999942, -3.329817 ], [ -61.208902299999977, -3.329870299999903 ], [ -61.208852099999945, -3.329927699999985 ], [ -61.208831599999939, -3.330011600000034 ], [ -61.208841599999971, -3.330084199999877 ], [ -61.208838, -3.330147499999981 ], [ -61.208834399999944, -3.3302108 ], [ -61.208864199999944, -3.330322399999916 ], [ -61.208968099999936, -3.330337799999886 ] ] ] } }
]
}
