{
"type": "FeatureCollection",
"name": "1300631",
"crs": { "type": "name", "properties": { "name": "urn:ogc:def:crs:OGC:1.3:CRS84" } },
"features": [
{ "type": "Feature", "properties": { "CD_MUN": "1300631", "NM_MUN": "Beruri" }, "geometry": { "type": "MultiPolygon", "coordinates": [ [ [ [ -61.368907699999966, -3.91427279999989 ], [ -61.369293599999942, -3.914940599999916 ], [ -61.370422399999939, -3.915948299999976 ], [ -61.370986499999958, -3.916625199999912 ], [ -61.371122299999961, -3.916828399999901 ], [ -61.371550699999943, -3.917302099999985 ], [ -61.371807899999965, -3.917672299999977 ], [ -61.372039, -3.91800059999998 ], [ -61.373172399999987, -3.919621799999975 ], [ -61.377085099999981, -3.919254699999948 ], [ -61.377697199999943, -3.919282 ], [ -61.377913499999977, -3.919256599999964 ], [ -61.378129699999924, -3.919231199999946 ], [ -61.37928809999994, -3.918703899999932 ], [ -61.379423499999973, -3.918354299999977 ], [ -61.379424799999981, -3.918350799999971 ], [ -61.379833, -3.918180499999965 ], [ -61.38024779999995, -3.918016 ], [ -61.380533199999952, -3.917729 ], [ -61.380598, -3.917547099999985 ], [ -61.380835399999974, -3.91688 ], [ -61.381290699999973, -3.916516 ], [ -61.381808, -3.915922 ], [ -61.381809699999963, -3.91587129999996 ], [ -61.381215, -3.912282799999987 ], [ -61.380585399999973, -3.910627199999961 ], [ -61.380555799999975, -3.909934499999989 ], [ -61.380502099999944, -3.909439299999968 ], [ -61.380353399999933, -3.90806639999991 ], [ -61.380276299999942, -3.907519799999903 ], [ -61.380276, -3.907517799999936 ], [ -61.380464, -3.90434 ], [ -61.380474699999972, -3.904159299999989 ], [ -61.380271, -3.902535499999938 ], [ -61.3802697, -3.902534 ], [ -61.379143599999971, -3.9011303 ], [ -61.378656399999954, -3.90040779999994 ], [ -61.378548699999953, -3.899709099999945 ], [ -61.378160299999934, -3.899245599999944 ], [ -61.377823, -3.899010899999981 ], [ -61.377364199999924, -3.898549299999952 ], [ -61.377471099999987, -3.897889599999917 ], [ -61.375393199999955, -3.8958218 ], [ -61.374262499999986, -3.894587199999906 ], [ -61.373706699999957, -3.894597599999941 ], [ -61.371681699999954, -3.891721799999938 ], [ -61.37073369999996, -3.890508799999953 ], [ -61.370328199999953, -3.890307599999939 ], [ -61.370047199999988, -3.890299300000034 ], [ -61.370311699999945, -3.889264299999941 ], [ -61.369549799999952, -3.888249599999898 ], [ -61.368218399999932, -3.885509199999909 ], [ -61.367208399999981, -3.881959 ], [ -61.366870499999955, -3.8781754 ], [ -61.366307599999978, -3.8784474 ], [ -61.365954399999957, -3.878781399999987 ], [ -61.365934099999947, -3.878897 ], [ -61.365932599999958, -3.878908399999911 ], [ -61.365934399999958, -3.878944700000015 ], [ -61.365937799999983, -3.878969799999899 ], [ -61.365936499999975, -3.879012799999921 ], [ -61.365944699999936, -3.879035699999958 ], [ -61.36595449999998, -3.879063199999939 ], [ -61.365962699999962, -3.879086099999925 ], [ -61.365970899999986, -3.879109 ], [ -61.365979099999947, -3.879131799999972 ], [ -61.365985599999988, -3.879150199999958 ], [ -61.366008399999942, -3.879182699999916 ], [ -61.366021399999973, -3.879203499999981 ], [ -61.366029599999933, -3.879226399999966 ], [ -61.366050699999967, -3.8792544 ], [ -61.366062099999958, -3.879270699999977 ], [ -61.366068699999971, -3.879289099999923 ], [ -61.366081799999954, -3.879325699999933 ], [ -61.366091599999947, -3.879353199999966 ], [ -61.366088399999967, -3.879375499999941 ], [ -61.366074, -3.8793972 ], [ -61.366057899999987, -3.879414199999887 ], [ -61.366040199999986, -3.879442299999967 ], [ -61.366017899999981, -3.879472299999929 ], [ -61.366013099999968, -3.879489899999935 ], [ -61.366006899999952, -3.879518399999967 ], [ -61.3660038, -3.879556 ], [ -61.366002399999957, -3.879582499999923 ], [ -61.366000899999968, -3.879609 ], [ -61.366002599999938, -3.879629 ], [ -61.36599949999998, -3.879651 ], [ -61.365991699999931, -3.879674699999931 ], [ -61.365967899999987, -3.879699599999938 ], [ -61.36595049999994, -3.879711599999921 ], [ -61.365922099999977, -3.879722799999982 ], [ -61.365903099999969, -3.879730299999915 ], [ -61.365870099999938, -3.8797433 ], [ -61.365846599999948, -3.879752599999978 ], [ -61.365824799999984, -3.8797663 ], [ -61.365787399999988, -3.879781 ], [ -61.365764099999978, -3.879790199999936 ], [ -61.365740899999942, -3.879799400000011 ], [ -61.365711499999975, -3.879805899999961 ], [ -61.365689799999984, -3.879804299999955 ], [ -61.365674399999932, -3.879805299999946 ], [ -61.365656, -3.879812599999975 ], [ -61.365629899999988, -3.87981280000001 ], [ -61.365593299999944, -3.879827199999927 ], [ -61.365589, -3.8798441 ], [ -61.365584599999977, -3.879860899999961 ], [ -61.365581899999938, -3.879882199999939 ], [ -61.365574599999938, -3.879905099999976 ], [ -61.365571799999934, -3.879926299999944 ], [ -61.365563, -3.87994479999998 ], [ -61.365541899999982, -3.879958 ], [ -61.365528299999944, -3.879963299999936 ], [ -61.365499899999982, -3.879984399999932 ], [ -61.36547749999994, -3.8799931 ], [ -61.365450599999974, -3.880003599999977 ], [ -61.365423799999974, -3.880014 ], [ -61.365401499999962, -3.8800226 ], [ -61.365379299999979, -3.880031299999954 ], [ -61.36536, -3.880033799999985 ], [ -61.365342299999959, -3.880040699999927 ], [ -61.365314199999936, -3.880046699999953 ], [ -61.365295099999969, -3.88004920000001 ], [ -61.365276, -3.880051699999933 ], [ -61.365254099999959, -3.880060299999978 ], [ -61.365240899999947, -3.880065399999986 ], [ -61.365213199999971, -3.880071299999963 ], [ -61.36519149999998, -3.8800798 ], [ -61.365172599999944, -3.880082199999908 ], [ -61.365146599999939, -3.880092399999929 ], [ -61.365125099999943, -3.880100799999987 ], [ -61.365103499999975, -3.880109199999955 ], [ -61.365083599999934, -3.8801217999999 ], [ -61.365061, -3.880140399999919 ], [ -61.365042799999969, -3.88015719999989 ], [ -61.365040099999987, -3.880163199999982 ], [ -61.365016399999938, -3.880191699999917 ], [ -61.364991399999958, -3.880216 ], [ -61.364984399999969, -3.880223499999959 ], [ -61.364975199999947, -3.880251200000019 ], [ -61.364972899999948, -3.880271399999968 ], [ -61.364966399999958, -3.88029309999995 ], [ -61.36495529999997, -3.880302199999968 ], [ -61.364940399999973, -3.880327099999944 ], [ -61.364929299999964, -3.880336099999935 ], [ -61.364911499999955, -3.880352499999928 ], [ -61.364896299999941, -3.880363099999942 ], [ -61.364879599999938, -3.880369399999981 ], [ -61.364854599999944, -3.8803788999999 ], [ -61.364838, -3.880385199999957 ], [ -61.364825599999953, -3.88039 ], [ -61.364793599999985, -3.880392599999909 ], [ -61.364773099999979, -3.880400399999892 ], [ -61.364743899999958, -3.880397300000011 ], [ -61.364727499999965, -3.880403499999896 ], [ -61.364708099999973, -3.880401499999948 ], [ -61.364691799999946, -3.8804077 ], [ -61.364667399999973, -3.880417 ], [ -61.364647099999964, -3.880424799999967 ], [ -61.364631399999958, -3.880444899999913 ], [ -61.364618199999938, -3.880459299999912 ], [ -61.364601099999959, -3.880475299999932 ], [ -61.364589499999965, -3.8804938 ], [ -61.364583399999958, -3.880514799999928 ], [ -61.364585399999953, -3.880532799999917 ], [ -61.364583399999958, -3.880552299999951 ], [ -61.364585399999953, -3.880570299999885 ], [ -61.364583299999936, -3.880589699999931 ], [ -61.364575799999955, -3.880606599999986 ], [ -61.364554799999951, -3.88062369999993 ], [ -61.364534899999967, -3.880631099999935 ], [ -61.364515, -3.880638499999979 ], [ -61.364503099999979, -3.880642899999926 ], [ -61.36448079999996, -3.880655799999977 ], [ -61.364466499999935, -3.880665799999969 ], [ -61.364452199999967, -3.880675699999946 ], [ -61.364434599999989, -3.880700799999905 ], [ -61.364421799999946, -3.880714699999922 ], [ -61.364419899999973, -3.8807338 ], [ -61.364421899999968, -3.880751499999958 ], [ -61.364421, -3.880761099999953 ], [ -61.364418099999973, -3.88078970000003 ], [ -61.364417699999933, -3.880812799999971 ], [ -61.364410399999933, -3.880829199999966 ], [ -61.364399199999987, -3.880847 ], [ -61.364395799999954, -3.880862 ], [ -61.36439879999994, -3.880870099999933 ], [ -61.364351799999945, -3.880911899999982 ], [ -61.364326699999943, -3.880929500000028 ], [ -61.364310599999953, -3.880942599999951 ], [ -61.364294499999971, -3.880955799999968 ], [ -61.364266799999946, -3.880979799999984 ], [ -61.364250899999938, -3.880992899999941 ], [ -61.364232099999974, -3.881012499999943 ], [ -61.364204699999952, -3.881036299999983 ], [ -61.364184499999972, -3.881051299999958 ], [ -61.364168699999937, -3.881064299999958 ], [ -61.36414579999996, -3.88108579999992 ], [ -61.364130099999954, -3.881098599999964 ], [ -61.364103, -3.8811221 ], [ -61.364096, -3.8811307 ], [ -61.364080399999978, -3.881143399999932 ], [ -61.364060499999937, -3.881158199999966 ], [ -61.364043799999941, -3.881181699999937 ], [ -61.364017099999955, -3.881204899999925 ], [ -61.364001699999967, -3.88121749999989 ], [ -61.363986199999943, -3.881230099999905 ], [ -61.363964, -3.881251 ], [ -61.363946, -3.881269899999921 ], [ -61.363928, -3.88128869999993 ], [ -61.363904899999973, -3.881320099999958 ], [ -61.363887, -3.881338799999974 ], [ -61.363880199999983, -3.881347199999939 ], [ -61.363872399999934, -3.88136610000001 ], [ -61.363853099999979, -3.8813804 ], [ -61.363841099999945, -3.881401199999971 ], [ -61.363829099999975, -3.881422 ], [ -61.363812, -3.881455299999922 ], [ -61.363799099999945, -3.881486499999921 ], [ -61.363795499999981, -3.881503199999947 ], [ -61.36378829999996, -3.881536599999917 ], [ -61.363783599999984, -3.881563699999986 ], [ -61.363787799999955, -3.881601700000017 ], [ -61.36378979999995, -3.8816206 ], [ -61.363793399999963, -3.881643799999938 ], [ -61.363799599999929, -3.881660799999928 ], [ -61.363803199999957, -3.881684 ], [ -61.363810899999983, -3.881705299999958 ], [ -61.363817099999949, -3.8817223 ], [ -61.363815, -3.881743099999946 ], [ -61.363827299999976, -3.88177710000001 ], [ -61.36382779999996, -3.881791699999957 ], [ -61.363840099999955, -3.8818257 ], [ -61.363847799999981, -3.881846899999937 ], [ -61.363855499999943, -3.881868099999932 ], [ -61.363863199999962, -3.881889399999948 ], [ -61.363872499999957, -3.881914799999942 ], [ -61.363880199999983, -3.881936 ], [ -61.363887899999959, -3.881957299999944 ], [ -61.363905299999935, -3.8819791 ], [ -61.363916699999947, -3.8819839 ], [ -61.363932699999957, -3.882001499999953 ], [ -61.363961099999983, -3.882013699999956 ], [ -61.363984399999943, -3.882038099999945 ], [ -61.363998899999963, -3.882051499999956 ], [ -61.3640223, -3.882075899999943 ], [ -61.364041, -3.882087499999946 ], [ -61.364049799999975, -3.88209849999989 ], [ -61.364068599999939, -3.88211019999996 ], [ -61.364083199999982, -3.88212359999998 ], [ -61.364092399999947, -3.882149199999966 ], [ -61.364103299999961, -3.8821791 ], [ -61.364111, -3.882200399999964 ], [ -61.364116, -3.882227799999936 ], [ -61.364119499999951, -3.882250899999983 ], [ -61.364128799999946, -3.882276499999893 ], [ -61.364143399999932, -3.88229 ], [ -61.364159199999968, -3.882293299999921 ], [ -61.364176499999985, -3.88230079999996 ], [ -61.364201199999968, -3.882315199999962 ], [ -61.364212, -3.882345099999984 ], [ -61.36422129999994, -3.882370699999989 ], [ -61.364214699999927, -3.882393 ], [ -61.364216699999986, -3.882411799999925 ], [ -61.364214399999987, -3.882432299999925 ], [ -61.364213599999964, -3.882457 ], [ -61.364214, -3.882471499999943 ], [ -61.364213199999938, -3.882496199999912 ], [ -61.364220899999964, -3.882517499999957 ], [ -61.364230199999952, -3.882543 ], [ -61.364239399999974, -3.882568599999954 ], [ -61.364250199999958, -3.882598299999925 ], [ -61.364259399999987, -3.88262380000002 ], [ -61.364278699999943, -3.882650299999979 ], [ -61.364288, -3.882675799999944 ], [ -61.364294099999938, -3.882692800000016 ], [ -61.364290599999954, -3.882723299999973 ], [ -61.364288299999942, -3.88274349999991 ], [ -61.364290199999971, -3.882762099999955 ], [ -61.364285099999954, -3.882788199999945 ], [ -61.364284, -3.882798299999953 ], [ -61.364270499999975, -3.882827499999931 ], [ -61.364266599999944, -3.8828434 ], [ -61.36427, -3.882866199999962 ], [ -61.364270399999953, -3.882880399999984 ], [ -61.364271199999962, -3.882909 ], [ -61.364268799999941, -3.882929 ], [ -61.364255, -3.882943699999929 ], [ -61.364237099999968, -3.88296 ], [ -61.364226, -3.882968899999984 ], [ -61.364205399999953, -3.882990799999986 ], [ -61.364191799999965, -3.883005399999922 ], [ -61.364181199999962, -3.883028399999906 ], [ -61.364171699999986, -3.883041399999916 ], [ -61.364158499999981, -3.88306989999994 ], [ -61.364152099999956, -3.883091199999974 ], [ -61.364141599999989, -3.883114 ], [ -61.364134199999967, -3.883145 ], [ -61.364135, -3.883173 ], [ -61.364127099999969, -3.88319 ], [ -61.364124899999979, -3.883209599999951 ], [ -61.364120499999956, -3.883248799999966 ], [ -61.364112699999957, -3.883265599999949 ], [ -61.364102299999956, -3.883288099999967 ], [ -61.36408629999994, -3.883307799999982 ], [ -61.36407029999998, -3.883327399999917 ], [ -61.364065599999954, -3.883352399999956 ], [ -61.364044499999977, -3.883383099999896 ], [ -61.364036799999951, -3.883399699999917 ], [ -61.364022499999976, -3.883423299999979 ], [ -61.36401079999996, -3.8834413 ], [ -61.364001599999945, -3.883453699999981 ], [ -61.363981899999949, -3.883474399999963 ], [ -61.363967299999956, -3.883484099999955 ], [ -61.363954199999966, -3.883497799999962 ], [ -61.363935599999934, -3.8835088 ], [ -61.36393309999994, -3.883514299999904 ], [ -61.363904699999978, -3.88384049999997 ], [ -61.363891799999976, -3.883846599999944 ], [ -61.36379309999996, -3.883893 ], [ -61.363782599999979, -3.883965 ], [ -61.363754399999948, -3.88398749999992 ], [ -61.363719199999927, -3.884024 ], [ -61.363652599999959, -3.884072900000024 ], [ -61.363600199999958, -3.884127299999951 ], [ -61.363558399999938, -3.884177399999947 ], [ -61.363506199999968, -3.884197899999937 ], [ -61.363454199999978, -3.884218399999972 ], [ -61.363416199999968, -3.884244499999979 ], [ -61.363364399999973, -3.884264799999904 ], [ -61.363302399999959, -3.884289199999964 ], [ -61.363250899999969, -3.884309399999931 ], [ -61.363189399999953, -3.884333599999918 ], [ -61.36311429999995, -3.884352 ], [ -61.363053099999945, -3.884376099999889 ], [ -61.362992199999958, -3.8844 ], [ -61.362941499999977, -3.884419899999907 ], [ -61.362891, -3.884439799999912 ], [ -61.362854099999936, -3.884465299999897 ], [ -61.362827699999968, -3.884519599999956 ], [ -61.362787899999944, -3.884568099999932 ], [ -61.362774799999961, -3.884595199999973 ], [ -61.362745099999984, -3.8846396 ], [ -61.362719, -3.884693499999987 ], [ -61.362705899999973, -3.884720399999972 ], [ -61.362666399999974, -3.884768399999929 ], [ -61.362646899999959, -3.884808599999899 ], [ -61.362617599999965, -3.884852599999983 ], [ -61.36258829999997, -3.8848965 ], [ -61.362535799999932, -3.884938299999927 ], [ -61.362499799999966, -3.884962899999956 ], [ -61.362425099999946, -3.885034699999963 ], [ -61.36240939999994, -3.885083799999983 ], [ -61.362400099999945, -3.88511969999991 ], [ -61.362378, -3.8851819 ], [ -61.362362399999945, -3.885230699999989 ], [ -61.362362799999971, -3.885262799999913 ], [ -61.362353599999956, -3.885298399999985 ], [ -61.362321899999984, -3.88536379999995 ], [ -61.362309799999942, -3.885421799999933 ], [ -61.362303499999932, -3.885434899999975 ], [ -61.362294699999943, -3.8855022 ], [ -61.362275799999971, -3.885541099999988 ], [ -61.362243899999953, -3.88557419999997 ], [ -61.362215499999934, -3.885616599999889 ], [ -61.362183699999953, -3.885649499999927 ], [ -61.362143, -3.88571749999997 ], [ -61.362136699999958, -3.885730299999925 ], [ -61.362130499999978, -3.885743199999942 ], [ -61.362115299999971, -3.88579109999992 ], [ -61.36210959999994, -3.885835399999957 ], [ -61.362075299999951, -3.88589 ], [ -61.362043799999981, -3.8859224 ], [ -61.362005799999956, -3.885936199999963 ], [ -61.361965, -3.885972 ], [ -61.361911499999962, -3.886001799999953 ], [ -61.361864299999986, -3.88601879999995 ], [ -61.361826599999965, -3.886032399999979 ], [ -61.3617675, -3.88607460000001 ], [ -61.361747399999956, -3.886092299999919 ], [ -61.36172739999995, -3.886109899999966 ], [ -61.361704299999985, -3.886133799999896 ], [ -61.361696599999966, -3.8861418 ], [ -61.361647299999952, -3.886180300000012 ], [ -61.36161339999996, -3.886202799999956 ], [ -61.361610799999937, -3.8862245 ], [ -61.361549199999963, -3.886256899999959 ], [ -61.361506299999967, -3.886282599999939 ], [ -61.361441699999943, -3.886305599999958 ], [ -61.361368299999981, -3.886331899999933 ], [ -61.361322499999972, -3.886348199999909 ], [ -61.36129509999995, -3.886358 ], [ -61.3612495, -3.886374299999933 ], [ -61.36118589999996, -3.886397 ], [ -61.361134799999952, -3.886425499999938 ], [ -61.36109289999996, -3.88645059999992 ], [ -61.361048699999969, -3.886497 ], [ -61.361004599999951, -3.886543199999978 ], [ -61.3609843, -3.886570799999943 ], [ -61.360955, -3.886601399999924 ], [ -61.360938, -3.88663789999997 ], [ -61.360926599999971, -3.886662199999945 ], [ -61.360907299999951, -3.886719599999905 ], [ -61.360896799999978, -3.886773799999947 ], [ -61.360895299999981, -3.886824799999965 ], [ -61.360860599999967, -3.8868671 ], [ -61.36082609999994, -3.886909299999953 ], [ -61.360793899999976, -3.88693039999991 ], [ -61.360765099999981, -3.886960499999937 ], [ -61.360739599999931, -3.886999399999966 ], [ -61.360771499999949, -3.887172499999983 ], [ -61.360707099999956, -3.887347 ], [ -61.360674899999935, -3.88739819999994 ], [ -61.3606463, -3.887423699999986 ], [ -61.360585599999986, -3.887464599999962 ], [ -61.360535799999987, -3.887500299999937 ], [ -61.360482499999932, -3.887525799999931 ], [ -61.360418699999968, -3.887556199999989 ], [ -61.360358799999972, -3.887596599999906 ], [ -61.360359, -3.88763189999997 ], [ -61.36037, -3.887697399999973 ], [ -61.360381, -3.887762899999963 ], [ -61.360391799999952, -3.887793099999907 ], [ -61.360416899999962, -3.887863599999954 ], [ -61.36043489999998, -3.88791389999992 ], [ -61.360459799999937, -3.8879492 ], [ -61.360509799999932, -3.888019899999965 ], [ -61.360531299999927, -3.88808029999996 ], [ -61.360552899999959, -3.888140699999943 ], [ -61.360578, -3.888211199999988 ], [ -61.360595899999964, -3.888261499999927 ], [ -61.360617499999933, -3.888321899999975 ], [ -61.360635399999985, -3.888372199999902 ], [ -61.360653299999967, -3.888422499999888 ], [ -61.360671299999971, -3.888472799999888 ], [ -61.360667799999987, -3.888497699999951 ], [ -61.360668, -3.888567499999974 ], [ -61.360636299999953, -3.8886166 ], [ -61.360618799999948, -3.888671 ], [ -61.36058, -3.888699799999892 ], [ -61.360520299999962, -3.8887381 ], [ -61.360471199999949, -3.888771499999977 ], [ -61.360418699999968, -3.88879479999994 ], [ -61.360366399999975, -3.8888181 ], [ -61.360282899999966, -3.888855199999935 ], [ -61.36025689999996, -3.888866799999915 ], [ -61.360230899999976, -3.888878399999919 ], [ -61.360189499999933, -3.888896799999918 ], [ -61.36012419999998, -3.8889488 ], [ -61.360041799999976, -3.8889854 ], [ -61.360014499999984, -3.889008899999945 ], [ -61.359956599999975, -3.889046 ], [ -61.359936499999954, -3.889089099999959 ], [ -61.359930199999951, -3.889137399999913 ], [ -61.359903499999973, -3.889194699999984 ], [ -61.359890499999949, -3.88925709999996 ], [ -61.35988069999997, -3.8892954 ], [ -61.359870899999976, -3.889333599999928 ], [ -61.359858, -3.889395799999952 ], [ -61.359849799999942, -3.889422 ], [ -61.359841599999982, -3.889448099999916 ], [ -61.359815099999942, -3.889504699999974 ], [ -61.359801899999979, -3.889533 ], [ -61.359765099999947, -3.889560199999939 ], [ -61.359735299999947, -3.889606800000011 ], [ -61.359688499999955, -3.889638099999924 ], [ -61.359628399999956, -3.889664 ], [ -61.359585399999951, -3.889704899999977 ], [ -61.359525699999949, -3.889730599999914 ], [ -61.359486, -3.88974769999995 ], [ -61.35943, -3.8897829 ], [ -61.359377699999975, -3.889827699999953 ], [ -61.359331899999972, -3.8898584 ], [ -61.359292599999947, -3.889875299999984 ], [ -61.359247, -3.889905899999938 ], [ -61.359207899999952, -3.889922699999936 ], [ -61.359159099999943, -3.8899436 ], [ -61.359113899999961, -3.889974 ], [ -61.359055699999935, -3.889998899999975 ], [ -61.359037, -3.890039899999976 ], [ -61.359018299999953, -3.890080899999951 ], [ -61.358993399999981, -3.890135399999976 ], [ -61.358987199999945, -3.890149 ], [ -61.358870399999951, -3.890209399999963 ], [ -61.358837099999967, -3.890261499999941 ], [ -61.358811199999941, -3.890334199999897 ], [ -61.358774399999966, -3.890375699999983 ], [ -61.358734, -3.890443 ], [ -61.358693799999969, -3.8905101 ], [ -61.358660899999961, -3.890561499999971 ], [ -61.35861, -3.89063339999993 ], [ -61.358580899999936, -3.89069479999991 ], [ -61.358526599999948, -3.890756 ], [ -61.358490499999959, -3.89079659999995 ], [ -61.358414899999957, -3.890832 ], [ -61.358361099999968, -3.890857199999981 ], [ -61.358296699999975, -3.890887399999961 ], [ -61.358243199999947, -3.890912399999915 ], [ -61.35818619999997, -3.890927299999936 ], [ -61.358133, -3.890952199999965 ], [ -61.358083599999986, -3.890987099999929 ], [ -61.358037799999984, -3.891032 ], [ -61.358009899999956, -3.891091899999931 ], [ -61.358010099999937, -3.891127 ], [ -61.358007, -3.891186899999944 ], [ -61.357993299999968, -3.891251699999946 ], [ -61.358004199999975, -3.891316699999941 ], [ -61.357980299999959, -3.8914209 ], [ -61.357970199999961, -3.8914953 ], [ -61.357953, -3.8915496 ], [ -61.35794279999994, -3.891589 ], [ -61.357925399999942, -3.8916085 ], [ -61.357912099999957, -3.891707099999921 ], [ -61.357887899999987, -3.891741099999927 ], [ -61.357860499999965, -3.891799599999916 ], [ -61.357836399999947, -3.891833499999968 ], [ -61.357767399999943, -3.891875899999927 ], [ -61.357698599999928, -3.891918199999914 ], [ -61.357636899999932, -3.891945899999921 ], [ -61.357592299999965, -3.891954399999983 ], [ -61.357547799999963, -3.891962899999926 ], [ -61.357496699999956, -3.891985899999988 ], [ -61.357438799999954, -3.891989099999904 ], [ -61.357367299999964, -3.891987 ], [ -61.357323299999969, -3.891995399999936 ], [ -61.357269299999984, -3.892008399999956 ], [ -61.35722549999997, -3.892016799999917 ], [ -61.357215399999973, -3.892021299999914 ], [ -61.357065199999965, -3.892089099999942 ], [ -61.357025299999975, -3.892107100000011 ], [ -61.356945899999971, -3.892142899999931 ], [ -61.356896399999982, -3.892165199999936 ], [ -61.356847, -3.8921875 ], [ -61.356788, -3.892214099999935 ], [ -61.356755699999951, -3.892251099999945 ], [ -61.35672049999993, -3.892311699999969 ], [ -61.356708499999975, -3.892372899999931 ], [ -61.356709699999946, -3.892439399999961 ], [ -61.35670749999997, -3.8924961 ], [ -61.356712099999989, -3.8925718999999 ], [ -61.356722499999925, -3.892600699999948 ], [ -61.356723699999982, -3.892666899999981 ], [ -61.35674779999993, -3.892734 ], [ -61.35676849999998, -3.892791499999921 ], [ -61.3567829, -3.892862899999924 ], [ -61.356790899999957, -3.892947899999978 ], [ -61.356795499999976, -3.893023299999928 ], [ -61.3568001, -3.893098599999968 ], [ -61.356764599999963, -3.893124799999946 ], [ -61.356742299999951, -3.893156299999937 ], [ -61.356684699999967, -3.893213699999931 ], [ -61.356637, -3.89326689999992 ], [ -61.356583299999954, -3.893333399999952 ], [ -61.356570899999952, -3.893360499999931 ], [ -61.35653649999994, -3.893418599999924 ], [ -61.356518, -3.893459100000012 ], [ -61.356502299999924, -3.893476599999947 ], [ -61.356496799999945, -3.893522399999963 ], [ -61.356479, -3.893595 ], [ -61.356473499999936, -3.893640699999967 ], [ -61.356481, -3.893691799999944 ], [ -61.356478899999964, -3.893746800000017 ], [ -61.356502699999972, -3.893812699999942 ], [ -61.356512899999977, -3.893841 ], [ -61.356528199999957, -3.893883299999974 ], [ -61.356543499999987, -3.893925699999921 ], [ -61.35654129999994, -3.893980499999949 ], [ -61.356542, -3.894012599999954 ], [ -61.356533099999979, -3.894048499999949 ], [ -61.35652209999995, -3.8941389 ], [ -61.356503799999984, -3.894178499999926 ], [ -61.356485399999933, -3.894218 ], [ -61.356502399999954, -3.894264899999914 ], [ -61.356526, -3.894330399999983 ], [ -61.356549699999967, -3.894396 ], [ -61.356557099999975, -3.894446499999926 ], [ -61.356555, -3.894500699999985 ], [ -61.35656229999995, -3.89455119999995 ], [ -61.356553499999961, -3.8945866 ], [ -61.356509499999966, -3.894614399999924 ], [ -61.356478399999958, -3.89464769999998 ], [ -61.356441399999937, -3.89469389999989 ], [ -61.356429899999966, -3.894751299999908 ], [ -61.356425199999933, -3.894827199999924 ], [ -61.356429299999945, -3.894868 ], [ -61.356432899999959, -3.894893 ], [ -61.356436599999938, -3.894918 ], [ -61.356453399999964, -3.894964399999925 ], [ -61.356460799999979, -3.8950144 ], [ -61.356462099999987, -3.895077099999945 ], [ -61.356460099999929, -3.895130499999954 ], [ -61.356445299999955, -3.895178 ], [ -61.356414499999971, -3.8952105 ], [ -61.356377799999954, -3.895255699999961 ], [ -61.356350499999955, -3.895297199999951 ], [ -61.356314, -3.895342099999989 ], [ -61.356286799999964, -3.895383500000024 ], [ -61.356253799999941, -3.895437399999973 ], [ -61.356236, -3.895475099999898 ], [ -61.356224899999972, -3.895531199999928 ], [ -61.356219699999947, -3.8955746 ], [ -61.356207899999958, -3.895599599999951 ], [ -61.356199399999987, -3.895633799999924 ], [ -61.356154099999969, -3.895681299999945 ], [ -61.356136499999941, -3.895718700000018 ], [ -61.356084799999969, -3.895747699999953 ], [ -61.356045699999981, -3.895782399999933 ], [ -61.356015799999966, -3.895813699999925 ], [ -61.355976899999973, -3.895848299999953 ], [ -61.355950499999956, -3.8958886 ], [ -61.355933099999959, -3.895925500000012 ], [ -61.35590679999995, -3.895965699999951 ], [ -61.35590179999997, -3.896008299999905 ], [ -61.355884599999975, -3.896045099999974 ], [ -61.355876399999943, -3.896078599999931 ], [ -61.355888799999946, -3.896203399999967 ], [ -61.355902699999952, -3.896242 ], [ -61.355924199999947, -3.896333499999923 ], [ -61.355938099999939, -3.896372099999924 ], [ -61.355962399999953, -3.896439699999931 ], [ -61.355976199999986, -3.896478199999899 ], [ -61.356009599999929, -3.896507699999967 ], [ -61.356043599999964, -3.896570699999939 ], [ -61.356080499999962, -3.896609899999936 ], [ -61.356104199999947, -3.896644 ], [ -61.356141099999945, -3.896683299999918 ], [ -61.356171699999948, -3.896736799999887 ], [ -61.3562151, -3.896761899999935 ], [ -61.356282199999953, -3.896821399999967 ], [ -61.356325699999957, -3.896846599999919 ], [ -61.356365799999935, -3.8968623 ], [ -61.35642629999996, -3.896902499999966 ], [ -61.356473499999936, -3.896937699999926 ], [ -61.356544199999966, -3.896973599999936 ], [ -61.356598099999978, -3.896994699999977 ], [ -61.356645499999956, -3.89703 ], [ -61.356683, -3.897069699999943 ], [ -61.356700499999931, -3.897118399999916 ], [ -61.356748899999957, -3.897221099999917 ], [ -61.356783399999983, -3.897284799999976 ], [ -61.356818, -3.897348599999954 ], [ -61.356849399999987, -3.897436199999916 ], [ -61.356883499999981, -3.89746649999991 ], [ -61.356904499999985, -3.89752489999992 ], [ -61.356921899999982, -3.897573599999958 ], [ -61.356949499999985, -3.897618 ], [ -61.356984, -3.8976817999999 ], [ -61.357008499999949, -3.89775 ], [ -61.357025899999933, -3.897798599999936 ], [ -61.357029799999964, -3.897841799999935 ], [ -61.357013399999971, -3.897893399999939 ], [ -61.35700049999997, -3.897954599999936 ], [ -61.356984099999984, -3.898006 ], [ -61.356964299999959, -3.898047599999899 ], [ -61.356961599999984, -3.898104299999961 ], [ -61.356962299999964, -3.898170699999961 ], [ -61.356956399999937, -3.8982508 ], [ -61.356956799999985, -3.898283899999968 ], [ -61.356977599999944, -3.898341899999959 ], [ -61.356991499999936, -3.89838050000002 ], [ -61.357019199999961, -3.898457799999909 ], [ -61.357029599999983, -3.898486799999939 ], [ -61.357057399999967, -3.898564 ], [ -61.357105299999944, -3.898633299999948 ], [ -61.357129499999985, -3.89870089999993 ], [ -61.35715, -3.898725899999953 ], [ -61.357177799999924, -3.898803099999967 ], [ -61.357205499999971, -3.89888039999993 ], [ -61.35721929999994, -3.898919 ], [ -61.357226499999975, -3.898971199999949 ], [ -61.357220199999972, -3.899017599999967 ], [ -61.357203699999957, -3.8990678 ], [ -61.357174099999959, -3.899144799999926 ], [ -61.357157699999966, -3.899194799999941 ], [ -61.357174899999961, -3.8992428 ], [ -61.357192199999986, -3.899290899999945 ], [ -61.357219799999939, -3.8993677 ], [ -61.357223199999972, -3.8993773 ], [ -61.357247099999938, -3.899412 ], [ -61.357301599999978, -3.899467899999897 ], [ -61.357352599999963, -3.899514399999963 ], [ -61.357400299999945, -3.8995512 ], [ -61.357444599999958, -3.899578499999967 ], [ -61.357468599999947, -3.899613299999954 ], [ -61.357502699999941, -3.899644399999934 ], [ -61.35752679999996, -3.899679199999984 ], [ -61.357537199999967, -3.899708099999957 ], [ -61.357551, -3.8997467 ], [ -61.357575199999985, -3.8998141 ], [ -61.357589, -3.899852699999955 ], [ -61.357592599999982, -3.899894799999971 ], [ -61.35758949999996, -3.899950299999921 ], [ -61.357589699999956, -3.899982799999954 ], [ -61.357583099999943, -3.900028499999972 ], [ -61.357566399999932, -3.900077699999901 ], [ -61.357553099999969, -3.9001365 ], [ -61.35755329999995, -3.900168799999942 ], [ -61.35754, -3.900227399999969 ], [ -61.357523399999927, -3.90027639999992 ], [ -61.357516899999958, -3.900321699999975 ], [ -61.357517099999939, -3.900353899999978 ], [ -61.357514, -3.900408699999989 ], [ -61.357517599999937, -3.900450399999943 ], [ -61.357527899999987, -3.900479099999926 ], [ -61.357545099999982, -3.900526799999949 ], [ -61.357569099999978, -3.900593699999901 ], [ -61.357589699999956, -3.900650899999955 ], [ -61.357603399999967, -3.9006891 ], [ -61.357617099999977, -3.9007273 ], [ -61.357641099999974, -3.900794099999919 ], [ -61.357651399999952, -3.900822699999904 ], [ -61.357663699999932, -3.900902500000023 ], [ -61.357677599999938, -3.900941099999911 ], [ -61.357716499999981, -3.901080899999963 ], [ -61.357744199999956, -3.901158199999974 ], [ -61.357748299999969, -3.901201299999944 ], [ -61.357765699999966, -3.901249599999929 ], [ -61.357783, -3.901297799999905 ], [ -61.35777729999996, -3.90134529999996 ], [ -61.357781399999972, -3.9013883 ], [ -61.357775599999968, -3.901435699999936 ], [ -61.357769899999937, -3.901483099999923 ], [ -61.357777499999941, -3.901535599999891 ], [ -61.357791899999938, -3.901607299999977 ], [ -61.357812599999939, -3.901665 ], [ -61.357829899999956, -3.901713099999938 ], [ -61.357836799999973, -3.901732299999911 ], [ -61.357857599999939, -3.90179 ], [ -61.357881799999973, -3.9018573 ], [ -61.357895599999949, -3.90189580000001 ], [ -61.357929, -3.90192559999996 ], [ -61.357973399999942, -3.902017499999914 ], [ -61.358017299999979, -3.9020763 ], [ -61.358034, -3.902091299999906 ], [ -61.358081399999946, -3.902159799999973 ], [ -61.358098199999965, -3.902174799999987 ], [ -61.358135699999941, -3.9022475999999 ], [ -61.358153, -3.9022957 ], [ -61.358180199999936, -3.902339599999976 ], [ -61.358200899999986, -3.902397399999961 ], [ -61.358231099999962, -3.902417899999926 ], [ -61.358258799999987, -3.90249489999995 ], [ -61.358283, -3.902562299999948 ], [ -61.358303799999987, -3.90262 ], [ -61.358317599999964, -3.902658500000016 ], [ -61.358334899999932, -3.902706599999959 ], [ -61.358348699999965, -3.902745 ], [ -61.358379399999933, -3.902798699999933 ], [ -61.358396599999942, -3.902846799999953 ], [ -61.358413899999967, -3.9028948 ], [ -61.358434599999953, -3.902952499999971 ], [ -61.358448499999945, -3.902991 ], [ -61.358462299999978, -3.903029399999967 ], [ -61.358483, -3.903087099999904 ], [ -61.358490299999978, -3.903139099999947 ], [ -61.358494099999973, -3.903181499999957 ], [ -61.358501399999966, -3.903233399999987 ], [ -61.358495299999959, -3.903279599999961 ], [ -61.3584891, -3.903325799999912 ], [ -61.358483, -3.903371899999934 ], [ -61.358486899999946, -3.903414099999967 ], [ -61.35849069999994, -3.903456299999967 ], [ -61.358501399999966, -3.903517499999973 ], [ -61.358501799999949, -3.903550099999934 ], [ -61.358492199999951, -3.903586399999925 ], [ -61.358506299999988, -3.9036571 ], [ -61.358500599999957, -3.903735299999916 ], [ -61.358497899999982, -3.903790599999966 ], [ -61.358498299999958, -3.903823 ], [ -61.358502099999953, -3.903864799999939 ], [ -61.358509299999973, -3.903916199999986 ], [ -61.358108199999947, -3.904702399999987 ], [ -61.357875, -3.905743399999922 ], [ -61.358402699999935, -3.908271199999935 ], [ -61.358719699999945, -3.908667 ], [ -61.358997199999976, -3.908827399999911 ], [ -61.359890899999975, -3.9090924 ], [ -61.361064299999953, -3.908847699999961 ], [ -61.362350299999946, -3.908451499999965 ], [ -61.363366399999968, -3.908826599999961 ], [ -61.364084099999964, -3.909376399999964 ], [ -61.364920299999945, -3.909892899999953 ], [ -61.366154, -3.911223 ], [ -61.366777299999974, -3.912029799999982 ], [ -61.367400799999984, -3.912635599999938 ], [ -61.367546199999936, -3.9127768 ], [ -61.368098099999948, -3.913484499999953 ], [ -61.368907699999966, -3.91427279999989 ] ] ], [ [ [ -61.155069599999926, -3.759304 ], [ -61.154065, -3.759387199999905 ], [ -61.153109299999983, -3.759486799999907 ], [ -61.152122799999979, -3.759803599999895 ], [ -61.151499899999976, -3.760141799999911 ], [ -61.14904839999997, -3.76230879999998 ], [ -61.149682899999959, -3.764504599999937 ], [ -61.152116, -3.765831799999904 ], [ -61.154033, -3.7658686 ], [ -61.159157399999962, -3.76450459999993 ], [ -61.159381, -3.764391799999954 ], [ -61.159654699999976, -3.7642539 ], [ -61.158400099999945, -3.761988199999915 ], [ -61.157803299999955, -3.761203299999956 ], [ -61.15778389999997, -3.760761699999941 ], [ -61.157929, -3.760293199999963 ], [ -61.158296599999964, -3.760236899999965 ], [ -61.158656399999984, -3.760266799999989 ], [ -61.15911859999995, -3.760221599999936 ], [ -61.159156699999983, -3.760204399999938 ], [ -61.159252099999954, -3.760161599999968 ], [ -61.159312299999961, -3.759711499999982 ], [ -61.159198599999968, -3.758691499999931 ], [ -61.15934759999994, -3.758369799999989 ], [ -61.15985029999996, -3.757284099999898 ], [ -61.160288299999934, -3.756563099999884 ], [ -61.161085399999934, -3.755148599999903 ], [ -61.160870199999977, -3.754354299999958 ], [ -61.160042099999949, -3.753684499999966 ], [ -61.159373799999969, -3.753484399999975 ], [ -61.158134399999938, -3.753357599999978 ], [ -61.15724409999995, -3.754522699999935 ], [ -61.156732299999987, -3.755094199999971 ], [ -61.156356199999948, -3.756056299999919 ], [ -61.156952799999942, -3.757162899999956 ], [ -61.156604699999939, -3.75753979999994 ], [ -61.156595, -3.757565 ], [ -61.156447499999963, -3.757948799999978 ], [ -61.156290399999925, -3.758357699999986 ], [ -61.155851199999979, -3.7587531 ], [ -61.155728799999963, -3.759027 ], [ -61.155328899999965, -3.75919929999997 ], [ -61.155069599999926, -3.759304 ] ] ] ] } }
]
}
