{
"type": "FeatureCollection",
"name": "1300508",
"crs": { "type": "name", "properties": { "name": "urn:ogc:def:crs:OGC:1.3:CRS84" } },
"features": [
{ "type": "Feature", "properties": { "CD_MUN": "1300508", "NM_MUN": "Barreirinha" }, "geometry": { "type": "MultiPolygon", "coordinates": [ [ [ [ -57.237422899999956, -3.1715536999999 ], [ -57.238759699999939, -3.171459599999928 ], [ -57.23939989999996, -3.171266499999951 ], [ -57.241228799999931, -3.171285799999935 ], [ -57.242216699999972, -3.170176899999908 ], [ -57.242099, -3.168614099999915 ], [ -57.242414199999985, -3.167237899999984 ], [ -57.242883199999937, -3.166234700000015 ], [ -57.242028899999973, -3.163489199999915 ], [ -57.240839, -3.1632748 ], [ -57.239049799999975, -3.160264299999908 ], [ -57.23651689999997, -3.1597399 ], [ -57.234749799999982, -3.162456 ], [ -57.23399449999993, -3.164467599999944 ], [ -57.231722399999974, -3.166711299999952 ], [ -57.231211199999962, -3.1690685 ], [ -57.231870499999957, -3.17230669999994 ], [ -57.232565199999954, -3.172602 ], [ -57.233784099999987, -3.172630099999956 ], [ -57.235228499999948, -3.17199359999992 ], [ -57.235937299999932, -3.17144279999992 ], [ -57.236596, -3.171395099999978 ], [ -57.237422899999956, -3.1715536999999 ] ] ], [ [ [ -57.004667199999965, -2.866145399999918 ], [ -57.004684399999974, -2.866129900000038 ], [ -57.004718299999986, -2.866099399999885 ], [ -57.008034399999985, -2.8631113 ], [ -57.008731299999965, -2.857170599999946 ], [ -57.008933699999943, -2.856736 ], [ -57.008383099999946, -2.8564314 ], [ -57.005388, -2.854774499999978 ], [ -57.00032669999996, -2.8555662 ], [ -56.996241299999951, -2.855896199999904 ], [ -56.993958499999962, -2.856400599999962 ], [ -56.992684399999966, -2.85771459999992 ], [ -56.992579799999987, -2.858174399999947 ], [ -56.992517699999951, -2.858447699999891 ], [ -56.99179079999994, -2.861802799999955 ], [ -56.997280499999924, -2.865810099999926 ], [ -57.004547399999979, -2.866253399999979 ], [ -57.00465, -2.866160899999974 ], [ -57.004667199999965, -2.866145399999918 ] ] ], [ [ [ -57.343203799999969, -2.859931599999904 ], [ -57.343447699999956, -2.8600776 ], [ -57.345959499999935, -2.859881599999961 ], [ -57.346105699999946, -2.859930199999952 ], [ -57.346373799999988, -2.859930099999882 ], [ -57.34895489999996, -2.8589551 ], [ -57.349052499999978, -2.858906499999887 ], [ -57.350498499999958, -2.856617499999983 ], [ -57.35059659999996, -2.8564956 ], [ -57.35059659999996, -2.856422499999897 ], [ -57.350669499999981, -2.856276299999871 ], [ -57.350694499999982, -2.854385499999929 ], [ -57.350669699999969, -2.854337099999984 ], [ -57.349671399999984, -2.852710499999923 ], [ -57.349526299999987, -2.852539799999898 ], [ -57.347526199999955, -2.850641799999931 ], [ -57.345088799999985, -2.850530299999887 ], [ -57.344795399999953, -2.850651499999957 ], [ -57.344394799999975, -2.850746399999902 ], [ -57.342693899999979, -2.852828 ], [ -57.342113799999936, -2.854936799999932 ], [ -57.339855499999949, -2.857242299999902 ], [ -57.33990289999997, -2.857591699999985 ], [ -57.341027799999956, -2.858348899999968 ], [ -57.341175, -2.858470799999962 ], [ -57.341420199999959, -2.85864129999996 ], [ -57.343203799999969, -2.859931599999904 ] ] ], [ [ [ -57.438275499999975, -2.849640700000016 ], [ -57.437882, -2.84937869999998 ], [ -57.433639899999946, -2.848459799999977 ], [ -57.433768499999978, -2.8533204 ], [ -57.432882, -2.858695099999969 ], [ -57.436087099999945, -2.859038299999903 ], [ -57.438275499999975, -2.849640700000016 ] ] ], [ [ [ -57.41326909999998, -2.833697799999928 ], [ -57.412417299999959, -2.835976 ], [ -57.41120479999995, -2.840412800000019 ], [ -57.410585199999957, -2.843219299999986 ], [ -57.407535399999972, -2.851978699999948 ], [ -57.412166599999978, -2.853631199999908 ], [ -57.41629039999998, -2.851078599999982 ], [ -57.419909899999944, -2.844996 ], [ -57.421327, -2.842140899999904 ], [ -57.42081879999995, -2.838165900000011 ], [ -57.41808489999994, -2.834903399999954 ], [ -57.41326909999998, -2.833697799999928 ] ] ], [ [ [ -57.175988199999949, -2.798325599999958 ], [ -57.174012199999936, -2.797567600000021 ], [ -57.172463499999935, -2.796379699999937 ], [ -57.172036099999957, -2.796051799999985 ], [ -57.170926299999962, -2.794563 ], [ -57.170384899999931, -2.792749299999921 ], [ -57.167136599999935, -2.790259 ], [ -57.161858099999961, -2.791423 ], [ -57.157012799999961, -2.793074199999964 ], [ -57.154278799999986, -2.797486399999923 ], [ -57.155397199999982, -2.798586099999958 ], [ -57.1575, -2.800653499999973 ], [ -57.162434899999937, -2.804294399999893 ], [ -57.162495699999965, -2.804339199999941 ], [ -57.162528899999977, -2.8043638 ], [ -57.163590499999934, -2.805147 ], [ -57.164266299999952, -2.805573299999964 ], [ -57.168980099999942, -2.806156799999941 ], [ -57.17021079999995, -2.806130199999984 ], [ -57.172351899999967, -2.80575569999991 ], [ -57.174045, -2.804997399999959 ], [ -57.177639399999975, -2.80154679999992 ], [ -57.177422899999961, -2.799029399999955 ], [ -57.175988199999949, -2.798325599999958 ] ] ], [ [ [ -57.268458199999948, -2.798807 ], [ -57.278725899999984, -2.802302499999943 ], [ -57.284004399999958, -2.802301199999978 ], [ -57.286992099999964, -2.800648599999875 ], [ -57.28892019999995, -2.796407 ], [ -57.28882109999995, -2.795913399999902 ], [ -57.28320279999997, -2.794837799999989 ], [ -57.276267099999984, -2.792305199999953 ], [ -57.268923899999947, -2.79060209999993 ], [ -57.268982499999943, -2.792705399999927 ], [ -57.268351, -2.793284 ], [ -57.268375699999979, -2.794558499999949 ], [ -57.268379299999935, -2.7951139 ], [ -57.268458199999948, -2.798807 ] ] ], [ [ [ -57.072162699999978, -2.808899199999894 ], [ -57.072036199999964, -2.808579399999914 ], [ -57.072050399999959, -2.808316099999928 ], [ -57.071974099999984, -2.80811639999996 ], [ -57.071687299999944, -2.8074957 ], [ -57.071654699999954, -2.807198 ], [ -57.071799899999966, -2.806787799999938 ], [ -57.071969399999936, -2.806501799999977 ], [ -57.072032199999967, -2.806395699999962 ], [ -57.07222459999997, -2.806138 ], [ -57.072248699999939, -2.806018599999974 ], [ -57.072086699999943, -2.805869299999968 ], [ -57.072093899999977, -2.805379199999886 ], [ -57.072155099999968, -2.80512689999997 ], [ -57.072162899999967, -2.804616899999987 ], [ -57.07216109999996, -2.8044970999999 ], [ -57.072159299999953, -2.804377299999955 ], [ -57.072144799999933, -2.804184899999909 ], [ -57.072188299999937, -2.803774700000032 ], [ -57.072274, -2.803486799999944 ], [ -57.072544099999959, -2.802990499999984 ], [ -57.072896199999946, -2.802602099999913 ], [ -57.073190299999958, -2.80229719999996 ], [ -57.073247299999942, -2.801921399999957 ], [ -57.073502499999954, -2.801672799999981 ], [ -57.073865499999954, -2.801389599999955 ], [ -57.073934499999943, -2.801248 ], [ -57.074188599999957, -2.800714399999966 ], [ -57.074367299999949, -2.800451099999967 ], [ -57.07434029999996, -2.800159499999976 ], [ -57.074289, -2.7996196 ], [ -57.07417769999995, -2.799509199999936 ], [ -57.073945299999934, -2.799113500000027 ], [ -57.073776299999963, -2.798436299999938 ], [ -57.073775699999942, -2.798202299999921 ], [ -57.073636799999981, -2.79788280000001 ], [ -57.073600499999948, -2.797458099999957 ], [ -57.073752899999931, -2.796953499999934 ], [ -57.073771099999931, -2.796615899999893 ], [ -57.073687099999972, -2.796424199999978 ], [ -57.073340499999972, -2.796184499999949 ], [ -57.073171399999971, -2.796035699999939 ], [ -57.072952399999963, -2.7957319 ], [ -57.072874699999943, -2.795435199999891 ], [ -57.072825199999954, -2.795089099999939 ], [ -57.072839399999957, -2.7947571 ], [ -57.072874699999943, -2.794354399999955 ], [ -57.073093699999966, -2.793443099999916 ], [ -57.073158599999942, -2.792982399999924 ], [ -57.07325069999996, -2.791165499999924 ], [ -57.071850099999949, -2.7908922 ], [ -57.071157799999988, -2.79071179999996 ], [ -57.070515399999977, -2.790504499999964 ], [ -57.067558699999957, -2.789670199999873 ], [ -57.063710699999952, -2.788231899999977 ], [ -57.061698, -2.786582099999932 ], [ -57.060740799999962, -2.785742099999899 ], [ -57.059956099999965, -2.785054499999926 ], [ -57.058912599999985, -2.784140799999971 ], [ -57.058109, -2.783437100000012 ], [ -57.05727509999997, -2.782811599999948 ], [ -57.056927, -2.782568199999902 ], [ -57.056603899999971, -2.782342199999937 ], [ -57.056076, -2.78309019999998 ], [ -57.052526599999965, -2.787305899999983 ], [ -57.052855, -2.787865199999978 ], [ -57.052354099999953, -2.788463500000033 ], [ -57.053009299999985, -2.78891869999997 ], [ -57.057179, -2.791702199999952 ], [ -57.057148099999957, -2.791708700000023 ], [ -57.056963299999943, -2.791884299999989 ], [ -57.056678899999952, -2.792180599999963 ], [ -57.056599699999936, -2.79234380000002 ], [ -57.056531299999961, -2.792581499999873 ], [ -57.05633249999994, -2.793172599999938 ], [ -57.056216, -2.793382 ], [ -57.055961499999974, -2.79392689999996 ], [ -57.055950699999983, -2.793982899999937 ], [ -57.055873, -2.794088499999914 ], [ -57.055775099999948, -2.79418019999997 ], [ -57.05578909999997, -2.7942109 ], [ -57.055737799999974, -2.794332099999928 ], [ -57.055512499999963, -2.794968700000017 ], [ -57.055410399999971, -2.795360599999967 ], [ -57.055338899999974, -2.795644899999918 ], [ -57.055236799999932, -2.7970672 ], [ -57.054637599999978, -2.80133969999992 ], [ -57.054085199999975, -2.803294299999937 ], [ -57.054200899999955, -2.80522159999988 ], [ -57.054631, -2.8059876 ], [ -57.058993699999974, -2.804135499999969 ], [ -57.059102, -2.804451299999868 ], [ -57.0590979, -2.804691899999914 ], [ -57.059249399999942, -2.804806400000023 ], [ -57.059655799999973, -2.804880099999925 ], [ -57.059845099999961, -2.804947599999933 ], [ -57.059977899999978, -2.8050202 ], [ -57.060285399999941, -2.805220699999913 ], [ -57.060231599999952, -2.8052694 ], [ -57.060193599999934, -2.8053372 ], [ -57.060187299999939, -2.8053501 ], [ -57.060154099999977, -2.805414 ], [ -57.060622799999976, -2.806399099999945 ], [ -57.061146299999962, -2.806704399999971 ], [ -57.063118799999984, -2.807854599999881 ], [ -57.064608399999941, -2.808723199999934 ], [ -57.065181, -2.809122599999912 ], [ -57.066808299999927, -2.809066299999888 ], [ -57.068823799999969, -2.8092561 ], [ -57.069478099999969, -2.809538699999978 ], [ -57.07026639999998, -2.809561 ], [ -57.070928199999962, -2.80942719999997 ], [ -57.071694199999968, -2.809628 ], [ -57.072021399999983, -2.8095387 ], [ -57.072162699999978, -2.809233799999896 ], [ -57.072162699999978, -2.808899199999894 ] ] ] ] } }
]
}
