{
"type": "FeatureCollection",
"name": "1300086",
"crs": { "type": "name", "properties": { "name": "urn:ogc:def:crs:OGC:1.3:CRS84" } },
"features": [
{ "type": "Feature", "properties": { "CD_MUN": "1300086", "NM_MUN": "Anamã" }, "geometry": { "type": "Polygon", "coordinates": [ [ [ -61.39095929999997, -3.575587799999974 ], [ -61.388292499999977, -3.577958099999928 ], [ -61.384069, -3.578087 ], [ -61.385298690999953, -3.580986331999929 ], [ -61.385481929999969, -3.580997904999927 ], [ -61.386087291999957, -3.581175952000016 ], [ -61.386728262999952, -3.581425218999874 ], [ -61.387547280999961, -3.581532046999889 ], [ -61.387992399999973, -3.581532046999907 ], [ -61.388388555999938, -3.581469730999919 ], [ -61.388722394999952, -3.581264975999901 ], [ -61.389096294999945, -3.580855466999902 ], [ -61.389398975999946, -3.580356933999933 ], [ -61.389830740999969, -3.58000974099993 ], [ -61.390431650999979, -3.579715962999976 ], [ -61.39100585399995, -3.579573524999963 ], [ -61.391606764999949, -3.579484500999961 ], [ -61.392265540999972, -3.57952011 ], [ -61.392924315999949, -3.579555719999985 ], [ -61.393494068999978, -3.579680352999947 ], [ -61.394188453999966, -3.57976937699996 ], [ -61.39498966799993, -3.579983033999903 ], [ -61.395528261999971, -3.580152178999929 ], [ -61.396071305999953, -3.58027681199995 ], [ -61.396400693999972, -3.580223397999895 ], [ -61.396632155999946, -3.580276811999976 ], [ -61.396917031999976, -3.580517175999947 ], [ -61.397086176999942, -3.580543883999907 ], [ -61.39724642, -3.58053498099994 ], [ -61.397451174999951, -3.5804815669999 ], [ -61.397709343999963, -3.580472664999955 ], [ -61.397949707999935, -3.580552785999943 ], [ -61.398109950999988, -3.580695223999913 ], [ -61.398768725999965, -3.581158147999901 ], [ -61.399454208999934, -3.581460827999927 ], [ -61.400188654999958, -3.581799118999949 ], [ -61.400495786999954, -3.58206618999996 ], [ -61.400568496999945, -3.582138899999946 ], [ -61.40069108999996, -3.582261493000016 ], [ -61.400771760999987, -3.582342163999952 ], [ -61.401218773999972, -3.582592490999973 ], [ -61.401328159999935, -3.582653746999956 ], [ -61.40214717799995, -3.583009842 ], [ -61.402788148999946, -3.583116669999881 ], [ -61.402881718999936, -3.583120135999983 ], [ -61.403268877999949, -3.58313447499991 ], [ -61.403660581999986, -3.583161181999921 ], [ -61.404070090999937, -3.5831166699999 ], [ -61.404372771999988, -3.583116669999908 ], [ -61.404853500999934, -3.583107767999972 ], [ -61.405515777999945, -3.583085691999915 ], [ -61.405703199999948, -3.583063399999961 ], [ -61.406597699999963, -3.5818396 ], [ -61.40672729999995, -3.581122799999954 ], [ -61.406761499999966, -3.5809337 ], [ -61.40662779999996, -3.580312799999908 ], [ -61.406294, -3.579155099999936 ], [ -61.406355399999939, -3.578167299999919 ], [ -61.406704699999977, -3.576846499999958 ], [ -61.407195599999959, -3.575775099999893 ], [ -61.407713699999988, -3.5755351 ], [ -61.408590799999949, -3.575131199999904 ], [ -61.409711099999981, -3.574871499999932 ], [ -61.410522899999933, -3.574211199999948 ], [ -61.411073399999971, -3.573354099999968 ], [ -61.4110429, -3.572316899999973 ], [ -61.410971099999976, -3.572058499999982 ], [ -61.410874299999932, -3.571710299999924 ], [ -61.410125199999975, -3.570265099999944 ], [ -61.409767399999971, -3.569387299999936 ], [ -61.409733299999978, -3.568394 ], [ -61.409843899999942, -3.5681117 ], [ -61.410024899999947, -3.567649699999982 ], [ -61.410510399999971, -3.567032099999958 ], [ -61.411351699999955, -3.566456399999899 ], [ -61.411806399999925, -3.564910199999906 ], [ -61.411512099999982, -3.563888799999954 ], [ -61.411564299999952, -3.561815399999977 ], [ -61.413061599999935, -3.560981199999935 ], [ -61.414864799999975, -3.561633499999988 ], [ -61.416075899999953, -3.561469199999939 ], [ -61.41688, -3.5608411 ], [ -61.41866, -3.556776099999963 ], [ -61.419922699999979, -3.555460499999974 ], [ -61.421459, -3.55615479999991 ], [ -61.422498099999984, -3.554758599999981 ], [ -61.420153699999965, -3.553706599999973 ], [ -61.417746899999948, -3.554773399999948 ], [ -61.412247199999975, -3.559117699999951 ], [ -61.409499099999948, -3.56242430000002 ], [ -61.409432799999934, -3.565727399999948 ], [ -61.408026, -3.568105199999954 ], [ -61.408020399999948, -3.56811379999993 ], [ -61.404925399999975, -3.567611599999982 ], [ -61.403857, -3.570131499999951 ], [ -61.403848299999936, -3.570151899999927 ], [ -61.403831, -3.570192799999963 ], [ -61.40343839999997, -3.57422059999996 ], [ -61.401224099999972, -3.576726899999928 ], [ -61.39095929999997, -3.575587799999974 ] ] ] } }
]
}
