{
"type": "FeatureCollection",
"name": "1302207",
"crs": { "type": "name", "properties": { "name": "urn:ogc:def:crs:OGC:1.3:CRS84" } },
"features": [
{ "type": "Feature", "properties": { "CD_MUN": "1302207", "NM_MUN": "Juruá" }, "geometry": { "type": "Polygon", "coordinates": [ [ [ -66.064826899999957, -3.487262199999986 ], [ -66.06633949999997, -3.485681299999942 ], [ -66.070829, -3.485475099999952 ], [ -66.071998199999939, -3.483398199999906 ], [ -66.06819059999998, -3.47627079999995 ], [ -66.071567699999946, -3.471859299999982 ], [ -66.072611099999961, -3.4642652 ], [ -66.067814299999952, -3.463518800000017 ], [ -66.065373699999952, -3.46794109999993 ], [ -66.060311099999979, -3.46636069999996 ], [ -66.059873299999936, -3.462874 ], [ -66.057726299999956, -3.463889199999892 ], [ -66.055414399999961, -3.466032099999951 ], [ -66.053873399999986, -3.467638300000023 ], [ -66.053497799999946, -3.469151499999923 ], [ -66.049315399999955, -3.472135799999931 ], [ -66.051096499999971, -3.473918399999977 ], [ -66.051966099999959, -3.474368599999942 ], [ -66.052001799999971, -3.4745981 ], [ -66.052081799999939, -3.474828499999985 ], [ -66.055957099999944, -3.482209799999945 ], [ -66.055818099999954, -3.482854899999965 ], [ -66.055328899999949, -3.4832435 ], [ -66.053656899999964, -3.483720399999872 ], [ -66.053358399999979, -3.48401889999994 ], [ -66.053137899999967, -3.484464799999913 ], [ -66.053075899999953, -3.48484549999998 ], [ -66.053653099999963, -3.485009699999943 ], [ -66.05408209999996, -3.485384799999907 ], [ -66.054232, -3.485661499999908 ], [ -66.054391599999974, -3.486148599999985 ], [ -66.054835499999967, -3.4870177 ], [ -66.055255699999975, -3.487593499999905 ], [ -66.055688099999941, -3.487928 ], [ -66.056599499999948, -3.488459 ], [ -66.057146399999965, -3.488973899999969 ], [ -66.057966, -3.490014099999888 ], [ -66.058125799999971, -3.490165899999957 ], [ -66.060574499999973, -3.490964 ], [ -66.061134, -3.490735299999956 ], [ -66.06221469999997, -3.490148799999894 ], [ -66.063593599999933, -3.489821699999891 ], [ -66.064159, -3.489322299999939 ], [ -66.063881599999945, -3.488862899999937 ], [ -66.06363129999994, -3.488446 ], [ -66.064826899999957, -3.487262199999986 ] ] ] } }
]
}
