{
"type": "FeatureCollection",
"name": "1303569",
"crs": { "type": "name", "properties": { "name": "urn:ogc:def:crs:OGC:1.3:CRS84" } },
"features": [
{ "type": "Feature", "properties": { "CD_MUN": "1303569", "NM_MUN": "Rio Preto da Eva" }, "geometry": { "type": "Polygon", "coordinates": [ [ [ -59.726323199999975, -2.708105199999945 ], [ -59.726854599999967, -2.707662699999976 ], [ -59.726918799999972, -2.707609199999948 ], [ -59.726909099999951, -2.707580499999894 ], [ -59.726691499999959, -2.706941199999949 ], [ -59.726324799999986, -2.7060749 ], [ -59.726125699999955, -2.705713499999957 ], [ -59.725762099999947, -2.7054047 ], [ -59.72543219999995, -2.705232399999938 ], [ -59.724986699999931, -2.705122899999957 ], [ -59.724543099999948, -2.7051291 ], [ -59.724195599999973, -2.705210299999982 ], [ -59.723628299999973, -2.705452 ], [ -59.723058899999963, -2.705722499999926 ], [ -59.722360599999945, -2.706056599999884 ], [ -59.721925499999941, -2.706267899999899 ], [ -59.721611099999969, -2.7063865 ], [ -59.721257899999948, -2.706472799999897 ], [ -59.7209352, -2.706465399999965 ], [ -59.720374499999942, -2.706312499999986 ], [ -59.719999499999972, -2.70606089999992 ], [ -59.71972, -2.705723599999984 ], [ -59.719557099999975, -2.705393699999898 ], [ -59.719386, -2.704807299999978 ], [ -59.719178099999965, -2.703782299999975 ], [ -59.719027599999947, -2.702954199999936 ], [ -59.718889099999956, -2.702511 ], [ -59.718675799999971, -2.702110600000021 ], [ -59.718467, -2.701823599999932 ], [ -59.718192099999946, -2.701642 ], [ -59.718180699999948, -2.701635299999989 ], [ -59.717912799999972, -2.7015077 ], [ -59.717892599999971, -2.701497399999983 ], [ -59.717780699999935, -2.701469699999947 ], [ -59.717736699999939, -2.701458799999963 ], [ -59.718096099999975, -2.6999448 ], [ -59.718201399999941, -2.699561 ], [ -59.718569699999939, -2.6969913 ], [ -59.71862439999996, -2.696863599999932 ], [ -59.718776899999966, -2.695277900000011 ], [ -59.718957399999965, -2.6935412 ], [ -59.719128399999924, -2.692471599999942 ], [ -59.719354799999962, -2.691417 ], [ -59.719355899999989, -2.691418299999902 ], [ -59.719376699999948, -2.691439099999919 ], [ -59.719411399999956, -2.691466799999916 ], [ -59.719446199999943, -2.691494599999975 ], [ -59.719467, -2.691501499999948 ], [ -59.7195086, -2.6915223 ], [ -59.719536299999966, -2.691529099999912 ], [ -59.719577899999933, -2.691542800000023 ], [ -59.719605499999943, -2.691549699999921 ], [ -59.719647099999975, -2.691563399999966 ], [ -59.719667799999961, -2.691570299999941 ], [ -59.719709299999977, -2.691577 ], [ -59.719764599999955, -2.6915837 ], [ -59.719785399999978, -2.691597499999908 ], [ -59.7198269, -2.6916112 ], [ -59.719840699999963, -2.691618100000025 ], [ -59.719868399999939, -2.691638899999882 ], [ -59.719889199999955, -2.691673499999977 ], [ -59.719903, -2.691694199999958 ], [ -59.719979699999953, -2.691764399999942 ], [ -59.720007499999952, -2.69177829999993 ], [ -59.72002839999994, -2.691792099999942 ], [ -59.720070299999975, -2.691826600000012 ], [ -59.720105199999978, -2.691847299999922 ], [ -59.720126099999959, -2.691874899999948 ], [ -59.720147, -2.691888699999939 ], [ -59.720174899999954, -2.691916299999988 ], [ -59.720195799999942, -2.6919369 ], [ -59.720230599999979, -2.691957500000013 ], [ -59.720258399999985, -2.691971299999957 ], [ -59.720300099999974, -2.692005699999958 ], [ -59.720334699999967, -2.692033299999891 ], [ -59.720362299999977, -2.692054 ], [ -59.7203899, -2.6920678 ], [ -59.720424499999972, -2.692088600000027 ], [ -59.720466, -2.692102500000012 ], [ -59.720500499999957, -2.692116299999916 ], [ -59.720528199999933, -2.692123299999944 ], [ -59.720562799999982, -2.692137099999908 ], [ -59.720590399999935, -2.692143899999989 ], [ -59.720618099999975, -2.692150799999986 ], [ -59.720680399999935, -2.692150599999871 ], [ -59.720708099999975, -2.692150499999979 ], [ -59.720728799999961, -2.692150499999937 ], [ -59.720756499999936, -2.692143499999887 ], [ -59.720791, -2.692143399999938 ], [ -59.720811799999986, -2.692139899999986 ], [ -59.720816899999939, -2.692139099999936 ], [ -59.720822099999964, -2.692138199999902 ], [ -59.720832499999972, -2.692136399999935 ], [ -59.720853199999972, -2.692136399999879 ], [ -59.720887699999928, -2.692129399999939 ], [ -59.720908399999985, -2.692122399999946 ], [ -59.720956799999961, -2.69211540000004 ], [ -59.720984399999963, -2.692115399999941 ], [ -59.721032799999932, -2.69211559999991 ], [ -59.721060499999972, -2.6921157 ], [ -59.721116, -2.692129799999967 ], [ -59.721129899999944, -2.6921299 ], [ -59.721164599999959, -2.692143899999966 ], [ -59.721220199999948, -2.692171899999896 ], [ -59.721261899999945, -2.692206799999902 ], [ -59.721282699999968, -2.692213799999887 ], [ -59.721303599999949, -2.692227599999921 ], [ -59.721331299999974, -2.692248399999968 ], [ -59.721359, -2.692269199999932 ], [ -59.721386799999955, -2.69229 ], [ -59.721407599999964, -2.692303899999911 ], [ -59.721435399999969, -2.692324699999984 ], [ -59.721463099999944, -2.6923386 ], [ -59.721497699999986, -2.692352399999926 ], [ -59.721518599999975, -2.692366299999981 ], [ -59.721553199999967, -2.692380100000043 ], [ -59.721580899999928, -2.692387 ], [ -59.721629299999961, -2.692387 ], [ -59.721677699999987, -2.69238689999995 ], [ -59.721719299999961, -2.692373 ], [ -59.721754, -2.692366099999982 ], [ -59.721781699999951, -2.692359299999949 ], [ -59.721816399999973, -2.692345499999962 ], [ -59.721844199999957, -2.692345499999876 ], [ -59.721872, -2.6923386 ], [ -59.721913699999952, -2.6923387 ], [ -59.72194159999998, -2.692345799999952 ], [ -59.721976399999953, -2.692352799999922 ], [ -59.722004299999981, -2.692359799999967 ], [ -59.722032199999937, -2.692380699999974 ], [ -59.7220741, -2.6923947 ], [ -59.722116, -2.69241569999996 ], [ -59.722151, -2.692443599999898 ], [ -59.722186, -2.692464500000014 ], [ -59.722206899999954, -2.692471599999918 ], [ -59.722234899999933, -2.692478599999989 ], [ -59.722276699999952, -2.692478699999952 ], [ -59.722311599999955, -2.692478799999913 ], [ -59.722346499999951, -2.692478899999986 ], [ -59.722402199999976, -2.692472100000014 ], [ -59.722430199999962, -2.692472199999955 ], [ -59.722458, -2.692458299999922 ], [ -59.72249249999998, -2.692444299999952 ], [ -59.722526499999965, -2.692430099999918 ], [ -59.722539899999958, -2.692416 ], [ -59.722567, -2.692401799999896 ], [ -59.722594099999988, -2.692387699999963 ], [ -59.722635199999957, -2.692387499999878 ], [ -59.722662699999951, -2.69238729999995 ], [ -59.722696899999967, -2.692387199999945 ], [ -59.722724599999928, -2.692401 ], [ -59.722745499999981, -2.692414899999897 ], [ -59.722773699999948, -2.692435899999945 ], [ -59.722788199999961, -2.692463799999912 ], [ -59.722816699999953, -2.692498799999949 ], [ -59.722852, -2.692519899999942 ], [ -59.722931699999947, -2.692617899999973 ], [ -59.722945399999958, -2.692625 ], [ -59.722973199999956, -2.692618 ], [ -59.723008199999981, -2.69259709999992 ], [ -59.723036199999967, -2.69257620000002 ], [ -59.723064199999946, -2.692562199999971 ], [ -59.723099199999986, -2.692555199999934 ], [ -59.723133899999937, -2.692562100000012 ], [ -59.723168599999958, -2.692569 ], [ -59.723203499999954, -2.692569 ], [ -59.723238299999934, -2.692568899999965 ], [ -59.723280199999977, -2.692561899999966 ], [ -59.723308099999933, -2.692554799999911 ], [ -59.723343, -2.692547799999988 ], [ -59.723371, -2.692540799999973 ], [ -59.723399, -2.692526799999894 ], [ -59.723427, -2.692512800000033 ], [ -59.723462099999949, -2.692491799999957 ], [ -59.723490099999928, -2.692470899999971 ], [ -59.72353179999994, -2.692470799999929 ], [ -59.723580499999976, -2.692470799999967 ], [ -59.723601299999984, -2.692470699999934 ], [ -59.723656799999958, -2.692477600000018 ], [ -59.723670699999957, -2.692477599999912 ], [ -59.72372619999998, -2.6924845 ], [ -59.723753899999963, -2.692491399999948 ], [ -59.723809299999964, -2.692512199999941 ], [ -59.72385079999998, -2.692526099999965 ], [ -59.723857799999969, -2.692526099999915 ], [ -59.723885399999972, -2.69254 ], [ -59.723926899999981, -2.692560800000015 ], [ -59.723954599999963, -2.692574700000026 ], [ -59.723982299999939, -2.692588599999946 ], [ -59.724023699999975, -2.692616499999932 ], [ -59.724058299999967, -2.692623499999979 ], [ -59.724072199999966, -2.692630399999872 ], [ -59.724106699999936, -2.6926444 ], [ -59.724141399999951, -2.692644399999944 ], [ -59.724162199999967, -2.6926444 ], [ -59.724183, -2.692644399999938 ], [ -59.72421769999994, -2.692630499999964 ], [ -59.724238499999956, -2.692623599999875 ], [ -59.724266299999954, -2.692595799999982 ], [ -59.724294099999952, -2.6925749 ], [ -59.724335799999949, -2.6925470999999 ], [ -59.724391299999979, -2.692533199999987 ], [ -59.724419, -2.692533199999969 ], [ -59.72444669999998, -2.692533299999954 ], [ -59.724481299999979, -2.692547200000015 ], [ -59.724502099999938, -2.6925542 ], [ -59.724529799999978, -2.692568199999861 ], [ -59.724571399999952, -2.6925891 ], [ -59.724599099999978, -2.69258919999992 ], [ -59.724633799999928, -2.692589199999979 ], [ -59.724710099999982, -2.692589299999882 ], [ -59.724751699999956, -2.69258239999994 ], [ -59.724779499999954, -2.692568600000011 ], [ -59.7248211, -2.6925547 ], [ -59.7248489, -2.692540799999931 ], [ -59.724890499999958, -2.6925198 ], [ -59.724918199999941, -2.692505799999989 ], [ -59.724952899999941, -2.692491799999949 ], [ -59.724987599999963, -2.692491699999918 ], [ -59.725008399999986, -2.692498699999939 ], [ -59.72505, -2.692512599999987 ], [ -59.725084799999934, -2.692533599999869 ], [ -59.725105599999942, -2.692547599999918 ], [ -59.725140399999987, -2.6925615 ], [ -59.725188899999971, -2.692561499999922 ], [ -59.725216699999976, -2.692561399999894 ], [ -59.725251299999968, -2.692561399999908 ], [ -59.725279, -2.692547399999931 ], [ -59.725306599999954, -2.692533399999956 ], [ -59.725348199999985, -2.6925334 ], [ -59.725389899999982, -2.692547299999898 ], [ -59.725410699999941, -2.692547299999904 ], [ -59.725452399999931, -2.692561199999895 ], [ -59.725487199999975, -2.692575200000039 ], [ -59.725515, -2.692582199999888 ], [ -59.725549799999953, -2.692603099999904 ], [ -59.725598599999962, -2.692624099999968 ], [ -59.725612499999954, -2.692624099999871 ], [ -59.725640099999971, -2.692617099999909 ], [ -59.725688599999962, -2.69261 ], [ -59.7257302, -2.69261 ], [ -59.725747499999954, -2.692606499999918 ], [ -59.725764799999979, -2.692603 ], [ -59.725792399999932, -2.6925959 ], [ -59.725827, -2.692588900000011 ], [ -59.725861399999985, -2.69257489999993 ], [ -59.725888899999966, -2.692553899999976 ], [ -59.725909399999985, -2.692539899999971 ], [ -59.725929699999945, -2.692505 ], [ -59.72595, -2.692470099999961 ], [ -59.725998099999977, -2.692449099999916 ], [ -59.726011899999946, -2.692449099999944 ], [ -59.726067299999947, -2.6924491 ], [ -59.726094899999971, -2.692449099999941 ], [ -59.726129599999986, -2.692456 ], [ -59.726143499999978, -2.692463 ], [ -59.726178199999936, -2.692469899999921 ], [ -59.726199099999981, -2.692476899999928 ], [ -59.726227, -2.692490799999915 ], [ -59.726275599999951, -2.692504699999916 ], [ -59.726317399999971, -2.692518599999912 ], [ -59.726338299999952, -2.692525599999982 ], [ -59.726373, -2.692532499999979 ], [ -59.726387, -2.692539499999909 ], [ -59.7264009, -2.692546499999919 ], [ -59.726449399999986, -2.692546399999914 ], [ -59.726476899999966, -2.692539399999968 ], [ -59.726511, -2.6925185 ], [ -59.726538199999929, -2.692497499999925 ], [ -59.72657259999994, -2.692490499999983 ], [ -59.72660019999995, -2.692490499999938 ], [ -59.726655499999943, -2.692490499999979 ], [ -59.726683199999968, -2.692490399999933 ], [ -59.726718, -2.692504400000026 ], [ -59.726752699999963, -2.692511299999982 ], [ -59.726781, -2.692539199999944 ], [ -59.726801899999941, -2.692566899999936 ], [ -59.726809199999934, -2.692601599999919 ], [ -59.726816499999984, -2.69262939999994 ], [ -59.72682389999995, -2.692671099999894 ], [ -59.726831, -2.692692 ], [ -59.726831199999936, -2.692712900000012 ], [ -59.7268385, -2.692740699999888 ], [ -59.726852699999938, -2.692782399999886 ], [ -59.726873599999976, -2.692803200000014 ], [ -59.726957599999942, -2.692896199999928 ], [ -59.726971399999975, -2.692903099999958 ], [ -59.726999199999959, -2.692923899999963 ], [ -59.727026899999942, -2.692944699999917 ], [ -59.727054599999981, -2.6929655 ], [ -59.727082399999965, -2.692986199999884 ], [ -59.72713089999997, -2.693014 ], [ -59.727151799999952, -2.693020899999968 ], [ -59.727179699999965, -2.69302779999989 ], [ -59.727228699999955, -2.693041599999969 ], [ -59.727263699999973, -2.693048500000032 ], [ -59.727291599999951, -2.693048399999982 ], [ -59.727326499999947, -2.693048399999889 ], [ -59.727354399999975, -2.693048399999885 ], [ -59.727375399999964, -2.693048399999902 ], [ -59.727417199999934, -2.693048299999871 ], [ -59.727431199999948, -2.693048299999919 ], [ -59.728388799999941, -2.6924704 ], [ -59.728499399999968, -2.6910047 ], [ -59.729495, -2.69014739999988 ], [ -59.7312649, -2.689787800000036 ], [ -59.733311499999964, -2.688902899999975 ], [ -59.734417699999945, -2.688156200000027 ], [ -59.734611299999983, -2.687409499999973 ], [ -59.73344969999993, -2.685777799999967 ], [ -59.733726299999944, -2.684872099999966 ], [ -59.734611299999983, -2.684153 ], [ -59.735275, -2.682936200000041 ], [ -59.73574519999994, -2.682023499999971 ], [ -59.736302499999972, -2.681147099999908 ], [ -59.736498199999978, -2.680091899999954 ], [ -59.73790229999998, -2.67904859999994 ], [ -59.7388, -2.678215599999966 ], [ -59.739368, -2.677280599999962 ], [ -59.739368, -2.6756489 ], [ -59.739755199999927, -2.674293799999897 ], [ -59.740821699999977, -2.673849599999952 ], [ -59.739947299999983, -2.671845599999967 ], [ -59.739034699999927, -2.670324599999931 ], [ -59.737845499999942, -2.6691354 ], [ -59.734914, -2.6685269 ], [ -59.731346399999957, -2.667254799999913 ], [ -59.728663799999936, -2.666535699999906 ], [ -59.724975, -2.664771899999981 ], [ -59.724743, -2.665021499999903 ], [ -59.724743, -2.665075 ], [ -59.724600199999941, -2.66559209999996 ], [ -59.724386, -2.665734699999947 ], [ -59.724368199999965, -2.665734699999906 ], [ -59.724172099999983, -2.665841299999929 ], [ -59.724154599999963, -2.666108 ], [ -59.724154699999985, -2.666214799999918 ], [ -59.724119299999984, -2.666481399999958 ], [ -59.724119399999957, -2.6665702 ], [ -59.724137299999938, -2.667015299999877 ], [ -59.724226399999957, -2.667709499999976 ], [ -59.724137399999961, -2.667923 ], [ -59.724226599999952, -2.668278400000025 ], [ -59.724244299999953, -2.668742199999982 ], [ -59.724529399999938, -2.668938699999932 ], [ -59.724582899999966, -2.668956400000014 ], [ -59.724779, -2.669134399999908 ], [ -59.724796799999979, -2.669205799999875 ], [ -59.724796799999979, -2.669259299999904 ], [ -59.724689899999987, -2.669581099999987 ], [ -59.724654199999975, -2.6696347 ], [ -59.724529399999938, -2.669901799999874 ], [ -59.724458099999943, -2.6700973 ], [ -59.724583, -2.6704164 ], [ -59.7246009, -2.670469499999959 ], [ -59.724440499999965, -2.670699699999935 ], [ -59.723994799999964, -2.670861699999906 ], [ -59.723620799999935, -2.671050799999956 ], [ -59.723406599999983, -2.671369499999944 ], [ -59.723344099999963, -2.6714498 ], [ -59.723281599999943, -2.67153009999995 ], [ -59.723228599999977, -2.671742899999934 ], [ -59.723228599999977, -2.6717962 ], [ -59.723069199999941, -2.672168099999895 ], [ -59.722998099999984, -2.672470599999884 ], [ -59.722980299999961, -2.6725418 ], [ -59.722712299999955, -2.672738599999959 ], [ -59.722446199999986, -2.673002299999984 ], [ -59.722341599999929, -2.6734422 ], [ -59.722289199999977, -2.674010699999913 ], [ -59.722306699999933, -2.674065099999964 ], [ -59.722340699999961, -2.674532799999934 ], [ -59.722340699999961, -2.67455070000001 ], [ -59.722285199999988, -2.674928899999985 ], [ -59.722249, -2.6749834 ], [ -59.722194899999977, -2.675073499999959 ], [ -59.721911099999943, -2.675052299999961 ], [ -59.721893399999942, -2.675034099999954 ], [ -59.721840399999962, -2.674979399999979 ], [ -59.721663199999966, -2.6748332 ], [ -59.721501799999942, -2.674977699999894 ], [ -59.721483399999954, -2.675282299999934 ], [ -59.721465499999965, -2.675353799999968 ], [ -59.721465399999943, -2.675443199999951 ], [ -59.721411699999976, -2.6756398 ], [ -59.72134, -2.675997299999891 ], [ -59.72134, -2.676068499999974 ], [ -59.721269, -2.676406499999878 ], [ -59.721233499999983, -2.676424 ], [ -59.721055699999972, -2.676779099999956 ], [ -59.721037799999976, -2.676975499999962 ], [ -59.721037799999976, -2.6769934 ], [ -59.721126399999953, -2.677262499999984 ], [ -59.721144199999962, -2.677280499999885 ], [ -59.721144, -2.677405699999937 ], [ -59.721090599999968, -2.677726600000013 ], [ -59.721019399999939, -2.677940299999922 ], [ -59.721019299999966, -2.678047499999967 ], [ -59.721019099999978, -2.678136899999941 ], [ -59.720947399999943, -2.678440399999901 ], [ -59.72068, -2.678529199999934 ], [ -59.720607799999982, -2.678797499999916 ], [ -59.720607799999982, -2.678815399999919 ], [ -59.72069659999994, -2.679011699999928 ], [ -59.720732299999952, -2.679029499999915 ], [ -59.72098179999994, -2.679350199999863 ], [ -59.720981699999982, -2.679403700000016 ], [ -59.720963199999971, -2.679777599999966 ], [ -59.720963199999971, -2.679813199999966 ], [ -59.720784399999964, -2.680311299999911 ], [ -59.720766499999968, -2.680400199999928 ], [ -59.720410399999935, -2.681005 ], [ -59.720374799999945, -2.681076399999903 ], [ -59.720357, -2.681112 ], [ -59.720161199999943, -2.681468399999956 ], [ -59.720143399999984, -2.681486199999898 ], [ -59.72012559999996, -2.6815575 ], [ -59.720018799999941, -2.681913699999909 ], [ -59.720018799999941, -2.681949400000017 ], [ -59.719787099999955, -2.682180899999905 ], [ -59.719662399999955, -2.682038799999896 ], [ -59.71943059999996, -2.681949799999896 ], [ -59.719288, -2.682056899999989 ], [ -59.719252399999959, -2.682092499999917 ], [ -59.719020599999965, -2.682110399999937 ], [ -59.718664099999955, -2.68228849999995 ], [ -59.718106699999964, -2.6820245 ], [ -59.714182399999977, -2.67974059999993 ], [ -59.713816399999978, -2.6795276 ], [ -59.71377879999995, -2.67950569999988 ], [ -59.713755399999968, -2.679498099999981 ], [ -59.713735, -2.679487199999984 ], [ -59.70142189999995, -2.672873 ], [ -59.701711499999988, -2.672486299999935 ], [ -59.701676199999959, -2.672415 ], [ -59.702495199999987, -2.670175799999894 ], [ -59.703034799999955, -2.668421599999987 ], [ -59.703034899999984, -2.668314599999926 ], [ -59.702818499999978, -2.667930100000016 ], [ -59.702710399999944, -2.667791499999963 ], [ -59.70249639999998, -2.667367 ], [ -59.702572599999939, -2.666746 ], [ -59.702680599999951, -2.6666 ], [ -59.702787099999966, -2.666458899999906 ], [ -59.702927899999963, -2.666357699999941 ], [ -59.703175499999986, -2.666042399999942 ], [ -59.697927199999981, -2.663723599999985 ], [ -59.697910499999985, -2.663716199999934 ], [ -59.697315199999942, -2.664104799999961 ], [ -59.69693129999996, -2.664618799999953 ], [ -59.696931899999981, -2.664691299999916 ], [ -59.696902299999969, -2.665449799999958 ], [ -59.6969031, -2.665557899999893 ], [ -59.696893899999964, -2.665750399999915 ], [ -59.696531899999968, -2.666821800000044 ], [ -59.69648379999996, -2.666949100000019 ], [ -59.696297, -2.667443099999951 ], [ -59.696036399999969, -2.667708299999962 ], [ -59.695255199999963, -2.669042799999882 ], [ -59.695116799999937, -2.669408399999926 ], [ -59.694924699999937, -2.669734599999934 ], [ -59.6946028, -2.6701187 ], [ -59.694083199999973, -2.670852300000022 ], [ -59.693779, -2.671444899999866 ], [ -59.693560199999979, -2.671934699999973 ], [ -59.693114, -2.672034100000011 ], [ -59.692809099999977, -2.672134699999936 ], [ -59.692692499999964, -2.672239499999875 ], [ -59.69261889999995, -2.672697299999982 ], [ -59.69261419999998, -2.672711299999926 ], [ -59.692386299999953, -2.673075299999968 ], [ -59.691957599999967, -2.672630199999918 ], [ -59.691312599999947, -2.671967899999947 ], [ -59.6913249, -2.671621499999915 ], [ -59.691663399999982, -2.670608499999962 ], [ -59.691649599999941, -2.670385599999925 ], [ -59.691508099999972, -2.669972199999941 ], [ -59.691269, -2.669656799999911 ], [ -59.690915099999977, -2.669442400000011 ], [ -59.690182499999935, -2.668922 ], [ -59.6897259, -2.668695399999925 ], [ -59.689307899999967, -2.668706199999939 ], [ -59.689031499999942, -2.668778399999897 ], [ -59.688748899999958, -2.669010399999971 ], [ -59.688596299999979, -2.669094099999931 ], [ -59.688687599999973, -2.669436799999908 ], [ -59.688557099999969, -2.669649 ], [ -59.688196299999959, -2.669900499999927 ], [ -59.687970599999979, -2.670136599999948 ], [ -59.687915799999985, -2.670200899999971 ], [ -59.687808599999983, -2.670341899999925 ], [ -59.687573599999951, -2.670602199999955 ], [ -59.687366399999974, -2.670845299999986 ], [ -59.687157099999979, -2.67096089999991 ], [ -59.687146799999937, -2.6710033 ], [ -59.684857399999935, -2.680363899999975 ], [ -59.684379799999931, -2.681893899999976 ], [ -59.683926299999932, -2.683346700000013 ], [ -59.683559199999934, -2.684522600000033 ], [ -59.68327289999997, -2.6855799 ], [ -59.683245, -2.685813699999871 ], [ -59.683373799999977, -2.6862578 ], [ -59.683405199999974, -2.68631829999998 ], [ -59.683624799999961, -2.686740499999907 ], [ -59.683775599999926, -2.68695 ], [ -59.683847, -2.6870491 ], [ -59.683856499999933, -2.687062299999926 ], [ -59.684147499999938, -2.687567199999958 ], [ -59.684186, -2.687634 ], [ -59.683468299999959, -2.688159699999907 ], [ -59.681679899999956, -2.689469500000025 ], [ -59.681466099999973, -2.689626099999883 ], [ -59.682267699999954, -2.690929099999947 ], [ -59.682554599999946, -2.691395299999968 ], [ -59.682630499999959, -2.691518799999929 ], [ -59.68288019999995, -2.691924699999901 ], [ -59.683191699999959, -2.6923027 ], [ -59.683458499999979, -2.692626499999974 ], [ -59.682737699999954, -2.693082099999925 ], [ -59.682621899999965, -2.693177199999931 ], [ -59.682384599999978, -2.693720700000034 ], [ -59.682055599999963, -2.694277199999941 ], [ -59.682044599999983, -2.694446499999957 ], [ -59.682075599999962, -2.6945628 ], [ -59.682140799999964, -2.694738199999939 ], [ -59.682570599999963, -2.6954281 ], [ -59.682665199999974, -2.6961 ], [ -59.682718199999954, -2.696476599999936 ], [ -59.682715, -2.696846900000012 ], [ -59.682623799999988, -2.697133099999932 ], [ -59.682022099999983, -2.69813339999993 ], [ -59.681830099999956, -2.698449799999906 ], [ -59.68168349999997, -2.698691599999976 ], [ -59.681601, -2.698827599999971 ], [ -59.681286199999931, -2.699346299999979 ], [ -59.680792399999973, -2.700140799999986 ], [ -59.6798275, -2.701693200000022 ], [ -59.679826399999968, -2.701694699999913 ], [ -59.679699099999944, -2.701881099999943 ], [ -59.67880829999995, -2.703281799999939 ], [ -59.677038, -2.705846199999985 ], [ -59.676433299999985, -2.706877399999884 ], [ -59.675872899999945, -2.707682299999908 ], [ -59.675733599999951, -2.708007100000019 ], [ -59.675830399999946, -2.7085017 ], [ -59.676070499999987, -2.709189700000033 ], [ -59.676138599999945, -2.709566 ], [ -59.676149299999963, -2.709834699999961 ], [ -59.675943699999948, -2.710783499999947 ], [ -59.676957099999981, -2.711185 ], [ -59.681572699999947, -2.713557099999916 ], [ -59.685516899999989, -2.717518899999953 ], [ -59.690759099999987, -2.719783 ], [ -59.690701, -2.71986149999996 ], [ -59.690652399999976, -2.719924499999959 ], [ -59.690624599999978, -2.7199699 ], [ -59.690596899999946, -2.720015299999933 ], [ -59.690580799999964, -2.72005819999986 ], [ -59.690557799999958, -2.720128899999955 ], [ -59.690560199999936, -2.720207399999918 ], [ -59.690574, -2.720283299999954 ], [ -59.690601599999987, -2.720369199999938 ], [ -59.690613, -2.720432 ], [ -59.69063349999994, -2.720479800000017 ], [ -59.690654, -2.720527 ], [ -59.69070389999996, -2.720606399999924 ], [ -59.69076919999997, -2.720771 ], [ -59.690757, -2.720962299999954 ], [ -59.690580599999983, -2.721210199999908 ], [ -59.690562599999957, -2.721486899999979 ], [ -59.690622799999979, -2.721745400000044 ], [ -59.690728699999966, -2.721942 ], [ -59.690858299999938, -2.722083199999989 ], [ -59.690979099999943, -2.722367800000035 ], [ -59.690933799999982, -2.722554100000038 ], [ -59.690743299999959, -2.722745899999985 ], [ -59.690501799999943, -2.722898099999926 ], [ -59.690270099999964, -2.722980299999932 ], [ -59.690113799999949, -2.722988099999908 ], [ -59.689972899999987, -2.723015899999953 ], [ -59.689734099999953, -2.723115899999918 ], [ -59.689615699999941, -2.723485399999964 ], [ -59.689641299999948, -2.723718499999957 ], [ -59.689634399999932, -2.724000700000016 ], [ -59.689549799999959, -2.724318399999917 ], [ -59.689489899999963, -2.724756899999976 ], [ -59.689451799999979, -2.7252965 ], [ -59.689445299999939, -2.725678299999906 ], [ -59.68937429999994, -2.726050600000012 ], [ -59.689318399999934, -2.726187599999954 ], [ -59.689302899999973, -2.7263164999999 ], [ -59.689243, -2.726433 ], [ -59.689195, -2.726505299999855 ], [ -59.689119399999981, -2.726645599999967 ], [ -59.68904729999997, -2.726805499999973 ], [ -59.689015799999929, -2.726853499999936 ], [ -59.688967899999966, -2.726925400000026 ], [ -59.688888299999974, -2.727045 ], [ -59.688824599999968, -2.727140599999968 ], [ -59.688756799999965, -2.727216199999909 ], [ -59.688637099999944, -2.7273433 ], [ -59.688525899999952, -2.72751 ], [ -59.688478299999986, -2.727581299999925 ], [ -59.688435, -2.727672499999904 ], [ -59.688376, -2.727787199999909 ], [ -59.688328499999955, -2.7278584 ], [ -59.688281099999983, -2.72792939999992 ], [ -59.6882222, -2.728043899999876 ], [ -59.687987299999975, -2.728500299999964 ], [ -59.68779429999995, -2.728763 ], [ -59.687461, -2.729235699999897 ], [ -59.687418399999963, -2.729325299999915 ], [ -59.68723609999995, -2.729442199999981 ], [ -59.687237499999981, -2.729725499999926 ], [ -59.687385099999979, -2.729918599999922 ], [ -59.6875242, -2.730173499999984 ], [ -59.68753049999998, -2.730292599999929 ], [ -59.687270299999966, -2.730704599999934 ], [ -59.687228499999947, -2.731072400000019 ], [ -59.687165899999968, -2.731443800000026 ], [ -59.687127799999985, -2.731550799999949 ], [ -59.687081099999943, -2.731619800000012 ], [ -59.687014499999975, -2.731692799999922 ], [ -59.686908099999989, -2.731773899999942 ], [ -59.686766299999931, -2.731882 ], [ -59.686659899999938, -2.731963100000039 ], [ -59.686514799999941, -2.732051399999955 ], [ -59.686400899999974, -2.732093499999949 ], [ -59.686321599999985, -2.732342499999929 ], [ -59.686251299999981, -2.732586199999941 ], [ -59.686006699999957, -2.733030399999905 ], [ -59.685717199999942, -2.733476 ], [ -59.685442299999977, -2.733742699999913 ], [ -59.685274299999946, -2.73386670000002 ], [ -59.685137799999957, -2.733970600000027 ], [ -59.685013299999987, -2.734123899999886 ], [ -59.684904499999952, -2.7344335 ], [ -59.68474039999996, -2.734479800000011 ], [ -59.68462569999997, -2.73444039999996 ], [ -59.684568199999944, -2.734451099999902 ], [ -59.684487199999978, -2.73444679999989 ], [ -59.68438239999994, -2.734427799999868 ], [ -59.684100599999965, -2.734408399999948 ], [ -59.683887699999964, -2.73444769999994 ], [ -59.683662799999972, -2.734593199999919 ], [ -59.683342399999965, -2.735006899999931 ], [ -59.683209699999964, -2.735207199999921 ], [ -59.683070499999978, -2.735278199999982 ], [ -59.682918599999937, -2.735350399999926 ], [ -59.682728799999943, -2.735714299999978 ], [ -59.682459399999971, -2.736847399999867 ], [ -59.682435399999981, -2.736948299999928 ], [ -59.682480299999952, -2.736936399999878 ], [ -59.682480399999982, -2.736946099999966 ], [ -59.682480399999982, -2.736955799999986 ], [ -59.682480699999985, -2.736989799999955 ], [ -59.68248569999998, -2.737014099999902 ], [ -59.682485899999961, -2.7370335 ], [ -59.68249569999994, -2.737048099999983 ], [ -59.682505599999956, -2.737077199999935 ], [ -59.682510599999937, -2.73709659999993 ], [ -59.682520399999987, -2.737116 ], [ -59.682530299999939, -2.737140199999907 ], [ -59.682540099999983, -2.737164399999879 ], [ -59.682549899999977, -2.7371838 ], [ -59.682554899999957, -2.737198299999924 ], [ -59.682564699999951, -2.737222500000016 ], [ -59.682579399999952, -2.73724659999995 ], [ -59.682589199999946, -2.7372611 ], [ -59.682608699999946, -2.737280499999962 ], [ -59.682628099999931, -2.7372949 ], [ -59.682652399999931, -2.737314299999955 ], [ -59.682662099999952, -2.737319099999945 ], [ -59.682691199999965, -2.7373384 ], [ -59.682715499999979, -2.737352799999968 ], [ -59.682734899999957, -2.737362499999905 ], [ -59.68275419999997, -2.737367299999987 ], [ -59.682773599999962, -2.737376899999983 ], [ -59.682792899999981, -2.73738179999997 ], [ -59.682817099999966, -2.737391399999958 ], [ -59.682831599999986, -2.737396199999988 ], [ -59.682860599999977, -2.737401 ], [ -59.682879899999932, -2.737401 ], [ -59.682908899999966, -2.737401 ], [ -59.682923299999977, -2.737401 ], [ -59.682937799999934, -2.737401 ], [ -59.682966699999945, -2.7373866 ], [ -59.682990799999978, -2.737381699999927 ], [ -59.683014899999932, -2.737372099999952 ], [ -59.683029399999945, -2.737367299999888 ], [ -59.683063099999977, -2.737352899999988 ], [ -59.683092, -2.737333599999968 ], [ -59.683106499999958, -2.737328799999921 ], [ -59.683130599999977, -2.737324 ], [ -59.683154699999925, -2.737314299999988 ], [ -59.683169099999986, -2.737309499999987 ], [ -59.683193199999955, -2.737304699999904 ], [ -59.683212499999968, -2.737299899999909 ], [ -59.683241499999959, -2.737299899999865 ], [ -59.683260699999948, -2.737299899999888 ], [ -59.68328, -2.737290299999909 ], [ -59.683304099999987, -2.737285499999969 ], [ -59.683337799999947, -2.7372758 ], [ -59.683361899999966, -2.737271 ], [ -59.683386, -2.737261399999958 ], [ -59.683405299999947, -2.737261399999901 ], [ -59.683443799999964, -2.737261399999961 ], [ -59.683463, -2.737271099999957 ], [ -59.683482199999965, -2.737290299999939 ], [ -59.683482199999965, -2.737309599999981 ], [ -59.683477399999965, -2.7373288 ], [ -59.683477299999943, -2.737338499999984 ], [ -59.683458099999946, -2.737367299999963 ], [ -59.683448399999975, -2.737376899999958 ], [ -59.683429199999985, -2.737405700000022 ], [ -59.683419499999964, -2.737420199999982 ], [ -59.683400299999967, -2.737444199999932 ], [ -59.683390599999932, -2.737463399999906 ], [ -59.683381, -2.737487399999977 ], [ -59.683376199999941, -2.737506599999976 ], [ -59.683376199999941, -2.7375258 ], [ -59.683371299999976, -2.73755449999989 ], [ -59.683371299999976, -2.737573699999899 ], [ -59.683371299999976, -2.737597700000038 ], [ -59.683371299999976, -2.737621699999927 ], [ -59.683356899999986, -2.737650499999941 ], [ -59.683347299999987, -2.737669699999935 ], [ -59.683332899999975, -2.737703299999984 ], [ -59.683332899999975, -2.737722499999906 ], [ -59.683332899999975, -2.737736900000015 ], [ -59.683352099999986, -2.737761 ], [ -59.683366599999943, -2.737775400000027 ], [ -59.683390599999932, -2.73779459999996 ], [ -59.683409799999943, -2.737809 ], [ -59.683419499999964, -2.737823399999981 ], [ -59.683429099999955, -2.737842699999875 ], [ -59.683433899999955, -2.737852299999965 ], [ -59.683438699999954, -2.737885899999956 ], [ -59.683443499999953, -2.737905099999949 ], [ -59.683453099999952, -2.737929099999975 ], [ -59.68347719999997, -2.737962699999922 ], [ -59.68349639999996, -2.73797239999993 ], [ -59.6835253, -2.7379821 ], [ -59.683554199999939, -2.737982199999974 ], [ -59.683568599999951, -2.737982200000023 ], [ -59.683597499999962, -2.737967799999985 ], [ -59.683626299999958, -2.737948499999942 ], [ -59.683645499999955, -2.737938899999899 ], [ -59.683669599999966, -2.73792930000001 ], [ -59.683722499999988, -2.7379101 ], [ -59.683761, -2.73789569999996 ], [ -59.683785, -2.737881300000032 ], [ -59.683799399999941, -2.737871699999979 ], [ -59.683828299999952, -2.737866899999925 ], [ -59.683876399999974, -2.737862100000026 ], [ -59.683905299999942, -2.737862100000035 ], [ -59.683924599999962, -2.7378621 ], [ -59.683939, -2.7378621 ], [ -59.683963099999971, -2.7378766 ], [ -59.683987199999933, -2.737886199999935 ], [ -59.68400639999998, -2.737891 ], [ -59.68402569999995, -2.737910299999939 ], [ -59.684030499999949, -2.737929499999912 ], [ -59.68404019999997, -2.7379439 ], [ -59.684049899999941, -2.737972799999961 ], [ -59.684054699999933, -2.737996899999878 ], [ -59.684059599999955, -2.738016099999902 ], [ -59.684059599999955, -2.738035399999975 ], [ -59.684064499999977, -2.738069100000019 ], [ -59.684064499999977, -2.738078699999972 ], [ -59.684069399999942, -2.738098 ], [ -59.684069499999964, -2.73813659999994 ], [ -59.684069499999964, -2.738160699999927 ], [ -59.684069599999987, -2.738199199999916 ], [ -59.68406489999996, -2.738223299999922 ], [ -59.68406489999996, -2.738233 ], [ -59.684060099999961, -2.738266699999975 ], [ -59.684060199999983, -2.738300499999934 ], [ -59.684065099999941, -2.7383294 ], [ -59.68406989999994, -2.738348699999926 ], [ -59.684079499999939, -2.738367799999946 ], [ -59.684093799999971, -2.738386899999973 ], [ -59.684103299999947, -2.738406 ], [ -59.684112799999987, -2.738425099999943 ], [ -59.684112699999964, -2.738444099999958 ], [ -59.684112499999969, -2.738472699999968 ], [ -59.684102899999971, -2.738501499999873 ], [ -59.684088499999973, -2.738544799999973 ], [ -59.684064499999977, -2.7385882 ], [ -59.684059699999985, -2.738607399999977 ], [ -59.684059699999985, -2.738621799999914 ], [ -59.684054699999933, -2.738655299999885 ], [ -59.684054699999933, -2.738660099999916 ], [ -59.684049799999968, -2.738693499999963 ], [ -59.684044899999947, -2.73871730000001 ], [ -59.68404, -2.73873639999989 ], [ -59.684039899999959, -2.738750700000031 ], [ -59.684056599999963, -2.7388042 ], [ -59.684071199999948, -2.738837799999976 ], [ -59.684071299999971, -2.738857099999901 ], [ -59.684081, -2.738876399999986 ], [ -59.684090799999971, -2.738905299999951 ], [ -59.684095699999943, -2.738929299999951 ], [ -59.684105399999964, -2.73895340000001 ], [ -59.684119899999985, -2.73897260000001 ], [ -59.68413419999996, -2.738987 ], [ -59.684143899999981, -2.739001399999891 ], [ -59.684158199999949, -2.739011 ], [ -59.684182099999987, -2.739025299999929 ], [ -59.684206, -2.739039599999914 ], [ -59.684225099999935, -2.73904919999994 ], [ -59.684234699999934, -2.739053899999976 ], [ -59.68426819999997, -2.739077899999913 ], [ -59.684287299999937, -2.739082599999942 ], [ -59.684306599999957, -2.739082699999892 ], [ -59.684325899999976, -2.739082699999901 ], [ -59.684345299999961, -2.739068399999942 ], [ -59.684359799999982, -2.7390588 ], [ -59.684388799999972, -2.7390349 ], [ -59.684408099999985, -2.739020499999984 ], [ -59.684437, -2.739006199999983 ], [ -59.6844564, -2.738991799999975 ], [ -59.68447569999995, -2.738977500000011 ], [ -59.684485299999942, -2.73896790000001 ], [ -59.684504599999975, -2.73895829999998 ], [ -59.684523899999931, -2.738948799999885 ], [ -59.684557699999964, -2.73892969999998 ], [ -59.684572199999934, -2.73892009999992 ], [ -59.684601199999975, -2.738901 ], [ -59.684625299999936, -2.738881899999936 ], [ -59.684634899999935, -2.738877099999985 ], [ -59.684654199999954, -2.738867599999935 ], [ -59.684692699999978, -2.73885319999989 ], [ -59.684735499999938, -2.738833699999961 ], [ -59.684759399999955, -2.738828800000017 ], [ -59.684788199999964, -2.7388287 ], [ -59.684812199999953, -2.738838299999978 ], [ -59.684836299999972, -2.738852799999967 ], [ -59.684865199999933, -2.738872 ], [ -59.684870099999955, -2.738876899999954 ], [ -59.684913499999944, -2.738910599999915 ], [ -59.684928099999979, -2.738929899999931 ], [ -59.684942599999935, -2.73895409999995 ], [ -59.684957299999951, -2.738983099999974 ], [ -59.68497189999993, -2.739007199999979 ], [ -59.68497189999993, -2.739012 ], [ -59.684996099999985, -2.739045799999952 ], [ -59.685005899999965, -2.739069899999924 ], [ -59.685020399999985, -2.739089099999919 ], [ -59.685034799999983, -2.739108299999967 ], [ -59.685049199999973, -2.73911789999989 ], [ -59.685078099999942, -2.739132299999974 ], [ -59.685097299999931, -2.739142 ], [ -59.685116599999965, -2.739142 ], [ -59.685140499999932, -2.7391468 ], [ -59.6851597, -2.739151499999933 ], [ -59.685188399999959, -2.739151499999981 ], [ -59.685217099999932, -2.739151399999974 ], [ -59.685231499999986, -2.739151399999965 ], [ -59.685269799999958, -2.739151299999977 ], [ -59.685279299999927, -2.739141599999922 ], [ -59.685303199999964, -2.739131900000011 ], [ -59.685317499999933, -2.739127100000026 ], [ -59.685346199999969, -2.739117399999926 ], [ -59.685375, -2.739112499999955 ], [ -59.685413199999978, -2.7390931 ], [ -59.685432399999975, -2.739088199999986 ], [ -59.685451499999942, -2.739068799999919 ], [ -59.685465799999982, -2.739054300000031 ], [ -59.685494499999947, -2.739034899999988 ], [ -59.685518399999978, -2.739020299999932 ], [ -59.685547199999974, -2.7390057 ], [ -59.685585599999975, -2.738991099999974 ], [ -59.685604799999972, -2.738981299999922 ], [ -59.685614399999963, -2.73897650000002 ], [ -59.685643199999959, -2.738966699999926 ], [ -59.685672, -2.738961799999977 ], [ -59.685696, -2.738952 ], [ -59.685734499999967, -2.738947099999907 ], [ -59.685748899999965, -2.738947 ], [ -59.685763399999985, -2.738947 ], [ -59.685792199999987, -2.738951799999922 ], [ -59.685811499999943, -2.738961399999949 ], [ -59.685825899999941, -2.738961399999885 ], [ -59.68585, -2.738975799999905 ], [ -59.685864499999987, -2.738985499999956 ], [ -59.685878899999985, -2.739 ], [ -59.685898199999933, -2.739029 ], [ -59.685907799999946, -2.739048399999985 ], [ -59.685907799999946, -2.739062899999912 ], [ -59.685912699999967, -2.73908219999987 ], [ -59.685922299999966, -2.739106400000023 ], [ -59.685931899999964, -2.739106399999971 ], [ -59.685956, -2.739169599999965 ], [ -59.685956299999987, -2.739193699999924 ], [ -59.68596139999994, -2.739217699999943 ], [ -59.685961699999943, -2.7392465 ], [ -59.685966699999938, -2.739265799999891 ], [ -59.685971699999982, -2.739280199999918 ], [ -59.68598609999998, -2.7392994 ], [ -59.686000399999955, -2.739313699999973 ], [ -59.686014799999946, -2.73933289999996 ], [ -59.686029199999957, -2.739352099999973 ], [ -59.686048299999982, -2.739366499999929 ], [ -59.686067399999963, -2.739385699999914 ], [ -59.686077, -2.739400099999973 ], [ -59.686091499999982, -2.739428899999893 ], [ -59.68609639999994, -2.739448100000014 ], [ -59.686101299999962, -2.739462499999893 ], [ -59.686111, -2.739491299999906 ], [ -59.686111299999936, -2.739515200000024 ], [ -59.686116199999958, -2.73952959999996 ], [ -59.686130599999956, -2.739558400000028 ], [ -59.686145, -2.739572799999894 ], [ -59.686164, -2.739582399999906 ], [ -59.686187799999971, -2.739592 ], [ -59.686225699999973, -2.739596899999913 ], [ -59.686249299999986, -2.739592199999953 ], [ -59.686258799999962, -2.739592299999931 ], [ -59.686296699999957, -2.7395876 ], [ -59.686320499999972, -2.739587599999985 ], [ -59.686349, -2.739587699999933 ], [ -59.686382299999941, -2.739587799999916 ], [ -59.686396699999932, -2.739602299999959 ], [ -59.686416, -2.739635899999893 ], [ -59.686425699999972, -2.73966 ], [ -59.686430599999944, -2.739674399999957 ], [ -59.686435499999966, -2.739693599999964 ], [ -59.686449899999964, -2.739727299999947 ], [ -59.686459399999933, -2.739751399999971 ], [ -59.68647359999995, -2.739775600000014 ], [ -59.686487899999975, -2.739785299999957 ], [ -59.686492699999974, -2.739785299999975 ], [ -59.686526, -2.739795099999928 ], [ -59.68654509999994, -2.739795299999934 ], [ -59.686573799999955, -2.73979539999994 ], [ -59.686588099999945, -2.739795499999925 ], [ -59.686616899999933, -2.739781199999958 ], [ -59.68664559999997, -2.739771699999921 ], [ -59.686674399999958, -2.739752499999942 ], [ -59.686708, -2.73973339999998 ], [ -59.686722399999958, -2.739723800000012 ], [ -59.686741499999982, -2.739709399999968 ], [ -59.686770299999985, -2.739699899999906 ], [ -59.686808699999972, -2.739695199999944 ], [ -59.686847199999931, -2.739695399999934 ], [ -59.686856899999952, -2.739705099999957 ], [ -59.686876199999972, -2.739714799999938 ], [ -59.686900299999941, -2.739734299999963 ], [ -59.686909899999939, -2.739744099999987 ], [ -59.686929199999952, -2.739753799999945 ], [ -59.686948499999971, -2.7397636 ], [ -59.686991899999953, -2.739793 ], [ -59.687011299999945, -2.7398028 ], [ -59.687020899999943, -2.739802899999967 ], [ -59.687054799999942, -2.739803099999926 ], [ -59.687069299999955, -2.739803099999918 ], [ -59.68710329999994, -2.739803300000015 ], [ -59.687127499999981, -2.739803499999963 ], [ -59.687166299999944, -2.739803699999855 ], [ -59.687185799999945, -2.739803799999967 ], [ -59.687205199999937, -2.739823400000043 ], [ -59.68721979999998, -2.7398332 ], [ -59.687258699999973, -2.739857799999886 ], [ -59.687292799999966, -2.739882300000036 ], [ -59.687307399999959, -2.739901899999977 ], [ -59.68732689999996, -2.739916699999943 ], [ -59.687351299999925, -2.7399363 ], [ -59.68737079999994, -2.739950899999881 ], [ -59.687414699999977, -2.73998 ], [ -59.687439099999949, -2.73999949999994 ], [ -59.687468299999985, -2.740009199999922 ], [ -59.687492699999957, -2.740009099999943 ], [ -59.687521899999979, -2.740009099999976 ], [ -59.687546199999986, -2.740013899999892 ], [ -59.687565699999936, -2.740018699999967 ], [ -59.687585199999937, -2.740018699999962 ], [ -59.687594899999958, -2.740018699999917 ], [ -59.687629, -2.740008899999972 ], [ -59.687682399999979, -2.740008599999948 ], [ -59.68771629999997, -2.740013200000013 ], [ -59.687733899999948, -2.740055699999917 ], [ -59.687753699999966, -2.740065500000019 ], [ -59.687778399999964, -2.740075299999937 ], [ -59.687803199999962, -2.740085099999939 ], [ -59.687822799999935, -2.74009969999997 ], [ -59.687842399999973, -2.740114299999931 ], [ -59.687857099999974, -2.740128899999971 ], [ -59.687866899999968, -2.74013869999995 ], [ -59.687886399999968, -2.740158099999983 ], [ -59.687915799999985, -2.740182399999977 ], [ -59.687935199999977, -2.740206699999949 ], [ -59.6879598, -2.740221399999988 ], [ -59.687964699999952, -2.740226199999925 ], [ -59.68798929999997, -2.740240800000048 ], [ -59.688033699999941, -2.740260399999894 ], [ -59.688058399999939, -2.740265299999946 ], [ -59.688073299999985, -2.740265399999925 ], [ -59.688108099999958, -2.740260599999878 ], [ -59.688138099999954, -2.740251100000026 ], [ -59.688163, -2.740241499999903 ], [ -59.688188, -2.740231899999916 ], [ -59.688208, -2.7402223 ], [ -59.688257699999951, -2.740203199999947 ], [ -59.688287599999974, -2.740188799999943 ], [ -59.688326899999943, -2.740179299999957 ], [ -59.68835629999996, -2.740174499999946 ], [ -59.688361199999981, -2.740174499999984 ], [ -59.688380699999982, -2.740169699999949 ], [ -59.688415, -2.740169799999976 ], [ -59.688449199999987, -2.740169899999982 ], [ -59.688478599999939, -2.74017 ], [ -59.688503, -2.74017 ], [ -59.68853229999997, -2.740179799999978 ], [ -59.688547, -2.740184599999964 ], [ -59.688576299999966, -2.740199199999894 ], [ -59.688595799999973, -2.7402089 ], [ -59.688615299999974, -2.740213799999947 ], [ -59.688634899999947, -2.740223499999886 ], [ -59.688683599999933, -2.740242899999877 ], [ -59.688703199999956, -2.740247800000013 ], [ -59.688722699999971, -2.740262299999912 ], [ -59.688742099999963, -2.740276799999964 ], [ -59.688756799999965, -2.740296199999935 ], [ -59.688771399999958, -2.74031549999995 ], [ -59.688781099999979, -2.7403252 ], [ -59.688829799999951, -2.74037350000004 ], [ -59.688844399999937, -2.740388 ], [ -59.68885419999998, -2.740397699999961 ], [ -59.68887349999995, -2.740417 ], [ -59.688887899999948, -2.7404314 ], [ -59.688907099999938, -2.740455499999961 ], [ -59.688926399999957, -2.740474799999897 ], [ -59.688965, -2.740503799999974 ], [ -59.68897469999996, -2.740503799999882 ], [ -59.68898919999998, -2.740518299999961 ], [ -59.689023, -2.740542399999956 ], [ -59.6890375, -2.740547199999989 ], [ -59.689052, -2.740556899999901 ], [ -59.689076199999931, -2.740566499999892 ], [ -59.689100399999973, -2.740581 ], [ -59.689134299999978, -2.740590600000012 ], [ -59.689148799999934, -2.74060029999993 ], [ -59.689173, -2.740614799999949 ], [ -59.689192299999945, -2.740629200000011 ], [ -59.689206699999936, -2.740643700000033 ], [ -59.689216399999957, -2.740653399999897 ], [ -59.689245399999947, -2.740667799999904 ], [ -59.689269699999961, -2.740667799999984 ], [ -59.689293899999939, -2.740672599999879 ], [ -59.689313299999974, -2.740672599999978 ], [ -59.689347199999986, -2.740677399999885 ], [ -59.689361799999979, -2.740677399999974 ], [ -59.689395699999977, -2.740677399999926 ], [ -59.689424799999983, -2.740677399999949 ], [ -59.689439299999954, -2.74067739999988 ], [ -59.689492599999937, -2.740677399999985 ], [ -59.68952649999995, -2.74067729999994 ], [ -59.689545799999969, -2.740677299999979 ], [ -59.689574799999939, -2.740691799999937 ], [ -59.689598899999972, -2.740701399999973 ], [ -59.689627899999948, -2.7407158 ], [ -59.6896665, -2.740735099999915 ], [ -59.68968579999995, -2.740744699999948 ], [ -59.689695399999948, -2.740749499999977 ], [ -59.68977759999995, -2.74079269999992 ], [ -59.6898212, -2.740802199999982 ], [ -59.689845399999967, -2.7408021 ], [ -59.689893599999948, -2.740802 ], [ -59.689937, -2.740801799999939 ], [ -59.68995149999995, -2.740792199999984 ], [ -59.689975499999946, -2.740782499999904 ], [ -59.68999, -2.740782500000021 ], [ -59.690033199999959, -2.7407776 ], [ -59.690062, -2.740777499999924 ], [ -59.690081199999952, -2.74077739999991 ], [ -59.690100399999942, -2.74077739999998 ], [ -59.690124399999952, -2.7407774 ], [ -59.690145899999948, -2.740777400000018 ], [ -59.69016749999998, -2.74077739999995 ], [ -59.69018669999997, -2.74078219999993 ], [ -59.690201099999967, -2.740787 ], [ -59.690229899999963, -2.740801299999964 ], [ -59.690249, -2.740810899999909 ], [ -59.690273, -2.74083009999996 ], [ -59.690297, -2.740844399999971 ], [ -59.69032569999996, -2.740858800000016 ], [ -59.690359299999955, -2.740868399999953 ], [ -59.690378499999944, -2.740873099999904 ], [ -59.690407199999981, -2.740873099999921 ], [ -59.690412, -2.740873099999965 ], [ -59.690436, -2.740873099999885 ], [ -59.690469599999972, -2.74088269999995 ], [ -59.690507899999929, -2.740892299999864 ], [ -59.690527099999947, -2.740887499999962 ], [ -59.690555899999936, -2.740882699999871 ], [ -59.690575099999933, -2.740882699999965 ], [ -59.6905943, -2.740882699999884 ], [ -59.690613499999984, -2.740897099999947 ], [ -59.690647099999978, -2.740930699999953 ], [ -59.690651799999948, -2.740935399999973 ], [ -59.690685499999979, -2.740949799999927 ], [ -59.69071919999994, -2.7409499 ], [ -59.690728799999938, -2.740949899999934 ], [ -59.690819, -2.741007499999921 ], [ -59.690842799999984, -2.741017099999915 ], [ -59.690876299999964, -2.741031599999878 ], [ -59.69090969999997, -2.741041199999977 ], [ -59.690943199999936, -2.741050899999911 ], [ -59.690971799999943, -2.7410557 ], [ -59.690995699999981, -2.741060599999919 ], [ -59.69100519999995, -2.741060599999952 ], [ -59.691048199999955, -2.741060699999929 ], [ -59.691081599999961, -2.74106080000001 ], [ -59.691105499999935, -2.741060899999975 ], [ -59.691124599999966, -2.741060900000048 ], [ -59.691143699999941, -2.741061 ], [ -59.69117719999997, -2.74106109999991 ], [ -59.691205899999936, -2.74106119999996 ], [ -59.691229799999974, -2.7410564 ], [ -59.691244199999964, -2.741056499999941 ], [ -59.691292, -2.741047 ], [ -59.691330299999947, -2.7410423 ], [ -59.691349499999944, -2.741042399999906 ], [ -59.691378099999952, -2.741032899999954 ], [ -59.691402099999948, -2.741033 ], [ -59.691421299999938, -2.7410282 ], [ -59.691430899999951, -2.741028199999956 ], [ -59.6914503, -2.741023299999894 ], [ -59.691474599999943, -2.74101829999993 ], [ -59.691499, -2.741013199999872 ], [ -59.691523399999937, -2.74100329999989 ], [ -59.691586699999959, -2.740988299999916 ], [ -59.691606099999952, -2.740978499999871 ], [ -59.691639899999984, -2.740973400000037 ], [ -59.691678499999973, -2.740968399999903 ], [ -59.6917026, -2.740973 ], [ -59.691736299999953, -2.740982399999982 ], [ -59.69175069999995, -2.740987099999893 ], [ -59.691774599999981, -2.741001299999945 ], [ -59.691798599999977, -2.741015499999967 ], [ -59.691832199999965, -2.741034499999969 ], [ -59.691841699999941, -2.741053599999987 ], [ -59.691851199999974, -2.741077599999875 ], [ -59.691870399999971, -2.7411013999999 ], [ -59.691875099999947, -2.741115799999907 ], [ -59.69188939999998, -2.741144499999973 ], [ -59.691899, -2.741168499999891 ], [ -59.691908499999954, -2.74119249999992 ], [ -59.691922899999952, -2.74121639999996 ], [ -59.691942, -2.741245099999952 ], [ -59.691946799999982, -2.741249799999974 ], [ -59.691965899999957, -2.741268899999965 ], [ -59.69198989999996, -2.741283099999962 ], [ -59.691994599999987, -2.741287799999911 ], [ -59.692028099999966, -2.7413066999999 ], [ -59.692037699999965, -2.741311399999973 ], [ -59.692056799999932, -2.741320799999971 ], [ -59.69208069999997, -2.74133009999991 ], [ -59.692104499999978, -2.741334599999934 ], [ -59.692123599999945, -2.741339099999891 ], [ -59.692142699999984, -2.741348499999944 ], [ -59.692161699999986, -2.741357899999906 ], [ -59.692180799999967, -2.74136719999998 ], [ -59.69220939999996, -2.7413861 ], [ -59.692218899999951, -2.741395599999932 ], [ -59.692242699999944, -2.7414145 ], [ -59.69226169999996, -2.741423799999957 ], [ -59.692285499999969, -2.741428299999886 ], [ -59.692295, -2.741428099999908 ], [ -59.69233289999994, -2.741427499999951 ], [ -59.692356499999953, -2.741427 ], [ -59.692389399999975, -2.7414119 ], [ -59.692408199999925, -2.741401900000011 ], [ -59.692412899999965, -2.741397 ], [ -59.692445799999973, -2.741406 ], [ -59.692465599999942, -2.741406200000015 ], [ -59.692500099999961, -2.741406399999915 ], [ -59.692524699999979, -2.741406499999886 ], [ -59.69253939999998, -2.741406599999916 ], [ -59.692563599999971, -2.741420899999981 ], [ -59.692568399999971, -2.741425699999945 ], [ -59.692602399999942, -2.74144 ], [ -59.692626499999953, -2.741454199999916 ], [ -59.692650399999934, -2.741477899999979 ], [ -59.69266939999995, -2.7415015 ], [ -59.692683699999975, -2.7415204 ], [ -59.692688199999964, -2.741534600000027 ], [ -59.69270709999995, -2.741562899999957 ], [ -59.69272159999997, -2.741572399999918 ], [ -59.692741, -2.741577099999954 ], [ -59.692775, -2.74158189999996 ], [ -59.692804199999955, -2.741582 ], [ -59.692818799999941, -2.741582 ], [ -59.692847799999981, -2.741586799999901 ], [ -59.692886099999946, -2.74159150000003 ], [ -59.692904899999974, -2.741610299999929 ], [ -59.692923699999945, -2.741629200000036 ], [ -59.692937599999937, -2.741652700000034 ], [ -59.692942099999982, -2.741671499999924 ], [ -59.692951099999966, -2.741704499999926 ], [ -59.692960099999937, -2.741732799999981 ], [ -59.692959599999931, -2.741761100000028 ], [ -59.6929593, -2.741775299999923 ], [ -59.692958699999963, -2.741813099999915 ], [ -59.692958199999964, -2.741836699999957 ], [ -59.692953, -2.7418604 ], [ -59.692952699999978, -2.741874599999925 ], [ -59.692952099999957, -2.7419078 ], [ -59.692951699999973, -2.741931599999913 ], [ -59.69295139999997, -2.741945799999936 ], [ -59.692960499999963, -2.741974299999887 ], [ -59.692965099999981, -2.741988599999922 ], [ -59.692974399999969, -2.7420075 ], [ -59.692988499999963, -2.742026499999937 ], [ -59.692993, -2.742045499999953 ], [ -59.6930167, -2.7420645 ], [ -59.69303089999994, -2.7420787 ], [ -59.69304039999998, -2.742083399999989 ], [ -59.693073599999941, -2.7420976 ], [ -59.693087799999937, -2.742107099999978 ], [ -59.6930943, -2.742111 ], [ -59.693386, -2.741758699999971 ], [ -59.705048399999953, -2.727688099999936 ], [ -59.705556799999954, -2.726757599999875 ], [ -59.726323199999975, -2.708105199999945 ] ] ] } }
]
}
