{
"type": "FeatureCollection",
"name": "1303403",
"crs": { "type": "name", "properties": { "name": "urn:ogc:def:crs:OGC:1.3:CRS84" } },
"features": [
{ "type": "Feature", "properties": { "CD_MUN": "1303403", "NM_MUN": "Parintins" }, "geometry": { "type": "MultiPolygon", "coordinates": [ [ [ [ -56.733616599999941, -2.807427499999911 ], [ -56.73363709999996, -2.807386499999924 ], [ -56.733985399999938, -2.806443899999946 ], [ -56.733985399999938, -2.805296399999944 ], [ -56.733784099999973, -2.805113899999923 ], [ -56.733519, -2.804893 ], [ -56.733099399999951, -2.804362899999941 ], [ -56.732944699999962, -2.804119899999894 ], [ -56.732845299999951, -2.803673299999887 ], [ -56.732812199999955, -2.802772599999972 ], [ -56.732745899999934, -2.802441199999941 ], [ -56.732563399999947, -2.801697499999965 ], [ -56.732311599999946, -2.800672 ], [ -56.732392499999946, -2.800166099999907 ], [ -56.732264099999945, -2.799713699999978 ], [ -56.732084399999962, -2.799080199999869 ], [ -56.732061199999976, -2.798885 ], [ -56.73191, -2.7983668 ], [ -56.731928699999962, -2.798200299999968 ], [ -56.731641499999959, -2.798045699999936 ], [ -56.731525399999953, -2.797556899999986 ], [ -56.731441699999955, -2.797447499999933 ], [ -56.729732799999965, -2.799328199999954 ], [ -56.729167699999948, -2.799950199999951 ], [ -56.725484499999936, -2.803845799999947 ], [ -56.725338399999941, -2.804026 ], [ -56.725522799999972, -2.804128499999972 ], [ -56.7260965, -2.804312899999891 ], [ -56.726424399999985, -2.804558799999932 ], [ -56.726547299999936, -2.804784199999975 ], [ -56.726690699999949, -2.804968599999915 ], [ -56.726854699999926, -2.805357899999951 ], [ -56.72685469999994, -2.805665299999937 ], [ -56.726854699999933, -2.805952099999943 ], [ -56.726752199999972, -2.806259499999937 ], [ -56.726608799999951, -2.806546399999986 ], [ -56.726588299999946, -2.806915199999983 ], [ -56.726526799999931, -2.80734549999996 ], [ -56.726526799999931, -2.807632399999977 ], [ -56.727366899999936, -2.808718399999981 ], [ -56.72853489999995, -2.809517499999917 ], [ -56.728965199999948, -2.809681399999917 ], [ -56.729190599999981, -2.8098249 ], [ -56.729723399999955, -2.809947799999959 ], [ -56.730112699999943, -2.810029799999963 ], [ -56.730788899999936, -2.810029799999985 ], [ -56.731301099999939, -2.8099068 ], [ -56.731293699999981, -2.809643599999915 ], [ -56.731649499999946, -2.808677399999982 ], [ -56.731956799999978, -2.8083905 ], [ -56.732202699999959, -2.808288099999924 ], [ -56.732223199999964, -2.80826760000002 ], [ -56.733042799999964, -2.808001199999919 ], [ -56.733411699999969, -2.807816799999976 ], [ -56.733616599999941, -2.807427499999911 ] ] ], [ [ [ -56.745659699999976, -2.755036799999962 ], [ -56.745737299999973, -2.7550884 ], [ -56.745892399999939, -2.755165700000022 ], [ -56.745995899999969, -2.755217299999916 ], [ -56.746125099999972, -2.7552688 ], [ -56.746254299999976, -2.7553203 ], [ -56.746383299999934, -2.755371599999973 ], [ -56.746563599999945, -2.755448199999939 ], [ -56.746692199999984, -2.7554992 ], [ -56.746872199999984, -2.75555 ], [ -56.746949299999983, -2.7555754 ], [ -56.747052299999957, -2.755601 ], [ -56.747155199999952, -2.75565219999995 ], [ -56.747258399999964, -2.755678 ], [ -56.747387299999964, -2.7556779 ], [ -56.747541699999942, -2.755677499999944 ], [ -56.747644499999979, -2.75570290000002 ], [ -56.747798699999976, -2.755702499999953 ], [ -56.747876199999951, -2.7557282999999 ], [ -56.748005899999953, -2.755754599999932 ], [ -56.748109199999931, -2.75578039999998 ], [ -56.748445499999946, -2.755858299999903 ], [ -56.748548899999946, -2.755909899999957 ], [ -56.74867809999995, -2.75596159999996 ], [ -56.748807399999968, -2.7560133 ], [ -56.748936599999972, -2.756065 ], [ -56.749040099999952, -2.756116699999979 ], [ -56.749143599999961, -2.756194199999978 ], [ -56.749246899999946, -2.756220099999982 ], [ -56.749350399999976, -2.756271799999921 ], [ -56.749505499999941, -2.756323499999951 ], [ -56.749634799999967, -2.756375200000041 ], [ -56.749764099999936, -2.756426899999932 ], [ -56.749841699999941, -2.75645280000003 ], [ -56.749970899999937, -2.756504399999946 ], [ -56.750048399999969, -2.7565561 ], [ -56.750177399999984, -2.7565818 ], [ -56.750280499999974, -2.75658170000004 ], [ -56.750435099999947, -2.756581499999971 ], [ -56.750589399999967, -2.7565554 ], [ -56.750666399999943, -2.756529399999929 ], [ -56.750743299999954, -2.756477599999893 ], [ -56.750846399999951, -2.756425899999928 ], [ -56.750866, -2.756400199999926 ], [ -56.750885599999947, -2.756374599999953 ], [ -56.75092479999995, -2.756323199999985 ], [ -56.751003, -2.756271899999975 ], [ -56.751081399999975, -2.756194899999909 ], [ -56.75126409999995, -2.7560667 ], [ -56.751316199999962, -2.756041 ], [ -56.751472299999932, -2.755964 ], [ -56.751628099999948, -2.755912699999931 ], [ -56.751706099999979, -2.755912799999955 ], [ -56.751784, -2.755913 ], [ -56.751940099999963, -2.755939099999976 ], [ -56.752070199999935, -2.755965199999878 ], [ -56.752174299999979, -2.755991299999891 ], [ -56.752278499999925, -2.756043199999942 ], [ -56.7524868, -2.756095299999914 ], [ -56.752617, -2.756121499999983 ], [ -56.752721199999939, -2.756173399999918 ], [ -56.752825499999972, -2.756225399999907 ], [ -56.752955799999938, -2.756225699999975 ], [ -56.753112099999953, -2.756251899999969 ], [ -56.753216399999985, -2.756252099999974 ], [ -56.753320599999938, -2.756252299999935 ], [ -56.75342489999997, -2.756252599999923 ], [ -56.753529299999975, -2.7562787 ], [ -56.753666099999975, -2.756317799999949 ], [ -56.753710299999966, -2.756330400000027 ], [ -56.753787799999941, -2.7563821 ], [ -56.753942299999949, -2.756459399999937 ], [ -56.754099099999969, -2.756589199999925 ], [ -56.754204, -2.756667199999947 ], [ -56.754230799999959, -2.756719199999935 ], [ -56.754309799999987, -2.756797299999969 ], [ -56.754363, -2.756875399999897 ], [ -56.754440799999941, -2.756978899999968 ], [ -56.754570299999962, -2.7571083 ], [ -56.754648, -2.757185899999954 ], [ -56.754777499999932, -2.757263599999892 ], [ -56.755010699999957, -2.757418799999915 ], [ -56.755217899999934, -2.757548199999951 ], [ -56.755373299999974, -2.7576 ], [ -56.755606399999976, -2.757625899999926 ], [ -56.755761899999982, -2.7576258999999 ], [ -56.755891399999946, -2.757626 ], [ -56.756020899999953, -2.757626 ], [ -56.756150399999974, -2.757600099999919 ], [ -56.756305899999973, -2.757600099999979 ], [ -56.75651309999995, -2.757548399999931 ], [ -56.756616699999938, -2.75749669999996 ], [ -56.756849899999963, -2.75741909999994 ], [ -56.7571349, -2.757212200000026 ], [ -56.757394, -2.7570052 ], [ -56.757653, -2.75677239999996 ], [ -56.757730799999933, -2.756643 ], [ -56.757808499999953, -2.756565399999917 ], [ -56.757910899999956, -2.756358199999977 ], [ -56.758013799999958, -2.756254599999954 ], [ -56.758167199999953, -2.755943799999945 ], [ -56.758372099999974, -2.755607299999919 ], [ -56.758423299999947, -2.7555037 ], [ -56.758525099999986, -2.7551932 ], [ -56.758577099999961, -2.755089799999922 ], [ -56.758655099999949, -2.754908900000012 ], [ -56.758733699999937, -2.754650399999873 ], [ -56.758786499999985, -2.754469399999938 ], [ -56.758943499999987, -2.754210899999948 ], [ -56.75897, -2.754081599999987 ], [ -56.759101, -2.753848799999915 ], [ -56.759127399999947, -2.753745399999914 ], [ -56.759258599999953, -2.753460799999976 ], [ -56.759311299999979, -2.753305499999983 ], [ -56.759441, -2.752995099999905 ], [ -56.759458499999937, -2.75289 ], [ -56.755567599999949, -2.749162300000037 ], [ -56.754896, -2.749117499999949 ], [ -56.750505699999962, -2.748876499999902 ], [ -56.748188599999928, -2.748060699999904 ], [ -56.747677599999975, -2.748792899999934 ], [ -56.745846599999936, -2.750505599999873 ], [ -56.745683699999972, -2.7528131 ], [ -56.745848299999977, -2.7547536 ], [ -56.745646699999952, -2.755010899999939 ], [ -56.745659699999976, -2.755036799999962 ] ] ], [ [ [ -56.757037, -2.6930201 ], [ -56.764259199999969, -2.700850499999956 ], [ -56.766311799999983, -2.699862199999962 ], [ -56.769936199999961, -2.696784899999976 ], [ -56.770341099999939, -2.696441199999946 ], [ -56.777791399999956, -2.694616599999916 ], [ -56.780572899999989, -2.6918886 ], [ -56.781744599999968, -2.690739399999984 ], [ -56.785051599999974, -2.6845434999999 ], [ -56.790069099999982, -2.681540599999909 ], [ -56.793186099999957, -2.681084499999923 ], [ -56.797061099999951, -2.6769838 ], [ -56.797101299999952, -2.676941199999886 ], [ -56.800712899999951, -2.67420469999995 ], [ -56.800864399999973, -2.669110799999916 ], [ -56.795467899999949, -2.65844 ], [ -56.794184, -2.6509404 ], [ -56.793916399999951, -2.645944199999941 ], [ -56.785430099999985, -2.643286799999882 ], [ -56.779323399999953, -2.639616799999953 ], [ -56.772865373999934, -2.636672655999988 ], [ -56.772847703999958, -2.636687559999874 ], [ -56.771048207999968, -2.636701832999898 ], [ -56.770177426999965, -2.636298274999889 ], [ -56.76922639999998, -2.635823387999947 ], [ -56.768579609999954, -2.635614101999951 ], [ -56.768022225999964, -2.635600380000024 ], [ -56.767194208999975, -2.635397782999966 ], [ -56.766382030999978, -2.635495698999897 ], [ -56.76572076999998, -2.635408613 ], [ -56.764989063999963, -2.63547232099993 ], [ -56.764125224999987, -2.635654071999932 ], [ -56.763029574999955, -2.63573066499986 ], [ -56.760574307999939, -2.635631878 ], [ -56.758724279999974, -2.635418004999938 ], [ -56.75808598499998, -2.635119054 ], [ -56.757199041999961, -2.634703646999972 ], [ -56.756042623, -2.63438916899996 ], [ -56.756002253999952, -2.634366920999916 ], [ -56.755884899999955, -2.6343499 ], [ -56.752192699999966, -2.632648599999876 ], [ -56.749017499999987, -2.6306917 ], [ -56.747272, -2.629771 ], [ -56.746759, -2.629354 ], [ -56.745796, -2.628665 ], [ -56.744833, -2.628104 ], [ -56.743822499999965, -2.6274141 ], [ -56.741479499999976, -2.625714299999965 ], [ -56.740836299999955, -2.625466199999951 ], [ -56.738658799999939, -2.624565799999953 ], [ -56.736832399999969, -2.624458599999969 ], [ -56.734047199999964, -2.623009300000019 ], [ -56.733881, -2.622921099999875 ], [ -56.732048299999974, -2.621662399999979 ], [ -56.730711099999958, -2.621377499999962 ], [ -56.729535, -2.620771099999926 ], [ -56.727867, -2.620332199999933 ], [ -56.726291599999968, -2.6195859 ], [ -56.720418499999937, -2.618635399999939 ], [ -56.719187699999971, -2.6185087 ], [ -56.718167899999962, -2.618757300000018 ], [ -56.712892799999963, -2.617087200000024 ], [ -56.708438599999965, -2.616625199999959 ], [ -56.706699199999946, -2.617647199999956 ], [ -56.70688709999996, -2.618078300000011 ], [ -56.707075, -2.618509299999974 ], [ -56.708473599999934, -2.621717700000038 ], [ -56.708577899999966, -2.6271451 ], [ -56.706490499999973, -2.632259399999902 ], [ -56.71160469999996, -2.645827799999881 ], [ -56.715988399999958, -2.655638799999951 ], [ -56.715580699999975, -2.659731099999982 ], [ -56.71539219999994, -2.661622899999882 ], [ -56.715445799999948, -2.662719100000016 ], [ -56.717384199999969, -2.666460500000032 ], [ -56.722135299999934, -2.671460799999982 ], [ -56.74065, -2.685944499999901 ], [ -56.741286299999956, -2.686462499999962 ], [ -56.745253299999938, -2.691803799999972 ], [ -56.753083799999963, -2.692564 ], [ -56.757037, -2.6930201 ] ] ], [ [ [ -56.667429399999946, -2.622714399999878 ], [ -56.668239, -2.622602200000014 ], [ -56.668350799999985, -2.622602 ], [ -56.668853299999967, -2.6224616 ], [ -56.670212099999951, -2.623030599999967 ], [ -56.671976599999937, -2.617195299999969 ], [ -56.672034899999971, -2.615509199999988 ], [ -56.672046099999932, -2.615185499999906 ], [ -56.671551599999987, -2.613083299999959 ], [ -56.671732936999952, -2.612899403999961 ], [ -56.671356777999961, -2.612721269999929 ], [ -56.671294276999966, -2.612691672 ], [ -56.671085233999975, -2.612491212999915 ], [ -56.669550740999966, -2.611461382999919 ], [ -56.668922968999937, -2.610831483999935 ], [ -56.668460061999951, -2.61036700900002 ], [ -56.668360663999977, -2.610319549999967 ], [ -56.666816780999966, -2.609582393999939 ], [ -56.665649318999954, -2.608544573999941 ], [ -56.664877802999975, -2.608134730999956 ], [ -56.664280340999944, -2.607655290999937 ], [ -56.663759664999986, -2.607024922999926 ], [ -56.662942365999974, -2.606364658999894 ], [ -56.662824107999938, -2.606269122999961 ], [ -56.661702841999954, -2.604920723000018 ], [ -56.659997287999943, -2.603375037999961 ], [ -56.658820523999964, -2.602449818 ], [ -56.657914005999949, -2.602125535999904 ], [ -56.657274435999966, -2.601760811999973 ], [ -56.656336416999977, -2.601437604999882 ], [ -56.655322701999978, -2.600809516 ], [ -56.654597882999951, -2.600193552999949 ], [ -56.65371139299998, -2.599607626999917 ], [ -56.652859309999947, -2.598622045999981 ], [ -56.652333889999966, -2.598391568999979 ], [ -56.65155421299994, -2.598297729999957 ], [ -56.651020315999972, -2.598597991999901 ], [ -56.650627080999982, -2.598441293999894 ], [ -56.650326973999938, -2.598038877999946 ], [ -56.650606399999958, -2.601452900000013 ], [ -56.65141669999997, -2.602792699999946 ], [ -56.6518789, -2.6040737 ], [ -56.651647099999934, -2.605471699999964 ], [ -56.649557899999934, -2.607541899999922 ], [ -56.647712099999971, -2.60937089999996 ], [ -56.646468899999945, -2.610913799999965 ], [ -56.646352899999947, -2.613474199999941 ], [ -56.645771599999939, -2.615289399999952 ], [ -56.64565129999994, -2.615441199999912 ], [ -56.645399899999973, -2.615688299999873 ], [ -56.645361, -2.615871099999967 ], [ -56.645359099999958, -2.615990899999944 ], [ -56.644442599999941, -2.617608599999894 ], [ -56.642764199999931, -2.619586899999981 ], [ -56.641453099999971, -2.623152499999932 ], [ -56.644428799999957, -2.6250505 ], [ -56.649489899999942, -2.628266699999966 ], [ -56.652855699999975, -2.623504799999966 ], [ -56.65473389999994, -2.62026279999992 ], [ -56.654866399999946, -2.620034099999924 ], [ -56.659595899999943, -2.622580399999894 ], [ -56.660797199999934, -2.623227099999894 ], [ -56.660815599999985, -2.623237 ], [ -56.662196199999983, -2.623530099999938 ], [ -56.662278899999933, -2.62353060000002 ], [ -56.665199099999938, -2.623193700000011 ], [ -56.665394499999941, -2.623221 ], [ -56.66645479999994, -2.623329599999909 ], [ -56.666594099999948, -2.62327349999992 ], [ -56.66692809999995, -2.623021799999987 ], [ -56.667429399999946, -2.622714399999878 ] ] ], [ [ [ -57.096398599999979, -2.462153299999903 ], [ -57.096572199999969, -2.462604399999932 ], [ -57.09815569999995, -2.463919299999865 ], [ -57.098406699999941, -2.464018499999901 ], [ -57.0986602, -2.464118599999942 ], [ -57.099636399999959, -2.464504399999971 ], [ -57.101438199999961, -2.46507429999992 ], [ -57.103128899999952, -2.465750599999987 ], [ -57.103644499999973, -2.465956799999942 ], [ -57.104471799999942, -2.465478799999971 ], [ -57.104821099999981, -2.464651499999899 ], [ -57.104986599999961, -2.463603500000015 ], [ -57.105422399999945, -2.462252499999912 ], [ -57.105825099999947, -2.461003899999924 ], [ -57.105957499999938, -2.4605934 ], [ -57.107473599999928, -2.458250300000028 ], [ -57.100279099999966, -2.4531508 ], [ -57.099739599999964, -2.453873499999964 ], [ -57.09834879999994, -2.455591199999938 ], [ -57.098135, -2.455849900000047 ], [ -57.096860099999958, -2.4575128 ], [ -57.096629699999937, -2.4577769 ], [ -57.096293799999955, -2.458275899999963 ], [ -57.0958715, -2.458688599999974 ], [ -57.095027, -2.459264499999894 ], [ -57.094681399999949, -2.460013099999933 ], [ -57.094815799999935, -2.460569699999894 ], [ -57.095421099999953, -2.461063799999963 ], [ -57.095996299999975, -2.4611072 ], [ -57.096398599999979, -2.462153299999903 ] ] ], [ [ [ -57.282677299999932, -2.457897399999901 ], [ -57.283128, -2.456877 ], [ -57.283405699999946, -2.456640199999905 ], [ -57.284042599999964, -2.456097199999977 ], [ -57.285310299999928, -2.455579599999914 ], [ -57.28574579999998, -2.455571399999892 ], [ -57.285947799999974, -2.455610700000041 ], [ -57.286071799999945, -2.4554587 ], [ -57.286635499999932, -2.452428499999957 ], [ -57.288326799999943, -2.452322799999934 ], [ -57.288456899999971, -2.4522304999999 ], [ -57.289480799999978, -2.451503899999911 ], [ -57.289620199999952, -2.4513833 ], [ -57.291330499999965, -2.449903100000025 ], [ -57.287824399999977, -2.447039099999861 ], [ -57.287790799999982, -2.447011599999971 ], [ -57.287757499999934, -2.446984399999895 ], [ -57.287358599999941, -2.44666019999987 ], [ -57.287204699999968, -2.44664 ], [ -57.286789299999946, -2.446699299999947 ], [ -57.285743499999967, -2.446884699999872 ], [ -57.285305799999946, -2.447077599999958 ], [ -57.284816299999932, -2.4474559 ], [ -57.284178399999973, -2.447893499999936 ], [ -57.283270599999987, -2.44832 ], [ -57.283170299999938, -2.44941229999992 ], [ -57.283238299999937, -2.450538299999895 ], [ -57.283734199999969, -2.451000699999949 ], [ -57.282829299999946, -2.451861399999914 ], [ -57.282250899999951, -2.452501699999954 ], [ -57.281682499999931, -2.453099 ], [ -57.278494599999938, -2.456449699999984 ], [ -57.28096469999997, -2.460428 ], [ -57.282563699999976, -2.459635099999901 ], [ -57.282564899999954, -2.459000499999882 ], [ -57.282567, -2.458653899999864 ], [ -57.282592, -2.458482900000036 ], [ -57.282677299999932, -2.457897399999901 ] ] ] ] } }
]
}
