{
"type": "FeatureCollection",
"name": "1303106",
"crs": { "type": "name", "properties": { "name": "urn:ogc:def:crs:OGC:1.3:CRS84" } },
"features": [
{ "type": "Feature", "properties": { "CD_MUN": "1303106", "NM_MUN": "Nova Olinda do Norte" }, "geometry": { "type": "Polygon", "coordinates": [ [ [ -59.093869199999979, -3.915896099999899 ], [ -59.095403499999982, -3.914353299999931 ], [ -59.095523499999956, -3.91360319999995 ], [ -59.095369199999944, -3.913149 ], [ -59.095147, -3.912666499999942 ], [ -59.094379699999934, -3.9118349 ], [ -59.093940199999963, -3.911555699999983 ], [ -59.093503099999971, -3.911421299999933 ], [ -59.093664299999944, -3.9106315 ], [ -59.093408699999941, -3.910166099999925 ], [ -59.093524499999944, -3.909429699999989 ], [ -59.093358099999932, -3.907972199999978 ], [ -59.093632099999986, -3.907440399999892 ], [ -59.093649199999959, -3.905331599999962 ], [ -59.095039199999974, -3.905689599999948 ], [ -59.095058499999936, -3.905072399999918 ], [ -59.095637099999976, -3.9044231 ], [ -59.095423099999955, -3.904109799999945 ], [ -59.095565799999981, -3.903683199999932 ], [ -59.095597299999952, -3.903621099999961 ], [ -59.095628799999986, -3.903559 ], [ -59.096074499999986, -3.902680299999919 ], [ -59.096583199999948, -3.901677399999962 ], [ -59.096745, -3.901355899999918 ], [ -59.096906699999977, -3.901034399999916 ], [ -59.096810699999942, -3.900400599999907 ], [ -59.097006799999974, -3.899943199999982 ], [ -59.097041199999978, -3.899862899999924 ], [ -59.097175599999964, -3.8997476 ], [ -59.097271599999949, -3.899584399999965 ], [ -59.097367699999957, -3.899421099999943 ], [ -59.097396499999945, -3.899123399999967 ], [ -59.097444499999931, -3.899075399999931 ], [ -59.09754049999998, -3.898979400000021 ], [ -59.0976366, -3.898835299999972 ], [ -59.09768459999998, -3.898763299999904 ], [ -59.097723, -3.8986697 ], [ -59.097761399999968, -3.898576099999929 ], [ -59.097790199999963, -3.898460799999969 ], [ -59.097819, -3.898345599999931 ], [ -59.097847799999954, -3.898230299999936 ], [ -59.097771, -3.897884599999981 ], [ -59.097704399999948, -3.89775629999995 ], [ -59.097637699999957, -3.897628 ], [ -59.097719799999936, -3.897491199999974 ], [ -59.097748299999985, -3.897443699999968 ], [ -59.097945, -3.896730699999958 ], [ -59.098018799999984, -3.8963497 ], [ -59.098190899999963, -3.895771899999957 ], [ -59.098571899999968, -3.895452399999951 ], [ -59.098916099999933, -3.895304899999938 ], [ -59.099112799999943, -3.895292599999908 ], [ -59.099592099999938, -3.895059 ], [ -59.099740299999944, -3.894963799999943 ], [ -59.10017269999998, -3.894769799999912 ], [ -59.100424499999974, -3.894702199999909 ], [ -59.100676299999968, -3.89463469999996 ], [ -59.101057, -3.894272400000012 ], [ -59.10143769999997, -3.89391 ], [ -59.101687299999988, -3.8926114 ], [ -59.099119499999965, -3.8900237 ], [ -59.098962099999937, -3.889930399999933 ], [ -59.098804699999967, -3.889837199999904 ], [ -59.096379799999966, -3.888400199999977 ], [ -59.09535139999997, -3.887717299999936 ], [ -59.093703499999954, -3.886575499999958 ], [ -59.093028899999986, -3.885638399999944 ], [ -59.091634399999975, -3.88507469999998 ], [ -59.085501099999981, -3.879765099999945 ], [ -59.083866799999953, -3.878367099999969 ], [ -59.082217599999979, -3.877467599999933 ], [ -59.080711099999974, -3.880296699999946 ], [ -59.080614599999933, -3.880473 ], [ -59.079934, -3.881279199999932 ], [ -59.0789415, -3.881378699999937 ], [ -59.078130799999947, -3.8812141 ], [ -59.07781609999995, -3.880504499999951 ], [ -59.077915, -3.879695699999932 ], [ -59.077633799999951, -3.879827899999967 ], [ -59.077534799999967, -3.880306599999969 ], [ -59.077529699999964, -3.880762499999916 ], [ -59.077596799999981, -3.881439799999952 ], [ -59.079256599999951, -3.883062099999948 ], [ -59.079008599999945, -3.8832768 ], [ -59.070987, -3.885338899999981 ], [ -59.073302599999977, -3.887125199999942 ], [ -59.073283799999949, -3.88714869999993 ], [ -59.073269699999976, -3.887162699999967 ], [ -59.073260299999959, -3.887169799999961 ], [ -59.073250899999948, -3.887176799999971 ], [ -59.073243899999966, -3.887183899999974 ], [ -59.073236899999976, -3.887190899999934 ], [ -59.073208699999952, -3.887205 ], [ -59.073185199999962, -3.887223699999928 ], [ -59.073166399999927, -3.887247199999941 ], [ -59.073147599999963, -3.887256599999951 ], [ -59.0731335, -3.887266 ], [ -59.073119399999932, -3.88728 ], [ -59.073095899999942, -3.8873035 ], [ -59.073081799999954, -3.887317499999914 ], [ -59.073072499999967, -3.887326899999958 ], [ -59.073044299999935, -3.887350399999914 ], [ -59.073030199999941, -3.88735979999998 ], [ -59.07299729999994, -3.887373799999966 ], [ -59.07297379999995, -3.887383199999882 ], [ -59.072950299999945, -3.8873973 ], [ -59.072922099999978, -3.887411399999915 ], [ -59.072898599999974, -3.887416099999913 ], [ -59.07287979999996, -3.887430199999958 ], [ -59.072870499999965, -3.887432499999885 ], [ -59.072861099999955, -3.887434899999951 ], [ -59.072832899999987, -3.887453599999922 ], [ -59.07281409999996, -3.88746769999995 ], [ -59.0727859, -3.887486499999967 ], [ -59.072767099999965, -3.887505199999939 ], [ -59.072748299999944, -3.88751459999998 ], [ -59.072734199999957, -3.8875287 ], [ -59.072706, -3.887538099999935 ], [ -59.072682599999943, -3.887552099999908 ], [ -59.072659099999953, -3.887570899999928 ], [ -59.072630899999979, -3.887594399999989 ], [ -59.072607399999981, -3.887617799999922 ], [ -59.072588599999953, -3.88764129999989 ], [ -59.072581599999978, -3.887646 ], [ -59.07257449999998, -3.887650699999909 ], [ -59.072555699999953, -3.887664699999977 ], [ -59.072518199999926, -3.887692899999971 ], [ -59.072494699999936, -3.88771159999996 ], [ -59.072475899999972, -3.887721 ], [ -59.072461799999985, -3.887735099999954 ], [ -59.0724383, -3.887753899999959 ], [ -59.072424199999936, -3.887758599999881 ], [ -59.072412499999984, -3.8877656 ], [ -59.072400699999946, -3.887772599999926 ], [ -59.072246499999956, -3.888014599999968 ], [ -59.072220799999975, -3.888019799999913 ], [ -59.072200199999941, -3.888024899999939 ], [ -59.072184799999945, -3.888024899999988 ], [ -59.072164199999982, -3.888035199999895 ], [ -59.072151399999939, -3.888042899999963 ], [ -59.072138499999937, -3.888050599999977 ], [ -59.072123099999949, -3.888055699999911 ], [ -59.072102599999944, -3.888071099999983 ], [ -59.072082, -3.888086499999959 ], [ -59.072056299999986, -3.888101899999957 ], [ -59.072040899999934, -3.888122399999931 ], [ -59.0720204, -3.888137799999932 ], [ -59.072010099999943, -3.888148099999926 ], [ -59.071994699999948, -3.8881686 ], [ -59.07197929999996, -3.888194199999962 ], [ -59.071953599999979, -3.888230199999969 ], [ -59.071938199999977, -3.8882558 ], [ -59.071917599999949, -3.888281499999924 ], [ -59.071909899999987, -3.888294299999905 ], [ -59.071902199999947, -3.888307099999981 ], [ -59.071892, -3.888322499999925 ], [ -59.071884299999965, -3.888330199999935 ], [ -59.071876599999939, -3.888337899999989 ], [ -59.071861099999978, -3.888353299999931 ], [ -59.071825199999978, -3.888384099999955 ], [ -59.071799499999941, -3.888404599999935 ], [ -59.071784099999945, -3.88842 ], [ -59.071776399999983, -3.888432799999928 ], [ -59.071768699999957, -3.8884456 ], [ -59.0717327, -3.88847129999993 ], [ -59.071722399999942, -3.888481499999977 ], [ -59.071712199999972, -3.888502099999904 ], [ -59.071686499999942, -3.888532799999913 ], [ -59.0716197, -3.888640499999942 ], [ -59.071614599999975, -3.888666199999917 ], [ -59.071599199999987, -3.888681599999946 ], [ -59.071583799999985, -3.88872259999996 ], [ -59.071563199999957, -3.888758499999934 ], [ -59.071553, -3.888779 ], [ -59.071542699999952, -3.888809799999903 ], [ -59.071522199999947, -3.888840599999945 ], [ -59.071522199999947, -3.888861099999955 ], [ -59.071501599999984, -3.888902099999976 ], [ -59.071496499999967, -3.888917499999934 ], [ -59.071486199999981, -3.888953399999952 ], [ -59.071476, -3.888994399999954 ], [ -59.071465699999976, -3.889020099999897 ], [ -59.071450299999981, -3.889045699999905 ], [ -59.071445199999971, -3.889071399999983 ], [ -59.071429799999976, -3.889138 ], [ -59.071419499999926, -3.889173899999972 ], [ -59.071414399999988, -3.889194499999952 ], [ -59.071409299999971, -3.889215 ], [ -59.071399, -3.889235499999908 ], [ -59.071388699999943, -3.889261099999905 ], [ -59.07137849999998, -3.889291899999952 ], [ -59.071368199999938, -3.889312399999925 ], [ -59.071363099999985, -3.889348299999921 ], [ -59.071342499999957, -3.889374 ], [ -59.071337399999948, -3.889399599999963 ], [ -59.071306599999964, -3.88943549999996 ], [ -59.071301499999947, -3.889461199999953 ], [ -59.071286099999959, -3.889486799999911 ], [ -59.071280899999984, -3.889507299999957 ], [ -59.071265499999981, -3.889538099999972 ], [ -59.071252699999953, -3.889563699999938 ], [ -59.071239799999951, -3.889589399999965 ], [ -59.071232099999975, -3.889609899999908 ], [ -59.071224399999949, -3.889630399999962 ], [ -59.071203899999944, -3.889661199999959 ], [ -59.071193599999958, -3.889692 ], [ -59.071173099999953, -3.889727899999982 ], [ -59.071155099999949, -3.889758599999901 ], [ -59.0711371, -3.889789399999974 ], [ -59.071126899999967, -3.889804800000022 ], [ -59.071116599999989, -3.889830499999982 ], [ -59.071024299999976, -3.890189399999913 ], [ -59.071019099999944, -3.89019969999991 ], [ -59.071003699999949, -3.890220199999949 ], [ -59.070972899999958, -3.890235599999918 ], [ -59.070957499999956, -3.890235599999924 ], [ -59.0709318, -3.890370599999961 ], [ -59.07092159999997, -3.890370699999924 ], [ -59.070880499999987, -3.890386099999903 ], [ -59.070865, -3.890396299999922 ], [ -59.070844499999971, -3.890406599999968 ], [ -59.070716, -3.890483599999938 ], [ -59.070710899999938, -3.890493799999977 ], [ -59.070685199999957, -3.8905142999999 ], [ -59.070664699999952, -3.89053490000001 ], [ -59.070639, -3.8905503 ], [ -59.070613299999941, -3.890570799999947 ], [ -59.070605599999965, -3.890575899999954 ], [ -59.070597899999939, -3.8905811 ], [ -59.070561899999973, -3.8906016 ], [ -59.0705311, -3.890617 ], [ -59.07052079999994, -3.8906221 ], [ -59.070510499999962, -3.890632399999939 ], [ -59.070500199999962, -3.890642599999972 ], [ -59.070484799999981, -3.8906632 ], [ -59.07045909999993, -3.8906888 ], [ -59.070433499999972, -3.8907298 ], [ -59.070423199999944, -3.890745199999975 ], [ -59.070407799999941, -3.890781099999954 ], [ -59.070387299999936, -3.8908119 ], [ -59.070377, -3.890827299999913 ], [ -59.070361599999956, -3.890852899999941 ], [ -59.07035129999997, -3.890873499999924 ], [ -59.070330799999965, -3.890899099999935 ], [ -59.070320499999987, -3.890919599999935 ], [ -59.070305099999985, -3.890950399999974 ], [ -59.0703, -3.890965799999973 ], [ -59.070284599999979, -3.8910017 ], [ -59.070274299999937, -3.891022199999917 ], [ -59.070264, -3.891053 ], [ -59.07024859999995, -3.891088899999936 ], [ -59.070238299999971, -3.891109399999954 ], [ -59.070228099999945, -3.891145299999912 ], [ -59.070223, -3.891165799999933 ], [ -59.070212699999963, -3.891217099999968 ], [ -59.070212699999963, -3.891242699999923 ], [ -59.070207599999939, -3.891268399999921 ], [ -59.070202499999937, -3.891294 ], [ -59.070202499999937, -3.891319699999962 ], [ -59.070202499999937, -3.891340199999938 ], [ -59.070202499999937, -3.891376099999968 ], [ -59.070202499999937, -3.891427299999964 ], [ -59.070202499999937, -3.891453 ], [ -59.070202599999959, -3.891488899999913 ], [ -59.070202599999959, -3.891529899999987 ], [ -59.070202599999959, -3.8915709 ], [ -59.070202599999959, -3.891601699999977 ], [ -59.070202599999959, -3.891632399999883 ], [ -59.070207799999942, -3.891663199999966 ], [ -59.070207799999942, -3.891694 ], [ -59.07021809999997, -3.891724699999966 ], [ -59.07021809999997, -3.891750400000022 ], [ -59.070223299999952, -3.891781099999952 ], [ -59.070233499999972, -3.891796499999957 ], [ -59.070238699999948, -3.891832399999894 ], [ -59.070249, -3.891868299999943 ], [ -59.07025409999995, -3.89189389999992 ], [ -59.070264399999985, -3.891914399999917 ], [ -59.070264399999985, -3.891935 ], [ -59.070279899999939, -3.891970799999955 ], [ -59.070285, -3.891991399999922 ], [ -59.070295299999941, -3.8920221 ], [ -59.070300499999966, -3.892047799999952 ], [ -59.070315899999969, -3.892093899999919 ], [ -59.070321099999944, -3.89211439999995 ], [ -59.070326199999954, -3.89214 ], [ -59.070336499999947, -3.89217079999993 ], [ -59.070341699999972, -3.892201599999953 ], [ -59.070346799999982, -3.892222099999935 ], [ -59.070362299999935, -3.892247699999953 ], [ -59.070372599999985, -3.892288699999942 ], [ -59.070388, -3.892334899999959 ], [ -59.070398299999965, -3.892355399999947 ], [ -59.070413699999953, -3.892381 ], [ -59.070434299999931, -3.89241179999989 ], [ -59.070454899999959, -3.892442499999939 ], [ -59.070480599999939, -3.892452799999901 ], [ -59.0705114, -3.892488600000022 ], [ -59.070526899999948, -3.892509199999982 ], [ -59.070542299999936, -3.892524500000018 ], [ -59.070562899999963, -3.892550199999964 ], [ -59.07057309999994, -3.8925604 ], [ -59.070588599999951, -3.89259119999993 ], [ -59.070614299999932, -3.892621899999955 ], [ -59.070619399999948, -3.892637299999945 ], [ -59.070634899999959, -3.89266289999992 ], [ -59.070650299999961, -3.892688599999913 ], [ -59.070670899999989, -3.89272449999989 ], [ -59.070670899999989, -3.892750099999919 ], [ -59.070691499999953, -3.892780799999965 ], [ -59.070691499999953, -3.892791099999989 ], [ -59.070712, -3.892811599999941 ], [ -59.070732599999985, -3.892847499999977 ], [ -59.070737799999961, -3.892868 ], [ -59.070748, -3.8928834 ], [ -59.070763499999941, -3.892903899999913 ], [ -59.070789199999979, -3.892929499999946 ], [ -59.07080979999995, -3.892955099999905 ], [ -59.070830299999955, -3.892970499999971 ], [ -59.070856, -3.892980799999968 ], [ -59.070881699999973, -3.892996099999977 ], [ -59.070851, -3.893218399999988 ], [ -59.070856199999987, -3.893244 ], [ -59.070866399999943, -3.893264499999913 ], [ -59.070881899999968, -3.893279899999972 ], [ -59.070887, -3.893300399999881 ], [ -59.070907599999934, -3.893320899999957 ], [ -59.070933299999986, -3.893346499999966 ], [ -59.070948699999967, -3.8933567999999 ], [ -59.070974399999955, -3.893387499999942 ], [ -59.070989899999972, -3.893408 ], [ -59.070995, -3.893423400000013 ], [ -59.071010399999977, -3.89344390000001 ], [ -59.07101559999996, -3.893474699999974 ], [ -59.071025899999938, -3.8935106 ], [ -59.071025899999938, -3.893546499999915 ], [ -59.071025899999938, -3.893582399999963 ], [ -59.071025899999938, -3.893597699999894 ], [ -59.071031099999971, -3.893623399999979 ], [ -59.071031099999971, -3.893643899999935 ], [ -59.071031099999971, -3.893679799999946 ], [ -59.071031099999971, -3.8937106 ], [ -59.071031099999971, -3.893746499999989 ], [ -59.071031199999943, -3.893761799999907 ], [ -59.071020899999958, -3.893797699999934 ], [ -59.071020899999958, -3.8938234 ], [ -59.071015799999941, -3.893854099999917 ], [ -59.071010699999938, -3.893895199999985 ], [ -59.071005499999956, -3.893915699999938 ], [ -59.071005499999956, -3.893931099999942 ], [ -59.070995299999936, -3.89396179999991 ], [ -59.070995299999936, -3.893987499999959 ], [ -59.070995299999936, -3.894002900000014 ], [ -59.070985, -3.894033599999905 ], [ -59.070985, -3.89405929999998 ], [ -59.0709748, -3.894110599999964 ], [ -59.070964499999945, -3.894131099999905 ], [ -59.07094909999995, -3.894172099999925 ], [ -59.070944, -3.894192599999943 ], [ -59.070928599999945, -3.894238799999918 ], [ -59.07091829999996, -3.894259299999892 ], [ -59.07090809999994, -3.894295199999936 ], [ -59.070902899999965, -3.894320799999904 ], [ -59.070897799999955, -3.894356699999945 ], [ -59.070887599999935, -3.894402899999922 ], [ -59.070882399999959, -3.894433699999978 ], [ -59.070882399999959, -3.89445419999993 ], [ -59.0708671, -3.894536199999937 ], [ -59.070846599999989, -3.894720799999906 ], [ -59.070841499999972, -3.894761899999916 ], [ -59.070841499999972, -3.894782399999979 ], [ -59.070836399999969, -3.89481829999993 ], [ -59.070831199999986, -3.894833699999931 ], [ -59.070815799999941, -3.894864399999985 ], [ -59.070810699999981, -3.89487979999995 ], [ -59.070795299999986, -3.894905499999908 ], [ -59.070779899999934, -3.894946499999903 ], [ -59.070769599999949, -3.894977299999888 ], [ -59.070764499999932, -3.89500289999993 ], [ -59.070754199999953, -3.895023399999976 ], [ -59.070749099999944, -3.895049099999956 ], [ -59.070749099999944, -3.8950644 ], [ -59.070744, -3.895095199999965 ], [ -59.070733699999948, -3.8951362 ], [ -59.070733699999948, -3.895156799999976 ], [ -59.070728599999939, -3.895182399999941 ], [ -59.070728599999939, -3.895208 ], [ -59.070728599999939, -3.895238799999932 ], [ -59.070713199999943, -3.895274699999965 ], [ -59.070708099999941, -3.895300299999976 ], [ -59.070703, -3.89534139999993 ], [ -59.070697899999963, -3.895372099999928 ], [ -59.070697899999963, -3.895387499999955 ], [ -59.070692699999938, -3.895408 ], [ -59.070682499999975, -3.8954439 ], [ -59.07067729999995, -3.895464499999957 ], [ -59.070672199999933, -3.8954901 ], [ -59.07066709999998, -3.895520899999913 ], [ -59.070662, -3.895546499999927 ], [ -59.0706517, -3.895592699999957 ], [ -59.070646599999975, -3.89561319999996 ], [ -59.070636299999926, -3.895633699999977 ], [ -59.070631199999987, -3.895649099999946 ], [ -59.07062609999997, -3.895674700000026 ], [ -59.070615799999985, -3.89569519999996 ], [ -59.070595199999957, -3.895736299999979 ], [ -59.070585, -3.895767 ], [ -59.070585, -3.8958029 ], [ -59.070585, -3.895823399999873 ], [ -59.070585, -3.895849099999967 ], [ -59.070585, -3.895874700000021 ], [ -59.070585, -3.895895199999948 ], [ -59.07058509999996, -3.895920899999962 ], [ -59.07058509999996, -3.895946499999987 ], [ -59.07058509999996, -3.895977300000013 ], [ -59.07058509999996, -3.896013199999953 ], [ -59.07058509999996, -3.896049099999937 ], [ -59.070590299999935, -3.896074699999967 ], [ -59.070590299999935, -3.896115699999982 ], [ -59.07058, -3.896151599999912 ], [ -59.07057489999994, -3.896192699999946 ], [ -59.07056979999998, -3.896213200000022 ], [ -59.070554399999935, -3.896264499999986 ], [ -59.070554399999935, -3.896305499999937 ], [ -59.070549299999982, -3.896331099999917 ], [ -59.070539, -3.89637729999995 ], [ -59.070528799999977, -3.896413199999953 ], [ -59.070508199999949, -3.896474699999974 ], [ -59.070508199999949, -3.896505499999945 ], [ -59.070498, -3.896536299999984 ], [ -59.070492899999984, -3.896556799999968 ], [ -59.070492899999984, -3.896587499999978 ], [ -59.070477499999981, -3.896633699999976 ], [ -59.070477499999981, -3.896664499999945 ], [ -59.070477499999981, -3.896705499999901 ], [ -59.070451899999973, -3.896865199999936 ], [ -59.070457, -3.896880599999959 ], [ -59.070457, -3.896906299999961 ], [ -59.070457099999935, -3.896926799999922 ], [ -59.070462199999952, -3.896962699999959 ], [ -59.070462199999952, -3.8969678 ], [ -59.070472499999937, -3.89699849999992 ], [ -59.070477699999962, -3.897039599999971 ], [ -59.070493099999965, -3.897060099999931 ], [ -59.070493099999965, -3.897090799999969 ], [ -59.070508499999967, -3.897126699999946 ], [ -59.070524, -3.897162599999901 ], [ -59.070549699999958, -3.897198499999951 ], [ -59.070565099999961, -3.897219 ], [ -59.070580599999964, -3.8972498 ], [ -59.070596, -3.8972805 ], [ -59.070606299999952, -3.897301 ], [ -59.070611399999969, -3.8973215 ], [ -59.070621699999947, -3.8973369 ], [ -59.070642299999975, -3.89737790000002 ], [ -59.070657699999977, -3.897393299999953 ], [ -59.070657699999977, -3.89740869999993 ], [ -59.070668, -3.897434299999909 ], [ -59.0706886, -3.897470199999924 ], [ -59.070704, -3.897516299999956 ], [ -59.070719499999932, -3.897557399999962 ], [ -59.070740099999959, -3.897583 ], [ -59.070750299999986, -3.897603499999986 ], [ -59.070760599999964, -3.897618899999916 ], [ -59.070796599999944, -3.897639399999932 ], [ -59.070822299999975, -3.897649599999947 ], [ -59.070863499999966, -3.897670099999933 ], [ -59.070899399999973, -3.89769059999998 ], [ -59.07092, -3.897706 ], [ -59.070935399999939, -3.897711099999974 ], [ -59.070966299999945, -3.897726500000017 ], [ -59.070992, -3.897736699999968 ], [ -59.071017699999977, -3.897757199999964 ], [ -59.071048499999961, -3.897777699999929 ], [ -59.071069099999924, -3.8977930999999 ], [ -59.071094799999976, -3.897803299999942 ], [ -59.071120499999957, -3.8978187 ], [ -59.071151399999962, -3.897844299999981 ], [ -59.071161599999989, -3.897854599999922 ], [ -59.071187399999978, -3.897880199999977 ], [ -59.071207899999933, -3.897890399999914 ], [ -59.071228499999961, -3.897910899999907 ], [ -59.071249099999939, -3.897926299999938 ], [ -59.0712645, -3.897941699999957 ], [ -59.071279899999979, -3.897951899999927 ], [ -59.071321, -3.897982699999933 ], [ -59.0713416, -3.89800319999995 ], [ -59.071357, -3.8980134 ], [ -59.071387899999934, -3.898028799999945 ], [ -59.071408399999939, -3.898044199999925 ], [ -59.071444399999969, -3.898064699999931 ], [ -59.07148559999996, -3.898090300000018 ], [ -59.071506099999965, -3.898100499999932 ], [ -59.071542099999924, -3.898121 ], [ -59.071578099999954, -3.8981261 ], [ -59.071598699999981, -3.8981415 ], [ -59.071629499999972, -3.898151699999957 ], [ -59.071644899999967, -3.898162 ], [ -59.07167579999998, -3.898167099999931 ], [ -59.07170659999997, -3.898167099999971 ], [ -59.0717375, -3.89817729999993 ], [ -59.071763199999957, -3.898182399999913 ], [ -59.071794, -3.89818759999994 ], [ -59.071819699999942, -3.898187499999976 ], [ -59.07184029999997, -3.898187499999972 ], [ -59.071866, -3.898187499999955 ], [ -59.071896799999941, -3.8981875 ], [ -59.071943099999949, -3.898187499999934 ], [ -59.071968799999979, -3.898187499999951 ], [ -59.072015, -3.8981977 ], [ -59.072035599999928, -3.8981977 ], [ -59.07206129999998, -3.8982028 ], [ -59.072092099999963, -3.898207899999901 ], [ -59.0721281, -3.898223299999899 ], [ -59.07215379999996, -3.89822329999996 ], [ -59.072184599999964, -3.898233499999896 ], [ -59.0722052, -3.8982386 ], [ -59.072225799999956, -3.898243799999932 ], [ -59.072251499999936, -3.898254 ], [ -59.072287499999966, -3.898264199999972 ], [ -59.072313199999947, -3.898264199999964 ], [ -59.072328599999935, -3.898274499999946 ], [ -59.07234909999994, -3.898279599999979 ], [ -59.07238, -3.898295 ], [ -59.072395399999948, -3.89830009999998 ], [ -59.072431399999978, -3.898315399999975 ], [ -59.072462199999961, -3.898330799999962 ], [ -59.072503399999952, -3.89835129999993 ], [ -59.07252909999994, -3.898366699999948 ], [ -59.072570199999973, -3.898387199999963 ], [ -59.072606199999932, -3.898402499999972 ], [ -59.072631899999976, -3.898423 ], [ -59.072652499999947, -3.8984384 ], [ -59.072673, -3.898448699999962 ], [ -59.072703899999972, -3.898474299999978 ], [ -59.07271929999996, -3.898489699999976 ], [ -59.072729599999938, -3.898499899999938 ], [ -59.072745, -3.898520399999919 ], [ -59.072765599999968, -3.898540899999975 ], [ -59.072781, -3.898556299999966 ], [ -59.072796499999981, -3.89857679999994 ], [ -59.072817, -3.898612699999949 ], [ -59.07283249999994, -3.898628099999909 ], [ -59.072853, -3.8986639 ], [ -59.072882699999987, -3.898688599999954 ], [ -59.072883899999972, -3.898689599999922 ], [ -59.072894199999951, -3.8987152 ], [ -59.072909599999953, -3.8987357 ], [ -59.072919899999938, -3.898761299999955 ], [ -59.072930199999981, -3.898781799999962 ], [ -59.072935299999983, -3.898807499999939 ], [ -59.072945599999969, -3.898853599999938 ], [ -59.072950799999944, -3.898874099999978 ], [ -59.072955899999947, -3.898894599999944 ], [ -59.072956, -3.898925399999963 ], [ -59.072956, -3.898961299999904 ], [ -59.072956, -3.898986899999919 ], [ -59.072956, -3.899022799999949 ], [ -59.072956, -3.899058699999938 ], [ -59.072956, -3.899089499999934 ], [ -59.072956099999949, -3.899125399999904 ], [ -59.072956099999949, -3.899151 ], [ -59.072945799999964, -3.899192099999925 ], [ -59.072945799999964, -3.899222799999921 ], [ -59.072935599999944, -3.899243300000013 ], [ -59.072925299999959, -3.899279199999976 ], [ -59.072920199999942, -3.899299799999959 ], [ -59.072915, -3.899315099999985 ], [ -59.072904799999939, -3.899351 ], [ -59.072899599999978, -3.899371599999983 ], [ -59.072889399999951, -3.8993921 ], [ -59.07288049999994, -3.899404 ], [ -59.072874, -3.899412599999976 ], [ -59.072863699999971, -3.899448499999925 ], [ -59.072817499999985, -3.899562599999972 ], [ -59.072807199999943, -3.899583099999989 ], [ -59.072807199999943, -3.899608699999881 ], [ -59.072807299999965, -3.89963439999997 ], [ -59.072807299999965, -3.89966 ], [ -59.072802099999933, -3.899680499999949 ], [ -59.072797, -3.899706199999962 ], [ -59.072791899999977, -3.899721499999956 ], [ -59.072791899999977, -3.899742099999933 ], [ -59.072791899999977, -3.899772799999965 ], [ -59.07278679999996, -3.899798499999972 ], [ -59.07278679999996, -3.899829199999951 ], [ -59.072776499999975, -3.89986 ], [ -59.072776499999975, -3.89988049999995 ], [ -59.072776599999933, -3.89991639999992 ], [ -59.072771399999972, -3.899947199999941 ], [ -59.072771399999972, -3.89998309999995 ], [ -59.0727715, -3.900008699999939 ], [ -59.0727715, -3.900029199999957 ], [ -59.072766299999955, -3.90006 ], [ -59.072761199999945, -3.900095899999902 ], [ -59.072756099999928, -3.900126699999963 ], [ -59.07274579999995, -3.900162599999952 ], [ -59.072740699999947, -3.900177899999945 ], [ -59.072740699999947, -3.900203599999897 ], [ -59.072735599999987, -3.9002292 ], [ -59.07273049999997, -3.900270299999976 ], [ -59.072720199999942, -3.900316399999945 ], [ -59.072720199999942, -3.900342099999948 ], [ -59.072715099999982, -3.900377899999946 ], [ -59.07270479999994, -3.900408699999928 ], [ -59.072699699999987, -3.900429199999982 ], [ -59.072694599999977, -3.9004446 ], [ -59.072689399999938, -3.900470299999907 ], [ -59.072674, -3.900506199999909 ], [ -59.0726638, -3.900526699999938 ], [ -59.072648399999927, -3.900552299999973 ], [ -59.072633, -3.900572799999951 ], [ -59.072612399999969, -3.9006087999999 ], [ -59.072597, -3.90064469999996 ], [ -59.072576499999975, -3.900670299999936 ], [ -59.072555899999948, -3.900701099999901 ], [ -59.072540499999945, -3.900726699999979 ], [ -59.072525099999943, -3.90074719999998 ], [ -59.072509699999962, -3.90076779999987 ], [ -59.072484, -3.900788299999961 ], [ -59.072468599999979, -3.900819100000021 ], [ -59.0724532, -3.9008345 ], [ -59.072437799999925, -3.900849799999898 ], [ -59.072401799999966, -3.900870399999964 ], [ -59.072386399999978, -3.900885799999956 ], [ -59.072365899999973, -3.900906299999955 ], [ -59.072350399999948, -3.90092679999995 ], [ -59.072335, -3.900952499999918 ], [ -59.072314499999941, -3.9009781 ], [ -59.07229909999996, -3.901014 ], [ -59.072283699999957, -3.9010499 ], [ -59.072273399999972, -3.901070399999958 ], [ -59.072258, -3.901106299999956 ], [ -59.072252899999967, -3.901132 ], [ -59.07224779999995, -3.90115759999997 ], [ -59.072242599999988, -3.901178099999891 ], [ -59.072232399999962, -3.901198599999925 ], [ -59.072227199999986, -3.90120889999994 ], [ -59.072227199999986, -3.901229399999934 ], [ -59.072227299999945, -3.901265299999969 ], [ -59.072227299999945, -3.901296099999961 ], [ -59.072227299999945, -3.901321699999968 ], [ -59.072232399999962, -3.901352499999939 ], [ -59.072242699999947, -3.90138319999995 ], [ -59.072247899999972, -3.901403699999902 ], [ -59.072263299999975, -3.901439599999892 ], [ -59.07226849999995, -3.90146009999997 ], [ -59.072283899999952, -3.901496 ], [ -59.072283899999952, -3.901506299999982 ], [ -59.072299299999941, -3.901531899999939 ], [ -59.072299399999963, -3.901557599999947 ], [ -59.072299399999963, -3.901583199999957 ], [ -59.072299399999963, -3.90160879999998 ], [ -59.07229429999996, -3.901629399999963 ], [ -59.07229429999996, -3.901655 ], [ -59.072284, -3.9016755 ], [ -59.072273699999982, -3.901711399999926 ], [ -59.072268599999973, -3.901737099999897 ], [ -59.072253199999977, -3.901757599999946 ], [ -59.072155599999974, -3.901937099999981 ], [ -59.072145399999954, -3.901957599999964 ], [ -59.072135099999969, -3.901983299999963 ], [ -59.0721248, -3.90200379999995 ], [ -59.072119699999966, -3.902039699999936 ], [ -59.072114599999964, -3.902060199999956 ], [ -59.072114599999964, -3.902106299999983 ], [ -59.072114599999964, -3.902137099999934 ], [ -59.072114599999964, -3.902167899999964 ], [ -59.072114599999964, -3.902193499999989 ], [ -59.072114599999964, -3.902214 ], [ -59.072114699999986, -3.9022345 ], [ -59.072114699999986, -3.902280699999986 ], [ -59.072114699999986, -3.90229819999995 ], [ -59.072114699999986, -3.902306299999961 ], [ -59.072109599999983, -3.902337099999952 ], [ -59.072099299999934, -3.902373 ], [ -59.072099299999934, -3.902393499999922 ], [ -59.072083899999939, -3.902429399999928 ], [ -59.072078799999986, -3.902449899999973 ], [ -59.072068499999951, -3.9024704 ], [ -59.072063399999934, -3.902480699999952 ], [ -59.072058199999958, -3.902496099999962 ], [ -59.07204279999997, -3.902526899999945 ], [ -59.072027399999968, -3.902552499999961 ], [ -59.072006899999963, -3.902578199999977 ], [ -59.071986299999935, -3.902603799999919 ], [ -59.071970899999933, -3.9026243 ], [ -59.071950399999928, -3.90265 ], [ -59.071929799999964, -3.902660199999958 ], [ -59.071904099999983, -3.902680799999943 ], [ -59.071878399999953, -3.902685899999942 ], [ -59.07183729999997, -3.902696199999971 ], [ -59.07180649999998, -3.902701299999915 ], [ -59.071770499999957, -3.90271669999991 ], [ -59.071739699999966, -3.902721899999964 ], [ -59.071703699999944, -3.902732100000012 ], [ -59.071678, -3.902742399999957 ], [ -59.071642, -3.902752699999904 ], [ -59.071616399999982, -3.902768099999942 ], [ -59.071600899999964, -3.902773199999913 ], [ -59.071575199999977, -3.902788599999908 ], [ -59.071549599999969, -3.902798899999918 ], [ -59.071517699999958, -3.902795 ], [ -59.071427199999967, -3.9027839 ], [ -59.071416699999986, -3.90278389999997 ], [ -59.071154399999955, -3.902969 ], [ -59.070860699999969, -3.903133099999922 ], [ -59.070846699999947, -3.9031332 ], [ -59.070794199999973, -3.903133199999977 ], [ -59.070773299999985, -3.903133199999922 ], [ -59.070762799999954, -3.903133199999963 ], [ -59.070580899999989, -3.903185599999966 ], [ -59.070545899999964, -3.90321009999995 ], [ -59.070532, -3.903217099999966 ], [ -59.070493499999941, -3.903318299999954 ], [ -59.070493499999941, -3.903346199999915 ], [ -59.07049, -3.9033602 ], [ -59.070486599999974, -3.903367099999947 ], [ -59.070549399999948, -3.903438799999988 ], [ -59.070584499999931, -3.9034788 ], [ -59.0705741, -3.903653299999943 ], [ -59.0705741, -3.9036707 ], [ -59.070570699999962, -3.903855300000012 ], [ -59.070570699999962, -3.90386929999998 ], [ -59.070570699999962, -3.9038783 ], [ -59.070570799999985, -3.903890199999988 ], [ -59.070569199999973, -3.903923099999941 ], [ -59.070556899999978, -3.904183399999944 ], [ -59.070556899999978, -3.904207799999971 ], [ -59.070556899999978, -3.904246199999966 ], [ -59.070557, -3.904281099999945 ], [ -59.070557, -3.904305499999957 ], [ -59.070557, -3.904319499999936 ], [ -59.070592, -3.9044974 ], [ -59.070595499999968, -3.904511399999895 ], [ -59.070602499999957, -3.904528799999959 ], [ -59.070739099999969, -3.9047347 ], [ -59.070850199999938, -3.9048809 ], [ -59.070844499999971, -3.9061007999999 ], [ -59.071016699999973, -3.906710700000013 ], [ -59.071042199999972, -3.906774199999985 ], [ -59.071055, -3.906786899999905 ], [ -59.071067699999958, -3.906806 ], [ -59.071418199999982, -3.907199699999936 ], [ -59.071443699999982, -3.907218799999968 ], [ -59.071462799999949, -3.907225099999949 ], [ -59.071762099999944, -3.907287699999964 ], [ -59.071967199999968, -3.9073306 ], [ -59.071831699999962, -3.908053199999929 ], [ -59.071454599999988, -3.9085246 ], [ -59.071480299999955, -3.908747499999906 ], [ -59.071857499999965, -3.908833199999899 ], [ -59.072294599999964, -3.909124599999971 ], [ -59.073597, -3.909513799999962 ], [ -59.07658339999994, -3.910970499999967 ], [ -59.081280599999964, -3.913261899999969 ], [ -59.088970499999967, -3.915399 ], [ -59.089502, -3.915527599999989 ], [ -59.089955399999951, -3.915552899999984 ], [ -59.091372199999967, -3.915504499999934 ], [ -59.091771799999954, -3.915347099999928 ], [ -59.092474099999947, -3.915286599999936 ], [ -59.093309599999941, -3.915504599999982 ], [ -59.093869199999979, -3.915896099999899 ] ] ] } }
]
}
