{
"type": "FeatureCollection",
"name": "1304237",
"crs": { "type": "name", "properties": { "name": "urn:ogc:def:crs:OGC:1.3:CRS84" } },
"features": [
{ "type": "Feature", "properties": { "CD_MUN": "1304237", "NM_MUN": "Tonantins" }, "geometry": { "type": "Polygon", "coordinates": [ [ [ -67.797755499999937, -2.877577299999875 ], [ -67.798192799999981, -2.877969799999926 ], [ -67.798875399999986, -2.878316499999877 ], [ -67.799661299999968, -2.878177199999945 ], [ -67.799805399999968, -2.8779034999999 ], [ -67.800076099999956, -2.8777363 ], [ -67.80014239999997, -2.877676 ], [ -67.800712699999963, -2.876717899999906 ], [ -67.802071499999954, -2.874683699999946 ], [ -67.802928, -2.8741211 ], [ -67.803468399999986, -2.873918900000038 ], [ -67.804310099999952, -2.87297569999995 ], [ -67.804315299999985, -2.87237229999995 ], [ -67.804309499999988, -2.872286299999869 ], [ -67.804229199999952, -2.872246099999962 ], [ -67.804154599999947, -2.8721715 ], [ -67.804051299999969, -2.872085499999915 ], [ -67.803913599999987, -2.871965 ], [ -67.803810399999975, -2.871890399999982 ], [ -67.803748, -2.871776299999951 ], [ -67.804051299999969, -2.871838699999895 ], [ -67.804200499999979, -2.871901799999986 ], [ -67.804315299999985, -2.871947699999953 ], [ -67.804435799999965, -2.871924799999895 ], [ -67.804516099999944, -2.872051 ], [ -67.804562, -2.872142799999891 ], [ -67.80483739999994, -2.872142799999959 ], [ -67.804963599999951, -2.872068199999897 ], [ -67.805204599999968, -2.87204529999992 ], [ -67.805422699999951, -2.872085499999933 ], [ -67.805571799999939, -2.872102699999965 ], [ -67.805663699999968, -2.87214279999991 ], [ -67.805712399999948, -2.872148599999931 ], [ -67.805761199999949, -2.87215429999995 ], [ -67.805864499999984, -2.872228899999911 ], [ -67.805886599999951, -2.872238099999919 ], [ -67.80591579999998, -2.869460499999939 ], [ -67.805978799999934, -2.863071400000027 ], [ -67.799664399999983, -2.861239699999879 ], [ -67.788420799999983, -2.857993 ], [ -67.78563149999998, -2.857176899999919 ], [ -67.776158399999986, -2.8522277 ], [ -67.77597, -2.852569199999901 ], [ -67.775899299999935, -2.852863600000025 ], [ -67.775942499999985, -2.853220799999912 ], [ -67.776001399999984, -2.85353089999996 ], [ -67.776028899999972, -2.853907699999937 ], [ -67.776036699999963, -2.85424529999989 ], [ -67.775952899999936, -2.854393099999867 ], [ -67.770748799999978, -2.8524737 ], [ -67.770488199999988, -2.852903 ], [ -67.766108399999951, -2.851190799999864 ], [ -67.763378911999951, -2.854769389999919 ], [ -67.763463781999974, -2.854862765999913 ], [ -67.764659178999977, -2.856514755 ], [ -67.765668562999963, -2.857638914999919 ], [ -67.766842512999972, -2.859221071999969 ], [ -67.767481457999963, -2.859877396999985 ], [ -67.767792989999975, -2.860412982999932 ], [ -67.768016520999936, -2.860797278999952 ], [ -67.768790381999963, -2.861510216999887 ], [ -67.769461408999973, -2.862392820000019 ], [ -67.769464512999946, -2.86239483600001 ], [ -67.770295356999952, -2.862934561999962 ], [ -67.770909069999959, -2.863559648000019 ], [ -67.771451194999941, -2.864096126999929 ], [ -67.77189178499998, -2.864819714 ], [ -67.77239589999995, -2.865276899999959 ], [ -67.772973599999943, -2.8655468 ], [ -67.77309779999996, -2.865749600000013 ], [ -67.774853599999972, -2.866932 ], [ -67.777155299999947, -2.868606599999978 ], [ -67.778236, -2.868258300000026 ], [ -67.778779799999938, -2.868910099999941 ], [ -67.779772699999967, -2.868351899999947 ], [ -67.78244669999998, -2.870121 ], [ -67.782920299999944, -2.869811699999899 ], [ -67.783027299999958, -2.869651899999896 ], [ -67.784785, -2.869195599999972 ], [ -67.786242299999969, -2.870632199999913 ], [ -67.785328799999945, -2.871008699999965 ], [ -67.784554599999979, -2.872025499999898 ], [ -67.788510299999984, -2.8750797 ], [ -67.79006, -2.87574190000004 ], [ -67.791690599999981, -2.875841399999937 ], [ -67.79285109999995, -2.876422900000027 ], [ -67.797785499999961, -2.876851 ], [ -67.797686199999987, -2.877268299999917 ], [ -67.797755499999937, -2.877577299999875 ] ] ] } }
]
}
