{
"type": "FeatureCollection",
"name": "1502954",
"crs": { "type": "name", "properties": { "name": "urn:ogc:def:crs:OGC:1.3:CRS84" } },
"features": [
{ "type": "Feature", "properties": { "CD_MUN": "1502954", "NM_MUN": "Eldorado do Carajás" }, "geometry": { "type": "MultiPolygon", "coordinates": [ [ [ [ -49.44846339999998, -6.175437599999952 ], [ -49.447699499999942, -6.175052199999922 ], [ -49.447438299999931, -6.174953199999977 ], [ -49.447187499999984, -6.1748054 ], [ -49.44708159999994, -6.174610099999962 ], [ -49.446580299999937, -6.174275699999935 ], [ -49.44642649999998, -6.174089899999984 ], [ -49.446168099999973, -6.173761299999971 ], [ -49.445763, -6.173485599999932 ], [ -49.445415, -6.173289099999958 ], [ -49.445057299999974, -6.173169399999969 ], [ -49.44495969999997, -6.173168499999989 ], [ -49.44486049999994, -6.173468799999934 ], [ -49.444636799999962, -6.173524799999951 ], [ -49.444549099999961, -6.173534 ], [ -49.44451909999998, -6.173659399999986 ], [ -49.444459399999978, -6.173775599999922 ], [ -49.444197199999969, -6.173793199999957 ], [ -49.444109, -6.1738503 ], [ -49.444019899999944, -6.174024099999927 ], [ -49.443999899999937, -6.174140599999927 ], [ -49.443950499999971, -6.1742179 ], [ -49.443872699999986, -6.174227199999961 ], [ -49.443814599999946, -6.174255699999957 ], [ -49.443542899999954, -6.174224399999961 ], [ -49.44343589999994, -6.174272299999922 ], [ -49.443347499999959, -6.174358399999972 ], [ -49.443123799999967, -6.174415199999943 ], [ -49.442967599999974, -6.174510699999914 ], [ -49.44290959999995, -6.174588799999959 ], [ -49.44288389999997, -6.174623399999981 ], [ -49.442833299999968, -6.174680399999934 ], [ -49.4427611, -6.174773 ], [ -49.442731499999979, -6.174851399999984 ], [ -49.442647099999931, -6.1748575 ], [ -49.442552499999969, -6.174864299999966 ], [ -49.442394899999954, -6.174905499999952 ], [ -49.442179799999963, -6.174910899999927 ], [ -49.441829799999937, -6.1748509 ], [ -49.44132129999997, -6.174824799999982 ], [ -49.441235799999959, -6.174781599999945 ], [ -49.441042299999935, -6.174794399999917 ], [ -49.440763899999986, -6.174706099999955 ], [ -49.440692499999955, -6.17470549999994 ], [ -49.440584499999943, -6.174761499999911 ], [ -49.44031989999997, -6.174737599999951 ], [ -49.440019699999937, -6.174663499999935 ], [ -49.43984839999996, -6.17461229999997 ], [ -49.439534799999933, -6.174623199999939 ], [ -49.439435199999942, -6.174543699999977 ], [ -49.439055599999961, -6.174554899999976 ], [ -49.43884769999994, -6.174567599999896 ], [ -49.43864039999994, -6.174506 ], [ -49.438465199999939, -6.174496399999965 ], [ -49.438278799999985, -6.174522799999979 ], [ -49.438171399999938, -6.174507899999965 ], [ -49.438064, -6.174492899999954 ], [ -49.437885299999948, -6.174476899999916 ], [ -49.437692199999958, -6.174439099999948 ], [ -49.43760629999997, -6.174448399999964 ], [ -49.437449, -6.174454299999958 ], [ -49.43716349999994, -6.174348699999943 ], [ -49.437048799999964, -6.174347699999921 ], [ -49.436869599999966, -6.1743706 ], [ -49.436625799999952, -6.17435849999991 ], [ -49.436004399999945, -6.18169629999993 ], [ -49.435836799999947, -6.183745899999966 ], [ -49.435706099999948, -6.186026399999937 ], [ -49.435910399999948, -6.186018199999975 ], [ -49.436470899999961, -6.185880099999955 ], [ -49.436643, -6.185830899999949 ], [ -49.43677809999997, -6.185875499999965 ], [ -49.436913799999957, -6.185962599999952 ], [ -49.437085899999943, -6.185920599999976 ], [ -49.437200799999971, -6.185907199999958 ], [ -49.437457599999959, -6.185981699999974 ], [ -49.437679699999926, -6.186004399999923 ], [ -49.437808299999979, -6.185970199999951 ], [ -49.437880699999937, -6.18596360000001 ], [ -49.438100799999972, -6.186108399999973 ], [ -49.438371899999936, -6.186211099999963 ], [ -49.438594499999972, -6.186177799999935 ], [ -49.438781099999972, -6.186128699999915 ], [ -49.438967399999974, -6.186101399999949 ], [ -49.439160499999964, -6.186132 ], [ -49.439286699999968, -6.186176499999908 ], [ -49.439422099999952, -6.186184899999928 ], [ -49.439615899999978, -6.186135899999962 ], [ -49.439838499999951, -6.186102499999939 ], [ -49.440089599999972, -6.1860043 ], [ -49.440212299999985, -6.185926699999889 ], [ -49.440284199999951, -6.185862199999961 ], [ -49.440363099999956, -6.185827599999913 ], [ -49.440506899999953, -6.185814299999945 ], [ -49.440693799999963, -6.18573 ], [ -49.440887599999932, -6.185681099999948 ], [ -49.44116, -6.185633699999924 ], [ -49.441411, -6.185549899999937 ], [ -49.441621, -6.185294 ], [ -49.442424299999971, -6.185401199999954 ], [ -49.442840399999966, -6.185346899999963 ], [ -49.443120599999986, -6.185235399999972 ], [ -49.443564499999979, -6.185203 ], [ -49.443794799999978, -6.185119099999933 ], [ -49.443866699999937, -6.1850555 ], [ -49.444038399999954, -6.185057 ], [ -49.444231199999933, -6.185122799999919 ], [ -49.444417399999963, -6.185109899999922 ], [ -49.444633499999952, -6.184990599999929 ], [ -49.444855799999971, -6.184985299999938 ], [ -49.445114299999943, -6.184872699999954 ], [ -49.445265499999948, -6.184845 ], [ -49.445358899999974, -6.184803299999935 ], [ -49.445479599999935, -6.184839599999948 ], [ -49.445658199999968, -6.184877299999953 ], [ -49.445723199999968, -6.184892299999961 ], [ -49.445828699999936, -6.184814599999937 ], [ -49.445921799999951, -6.184808099999916 ], [ -49.446157599999935, -6.184910499999928 ], [ -49.446307599999955, -6.184919099999943 ], [ -49.446422199999972, -6.184933599999985 ], [ -49.44660109999996, -6.184935099999956 ], [ -49.446723, -6.184943399999939 ], [ -49.447073299999943, -6.18497529999994 ], [ -49.447173299999974, -6.185012399999968 ], [ -49.447244899999937, -6.184991299999966 ], [ -49.447330099999931, -6.185063499999933 ], [ -49.447429899999975, -6.185128499999973 ], [ -49.447594499999987, -6.185101899999941 ], [ -49.447730899999961, -6.18511029999993 ], [ -49.447801899999945, -6.185153399999918 ], [ -49.447964499999955, -6.185162 ], [ -49.448086699999976, -6.185134099999964 ], [ -49.44820059999995, -6.185185299999945 ], [ -49.448314499999981, -6.185236499999981 ], [ -49.448916499999946, -6.1785973 ], [ -49.448981299999964, -6.1776836 ], [ -49.449115099999972, -6.175547599999951 ], [ -49.448977399999933, -6.175558699999972 ], [ -49.44846339999998, -6.175437599999952 ] ] ], [ [ [ -49.387673399999983, -6.110006699999932 ], [ -49.387724699999978, -6.110009399999972 ], [ -49.393144199999938, -6.110095799999971 ], [ -49.393075499999952, -6.109458699999928 ], [ -49.392823499999963, -6.10712290000001 ], [ -49.392604, -6.105200299999971 ], [ -49.392600799999968, -6.105186099999988 ], [ -49.392496599999959, -6.1051841 ], [ -49.384014799999925, -6.105135499999954 ], [ -49.384052, -6.105050399999926 ], [ -49.384090199999946, -6.104963199999919 ], [ -49.384077099999956, -6.103012 ], [ -49.384077099999956, -6.09824 ], [ -49.378506799999968, -6.098361 ], [ -49.378464699999938, -6.098361699999955 ], [ -49.372050699999932, -6.098468299999965 ], [ -49.372004899999972, -6.098469 ], [ -49.370173899999934, -6.098186 ], [ -49.369916199999977, -6.096688 ], [ -49.369937, -6.095618 ], [ -49.3700659, -6.094077 ], [ -49.370325099999953, -6.090717 ], [ -49.370303199999967, -6.08954 ], [ -49.369795, -6.089537199999921 ], [ -49.369749799999965, -6.089537 ], [ -49.369705699999948, -6.089552799999975 ], [ -49.364926, -6.090804799999966 ], [ -49.364858899999945, -6.09073509999998 ], [ -49.363892499999963, -6.089821 ], [ -49.362030399999988, -6.0883914 ], [ -49.360050499999943, -6.08860239999998 ], [ -49.358768599999969, -6.089940699999931 ], [ -49.356763, -6.090510599999925 ], [ -49.353706799999934, -6.089940899999918 ], [ -49.35117589999993, -6.090225799999895 ], [ -49.348072, -6.090130899999965 ], [ -49.346806499999957, -6.089608499999946 ], [ -49.345517099999938, -6.088563899999912 ], [ -49.341839899999975, -6.088183899999917 ], [ -49.341275399999972, -6.088324299999929 ], [ -49.342124499999954, -6.089928599999935 ], [ -49.34334609999997, -6.091953199999976 ], [ -49.343972599999979, -6.09428919999992 ], [ -49.343690699999968, -6.096033399999937 ], [ -49.343076599999961, -6.096379499999964 ], [ -49.342700599999944, -6.097035399999915 ], [ -49.3426525, -6.09707259999992 ], [ -49.34258259999995, -6.097124499999984 ], [ -49.342426199999977, -6.0973319 ], [ -49.342327099999977, -6.09758 ], [ -49.342263199999927, -6.097756899999981 ], [ -49.342196899999976, -6.098018199999945 ], [ -49.342019599999958, -6.098325299999962 ], [ -49.341984399999944, -6.098605399999943 ], [ -49.342117, -6.09876339999994 ], [ -49.342341199999964, -6.098858399999898 ], [ -49.342571199999952, -6.099003399999938 ], [ -49.342748899999947, -6.0990902 ], [ -49.343051699999926, -6.099132 ], [ -49.343496199999947, -6.099147499999965 ], [ -49.343615499999942, -6.0991835 ], [ -49.343659799999962, -6.099462 ], [ -49.343645599999945, -6.099643 ], [ -49.3435631, -6.099807599999983 ], [ -49.343403399999943, -6.099849399999947 ], [ -49.343226499999957, -6.09976169999995 ], [ -49.343116, -6.099709299999979 ], [ -49.342870499999947, -6.099815 ], [ -49.342718399999967, -6.099996 ], [ -49.342685599999982, -6.100200699999976 ], [ -49.342700299999933, -6.100407899999964 ], [ -49.34271339999998, -6.10059459999998 ], [ -49.342718399999967, -6.100759199999989 ], [ -49.342708499999958, -6.100877199999967 ], [ -49.342675799999938, -6.101053199999956 ], [ -49.342517099999952, -6.101231799999928 ], [ -49.342413099999931, -6.101372599999906 ], [ -49.342345899999948, -6.101542199999914 ], [ -49.342308499999945, -6.101863199999968 ], [ -49.342283099999975, -6.1019942 ], [ -49.342144699999949, -6.102185899999931 ], [ -49.342031099999986, -6.10228989999997 ], [ -49.341844299999941, -6.1023218 ], [ -49.341670699999945, -6.102161299999953 ], [ -49.341553599999941, -6.102099899999955 ], [ -49.341346599999952, -6.1021441 ], [ -49.341218, -6.102322599999957 ], [ -49.341183, -6.102441399999961 ], [ -49.34120189999993, -6.10262559999994 ], [ -49.341172399999955, -6.10275339999994 ], [ -49.341147799999924, -6.1029098 ], [ -49.3410282, -6.10299909999997 ], [ -49.3409185, -6.103039199999933 ], [ -49.34071639999997, -6.103058899999969 ], [ -49.340603399999964, -6.10300969999995 ], [ -49.340487899999971, -6.102927799999947 ], [ -49.340373299999953, -6.102912299999984 ], [ -49.34023509999998, -6.102997399999929 ], [ -49.340097699999951, -6.103139099999956 ], [ -49.340073899999936, -6.103252099999978 ], [ -49.340175499999937, -6.1034299 ], [ -49.340246499999978, -6.103705799999925 ], [ -49.340141899999935, -6.103898299999952 ], [ -49.34006409999995, -6.104022799999914 ], [ -49.33991849999996, -6.104162 ], [ -49.33969819999993, -6.104244699999974 ], [ -49.3395273, -6.104302899999956 ], [ -49.339379099999974, -6.104382299999941 ], [ -49.33927609999995, -6.10445189999998 ], [ -49.339104899999938, -6.104610799999935 ], [ -49.338984499999981, -6.104675499999919 ], [ -49.338831599999935, -6.104819599999943 ], [ -49.338690699999979, -6.104951499999942 ], [ -49.338639099999966, -6.105118599999964 ], [ -49.338783299999939, -6.105331499999968 ], [ -49.338892799999947, -6.105482199999904 ], [ -49.338874799999985, -6.105746699999943 ], [ -49.338759299999936, -6.105850699999945 ], [ -49.338585899999941, -6.1059301 ], [ -49.338421299999936, -6.105965399999925 ], [ -49.33827569999994, -6.10606279999996 ], [ -49.338171699999975, -6.106211 ], [ -49.338100699999977, -6.106471499999932 ], [ -49.338225099999931, -6.106749899999976 ], [ -49.33825729999996, -6.107105399999942 ], [ -49.338311899999951, -6.107312799999927 ], [ -49.338375799999945, -6.10737779999992 ], [ -49.33854, -6.107425299999935 ], [ -49.33872619999994, -6.107366899999902 ], [ -49.338863199999935, -6.107279 ], [ -49.339083, -6.107226599999939 ], [ -49.339256599999942, -6.107189399999941 ], [ -49.339362499999936, -6.107233099999982 ], [ -49.339612299999942, -6.10741 ], [ -49.339749899999958, -6.107441099999964 ], [ -49.339925, -6.107414399999942 ], [ -49.339997099999955, -6.10729919999997 ], [ -49.340099599999974, -6.10715289999996 ], [ -49.34014, -6.107009799999968 ], [ -49.340223899999962, -6.106913199999932 ], [ -49.340311299999939, -6.106842699999985 ], [ -49.34041389999993, -6.106854199999939 ], [ -49.340514399999961, -6.106953599999944 ], [ -49.340602199999978, -6.107049699999964 ], [ -49.340648599999952, -6.107197599999947 ], [ -49.340675199999964, -6.107319399999941 ], [ -49.340700899999945, -6.107472199999965 ], [ -49.340703, -6.107589099999909 ], [ -49.340682299999969, -6.107661699999938 ], [ -49.340672499999982, -6.1077905 ], [ -49.340658799999979, -6.107928099999976 ], [ -49.340631499999979, -6.108031299999935 ], [ -49.340614, -6.108155799999953 ], [ -49.340593299999966, -6.108260099999947 ], [ -49.340575299999955, -6.108471899999926 ], [ -49.340596599999969, -6.108645 ], [ -49.340567099999937, -6.108937099999922 ], [ -49.340511699999979, -6.109112799999912 ], [ -49.340430199999965, -6.109281099999976 ], [ -49.340407299999981, -6.109396099999966 ], [ -49.340338899999956, -6.109516899999941 ], [ -49.340311, -6.10966019999995 ], [ -49.340264299999937, -6.109764199999949 ], [ -49.340246299999933, -6.109925599999937 ], [ -49.340132599999947, -6.11000089999991 ], [ -49.34005929999995, -6.110050899999978 ], [ -49.339943899999987, -6.110073 ], [ -49.339824799999974, -6.110083199999949 ], [ -49.339769199999978, -6.110072199999939 ], [ -49.339618899999948, -6.110049699999923 ], [ -49.339485899999943, -6.110020599999922 ], [ -49.339358299999958, -6.109977199999939 ], [ -49.339297699999975, -6.109924399999968 ], [ -49.339148699999953, -6.109911199999924 ], [ -49.339028, -6.10992229999992 ], [ -49.338934699999982, -6.109949299999918 ], [ -49.338873799999938, -6.110021 ], [ -49.338787499999967, -6.110110699999943 ], [ -49.338752199999931, -6.110221199999961 ], [ -49.338730899999973, -6.11028509999995 ], [ -49.33870509999997, -6.110362899999933 ], [ -49.338719499999975, -6.110526299999951 ], [ -49.338653599999986, -6.110863699999906 ], [ -49.338642899999975, -6.111097899999939 ], [ -49.338647799999933, -6.111319 ], [ -49.338611799999974, -6.111458299999985 ], [ -49.338585599999931, -6.111654 ], [ -49.338583899999946, -6.111846499999977 ], [ -49.338609299999973, -6.11203969999997 ], [ -49.338603599999935, -6.11218059999994 ], [ -49.338624099999947, -6.112441799999965 ], [ -49.338677099999984, -6.112562199999971 ], [ -49.338790899999935, -6.112737499999954 ], [ -49.338855599999938, -6.112825099999937 ], [ -49.338962099999947, -6.113085499999917 ], [ -49.339035799999976, -6.113192799999957 ], [ -49.3391175, -6.11332139999998 ], [ -49.339248499999947, -6.113479499999899 ], [ -49.339311599999974, -6.11357119999996 ], [ -49.339383699999985, -6.113681699999943 ], [ -49.339436099999944, -6.113778399999942 ], [ -49.339481899999946, -6.113857 ], [ -49.339501599999949, -6.113898799999963 ], [ -49.33951049999996, -6.113948299999935 ], [ -49.339508699999961, -6.113963499999933 ], [ -49.339511699999953, -6.11397679999996 ], [ -49.33951339999993, -6.113983299999947 ], [ -49.339513599999975, -6.11398919999991 ], [ -49.339570599999945, -6.11402409999993 ], [ -49.339796699999965, -6.1139138 ], [ -49.341924, -6.114357899999924 ], [ -49.343500499999955, -6.114519599999948 ], [ -49.344172099999987, -6.114800799999974 ], [ -49.34437319999995, -6.114734099999961 ], [ -49.344511399999931, -6.114688299999953 ], [ -49.345813299999975, -6.114729199999927 ], [ -49.345694199999976, -6.114771699999936 ], [ -49.34560369999997, -6.115942799999953 ], [ -49.347800899999982, -6.116474799999924 ], [ -49.347805799999954, -6.116475899999948 ], [ -49.347897699999976, -6.116451299999915 ], [ -49.348028099999965, -6.118222599999978 ], [ -49.348165699999974, -6.11851 ], [ -49.34838689999998, -6.120636199999964 ], [ -49.348391799999952, -6.120635899999979 ], [ -49.357681499999956, -6.119953299999954 ], [ -49.35772529999997, -6.119950099999908 ], [ -49.357769099999977, -6.119945399999946 ], [ -49.35813409999998, -6.119889799999928 ], [ -49.357766399999946, -6.112531099999963 ], [ -49.357761799999935, -6.112441499999912 ], [ -49.357657599999982, -6.1104187 ], [ -49.357637, -6.110019799999971 ], [ -49.357634599999983, -6.109972599999932 ], [ -49.357629, -6.109864099999917 ], [ -49.357627, -6.10982509999998 ], [ -49.357401099999947, -6.10544 ], [ -49.358264, -6.104527 ], [ -49.359680499999968, -6.104568499999964 ], [ -49.3598856, -6.104818499999947 ], [ -49.36011579999996, -6.105518099999935 ], [ -49.360271299999958, -6.105990599999938 ], [ -49.360639099999958, -6.106708199999929 ], [ -49.361407499999977, -6.107007199999967 ], [ -49.361703199999972, -6.106844899999945 ], [ -49.362015399999969, -6.106322299999937 ], [ -49.362400199999968, -6.105996599999971 ], [ -49.363691899999942, -6.105637699999933 ], [ -49.364403599999946, -6.105978599999962 ], [ -49.366030099999932, -6.1064211 ], [ -49.366795599999939, -6.10614609999992 ], [ -49.367438499999935, -6.106319499999945 ], [ -49.368245799999961, -6.107079 ], [ -49.36855079999998, -6.10701319999991 ], [ -49.36937, -6.1071148 ], [ -49.369429799999978, -6.107644099999979 ], [ -49.369195899999966, -6.108609899999976 ], [ -49.36920189999995, -6.108885 ], [ -49.36933339999996, -6.10916 ], [ -49.370212499999987, -6.108958199999942 ], [ -49.371031799999976, -6.108982099999921 ], [ -49.371725499999961, -6.108982099999955 ], [ -49.372610499999951, -6.109053899999955 ], [ -49.374326799999956, -6.109107699999978 ], [ -49.375217899999946, -6.1091435999999 ], [ -49.376162699999952, -6.109197399999935 ], [ -49.377059699999961, -6.1092811 ], [ -49.377627799999971, -6.109329 ], [ -49.37817959999996, -6.109345799999982 ], [ -49.382217599999933, -6.109373199999955 ], [ -49.382606599999974, -6.109299499999955 ], [ -49.383065599999952, -6.108858 ], [ -49.383520099999942, -6.108724 ], [ -49.383570299999974, -6.108709199999967 ], [ -49.383541899999948, -6.111011899999955 ], [ -49.38726459999998, -6.111078299999989 ], [ -49.38726639999993, -6.11101859999995 ], [ -49.387297299999943, -6.109987099999955 ], [ -49.387348299999985, -6.109989799999942 ], [ -49.387673399999983, -6.110006699999932 ] ] ] ] } }
]
}
