{
"type": "FeatureCollection",
"name": "1503507",
"crs": { "type": "name", "properties": { "name": "urn:ogc:def:crs:OGC:1.3:CRS84" } },
"features": [
{ "type": "Feature", "properties": { "CD_MUN": "1503507", "NM_MUN": "Irituia" }, "geometry": { "type": "MultiPolygon", "coordinates": [ [ [ [ -47.463462399999969, -1.776808299999901 ], [ -47.464462299999987, -1.776787600000067 ], [ -47.46618959999995, -1.776817899999944 ], [ -47.466498299999962, -1.776669199999899 ], [ -47.467214, -1.776475 ], [ -47.467554599999971, -1.776399399999886 ], [ -47.467850799999951, -1.776429699999951 ], [ -47.467951799999987, -1.776470899999897 ], [ -47.468022399999946, -1.776525899999945 ], [ -47.468132299999986, -1.776699499999928 ], [ -47.468362, -1.775899599999846 ], [ -47.468272, -1.7751864 ], [ -47.467622, -1.769987 ], [ -47.465894099999957, -1.7699572 ], [ -47.46505, -1.769880700000021 ], [ -47.464467, -1.770062 ], [ -47.462668599999972, -1.770745299999956 ], [ -47.461750499999937, -1.770968 ], [ -47.46112, -1.771167000000102 ], [ -47.450251099999953, -1.764721099999903 ], [ -47.449608, -1.765017 ], [ -47.448825, -1.76522 ], [ -47.447805, -1.765356299999931 ], [ -47.447108, -1.765403 ], [ -47.447129199999949, -1.764245500000032 ], [ -47.446003699999942, -1.7641426 ], [ -47.444731, -1.764175899999967 ], [ -47.443807599999964, -1.763890900000021 ], [ -47.442555099999936, -1.763708899999948 ], [ -47.441777899999977, -1.763826899999925 ], [ -47.44062219999995, -1.763812699999896 ], [ -47.439067199999961, -1.763473 ], [ -47.437996199999937, -1.763302099999982 ], [ -47.437166899999966, -1.763359899999941 ], [ -47.436182199999962, -1.763702599999893 ], [ -47.435330799999981, -1.763710199999968 ], [ -47.435609099999965, -1.764205599999941 ], [ -47.435293399999985, -1.764761899999961 ], [ -47.43514319999997, -1.765333599999922 ], [ -47.435383599999966, -1.765889699999904 ], [ -47.435443699999951, -1.766205400000017 ], [ -47.434947199999954, -1.766837199999931 ], [ -47.43490369999995, -1.767574199999875 ], [ -47.435256399999965, -1.768149899999889 ], [ -47.435612, -1.7690606 ], [ -47.435234399999949, -1.769693399999946 ], [ -47.434781799999946, -1.7701459 ], [ -47.434285399999965, -1.770025399999896 ], [ -47.433881099999951, -1.769452899999893 ], [ -47.433429399999959, -1.769167600000014 ], [ -47.433037599999977, -1.769393399999984 ], [ -47.433172899999931, -1.769964799999947 ], [ -47.43353529999996, -1.770610199999861 ], [ -47.433682899999958, -1.771334599999866 ], [ -47.433267899999976, -1.7732481 ], [ -47.433306299999977, -1.774532499999857 ], [ -47.433717699999931, -1.775913600000026 ], [ -47.433673, -1.776706100000019 ], [ -47.433596799999975, -1.777681700000022 ], [ -47.433764499999938, -1.778886 ], [ -47.434907799999962, -1.78121840000004 ], [ -47.43622309999995, -1.782842299999936 ], [ -47.437846199999967, -1.782399899999913 ], [ -47.439202899999941, -1.781226 ], [ -47.440056599999934, -1.780616300000047 ], [ -47.441349799999955, -1.780066099999913 ], [ -47.441920199999977, -1.7799912 ], [ -47.442486899999949, -1.779507800000017 ], [ -47.461546799999951, -1.776707 ], [ -47.46190839999997, -1.776777299999857 ], [ -47.462242799999956, -1.776810799999888 ], [ -47.462615399999947, -1.776761699999868 ], [ -47.463462399999969, -1.776808299999901 ] ] ], [ [ [ -47.503575899999923, -1.7468148 ], [ -47.504379, -1.746794599999911 ], [ -47.504539, -1.740926 ], [ -47.503396699999946, -1.740924599999929 ], [ -47.503295699999967, -1.737316099999979 ], [ -47.4938, -1.734298 ], [ -47.493640299999981, -1.735822 ], [ -47.493639, -1.735821 ], [ -47.492716, -1.736604 ], [ -47.49505, -1.737842 ], [ -47.492809399999942, -1.741951199999918 ], [ -47.492855399999939, -1.742500800000043 ], [ -47.493202499999938, -1.742916799999838 ], [ -47.503575899999923, -1.7468148 ] ] ] ] } }
]
}
