{
"type": "FeatureCollection",
"name": "1504208",
"crs": { "type": "name", "properties": { "name": "urn:ogc:def:crs:OGC:1.3:CRS84" } },
"features": [
{ "type": "Feature", "properties": { "CD_MUN": "1504208", "NM_MUN": "Marabá" }, "geometry": { "type": "MultiPolygon", "coordinates": [ [ [ [ -50.18835009999998, -5.531240199999966 ], [ -50.187036199999966, -5.533224 ], [ -50.189291199999964, -5.534694699999931 ], [ -50.191924699999959, -5.536412199999982 ], [ -50.193430199999966, -5.5341898 ], [ -50.19400719999993, -5.533364499999961 ], [ -50.194518299999977, -5.532633199999946 ], [ -50.196366799999964, -5.529988599999958 ], [ -50.195416799999983, -5.5293414 ], [ -50.191511299999945, -5.526680699999938 ], [ -50.189706499999943, -5.529283099999937 ], [ -50.189668799999936, -5.529337399999939 ], [ -50.189637199999936, -5.529383699999956 ], [ -50.18835009999998, -5.531240199999966 ] ] ], [ [ [ -49.670174499999966, -5.435415299999902 ], [ -49.672961699999981, -5.435753799999906 ], [ -49.671588599999943, -5.429327599999968 ], [ -49.66995419999995, -5.426676599999922 ], [ -49.668593099999953, -5.427413899999974 ], [ -49.664333799999959, -5.429821499999962 ], [ -49.659758, -5.432408 ], [ -49.660416599999962, -5.434095099999953 ], [ -49.658782, -5.435009 ], [ -49.660075699999936, -5.438205 ], [ -49.66138739999996, -5.437891499999968 ], [ -49.662839799999972, -5.437507599999922 ], [ -49.663729199999977, -5.437258 ], [ -49.664490599999958, -5.4370661 ], [ -49.665405499999963, -5.436822899999895 ], [ -49.666071, -5.436650199999979 ], [ -49.667363399999942, -5.43627269999994 ], [ -49.667734499999938, -5.436176699999942 ], [ -49.668368, -5.435978399999978 ], [ -49.670174499999966, -5.435415299999902 ] ] ], [ [ [ -49.273933299999946, -5.425658499999944 ], [ -49.274054399999955, -5.424786499999902 ], [ -49.273997, -5.424597199999929 ], [ -49.273489499999982, -5.42328359999994 ], [ -49.273315499999967, -5.422605099999975 ], [ -49.273083499999984, -5.422114399999926 ], [ -49.272924, -5.421378199999952 ], [ -49.272664899999931, -5.420886799999924 ], [ -49.272474499999923, -5.420382199999929 ], [ -49.271981499999988, -5.419689299999972 ], [ -49.271793, -5.419212899999955 ], [ -49.271250899999984, -5.418921599999955 ], [ -49.270488, -5.419328399999952 ], [ -49.269465099999934, -5.41947209999996 ], [ -49.269047599999972, -5.419530799999927 ], [ -49.268168, -5.419573799999935 ], [ -49.265743899999968, -5.419638699999951 ], [ -49.266448899999943, -5.422606799999949 ], [ -49.266716599999938, -5.423733799999962 ], [ -49.266751099999965, -5.423879 ], [ -49.266873199999964, -5.42439269999998 ], [ -49.267053899999951, -5.425153599999947 ], [ -49.267213499999968, -5.425868599999918 ], [ -49.267632499999934, -5.428305699999966 ], [ -49.268128599999955, -5.431191699999954 ], [ -49.271121799999953, -5.431031199999936 ], [ -49.274270199999933, -5.430785199999971 ], [ -49.274852099999976, -5.430739699999951 ], [ -49.275339, -5.43070169999993 ], [ -49.275044699999967, -5.4302623 ], [ -49.274995699999977, -5.4300244 ], [ -49.274818899999957, -5.429209499999986 ], [ -49.27450429999994, -5.427622 ], [ -49.2743301, -5.426913199999944 ], [ -49.273933299999946, -5.425658499999944 ] ] ], [ [ [ -50.277276599999944, -5.350050899999928 ], [ -50.277147799999973, -5.350370599999978 ], [ -50.276797099999953, -5.350702899999936 ], [ -50.276268199999947, -5.350966499999947 ], [ -50.275779399999983, -5.351175899999919 ], [ -50.275656199999958, -5.351228699999964 ], [ -50.275679699999955, -5.351725299999951 ], [ -50.275336699999976, -5.351954 ], [ -50.274720499999951, -5.351992099999944 ], [ -50.274485499999969, -5.35232239999992 ], [ -50.274199699999947, -5.353192599999947 ], [ -50.273825199999976, -5.3534903 ], [ -50.271411699999931, -5.354234399999959 ], [ -50.271862699999986, -5.355649599999963 ], [ -50.270462, -5.356176 ], [ -50.271714, -5.359354 ], [ -50.275846, -5.357997 ], [ -50.275653, -5.356192 ], [ -50.275752, -5.355663 ], [ -50.276887, -5.356224 ], [ -50.278065, -5.355775 ], [ -50.281103, -5.354077 ], [ -50.281061299999983, -5.351937399999942 ], [ -50.28089749999998, -5.347475599999899 ], [ -50.2773878, -5.347477199999944 ], [ -50.277387799999985, -5.349152299999958 ], [ -50.277276599999944, -5.350050899999928 ] ] ], [ [ [ -49.242755, -5.331292 ], [ -49.243753, -5.328984 ], [ -49.242282, -5.328835 ], [ -49.241756, -5.328696 ], [ -49.240779, -5.328108 ], [ -49.239813, -5.327884 ], [ -49.238212, -5.326559 ], [ -49.237249, -5.327788 ], [ -49.234211, -5.329241 ], [ -49.235467, -5.330074 ], [ -49.236787, -5.331484 ], [ -49.238665, -5.334625 ], [ -49.240651, -5.333503 ], [ -49.241885, -5.331569 ], [ -49.242755, -5.331292 ] ] ], [ [ [ -49.249923, -5.31360079999997 ], [ -49.24944359999995, -5.313822699999938 ], [ -49.249038399999961, -5.314111799999981 ], [ -49.248641699999943, -5.314516399999934 ], [ -49.248088, -5.314704599999953 ], [ -49.248802099999978, -5.3152279 ], [ -49.249416599999961, -5.315785899999955 ], [ -49.249720399999944, -5.316169199999933 ], [ -49.249396299999937, -5.316424699999946 ], [ -49.24944359999995, -5.316686899999963 ], [ -49.249585399999951, -5.316828099999942 ], [ -49.249207199999951, -5.317103699999938 ], [ -49.249862199999946, -5.318004699999935 ], [ -49.251442299999951, -5.3167407 ], [ -49.251719199999968, -5.31680119999993 ], [ -49.251975799999968, -5.316552399999981 ], [ -49.25189469999998, -5.316317099999923 ], [ -49.252502499999942, -5.315738899999901 ], [ -49.25206349999997, -5.315194299999946 ], [ -49.25172589999994, -5.314898399999932 ], [ -49.251482799999955, -5.314454699999962 ], [ -49.249923, -5.31360079999997 ] ] ], [ [ [ -49.114189099999976, -5.631484299999978 ], [ -49.1117809, -5.627543099999965 ], [ -49.105182599999978, -5.635394099999934 ], [ -49.105058799999938, -5.635411299999916 ], [ -49.103639499999986, -5.635048699999976 ], [ -49.101711499999972, -5.634556099999939 ], [ -49.100882099999971, -5.634326499999958 ], [ -49.100514899999958, -5.634165799999917 ], [ -49.100156399999946, -5.63392889999997 ], [ -49.099909799999985, -5.633719399999932 ], [ -49.099441099999979, -5.633212899999919 ], [ -49.09807619999998, -5.631730499999959 ], [ -49.097385899999949, -5.632134199999956 ], [ -49.097324299999968, -5.632176199999949 ], [ -49.096288899999934, -5.632491 ], [ -49.095742399999949, -5.6329633 ], [ -49.095699199999956, -5.633879199999954 ], [ -49.095900599999943, -5.634265599999907 ], [ -49.096332, -5.635582299999935 ], [ -49.096864099999955, -5.635610899999971 ], [ -49.097741299999946, -5.635610899999923 ], [ -49.098719199999955, -5.635625199999916 ], [ -49.099409499999979, -5.635353299999935 ], [ -49.100133499999977, -5.635721599999923 ], [ -49.100206799999967, -5.636583399999942 ], [ -49.100140599999975, -5.637275199999949 ], [ -49.100118799999969, -5.637503599999959 ], [ -49.10003839999996, -5.637712799999977 ], [ -49.100031099999967, -5.637708799999909 ], [ -49.099972, -5.638014799999973 ], [ -49.099622699999941, -5.639107299999973 ], [ -49.099561, -5.639300199999988 ], [ -49.099154, -5.639809599999954 ], [ -49.099017899999971, -5.639869899999929 ], [ -49.098783099999935, -5.639826099999914 ], [ -49.098093199999937, -5.63940249999993 ], [ -49.097491399999967, -5.639417099999942 ], [ -49.09700509999994, -5.640081099999957 ], [ -49.09602169999993, -5.64070919999996 ], [ -49.09497429999994, -5.640719899999952 ], [ -49.094902599999955, -5.64071989999995 ], [ -49.094010799999978, -5.640679899999921 ], [ -49.093467799999985, -5.641015899999959 ], [ -49.093288, -5.642290799999977 ], [ -49.093740399999945, -5.643002399999918 ], [ -49.094327499999963, -5.644039499999958 ], [ -49.09469439999998, -5.644667599999957 ], [ -49.094614199999967, -5.645294799999965 ], [ -49.094604599999968, -5.645552599999982 ], [ -49.095785299999939, -5.645560699999984 ], [ -49.096063199999946, -5.647262 ], [ -49.096994499999944, -5.647732299999974 ], [ -49.104301499999963, -5.646767299999965 ], [ -49.107332899999967, -5.646419699999933 ], [ -49.109359199999972, -5.646187299999959 ], [ -49.10939529999996, -5.646183099999962 ], [ -49.109328, -5.645761899999953 ], [ -49.110588, -5.645549499999943 ], [ -49.110322699999983, -5.643794399999948 ], [ -49.111327199999948, -5.643674099999966 ], [ -49.11120939999995, -5.642834699999971 ], [ -49.1105965, -5.642719499999949 ], [ -49.109916099999964, -5.642373699999944 ], [ -49.1095562, -5.642049499999916 ], [ -49.109555499999949, -5.642045699999946 ], [ -49.110102599999948, -5.641271799999958 ], [ -49.110414699999978, -5.640873899999959 ], [ -49.110972, -5.640010699999982 ], [ -49.115330499999978, -5.633352299999982 ], [ -49.114189099999976, -5.631484299999978 ] ] ], [ [ [ -49.233315699999935, -5.47988009999995 ], [ -49.233782, -5.479856099999946 ], [ -49.233784699999951, -5.479851299999938 ], [ -49.233821299999931, -5.479869199999934 ], [ -49.233956199999966, -5.47963139999995 ], [ -49.23497579999998, -5.47797209999993 ], [ -49.235138199999938, -5.477669099999953 ], [ -49.23555349999998, -5.477007699999927 ], [ -49.235684099999958, -5.476860399999966 ], [ -49.23592119999995, -5.476558 ], [ -49.235884399999982, -5.476540899999971 ], [ -49.234635, -5.475893 ], [ -49.232221699999968, -5.479117299999927 ], [ -49.232456, -5.479556 ], [ -49.232558699999977, -5.479688799999939 ], [ -49.232878599999935, -5.47982419999992 ], [ -49.233315699999935, -5.47988009999995 ] ] ], [ [ [ -49.149035399999946, -5.394939099999918 ], [ -49.149897699999947, -5.394703399999957 ], [ -49.1517257, -5.394359499999969 ], [ -49.155127399999969, -5.393647099999953 ], [ -49.157578899999976, -5.3931787999999 ], [ -49.161486799999977, -5.39234 ], [ -49.16923, -5.389768499999912 ], [ -49.172532099999955, -5.388118499999981 ], [ -49.174636899999939, -5.386564199999933 ], [ -49.178197499999953, -5.384063199999967 ], [ -49.18137889999997, -5.382012399999953 ], [ -49.184320299999968, -5.380619099999917 ], [ -49.187229199999933, -5.379619399999942 ], [ -49.190861899999966, -5.378996099999924 ], [ -49.193068, -5.378725399999969 ], [ -49.195316, -5.378157299999928 ], [ -49.196901099999941, -5.378353599999953 ], [ -49.198289799999941, -5.379136099999951 ], [ -49.199670799999978, -5.380170099999925 ], [ -49.201188199999926, -5.381119399999919 ], [ -49.202669499999956, -5.382179699999949 ], [ -49.204326199999969, -5.3807027 ], [ -49.204841599999952, -5.380385599999981 ], [ -49.205699399999958, -5.380203499999936 ], [ -49.206827299999986, -5.379916899999955 ], [ -49.207050199999969, -5.379633599999972 ], [ -49.207117499999981, -5.37939669999996 ], [ -49.205520399999955, -5.379039299999901 ], [ -49.204883199999983, -5.378739599999988 ], [ -49.203642799999947, -5.37788849999989 ], [ -49.20249019999995, -5.376870899999973 ], [ -49.201626299999937, -5.376232099999906 ], [ -49.200671599999971, -5.37565279999994 ], [ -49.199167199999984, -5.374924599999939 ], [ -49.197914799999985, -5.373993699999955 ], [ -49.196314899999948, -5.372382599999952 ], [ -49.195084499999943, -5.3712791 ], [ -49.193457499999973, -5.370412699999951 ], [ -49.191837699999951, -5.3697253 ], [ -49.191272099999935, -5.370093099999965 ], [ -49.190364399999964, -5.37060069999993 ], [ -49.189795699999941, -5.370868 ], [ -49.189484699999973, -5.370923799999983 ], [ -49.189480299999957, -5.369974899999967 ], [ -49.189464799999946, -5.36664879999994 ], [ -49.188967799999944, -5.363504199999944 ], [ -49.184565699999951, -5.364945599999967 ], [ -49.184130299999929, -5.366622199999921 ], [ -49.183573599999932, -5.370844299999905 ], [ -49.183546599999943, -5.37104939999996 ], [ -49.180775499999982, -5.371063499999909 ], [ -49.175156199999947, -5.371966 ], [ -49.168899199999942, -5.373016599999978 ], [ -49.160114, -5.374491799999931 ], [ -49.157239199999943, -5.374974499999973 ], [ -49.151877299999967, -5.375818899999959 ], [ -49.151869499999975, -5.375776599999921 ], [ -49.152525, -5.375348399999951 ], [ -49.153109699999966, -5.374448499999954 ], [ -49.153293399999946, -5.372957599999986 ], [ -49.15359, -5.371155199999984 ], [ -49.152695699999981, -5.367741699999926 ], [ -49.152337299999942, -5.364918099999943 ], [ -49.151617499999979, -5.355858899999966 ], [ -49.151602799999978, -5.35567409999997 ], [ -49.14813369999996, -5.355197499999957 ], [ -49.144657199999983, -5.354959 ], [ -49.143998499999952, -5.353193199999988 ], [ -49.142511099999986, -5.352368 ], [ -49.141270299999974, -5.351578899999948 ], [ -49.139544299999962, -5.350444099999954 ], [ -49.139085499999972, -5.350137599999925 ], [ -49.136196499999983, -5.347681699999928 ], [ -49.134862, -5.34645779999994 ], [ -49.133017399999972, -5.344522899999951 ], [ -49.13095949999996, -5.341963099999935 ], [ -49.127057299999933, -5.33960809999997 ], [ -49.12516329999994, -5.338890599999958 ], [ -49.122990199999947, -5.3379108 ], [ -49.121444799999949, -5.336469499999969 ], [ -49.119413499999951, -5.333001499999985 ], [ -49.118288, -5.330306899999935 ], [ -49.117108299999984, -5.329609499999956 ], [ -49.115532, -5.329497499999934 ], [ -49.115395599999943, -5.329341299999975 ], [ -49.112796, -5.32636589999994 ], [ -49.111552199999949, -5.325719899999939 ], [ -49.111159699999973, -5.325101599999935 ], [ -49.109692699999982, -5.32436749999991 ], [ -49.107285499999925, -5.323471599999961 ], [ -49.106252, -5.3230998 ], [ -49.104307899999981, -5.322388199999977 ], [ -49.10273349999995, -5.322098199999968 ], [ -49.101141299999938, -5.321426799999902 ], [ -49.100199499999974, -5.321180599999927 ], [ -49.098895499999969, -5.320343299999903 ], [ -49.094737499999951, -5.3195929 ], [ -49.094045299999955, -5.319461799999925 ], [ -49.09135329999998, -5.319332499999967 ], [ -49.091187299999945, -5.319324299999975 ], [ -49.090867199999941, -5.3193411 ], [ -49.09053369999998, -5.319369099999949 ], [ -49.089389699999977, -5.3193841 ], [ -49.089281899999946, -5.31938549999992 ], [ -49.089168699999952, -5.319398799999957 ], [ -49.089053099999944, -5.319414399999943 ], [ -49.088937599999952, -5.319430099999979 ], [ -49.088197899999955, -5.319415599999934 ], [ -49.087959599999969, -5.319372399999982 ], [ -49.08793049999997, -5.319365699999937 ], [ -49.08791129999998, -5.319369299999918 ], [ -49.087468199999932, -5.319426 ], [ -49.086733, -5.319648499999958 ], [ -49.086455299999962, -5.319790299999973 ], [ -49.08628779999998, -5.319669399999981 ], [ -49.086177899999939, -5.319908099999956 ], [ -49.085672599999953, -5.3199286 ], [ -49.084827799999971, -5.320341899999974 ], [ -49.084439699999962, -5.320612799999907 ], [ -49.084199299999973, -5.320780699999938 ], [ -49.083702099999982, -5.321352099999937 ], [ -49.08354369999995, -5.321650399999932 ], [ -49.083425299999931, -5.321798099999971 ], [ -49.083064299999926, -5.321340899999915 ], [ -49.081337299999973, -5.322284699999917 ], [ -49.078268899999955, -5.3233271 ], [ -49.075641399999938, -5.325903699999958 ], [ -49.072944499999949, -5.328192099999956 ], [ -49.070233099999939, -5.329967 ], [ -49.065945099999972, -5.331351 ], [ -49.060615799999937, -5.332439099999936 ], [ -49.05832909999998, -5.33342189999997 ], [ -49.058369599999935, -5.334896099999951 ], [ -49.060895199999948, -5.335017899999978 ], [ -49.061788099999944, -5.338728499999967 ], [ -49.062476499999946, -5.3412165 ], [ -49.062782399999953, -5.3424219 ], [ -49.063088, -5.343446599999965 ], [ -49.0632308, -5.343918099999963 ], [ -49.063233199999956, -5.343933399999941 ], [ -49.063268, -5.344145799999962 ], [ -49.064498199999946, -5.348689 ], [ -49.065069299999948, -5.350982599999954 ], [ -49.067700499999951, -5.361228799999897 ], [ -49.067998099999954, -5.362116799999939 ], [ -49.068282099999976, -5.363335199999921 ], [ -49.06833359999996, -5.364136099999911 ], [ -49.069386699999939, -5.363866699999976 ], [ -49.076238, -5.362097 ], [ -49.078250499999967, -5.361584199999939 ], [ -49.07845059999994, -5.361533199999962 ], [ -49.078539599999949, -5.361510499999929 ], [ -49.078773, -5.361451 ], [ -49.078750499999956, -5.361625899999959 ], [ -49.078734699999984, -5.36174949999995 ], [ -49.07870859999997, -5.361952699999975 ], [ -49.078664099999976, -5.362299199999918 ], [ -49.078550599999964, -5.363183499999937 ], [ -49.078478599999983, -5.3637439 ], [ -49.078315199999963, -5.365116 ], [ -49.0781889, -5.3661764 ], [ -49.083435599999973, -5.375484099999928 ], [ -49.084678399999973, -5.374695599999928 ], [ -49.085080899999987, -5.374534599999936 ], [ -49.086226199999949, -5.374077699999944 ], [ -49.086746199999943, -5.373920199999915 ], [ -49.087118499999974, -5.373836399999955 ], [ -49.087482, -5.3736686 ], [ -49.088006899999982, -5.373539199999899 ], [ -49.088291, -5.373028899999979 ], [ -49.089363899999967, -5.372053599999952 ], [ -49.088922399999952, -5.370591399999948 ], [ -49.089080699999954, -5.370189699999938 ], [ -49.089302199999963, -5.3697362 ], [ -49.089267699999937, -5.369344199999919 ], [ -49.089312399999983, -5.368877799999955 ], [ -49.089668099999983, -5.368313199999953 ], [ -49.091170299999931, -5.367519399999931 ], [ -49.091310799999981, -5.367590499999916 ], [ -49.091713, -5.368890799999989 ], [ -49.091874799999971, -5.369506199999917 ], [ -49.092295199999967, -5.37012589999994 ], [ -49.092791, -5.370634199999947 ], [ -49.094099299999982, -5.372333699999944 ], [ -49.096480099999944, -5.3750808 ], [ -49.098583499999961, -5.377844799999961 ], [ -49.09912589999994, -5.378779199999911 ], [ -49.099819099999934, -5.379510699999942 ], [ -49.101143199999974, -5.380754499999983 ], [ -49.102649499999984, -5.38193679999997 ], [ -49.10381469999993, -5.382511799999973 ], [ -49.105271199999954, -5.383175899999977 ], [ -49.106463299999973, -5.383573399999908 ], [ -49.107436799999959, -5.383897799999962 ], [ -49.108657, -5.384603099999928 ], [ -49.109284399999986, -5.38501489999993 ], [ -49.11049189999995, -5.385889899999912 ], [ -49.111734699999943, -5.386681199999959 ], [ -49.114416799999965, -5.388114199999964 ], [ -49.115243299999975, -5.388685399999944 ], [ -49.115338099999981, -5.388759599999947 ], [ -49.116253599999943, -5.3894756 ], [ -49.117731799999945, -5.390740599999935 ], [ -49.118710499999963, -5.39131829999996 ], [ -49.11930829999995, -5.391781899999987 ], [ -49.120329499999968, -5.39348479999997 ], [ -49.12114379999997, -5.395133799999919 ], [ -49.121581399999975, -5.396662799999935 ], [ -49.121758299999954, -5.397960199999916 ], [ -49.122141499999941, -5.399234199999943 ], [ -49.12290889999997, -5.400482 ], [ -49.124239799999948, -5.401579 ], [ -49.12608339999997, -5.402406699999948 ], [ -49.128309399999985, -5.403414099999956 ], [ -49.130080499999963, -5.403621099999989 ], [ -49.130046499999928, -5.404715099999956 ], [ -49.132892599999934, -5.404444399999906 ], [ -49.134895299999982, -5.403400599999933 ], [ -49.11857719999994, -5.427324899999974 ], [ -49.131095199999947, -5.4378685 ], [ -49.136312899999943, -5.442236299999905 ], [ -49.136841299999958, -5.441937499999957 ], [ -49.139819299999942, -5.440348299999923 ], [ -49.140311499999939, -5.43976239999996 ], [ -49.140329499999957, -5.439115899999929 ], [ -49.139816599999968, -5.438470099999955 ], [ -49.138881799999986, -5.437981799999897 ], [ -49.136477299999967, -5.436548899999945 ], [ -49.134067099999982, -5.4354966 ], [ -49.132074299999942, -5.435262 ], [ -49.131040499999976, -5.435085499999968 ], [ -49.130514099999971, -5.4344417 ], [ -49.130556899999931, -5.431302399999906 ], [ -49.1302, -5.430406 ], [ -49.129216, -5.429716199999943 ], [ -49.128120399999943, -5.428399199999952 ], [ -49.127583699999946, -5.426263799999933 ], [ -49.127506599999947, -5.425441199999958 ], [ -49.128103899999985, -5.424134599999906 ], [ -49.12899089999997, -5.423591399999939 ], [ -49.130556699999943, -5.424095399999911 ], [ -49.135595199999955, -5.4274591 ], [ -49.137448899999981, -5.428524899999971 ], [ -49.139394699999961, -5.428813099999971 ], [ -49.141415299999949, -5.42853929999994 ], [ -49.147134, -5.426789799999961 ], [ -49.147994, -5.426182099999972 ], [ -49.152563099999952, -5.421238699999972 ], [ -49.15291579999996, -5.420571799999923 ], [ -49.153233199999924, -5.4202407 ], [ -49.153848899999964, -5.419851299999966 ], [ -49.154085299999963, -5.419557099999967 ], [ -49.153946499999961, -5.418733099999963 ], [ -49.153709499999941, -5.418536899999937 ], [ -49.153172599999948, -5.417948699999982 ], [ -49.1532342, -5.417223599999931 ], [ -49.152282, -5.4162517 ], [ -49.151870499999973, -5.4150969 ], [ -49.151884599999967, -5.414735599999965 ], [ -49.151949599999966, -5.414411199999959 ], [ -49.151930799999946, -5.413823599999926 ], [ -49.151648799999975, -5.413437199999964 ], [ -49.151443099999938, -5.413314699999966 ], [ -49.151004799999953, -5.413117599999928 ], [ -49.150649599999959, -5.413117299999966 ], [ -49.150255199999954, -5.413254099999977 ], [ -49.149747, -5.413059799999948 ], [ -49.149684899999954, -5.412588099999947 ], [ -49.149311699999942, -5.411902499999941 ], [ -49.148879299999976, -5.411236199999955 ], [ -49.148486, -5.411197 ], [ -49.148230599999984, -5.410981299999936 ], [ -49.147845099999984, -5.410044899999968 ], [ -49.147814099999948, -5.409609399999957 ], [ -49.148193799999945, -5.409610199999989 ], [ -49.148774799999956, -5.40978359999994 ], [ -49.149006899999961, -5.409667399999937 ], [ -49.149097, -5.409089499999941 ], [ -49.149388199999976, -5.408770899999957 ], [ -49.149387399999974, -5.408423 ], [ -49.14921389999995, -5.408046799999946 ], [ -49.149592199999972, -5.407264699999922 ], [ -49.149621899999943, -5.406888299999935 ], [ -49.149330299999981, -5.406569499999942 ], [ -49.148981099999958, -5.406598399999943 ], [ -49.148396199999979, -5.406858299999953 ], [ -49.14822259999994, -5.407379899999983 ], [ -49.147729799999979, -5.407612199999932 ], [ -49.147176499999944, -5.407438199999922 ], [ -49.1467679, -5.407032199999948 ], [ -49.146388, -5.406336599999965 ], [ -49.146647899999948, -5.405728100000011 ], [ -49.146371599999945, -5.404973799999942 ], [ -49.145575799999961, -5.404734099999919 ], [ -49.145894599999963, -5.404135899999975 ], [ -49.145558299999948, -5.403498699999965 ], [ -49.1448329, -5.403398499999978 ], [ -49.144383, -5.404193799999939 ], [ -49.143045, -5.404628299999942 ], [ -49.141822199999979, -5.404338499999967 ], [ -49.141039199999966, -5.403411399999903 ], [ -49.140477299999986, -5.402795499999952 ], [ -49.140096099999937, -5.402525 ], [ -49.138879899999957, -5.402432599999965 ], [ -49.138068199999971, -5.402248399999987 ], [ -49.136282499999936, -5.4020207 ], [ -49.138462899999979, -5.399799499999988 ], [ -49.1426297, -5.397505 ], [ -49.145194, -5.39659439999995 ], [ -49.14517479999995, -5.395977199999934 ], [ -49.147446699999925, -5.395386799999918 ], [ -49.149035399999946, -5.394939099999918 ] ], [ [ -49.103678899999984, -5.356702799999919 ], [ -49.104236399999934, -5.3567204 ], [ -49.104238, -5.356916 ], [ -49.104250599999943, -5.358021899999952 ], [ -49.104246199999977, -5.358932399999969 ], [ -49.103919, -5.358541199999945 ], [ -49.103675599999981, -5.35854879999993 ], [ -49.103142099999964, -5.35856539999998 ], [ -49.102882599999923, -5.358627099999953 ], [ -49.101823099999933, -5.358879199999955 ], [ -49.101466599999981, -5.359031399999958 ], [ -49.101294499999938, -5.359092699999971 ], [ -49.101217499999962, -5.35742929999994 ], [ -49.101207099999961, -5.357331699999972 ], [ -49.10166739999994, -5.3571132 ], [ -49.102300799999966, -5.3569383 ], [ -49.102886499999961, -5.356826699999963 ], [ -49.103678899999984, -5.356702799999919 ] ] ], [ [ [ -49.05210139999997, -5.37632159999994 ], [ -49.052601599999953, -5.375943599999947 ], [ -49.053052699999967, -5.375507499999984 ], [ -49.053431399999958, -5.375111199999928 ], [ -49.056650799999943, -5.371426499999946 ], [ -49.05931019999997, -5.368874399999958 ], [ -49.0599615, -5.368284899999944 ], [ -49.060092, -5.368071599999932 ], [ -49.060064, -5.367816799999951 ], [ -49.05972689999993, -5.36637839999994 ], [ -49.059716599999945, -5.366334199999918 ], [ -49.051268099999959, -5.36846649999993 ], [ -49.046802299999975, -5.369658699999976 ], [ -49.046473799999944, -5.369746399999962 ], [ -49.046357299999961, -5.369293299999986 ], [ -49.043293199999944, -5.370107 ], [ -49.043158699999942, -5.369489899999968 ], [ -49.042593099999984, -5.369650199999975 ], [ -49.040646, -5.361225899999965 ], [ -49.041402699999935, -5.361032 ], [ -49.042790199999963, -5.36071169999998 ], [ -49.042051699999952, -5.359348699999956 ], [ -49.038644, -5.352462899999986 ], [ -49.033225899999934, -5.349768299999949 ], [ -49.03348909999994, -5.352198599999974 ], [ -49.028499599999982, -5.356771099999952 ], [ -49.026299299999941, -5.359844399999942 ], [ -49.018528499999952, -5.36312919999996 ], [ -49.01697489999998, -5.365329799999944 ], [ -49.017314, -5.365344099999974 ], [ -49.017460599999936, -5.365273199999963 ], [ -49.018085399999961, -5.365118899999951 ], [ -49.018325799999964, -5.364930399999924 ], [ -49.018927099999985, -5.364662499999971 ], [ -49.019390399999963, -5.364528099999951 ], [ -49.019948899999974, -5.364513399999965 ], [ -49.020181599999944, -5.36452949999993 ], [ -49.020334399999967, -5.3645612 ], [ -49.020466599999963, -5.364696 ], [ -49.020663199999944, -5.36514509999998 ], [ -49.020887499999958, -5.365441699999927 ], [ -49.02118989999996, -5.365727399999978 ], [ -49.021305, -5.36585159999994 ], [ -49.021396299999942, -5.366026799999941 ], [ -49.021461199999976, -5.366182 ], [ -49.021577499999978, -5.3663529 ], [ -49.021837899999987, -5.3666203 ], [ -49.019785, -5.367095799999932 ], [ -49.019932899999958, -5.36776589999995 ], [ -49.020758499999943, -5.368886399999973 ], [ -49.020887099999982, -5.369429699999976 ], [ -49.020873299999948, -5.37058729999996 ], [ -49.021418499999989, -5.372848 ], [ -49.024324499999985, -5.373883099999949 ], [ -49.024718299999961, -5.374440799999959 ], [ -49.024812499999939, -5.374836199999921 ], [ -49.02482039999996, -5.374869699999963 ], [ -49.028980699999977, -5.37395409999994 ], [ -49.032479799999983, -5.373167499999937 ], [ -49.036477899999973, -5.372283199999953 ], [ -49.039329799999962, -5.371550399999937 ], [ -49.039369299999976, -5.371587699999962 ], [ -49.039380299999948, -5.371598099999962 ], [ -49.039528599999976, -5.3717531 ], [ -49.039705499999968, -5.371764299999945 ], [ -49.039817, -5.371802399999987 ], [ -49.039858799999934, -5.371920299999944 ], [ -49.039786799999952, -5.372557199999979 ], [ -49.039520299999943, -5.374920099999916 ], [ -49.039454299999939, -5.375245499999944 ], [ -49.039391499999965, -5.375711599999955 ], [ -49.039948799999934, -5.375690499999978 ], [ -49.040243499999974, -5.375577399999931 ], [ -49.040738699999956, -5.375483799999925 ], [ -49.041092099999965, -5.37536039999997 ], [ -49.04113719999998, -5.3752777 ], [ -49.041220299999964, -5.375254099999967 ], [ -49.041388899999959, -5.375269199999933 ], [ -49.041588099999956, -5.375287199999929 ], [ -49.041718599999975, -5.375327299999972 ], [ -49.042025799999976, -5.37532849999998 ], [ -49.042477299999973, -5.375286099999941 ], [ -49.042850199999982, -5.375021499999982 ], [ -49.043103, -5.374923399999949 ], [ -49.043319399999973, -5.374803599999928 ], [ -49.04334049999995, -5.374803 ], [ -49.043033699999974, -5.378976 ], [ -49.04639549999996, -5.377741100000011 ], [ -49.046654, -5.377728399999941 ], [ -49.047585499999968, -5.377694 ], [ -49.048321199999975, -5.3776736 ], [ -49.048860199999986, -5.377612299999955 ], [ -49.049535699999986, -5.377469299999962 ], [ -49.05025969999997, -5.377255899999947 ], [ -49.050638799999945, -5.377132399999943 ], [ -49.051249399999968, -5.376860199999961 ], [ -49.051431799999939, -5.376769599999964 ], [ -49.051721899999961, -5.376607099999963 ], [ -49.05210139999997, -5.37632159999994 ] ] ], [ [ [ -49.13157879999995, -5.320317499999955 ], [ -49.132288799999976, -5.3227353 ], [ -49.13390279999993, -5.324670099999899 ], [ -49.13784, -5.327750499999985 ], [ -49.108439799999985, -5.285378499999966 ], [ -49.108144299999935, -5.285525799999936 ], [ -49.10780619999997, -5.285631199999957 ], [ -49.107499899999937, -5.285757599999985 ], [ -49.107267599999943, -5.28596789999994 ], [ -49.107119899999987, -5.286357099999941 ], [ -49.106822899999948, -5.286854199999945 ], [ -49.106594599999944, -5.287199099999977 ], [ -49.106288899999981, -5.287745399999962 ], [ -49.106067099999969, -5.288103299999922 ], [ -49.105692499999975, -5.288424299999976 ], [ -49.105117399999983, -5.288829899999958 ], [ -49.104521699999971, -5.289319799999947 ], [ -49.103911, -5.290009499999909 ], [ -49.1038425, -5.290394899999967 ], [ -49.103862, -5.292449499999934 ], [ -49.103205199999934, -5.29277759999997 ], [ -49.101675099999966, -5.293488099999963 ], [ -49.100028799999961, -5.2941 ], [ -49.097941899999967, -5.294746599999947 ], [ -49.097733199999944, -5.294792799999942 ], [ -49.096898399999986, -5.2947005 ], [ -49.096365099999957, -5.294735199999932 ], [ -49.095298399999933, -5.29413489999997 ], [ -49.09512449999994, -5.293950199999925 ], [ -49.094997, -5.293673099999986 ], [ -49.094776699999954, -5.293719299999932 ], [ -49.094405599999959, -5.293627 ], [ -49.093965, -5.293419199999964 ], [ -49.093094399999984, -5.292903599999893 ], [ -49.092524699999956, -5.292566 ], [ -49.092019899999961, -5.29243339999994 ], [ -49.090571299999965, -5.292052799999944 ], [ -49.090540799999985, -5.292033299999951 ], [ -49.090552899999985, -5.292036 ], [ -49.090562899999952, -5.287977299999964 ], [ -49.094222199999933, -5.287967599999934 ], [ -49.094233299999985, -5.287896399999974 ], [ -49.096378099999981, -5.28786469999995 ], [ -49.09628679999998, -5.283351 ], [ -49.095781299999942, -5.283376399999952 ], [ -49.095796199999945, -5.281496699999916 ], [ -49.095819699999936, -5.2785254 ], [ -49.095838599999979, -5.276148899999936 ], [ -49.09586029999997, -5.273397899999977 ], [ -49.09105889999995, -5.274533599999937 ], [ -49.08999479999995, -5.274785299999934 ], [ -49.089975399999958, -5.274789799999951 ], [ -49.082320299999935, -5.268187799999949 ], [ -49.078504199999948, -5.26329689999992 ], [ -49.069865299999947, -5.267362 ], [ -49.067362299999957, -5.258209 ], [ -49.066885699999943, -5.256477399999921 ], [ -49.066402399999959, -5.254706 ], [ -49.065755199999963, -5.253052599999933 ], [ -49.064927299999965, -5.252029099999988 ], [ -49.063895899999977, -5.251280299999972 ], [ -49.062646899999947, -5.250812299999915 ], [ -49.060769599999965, -5.250232599999969 ], [ -49.05940829999998, -5.249378499999978 ], [ -49.05862419999994, -5.24852269999994 ], [ -49.058159599999954, -5.247590899999964 ], [ -49.057275299999965, -5.244346 ], [ -49.055624799999975, -5.238594899999979 ], [ -49.055327699999964, -5.237559799999924 ], [ -49.051189499999964, -5.223141 ], [ -49.050799, -5.221780199999952 ], [ -49.050671699999953, -5.221239599999899 ], [ -49.050696399999936, -5.221232899999983 ], [ -49.054291899999953, -5.220250099999971 ], [ -49.055036, -5.220029899999917 ], [ -49.05418949999995, -5.217061699999897 ], [ -49.054688699999986, -5.216919 ], [ -49.053990799999951, -5.213791399999947 ], [ -49.054151799999936, -5.213732799999908 ], [ -49.054158099999938, -5.2137357 ], [ -49.055682699999977, -5.213257499999976 ], [ -49.05760929999996, -5.212309699999908 ], [ -49.058376799999962, -5.211947799999932 ], [ -49.056350299999963, -5.2102646 ], [ -49.054487499999937, -5.2087175 ], [ -49.053220599999975, -5.207637399999976 ], [ -49.052581399999958, -5.208559399999939 ], [ -49.051544399999955, -5.207751499999945 ], [ -49.051531799999964, -5.207742199999965 ], [ -49.051080799999966, -5.20741009999997 ], [ -49.050455299999953, -5.206870299999908 ], [ -49.04958229999994, -5.206106299999933 ], [ -49.049519099999941, -5.206066299999978 ], [ -49.049291599999947, -5.205947799999963 ], [ -49.050547, -5.205217 ], [ -49.048115399999972, -5.203585199999975 ], [ -49.047371099999964, -5.202975599999975 ], [ -49.045886899999971, -5.202099199999971 ], [ -49.044286899999982, -5.20160809999997 ], [ -49.044201399999963, -5.201581799999943 ], [ -49.043875299999968, -5.200450199999955 ], [ -49.043639399999968, -5.199193599999932 ], [ -49.043493699999942, -5.197620199999972 ], [ -49.043468099999984, -5.1972739 ], [ -49.036640399999946, -5.208765299999913 ], [ -49.036688399999946, -5.209104299999953 ], [ -49.038095799999958, -5.219044199999915 ], [ -49.038338499999952, -5.22053279999997 ], [ -49.038371299999937, -5.220738799999958 ], [ -49.047669799999937, -5.2852804 ], [ -49.043101699999958, -5.317321099999925 ], [ -49.042802299999956, -5.318629499999963 ], [ -49.045787799999971, -5.3187242 ], [ -49.053843499999971, -5.318364899999978 ], [ -49.056822799999964, -5.318161099999954 ], [ -49.053716199999947, -5.290734099999976 ], [ -49.053665199999962, -5.29065369999996 ], [ -49.053796599999934, -5.289437 ], [ -49.054256599999981, -5.2883745 ], [ -49.055351599999945, -5.288892099999925 ], [ -49.059363499999961, -5.290685 ], [ -49.060105, -5.291016 ], [ -49.062118399999974, -5.292178099999958 ], [ -49.063552, -5.29325 ], [ -49.063581199999938, -5.293274699999915 ], [ -49.0649557, -5.294400699999889 ], [ -49.065401699999931, -5.294914099999956 ], [ -49.066146, -5.295802 ], [ -49.0666447, -5.296505499999945 ], [ -49.067556699999955, -5.297838499999982 ], [ -49.070823, -5.3026798 ], [ -49.072331, -5.304912 ], [ -49.072539399999982, -5.305224299999939 ], [ -49.075183, -5.309188399999907 ], [ -49.078241599999963, -5.305664399999976 ], [ -49.080059899999974, -5.304188199999927 ], [ -49.081065, -5.303631 ], [ -49.082317899999964, -5.302904799999957 ], [ -49.083155699999971, -5.302536699999933 ], [ -49.084583399999985, -5.302021 ], [ -49.087990399999967, -5.300852199999946 ], [ -49.08910949999995, -5.300465699999982 ], [ -49.093849099999936, -5.299382499999983 ], [ -49.10773, -5.305509 ], [ -49.119096499999955, -5.310975799999916 ], [ -49.120350799999983, -5.31212239999996 ], [ -49.121226399999962, -5.313111799999947 ], [ -49.12932979999993, -5.317620299999928 ], [ -49.13157879999995, -5.320317499999955 ] ] ] ] } }
]
}
