{
"type": "FeatureCollection",
"name": "1505031",
"crs": { "type": "name", "properties": { "name": "urn:ogc:def:crs:OGC:1.3:CRS84" } },
"features": [
{ "type": "Feature", "properties": { "CD_MUN": "1505031", "NM_MUN": "Novo Progresso" }, "geometry": { "type": "MultiPolygon", "coordinates": [ [ [ [ -55.206472699999956, -7.719948099999972 ], [ -55.206423399999949, -7.71994 ], [ -55.205329099999972, -7.719823599999914 ], [ -55.203610799999979, -7.719863699999963 ], [ -55.202760499999954, -7.71974029999994 ], [ -55.202719399999978, -7.719743899999973 ], [ -55.202648699999941, -7.719742799999942 ], [ -55.20175439999997, -7.719931299999913 ], [ -55.201751099999967, -7.719950799999938 ], [ -55.201271399999939, -7.720093399999943 ], [ -55.200825899999984, -7.720306599999946 ], [ -55.20109129999998, -7.720652599999934 ], [ -55.201205, -7.721188199999951 ], [ -55.201475199999955, -7.72244889999995 ], [ -55.20159369999994, -7.723240399999963 ], [ -55.20190649999995, -7.723766399999929 ], [ -55.202522599999952, -7.725060299999958 ], [ -55.202190799999983, -7.725638499999956 ], [ -55.2015828, -7.725968099999942 ], [ -55.20117659999994, -7.726809199999949 ], [ -55.201271399999939, -7.72775709999998 ], [ -55.201859099999979, -7.729193099999968 ], [ -55.202257199999963, -7.730122099999964 ], [ -55.202805699999942, -7.7313834 ], [ -55.203199899999959, -7.733103099999921 ], [ -55.203574199999942, -7.734764799999923 ], [ -55.204615199999978, -7.736646599999982 ], [ -55.205188499999963, -7.737382899999957 ], [ -55.205994299999986, -7.737503799999947 ], [ -55.206430299999965, -7.734307 ], [ -55.206456399999979, -7.733965799999956 ], [ -55.206626799999981, -7.733347399999949 ], [ -55.206766699999946, -7.732454199999963 ], [ -55.206995699999936, -7.730596 ], [ -55.207164899999952, -7.729287199999924 ], [ -55.207720899999977, -7.729440899999934 ], [ -55.208550799999962, -7.72968359999991 ], [ -55.209180899999978, -7.729848599999966 ], [ -55.210615199999957, -7.730231099999949 ], [ -55.211686, -7.730499099999989 ], [ -55.212572599999987, -7.730700299999977 ], [ -55.21247129999994, -7.730445099999932 ], [ -55.212316499999986, -7.730061199999944 ], [ -55.212293899999963, -7.730019099999915 ], [ -55.212274299999933, -7.729958 ], [ -55.212144499999972, -7.72948219999993 ], [ -55.212134399999968, -7.729422399999987 ], [ -55.212132299999951, -7.729373399999943 ], [ -55.212141299999985, -7.729316299999933 ], [ -55.212185099999942, -7.728487899999965 ], [ -55.21229459999995, -7.727622199999942 ], [ -55.212703199999957, -7.72723509999997 ], [ -55.212730199999946, -7.727190199999916 ], [ -55.212926299999936, -7.726591199999963 ], [ -55.212932499999965, -7.726552699999937 ], [ -55.21289649999995, -7.725920599999914 ], [ -55.212871899999982, -7.725887 ], [ -55.212832499999934, -7.725821199999913 ], [ -55.212835499999983, -7.7258019 ], [ -55.212218, -7.725023299999973 ], [ -55.2121916, -7.724999 ], [ -55.212175099999961, -7.724976399999944 ], [ -55.21214209999993, -7.724931199999953 ], [ -55.211356499999965, -7.723641499999936 ], [ -55.211136499999952, -7.72328049999992 ], [ -55.210289299999943, -7.722509599999958 ], [ -55.209166899999957, -7.721736399999926 ], [ -55.208486599999965, -7.721134399999918 ], [ -55.208347199999935, -7.721092799999956 ], [ -55.20825949999994, -7.721066599999986 ], [ -55.208214799999951, -7.721053299999951 ], [ -55.207997899999953, -7.720988499999987 ], [ -55.207978299999979, -7.720985499999919 ], [ -55.207008899999948, -7.720310699999958 ], [ -55.206972699999938, -7.720285099999963 ], [ -55.206472699999956, -7.719948099999972 ] ] ], [ [ [ -55.44718869999997, -7.047528699999923 ], [ -55.4472, -7.047471 ], [ -55.447214299999985, -7.047415499999937 ], [ -55.44721519999996, -7.047411599999951 ], [ -55.447615799999937, -7.047913099999936 ], [ -55.451160899999927, -7.05295589999996 ], [ -55.452686099999937, -7.054055199999948 ], [ -55.453606799999932, -7.051691799999927 ], [ -55.455173199999933, -7.042636699999965 ], [ -55.457316699999978, -7.031877799999978 ], [ -55.455365599999944, -7.031740399999931 ], [ -55.452823499999973, -7.031039699999983 ], [ -55.450991199999976, -7.030736 ], [ -55.45201469999995, -7.02621839999995 ], [ -55.452876099999969, -7.022416 ], [ -55.422417, -7.016532099999941 ], [ -55.422370599999972, -7.016523099999987 ], [ -55.421570199999962, -7.018109 ], [ -55.421312499999942, -7.0196516 ], [ -55.418924199999928, -7.01911309999995 ], [ -55.417408499999972, -7.018703599999968 ], [ -55.41715789999995, -7.018479 ], [ -55.41192529999995, -7.016327799999964 ], [ -55.413136099999967, -7.012473499999937 ], [ -55.414835299999943, -7.012948599999958 ], [ -55.415091099999984, -7.012400399999946 ], [ -55.416041199999931, -7.012674499999936 ], [ -55.416863399999954, -7.010061799999973 ], [ -55.414141, -7.009404 ], [ -55.409719399999979, -7.008271199999982 ], [ -55.408458699999983, -7.007978899999988 ], [ -55.407928899999945, -7.007905799999934 ], [ -55.406668199999956, -7.0076134 ], [ -55.404512199999942, -7.0069374 ], [ -55.403489, -7.006754699999909 ], [ -55.403068799999971, -7.006699899999929 ], [ -55.402904299999932, -7.007485499999971 ], [ -55.402940899999976, -7.007905799999921 ], [ -55.402913499999954, -7.008225499999956 ], [ -55.402739899999972, -7.008344299999967 ], [ -55.40221, -7.00828949999991 ], [ -55.4023653, -7.009267 ], [ -55.405179099999948, -7.010482 ], [ -55.405758899999967, -7.014408399999957 ], [ -55.405200199999975, -7.014254699999972 ], [ -55.404843899999946, -7.014090199999933 ], [ -55.404668499999957, -7.013785899999941 ], [ -55.404411699999969, -7.013388099999933 ], [ -55.403192899999965, -7.012762399999914 ], [ -55.403001299999978, -7.012722599999948 ], [ -55.402791499999978, -7.0127262 ], [ -55.402531099999976, -7.012751599999977 ], [ -55.402404499999939, -7.012751599999936 ], [ -55.402281499999958, -7.012715399999941 ], [ -55.402122399999939, -7.012621399999931 ], [ -55.401894599999935, -7.012585199999943 ], [ -55.401713699999959, -7.01263939999994 ], [ -55.401428, -7.012816699999988 ], [ -55.401200199999955, -7.013069799999912 ], [ -55.400939799999946, -7.013341099999931 ], [ -55.40092489999995, -7.013385799999986 ], [ -55.4009, -7.013382 ], [ -55.39819619999998, -7.023364599999979 ], [ -55.396334199999956, -7.030239 ], [ -55.394754799999987, -7.036559499999974 ], [ -55.394737599999985, -7.036628399999926 ], [ -55.394733199999962, -7.036645899999924 ], [ -55.393609199999958, -7.040927599999966 ], [ -55.391665399999965, -7.041476499999917 ], [ -55.389783499999972, -7.048255 ], [ -55.391839, -7.048730099999932 ], [ -55.392971799999941, -7.04889449999996 ], [ -55.393830499999979, -7.049196 ], [ -55.394945, -7.04947 ], [ -55.396470699999945, -7.049671 ], [ -55.398142499999949, -7.0501735 ], [ -55.40029839999994, -7.051141799999916 ], [ -55.401047499999947, -7.050831199999927 ], [ -55.401878199999942, -7.051013199999919 ], [ -55.403477599999981, -7.051361099999946 ], [ -55.404346399999952, -7.051475099999928 ], [ -55.40515849999997, -7.051708199999966 ], [ -55.407539, -7.052211499999938 ], [ -55.405435399999931, -7.0572529 ], [ -55.402967099999948, -7.066758799999926 ], [ -55.407865899999933, -7.067792699999907 ], [ -55.407920399999966, -7.067804199999954 ], [ -55.407928399999946, -7.067805899999911 ], [ -55.415363499999955, -7.069375099999943 ], [ -55.420147199999974, -7.070384799999951 ], [ -55.441730199999938, -7.075392 ], [ -55.443485199999941, -7.066433499999976 ], [ -55.44718869999997, -7.047528699999923 ] ] ] ] } }
]
}
