{
"type": "FeatureCollection",
"name": "1505304",
"crs": { "type": "name", "properties": { "name": "urn:ogc:def:crs:OGC:1.3:CRS84" } },
"features": [
{ "type": "Feature", "properties": { "CD_MUN": "1505304", "NM_MUN": "Oriximiná" }, "geometry": { "type": "MultiPolygon", "coordinates": [ [ [ [ -55.871065, -1.767021 ], [ -55.871956, -1.765813 ], [ -55.872592, -1.765193 ], [ -55.873149, -1.764558 ], [ -55.873387, -1.763636 ], [ -55.873578, -1.760791 ], [ -55.873521099999941, -1.757367099999975 ], [ -55.874177399999951, -1.757678299999958 ], [ -55.875690799999973, -1.755811 ], [ -55.878662, -1.752145 ], [ -55.878329399999977, -1.750793899999903 ], [ -55.879443699999968, -1.749260600000047 ], [ -55.879436799999951, -1.749254999999894 ], [ -55.880142399999954, -1.7482666 ], [ -55.88024009999998, -1.748148199999966 ], [ -55.880869399999945, -1.747519199999957 ], [ -55.881642499999941, -1.746058999999895 ], [ -55.882140099999958, -1.743840399999924 ], [ -55.882113299999965, -1.742764099999895 ], [ -55.882119899999964, -1.741381399999899 ], [ -55.883773499999961, -1.738297299999952 ], [ -55.883626799999938, -1.7372474 ], [ -55.881384299999979, -1.735230199999945 ], [ -55.8790858, -1.733213 ], [ -55.877628199999947, -1.732456500000064 ], [ -55.876254699999947, -1.732876799999987 ], [ -55.874590899999987, -1.732364899999846 ], [ -55.871038499999941, -1.730902699999852 ], [ -55.869982599999958, -1.7304047 ], [ -55.868607699999984, -1.730218799999928 ], [ -55.868481099999947, -1.730200099999893 ], [ -55.86765239999994, -1.730531499999899 ], [ -55.865953399999967, -1.731152800000012 ], [ -55.865787699999942, -1.731235700000017 ], [ -55.864068, -1.7317327 ], [ -55.861892399999931, -1.732167600000051 ], [ -55.859696099999951, -1.732664699999928 ], [ -55.856626, -1.732038899999898 ], [ -55.854656, -1.7306406 ], [ -55.853592, -1.728646500000075 ], [ -55.853514, -1.7285002 ], [ -55.852628899999964, -1.727273099999904 ], [ -55.85194359999997, -1.72561789999988 ], [ -55.851115099999959, -1.725412 ], [ -55.850069499999961, -1.726121299999884 ], [ -55.849677299999939, -1.726998500000057 ], [ -55.849005099999943, -1.727950299999981 ], [ -55.848743699999936, -1.728734200000024 ], [ -55.847940799999947, -1.729686 ], [ -55.846583499999944, -1.73063410000004 ], [ -55.846391099999956, -1.730768500000041 ], [ -55.845364199999949, -1.731701599999945 ], [ -55.844804, -1.732933400000036 ], [ -55.844785399999978, -1.733885199999942 ], [ -55.844785399999978, -1.734650399999931 ], [ -55.844411899999955, -1.735826199999959 ], [ -55.844075799999985, -1.736460699999868 ], [ -55.844019799999955, -1.736782300000026 ], [ -55.843292899999938, -1.738549599999949 ], [ -55.844202299999949, -1.73985619999986 ], [ -55.842942, -1.740958499999911 ], [ -55.84276229999994, -1.741187899999942 ], [ -55.842599899999975, -1.741481600000015 ], [ -55.842244299999948, -1.741628400000058 ], [ -55.841857699999935, -1.741837099999854 ], [ -55.841154099999983, -1.74239349999993 ], [ -55.841130899999939, -1.742401199999908 ], [ -55.840435099999979, -1.743158599999916 ], [ -55.839877, -1.743797299999924 ], [ -55.839592299999936, -1.744124599999981 ], [ -55.839205799999945, -1.744132399999967 ], [ -55.838542399999938, -1.743942 ], [ -55.8381002, -1.74386169999992 ], [ -55.837633899999958, -1.74382959999997 ], [ -55.836910399999965, -1.743861699999859 ], [ -55.836505699999975, -1.744339899999956 ], [ -55.836352099999942, -1.74449339999988 ], [ -55.836198499999966, -1.7447533 ], [ -55.835898, -1.745091699999912 ], [ -55.835793899999942, -1.7452477 ], [ -55.835669899999964, -1.745743600000027 ], [ -55.835234499999956, -1.7470108 ], [ -55.835005499999966, -1.748008199999859 ], [ -55.834498399999973, -1.749316300000016 ], [ -55.834308499999963, -1.7506813 ], [ -55.834580199999948, -1.751458199999906 ], [ -55.834580199999948, -1.75149089999987 ], [ -55.834596599999941, -1.751572699999968 ], [ -55.834662, -1.751687099999906 ], [ -55.834923699999933, -1.752717199999949 ], [ -55.835283599999968, -1.753714699999852 ], [ -55.835921699999979, -1.755241699999932 ], [ -55.83605259999996, -1.755928499999966 ], [ -55.83646159999995, -1.7566969 ], [ -55.836919599999931, -1.757579800000051 ], [ -55.837075299999981, -1.757892800000057 ], [ -55.83725259999995, -1.758080799999942 ], [ -55.837365399999953, -1.758166699999957 ], [ -55.837462099999975, -1.7583976 ], [ -55.837505099999987, -1.758440499999894 ], [ -55.837693099999974, -1.758483499999953 ], [ -55.837805899999978, -1.758526399999957 ], [ -55.83790259999995, -1.75852639999995 ], [ -55.837972499999978, -1.758633800000032 ], [ -55.837977799999983, -1.7587573 ], [ -55.837918699999932, -1.758870099999921 ], [ -55.837961699999944, -1.758934499999956 ], [ -55.83811749999996, -1.7589238 ], [ -55.838165899999979, -1.758891600000062 ], [ -55.838230299999964, -1.7589077 ], [ -55.838262599999958, -1.758999 ], [ -55.838219599999952, -1.759229899999977 ], [ -55.838208799999961, -1.75945 ], [ -55.838025699999946, -1.760430199999891 ], [ -55.838256099999967, -1.76167719999991 ], [ -55.838505699999985, -1.763173599999929 ], [ -55.838582499999966, -1.763710800000044 ], [ -55.838532199999975, -1.76454840000005 ], [ -55.838805, -1.765638 ], [ -55.838739099999941, -1.766330299999927 ], [ -55.838508299999937, -1.766857799999891 ], [ -55.838332399999956, -1.767143499999948 ], [ -55.838079499999935, -1.767681900000026 ], [ -55.837969599999951, -1.768088499999944 ], [ -55.837419899999986, -1.769275299999876 ], [ -55.837266, -1.769528099999951 ], [ -55.83703609999997, -1.77036479999993 ], [ -55.836993699999937, -1.771975400000034 ], [ -55.837326699999949, -1.772574899999973 ], [ -55.838141599999972, -1.773185699999891 ], [ -55.838752699999986, -1.77318570000002 ], [ -55.839465699999941, -1.773185599999937 ], [ -55.840535199999977, -1.7727274 ], [ -55.840993499999975, -1.77288009999995 ], [ -55.841044499999953, -1.77435629999998 ], [ -55.841859299999953, -1.7766978 ], [ -55.842113899999958, -1.777512199999921 ], [ -55.842979699999944, -1.777512199999939 ], [ -55.84435469999994, -1.77741029999993 ], [ -55.845894299999941, -1.777020599999858 ], [ -55.845582, -1.77722189999995 ], [ -55.84539639999997, -1.778238 ], [ -55.845388699999944, -1.778965099999972 ], [ -55.845390799999961, -1.779687 ], [ -55.845586099999935, -1.780683800000039 ], [ -55.845874499999972, -1.781927799999974 ], [ -55.846475, -1.782879500000024 ], [ -55.847393299999965, -1.783071299999873 ], [ -55.847857499999975, -1.783354499999918 ], [ -55.848307499999983, -1.784256299999924 ], [ -55.848076599999956, -1.785095399999884 ], [ -55.848431399999974, -1.7857317 ], [ -55.84944449999994, -1.786234199999916 ], [ -55.850128299999938, -1.786431599999932 ], [ -55.850470099999939, -1.786865 ], [ -55.850593499999945, -1.787839099999834 ], [ -55.850782299999928, -1.788589 ], [ -55.851227299999955, -1.788582099999837 ], [ -55.85198749999995, -1.788370299999873 ], [ -55.852697199999966, -1.788139199999942 ], [ -55.854075599999987, -1.788270399999931 ], [ -55.855560399999938, -1.788900399999902 ], [ -55.856751699999961, -1.789741499999875 ], [ -55.857259499999948, -1.788584899999943 ], [ -55.857537099999945, -1.787952699999888 ], [ -55.857776099999967, -1.787408599999904 ], [ -55.857895299999939, -1.787124 ], [ -55.85790819999994, -1.787093300000019 ], [ -55.858359799999967, -1.785997 ], [ -55.858714, -1.785158 ], [ -55.859541, -1.78414 ], [ -55.860109799999975, -1.78335309999993 ], [ -55.860368, -1.782996 ], [ -55.861131, -1.782424 ], [ -55.862498, -1.781408 ], [ -55.864094, -1.778797 ], [ -55.864284, -1.778415 ], [ -55.864571, -1.777843 ], [ -55.864793, -1.777239 ], [ -55.865079, -1.776763 ], [ -55.865525, -1.775936 ], [ -55.865747, -1.775587 ], [ -55.866252, -1.774807 ], [ -55.867372, -1.77333 ], [ -55.869889, -1.769707 ], [ -55.870302, -1.768642 ], [ -55.871065, -1.767021 ] ] ], [ [ [ -56.38176359999995, -1.477808500000091 ], [ -56.383186899999934, -1.473194099999863 ], [ -56.387354199999947, -1.465953499999886 ], [ -56.388793299999968, -1.463595300000037 ], [ -56.388702699999953, -1.460165 ], [ -56.385883599999943, -1.460404599999854 ], [ -56.384997, -1.460298300000047 ], [ -56.382713499999959, -1.460024499999889 ], [ -56.377483499999983, -1.460214599999978 ], [ -56.376448399999958, -1.46019769999993 ], [ -56.372470399999941, -1.460132899999963 ], [ -56.368060699999944, -1.460073899999923 ], [ -56.364693499999987, -1.460231 ], [ -56.361527499999966, -1.460622299999943 ], [ -56.363347499999975, -1.47393589999988 ], [ -56.369119099999978, -1.4761178 ], [ -56.372560699999951, -1.477461299999907 ], [ -56.374047299999972, -1.478041599999833 ], [ -56.378948199999961, -1.477893600000063 ], [ -56.381697599999931, -1.477810499999921 ], [ -56.38176359999995, -1.477808500000091 ] ] ] ] } }
]
}
