{
"type": "FeatureCollection",
"name": "1505536",
"crs": { "type": "name", "properties": { "name": "urn:ogc:def:crs:OGC:1.3:CRS84" } },
"features": [
{ "type": "Feature", "properties": { "CD_MUN": "1505536", "NM_MUN": "Parauapebas" }, "geometry": { "type": "MultiPolygon", "coordinates": [ [ [ [ -49.892122599999936, -6.242339699999958 ], [ -49.892293399999978, -6.242768899999962 ], [ -49.892463699999951, -6.242858899999947 ], [ -49.892634099999952, -6.242886799999961 ], [ -49.892780099999989, -6.242849 ], [ -49.8928739, -6.242876699999955 ], [ -49.893030299999971, -6.243025499999934 ], [ -49.893301299999962, -6.243091499999904 ], [ -49.893617499999948, -6.243074599999949 ], [ -49.894036199999967, -6.242975599999972 ], [ -49.894115499999941, -6.242983599999945 ], [ -49.894284599999935, -6.24307589999996 ], [ -49.894533199999955, -6.243350099999905 ], [ -49.894715899999937, -6.243439899999959 ], [ -49.894903799999959, -6.243511199999928 ], [ -49.8950177, -6.243500799999927 ], [ -49.895158299999942, -6.2434931999999 ], [ -49.895361199999968, -6.243387899999965 ], [ -49.897179599999959, -6.243396699999946 ], [ -49.897416799999966, -6.243409399999989 ], [ -49.897622799999972, -6.243359899999963 ], [ -49.897697699999981, -6.243316499999949 ], [ -49.897772599999939, -6.243273099999954 ], [ -49.89745529999994, -6.242050599999958 ], [ -49.897444099999973, -6.241858799999916 ], [ -49.897713899999985, -6.240518 ], [ -49.89802439999994, -6.239407 ], [ -49.898031799999956, -6.238836 ], [ -49.898057, -6.23806949999994 ], [ -49.898180599999932, -6.237085099999919 ], [ -49.898247699999956, -6.236306399999934 ], [ -49.898243899999954, -6.23621829999994 ], [ -49.898234599999974, -6.236216299999939 ], [ -49.898376499999983, -6.236234799999943 ], [ -49.89847519999995, -6.236279899999937 ], [ -49.899331599999982, -6.237026699999951 ], [ -49.899370599999934, -6.237050599999978 ], [ -49.899605, -6.237151699999965 ], [ -49.89988459999995, -6.237182599999891 ], [ -49.902862799999987, -6.237133299999895 ], [ -49.90318579999996, -6.237019099999913 ], [ -49.903350399999965, -6.236927299999922 ], [ -49.90358539999994, -6.236815099999965 ], [ -49.9036574, -6.236803 ], [ -49.904037799999976, -6.236842199999974 ], [ -49.904366, -6.23685479999994 ], [ -49.904723499999925, -6.236965599999958 ], [ -49.904980499999972, -6.237076199999911 ], [ -49.905071299999982, -6.237025799999977 ], [ -49.905101299999956, -6.234258699999964 ], [ -49.905116799999973, -6.231386699999979 ], [ -49.905166799999961, -6.229942199999913 ], [ -49.90513059999995, -6.2290083 ], [ -49.904571499999975, -6.229033899999923 ], [ -49.903890399999966, -6.228998299999944 ], [ -49.903169399999975, -6.228999199999956 ], [ -49.896498599999973, -6.228978199999951 ], [ -49.896499399999975, -6.2289208 ], [ -49.896027499999946, -6.228917499999964 ], [ -49.892579599999976, -6.228893 ], [ -49.890947499999982, -6.22889989999996 ], [ -49.890926399999955, -6.22889969999993 ], [ -49.890885499999975, -6.228899399999948 ], [ -49.889152899999942, -6.228884899999946 ], [ -49.889278899999965, -6.229431 ], [ -49.889310799999976, -6.229477099999944 ], [ -49.889249, -6.229577699999934 ], [ -49.889128299999989, -6.229631599999922 ], [ -49.88906719999995, -6.229703399999927 ], [ -49.889087599999982, -6.229772599999928 ], [ -49.889179399999939, -6.22984709999998 ], [ -49.889161, -6.22987909999997 ], [ -49.889094099999966, -6.229940199999955 ], [ -49.889107899999942, -6.2300294 ], [ -49.889196399999946, -6.230076699999942 ], [ -49.889253499999946, -6.230138799999939 ], [ -49.88922139999994, -6.230246 ], [ -49.889140799999943, -6.230306699999979 ], [ -49.889083099999937, -6.230378799999929 ], [ -49.889018, -6.2304885 ], [ -49.889010599999949, -6.230575299999937 ], [ -49.889050299999951, -6.230703099999982 ], [ -49.889098899999965, -6.230818199999937 ], [ -49.889159299999967, -6.230849399999924 ], [ -49.889199599999984, -6.230786099999907 ], [ -49.889258699999978, -6.230778199999987 ], [ -49.889312099999984, -6.230842899999955 ], [ -49.889415099999951, -6.230977099999943 ], [ -49.889474799999959, -6.231014699999975 ], [ -49.889627, -6.2309438 ], [ -49.889709499999988, -6.230970099999952 ], [ -49.889747799999952, -6.231025799999948 ], [ -49.889695299999964, -6.231067799999969 ], [ -49.889569499999936, -6.23113079999993 ], [ -49.889563899999985, -6.231461699999977 ], [ -49.889522899999974, -6.231844699999959 ], [ -49.889570799999944, -6.231921799999967 ], [ -49.889700399999981, -6.232108399999976 ], [ -49.889759499999968, -6.232130199999941 ], [ -49.889892199999963, -6.232108399999983 ], [ -49.889966499999957, -6.232143299999968 ], [ -49.889995499999941, -6.23225759999996 ], [ -49.889914499999968, -6.23236669999992 ], [ -49.889763599999974, -6.232434699999941 ], [ -49.889730699999973, -6.232602899999931 ], [ -49.889738899999948, -6.232707299999967 ], [ -49.88982, -6.232765599999945 ], [ -49.88987439999994, -6.232756199999906 ], [ -49.88991459999994, -6.232694199999961 ], [ -49.89003189999994, -6.23282869999994 ], [ -49.890130499999941, -6.2328196 ], [ -49.890221499999939, -6.232868299999921 ], [ -49.890315399999963, -6.232990799999918 ], [ -49.890332599999965, -6.233130599999981 ], [ -49.890291399999967, -6.233251099999966 ], [ -49.890288899999973, -6.233344799999919 ], [ -49.890337799999941, -6.233429599999965 ], [ -49.890344, -6.233643899999947 ], [ -49.890453399999956, -6.233762499999969 ], [ -49.890472, -6.233850199999937 ], [ -49.890501499999971, -6.233896699999946 ], [ -49.89059009999994, -6.233979499999971 ], [ -49.890608799999939, -6.234010399999945 ], [ -49.89065869999996, -6.234041899999976 ], [ -49.8907531, -6.234112099999957 ], [ -49.890850499999942, -6.23420919999993 ], [ -49.890942099999961, -6.234241799999926 ], [ -49.891036399999962, -6.234239199999923 ], [ -49.891070699999943, -6.23421729999992 ], [ -49.891089099999938, -6.234151699999901 ], [ -49.891042, -6.234101799999952 ], [ -49.890995699999962, -6.233949399999982 ], [ -49.890995699999962, -6.233865599999945 ], [ -49.891090099999985, -6.233712699999946 ], [ -49.891139399999986, -6.233666799999966 ], [ -49.891201899999935, -6.233651299999953 ], [ -49.891247199999952, -6.233721199999914 ], [ -49.89128, -6.2337911 ], [ -49.891345599999973, -6.233809699999956 ], [ -49.891398699999968, -6.23383759999997 ], [ -49.891436099999964, -6.233887299999945 ], [ -49.891473, -6.233951 ], [ -49.891520499999963, -6.233961899999921 ], [ -49.89159559999996, -6.233968199999932 ], [ -49.891672599999936, -6.234061 ], [ -49.891587799999968, -6.234099899999921 ], [ -49.891502799999955, -6.234119399999964 ], [ -49.891493, -6.234171399999972 ], [ -49.891558499999974, -6.234267299999967 ], [ -49.891627399999955, -6.234412199999931 ], [ -49.891663599999958, -6.234529699999953 ], [ -49.891660299999955, -6.234565599999922 ], [ -49.891575199999984, -6.234631 ], [ -49.891604699999959, -6.23467679999994 ], [ -49.8918695, -6.234763599999974 ], [ -49.891856499999953, -6.234933 ], [ -49.891879299999971, -6.23506289999998 ], [ -49.891937399999961, -6.235183199999927 ], [ -49.891963699999963, -6.235280199999957 ], [ -49.892025399999966, -6.235393499999942 ], [ -49.891937199999973, -6.235410699999948 ], [ -49.891895399999953, -6.23544129999993 ], [ -49.891891199999975, -6.235549 ], [ -49.891867, -6.235610699999929 ], [ -49.891822699999977, -6.235648099999921 ], [ -49.891760699999963, -6.235641499999955 ], [ -49.891696399999944, -6.23559089999996 ], [ -49.891645399999959, -6.2355578 ], [ -49.891632199999947, -6.23559529999996 ], [ -49.891709699999979, -6.23574479999998 ], [ -49.891661, -6.2357843 ], [ -49.891592399999979, -6.235779899999937 ], [ -49.89159919999998, -6.235872 ], [ -49.891546299999959, -6.235994599999968 ], [ -49.891482399999973, -6.236042599999948 ], [ -49.891382699999951, -6.236080399999911 ], [ -49.891237699999976, -6.23611479999993 ], [ -49.891160799999966, -6.236165299999924 ], [ -49.891095399999983, -6.236291199999905 ], [ -49.891067699999944, -6.236451699999948 ], [ -49.891004399999986, -6.236510599999974 ], [ -49.890991799999931, -6.236591099999941 ], [ -49.891022799999966, -6.23664109999991 ], [ -49.891113, -6.236667199999925 ], [ -49.891137399999934, -6.236719199999914 ], [ -49.891209799999956, -6.236783799999944 ], [ -49.89121, -6.23689559999995 ], [ -49.891170099999954, -6.236972699999981 ], [ -49.891178399999944, -6.237062899999931 ], [ -49.891189299999951, -6.237123799999929 ], [ -49.891173399999957, -6.237234799999964 ], [ -49.890904699999957, -6.239802399999979 ], [ -49.891095199999938, -6.239933699999921 ], [ -49.891224699999952, -6.239968899999928 ], [ -49.891455499999942, -6.240035499999958 ], [ -49.891598499999979, -6.240219499999939 ], [ -49.891606199999956, -6.240631799999941 ], [ -49.891408099999978, -6.241224499999928 ], [ -49.891431899999986, -6.241456 ], [ -49.891536099999939, -6.241708599999975 ], [ -49.891772699999933, -6.241982199999955 ], [ -49.892122599999936, -6.242339699999958 ] ] ], [ [ [ -49.911955299999931, -6.120342599999948 ], [ -49.91252209999994, -6.120428499999922 ], [ -49.914736799999964, -6.120201299999938 ], [ -49.918103199999962, -6.118731199999985 ], [ -49.918606, -6.117727699999927 ], [ -49.918582599999979, -6.117296399999907 ], [ -49.918541099999977, -6.11653060000001 ], [ -49.918615099999954, -6.114985199999989 ], [ -49.918329099999937, -6.114328599999952 ], [ -49.917200899999955, -6.113673 ], [ -49.91239859999996, -6.111492499999961 ], [ -49.910288399999963, -6.110607399999921 ], [ -49.909773599999937, -6.109836599999946 ], [ -49.909219199999939, -6.108172499999956 ], [ -49.908950199999936, -6.106477599999959 ], [ -49.908456699999924, -6.105661799999962 ], [ -49.907792399999948, -6.105293899999918 ], [ -49.906775399999965, -6.105655199999932 ], [ -49.90570289999993, -6.10554469999994 ], [ -49.904862399999956, -6.10523739999996 ], [ -49.903551399999962, -6.1042406 ], [ -49.902917399999986, -6.103598299999917 ], [ -49.902904399999954, -6.103533099999928 ], [ -49.902808099999959, -6.103052 ], [ -49.902903899999956, -6.10293449999992 ], [ -49.902908899999943, -6.102928399999962 ], [ -49.903966399999952, -6.101631499999938 ], [ -49.905146499999944, -6.100385799999947 ], [ -49.905505399999981, -6.099200699999948 ], [ -49.905627299999935, -6.098266 ], [ -49.905935, -6.097305399999935 ], [ -49.906370299999935, -6.097064 ], [ -49.907353799999953, -6.096714299999964 ], [ -49.908577599999944, -6.096889199999932 ], [ -49.909910699999955, -6.097064 ], [ -49.911353, -6.096911 ], [ -49.912183499999969, -6.096539499999956 ], [ -49.91277359999998, -6.095774599999934 ], [ -49.91277359999998, -6.094922299999953 ], [ -49.912336499999981, -6.094332199999918 ], [ -49.911571599999945, -6.094594499999983 ], [ -49.910763, -6.094485199999951 ], [ -49.909386199999972, -6.093807699999937 ], [ -49.907812699999965, -6.093064699999966 ], [ -49.906042499999948, -6.092256099999913 ], [ -49.905255799999964, -6.09153489999995 ], [ -49.905254099999986, -6.0915284 ], [ -49.905041899999958, -6.090703399999917 ], [ -49.905277599999977, -6.090027 ], [ -49.905286099999962, -6.090020899999979 ], [ -49.905911399999979, -6.089568099999958 ], [ -49.908053099999961, -6.089371399999961 ], [ -49.909815499999979, -6.089375299999959 ], [ -49.911156399999982, -6.0891091 ], [ -49.912555, -6.088453499999954 ], [ -49.9140192, -6.08740449999994 ], [ -49.915133799999985, -6.086377399999929 ], [ -49.916357599999969, -6.085459499999931 ], [ -49.91705809999997, -6.084760699999923 ], [ -49.917144399999977, -6.083864199999955 ], [ -49.917341, -6.08290259999992 ], [ -49.917577699999981, -6.082022199999903 ], [ -49.91758139999996, -6.0807609 ], [ -49.917209899999939, -6.079515199999932 ], [ -49.916561199999933, -6.078529799999978 ], [ -49.916023, -6.077773 ], [ -49.915783199999964, -6.077448 ], [ -49.915483499999937, -6.077089399999971 ], [ -49.915133799999978, -6.076586799999965 ], [ -49.914696699999979, -6.0754504 ], [ -49.914172199999939, -6.074357699999938 ], [ -49.913385499999954, -6.073352399999979 ], [ -49.912576899999976, -6.072303399999975 ], [ -49.911265599999979, -6.071407399999972 ], [ -49.910981499999934, -6.071123299999947 ], [ -49.91050069999995, -6.07051139999994 ], [ -49.910194799999942, -6.070183599999933 ], [ -49.909369, -6.068636099999923 ], [ -49.909589199999971, -6.0680379 ], [ -49.909977, -6.067585 ], [ -49.910654199999954, -6.067466 ], [ -49.911536899999938, -6.067596 ], [ -49.913129199999958, -6.067705 ], [ -49.914368899999943, -6.067473699999936 ], [ -49.915572099999963, -6.06675 ], [ -49.917033, -6.0661 ], [ -49.918040399999938, -6.065091599999969 ], [ -49.91865229999997, -6.064261199999963 ], [ -49.918911099999946, -6.063742799999945 ], [ -49.918928499999936, -6.063699099999941 ], [ -49.918946, -6.063655199999965 ], [ -49.919111199999975, -6.063102899999938 ], [ -49.919482699999946, -6.061835399999933 ], [ -49.919305, -6.060506 ], [ -49.91837, -6.058399 ], [ -49.91790919999994, -6.057114899999955 ], [ -49.917778099999964, -6.056524899999956 ], [ -49.917153, -6.056061199999904 ], [ -49.916073499999982, -6.055912899999946 ], [ -49.914871499999947, -6.0558255 ], [ -49.913560299999972, -6.056109599999965 ], [ -49.911549699999973, -6.056153299999932 ], [ -49.910631899999942, -6.056524899999959 ], [ -49.909309699999937, -6.056209299999957 ], [ -49.908140499999945, -6.054623599999979 ], [ -49.907244499999941, -6.053836799999938 ], [ -49.906815599999966, -6.052445199999959 ], [ -49.906256699999965, -6.053120499999953 ], [ -49.90636249999995, -6.053393799999983 ], [ -49.906535, -6.053698399999951 ], [ -49.906558399999938, -6.0538584 ], [ -49.906483499999979, -6.054279899999903 ], [ -49.906550099999947, -6.054475099999902 ], [ -49.906591799999944, -6.0546414 ], [ -49.906657899999978, -6.054827399999978 ], [ -49.906603299999972, -6.054834099999909 ], [ -49.901288799999975, -6.0554898 ], [ -49.901265499999965, -6.055403299999975 ], [ -49.900715699999985, -6.051477699999974 ], [ -49.899527699999972, -6.05163239999996 ], [ -49.899485899999945, -6.051639099999919 ], [ -49.898422099999948, -6.05177489999993 ], [ -49.897796399999955, -6.0518585 ], [ -49.897149799999973, -6.051931599999953 ], [ -49.896357799999976, -6.052096 ], [ -49.896166, -6.050653 ], [ -49.896001099999978, -6.049421 ], [ -49.895741699999974, -6.047470299999945 ], [ -49.895471199999974, -6.045439 ], [ -49.895536, -6.044142 ], [ -49.895739799999944, -6.043683299999926 ], [ -49.895755899999983, -6.043647 ], [ -49.89646189999997, -6.042057 ], [ -49.897139, -6.040532 ], [ -49.899292399999979, -6.035680899999932 ], [ -49.900489899999968, -6.032983 ], [ -49.900641399999984, -6.032653599999939 ], [ -49.900664699999936, -6.032603 ], [ -49.902544499999976, -6.028517299999969 ], [ -49.902865499999962, -6.028690099999925 ], [ -49.903387299999963, -6.02910239999992 ], [ -49.903467399999954, -6.029664099999938 ], [ -49.903879, -6.030529499999926 ], [ -49.903911799999946, -6.030655199999973 ], [ -49.903928199999946, -6.030718 ], [ -49.903944499999966, -6.030780899999973 ], [ -49.904775, -6.030715299999929 ], [ -49.90547429999998, -6.030627899999955 ], [ -49.906698199999937, -6.030278199999933 ], [ -49.90766949999994, -6.029628599999962 ], [ -49.907703699999956, -6.028962099999914 ], [ -49.907388799999978, -6.027637099999938 ], [ -49.906566099999957, -6.025943499999913 ], [ -49.907372599999974, -6.025084699999969 ], [ -49.909296899999958, -6.024425699999957 ], [ -49.91026949999997, -6.023564 ], [ -49.9104119, -6.022543299999954 ], [ -49.910303399999975, -6.021123399999945 ], [ -49.91016, -6.020329099999971 ], [ -49.90998529999996, -6.019734 ], [ -49.90938959999994, -6.018544199999946 ], [ -49.908782199999962, -6.016963099999954 ], [ -49.907760099999955, -6.015623799999942 ], [ -49.906466499999965, -6.014933699999952 ], [ -49.904562699999978, -6.014436 ], [ -49.904533599999979, -6.013847899999958 ], [ -49.904456399999965, -6.013267 ], [ -49.904429299999947, -6.012969 ], [ -49.904515199999935, -6.011088199999975 ], [ -49.904525799999924, -6.009711899999938 ], [ -49.903797499999946, -6.007395799999891 ], [ -49.903735299999944, -6.007409899999971 ], [ -49.897233599999936, -6.00888289999995 ], [ -49.896169799999939, -6.009124 ], [ -49.895504899999942, -6.009326899999962 ], [ -49.895923799999935, -6.00972729999994 ], [ -49.896881199999939, -6.010227399999952 ], [ -49.897582799999959, -6.010665399999916 ], [ -49.898507, -6.01167569999994 ], [ -49.899261099999933, -6.012350599999916 ], [ -49.899744099999964, -6.0134075 ], [ -49.89985309999998, -6.014195599999952 ], [ -49.899852099999983, -6.01525689999996 ], [ -49.900167799999963, -6.01581379999993 ], [ -49.901229499999943, -6.015905299999903 ], [ -49.901785099999977, -6.015964 ], [ -49.901925499999948, -6.017602499999974 ], [ -49.89866139999998, -6.016981499999944 ], [ -49.898625099999947, -6.017015399999958 ], [ -49.898588899999929, -6.017049299999957 ], [ -49.898236399999973, -6.016881899999906 ], [ -49.897983, -6.016638599999989 ], [ -49.897917599999971, -6.016575899999972 ], [ -49.89751949999993, -6.016006799999942 ], [ -49.897278399999948, -6.015662199999952 ], [ -49.897057299999972, -6.015283399999936 ], [ -49.89698, -6.015151099999983 ], [ -49.896492199999955, -6.014599599999953 ], [ -49.896455699999933, -6.0145583 ], [ -49.896419099999946, -6.014517 ], [ -49.895078099999985, -6.013716 ], [ -49.89060859999995, -6.01104609999995 ], [ -49.89053679999995, -6.011224899999962 ], [ -49.888573899999983, -6.016116399999903 ], [ -49.890846499999952, -6.017735599999952 ], [ -49.8943048, -6.020092099999944 ], [ -49.891997599999968, -6.023244899999932 ], [ -49.890463499999953, -6.022940899999954 ], [ -49.889716799999974, -6.022750699999955 ], [ -49.889297799999952, -6.022610299999918 ], [ -49.888900099999944, -6.0224666 ], [ -49.887881299999947, -6.022125099999914 ], [ -49.888369599999983, -6.017264899999925 ], [ -49.888134099999945, -6.017720299999974 ], [ -49.88782949999996, -6.018517099999929 ], [ -49.887684399999955, -6.018835899999943 ], [ -49.887547799999936, -6.018975299999988 ], [ -49.887016299999964, -6.01914889999995 ], [ -49.886186, -6.019365199999955 ], [ -49.885010599999937, -6.019584399999942 ], [ -49.883594799999969, -6.019735199999976 ], [ -49.883167899999933, -6.019763599999967 ], [ -49.882516899999985, -6.019974199999983 ], [ -49.882013199999953, -6.020108 ], [ -49.881532899999968, -6.020145 ], [ -49.881234099999972, -6.0201848 ], [ -49.880915399999935, -6.020184799999969 ], [ -49.880563199999983, -6.020082399999956 ], [ -49.880216, -6.019965699999952 ], [ -49.880056599999932, -6.019965699999919 ], [ -49.879885799999954, -6.020019799999964 ], [ -49.879052699999924, -6.020011199999944 ], [ -49.878361799999929, -6.020039699999945 ], [ -49.877898, -6.020216199999909 ], [ -49.877334499999968, -6.0205007 ], [ -49.876783099999955, -6.020944699999986 ], [ -49.876592399999943, -6.021172399999949 ], [ -49.876413099999986, -6.021252099999951 ], [ -49.875964099999976, -6.021346 ], [ -49.875631199999987, -6.021394399999977 ], [ -49.875437599999941, -6.0213545 ], [ -49.875247, -6.021277699999919 ], [ -49.874946, -6.021215099999981 ], [ -49.874391099999968, -6.02115249999996 ], [ -49.873989799999947, -6.021169499999896 ], [ -49.873327399999937, -6.021402899999932 ], [ -49.873054199999956, -6.021422799999941 ], [ -49.872857799999963, -6.021391499999922 ], [ -49.872667099999951, -6.02124349999995 ], [ -49.872183299999961, -6.021084199999929 ], [ -49.871870299999955, -6.020936199999935 ], [ -49.871898699999967, -6.021314699999942 ], [ -49.871921499999985, -6.021508199999959 ], [ -49.872228899999982, -6.022387599999936 ], [ -49.872601699999969, -6.023261299999911 ], [ -49.873124599999983, -6.024098 ], [ -49.873588499999983, -6.024695599999951 ], [ -49.875106799999969, -6.026525599999937 ], [ -49.876085799999942, -6.027686699999921 ], [ -49.876782299999952, -6.028543299999974 ], [ -49.877132399999937, -6.028941799999959 ], [ -49.877510199999961, -6.029479699999945 ], [ -49.877877299999966, -6.030139899999945 ], [ -49.878232399999952, -6.030933899999958 ], [ -49.878482799999972, -6.031653899999963 ], [ -49.878588099999945, -6.032194699999914 ], [ -49.878690499999948, -6.032860599999957 ], [ -49.878733199999942, -6.033407 ], [ -49.878719, -6.034027399999927 ], [ -49.878682, -6.034767399999942 ], [ -49.878596599999987, -6.035951299999947 ], [ -49.87856249999993, -6.036677 ], [ -49.878477099999941, -6.037505199999952 ], [ -49.878406, -6.038373199999964 ], [ -49.878158399999961, -6.03929809999991 ], [ -49.878867499999956, -6.039347899999926 ], [ -49.879090199999951, -6.03934079999996 ], [ -49.879424599999936, -6.039384899999966 ], [ -49.87950149999994, -6.039356099999983 ], [ -49.879511, -6.0393966 ], [ -49.879891299999947, -6.039565199999972 ], [ -49.880024299999945, -6.039711699999944 ], [ -49.879881299999965, -6.039928 ], [ -49.879655, -6.040248499999979 ], [ -49.879627399999954, -6.040287499999972 ], [ -49.879597499999932, -6.04032979999991 ], [ -49.87753929999996, -6.043107899999909 ], [ -49.875347499999982, -6.04606029999997 ], [ -49.871429399999954, -6.045617499999913 ], [ -49.868736699999943, -6.045313199999924 ], [ -49.863168199999954, -6.0446679 ], [ -49.863374299999975, -6.048421799999964 ], [ -49.862014899999963, -6.047963199999947 ], [ -49.860160499999949, -6.04642789999997 ], [ -49.859974499999964, -6.045852399999934 ], [ -49.859843, -6.045815599999966 ], [ -49.858821299999931, -6.046038199999924 ], [ -49.858447599999977, -6.046801599999981 ], [ -49.858166099999949, -6.047817899999934 ], [ -49.857374799999945, -6.047850099999967 ], [ -49.856578, -6.047586899999945 ], [ -49.856227899999965, -6.047471199999933 ], [ -49.855041399999948, -6.046986699999967 ], [ -49.853565499999945, -6.047143499999915 ], [ -49.853288799999973, -6.04714049999992 ], [ -49.853044, -6.047057399999945 ], [ -49.852768, -6.046994899999932 ], [ -49.852590699999944, -6.047087899999966 ], [ -49.852497399999955, -6.047461599999944 ], [ -49.852318099999941, -6.047627 ], [ -49.852013199999938, -6.04756419999998 ], [ -49.851708399999957, -6.047485699999924 ], [ -49.851431799999943, -6.047526 ], [ -49.851083099999983, -6.047359899999916 ], [ -49.850785899999948, -6.047231499999929 ], [ -49.851010599999938, -6.050577899999944 ], [ -49.851012399999952, -6.050603599999928 ], [ -49.851243199999949, -6.054041 ], [ -49.851293299999952, -6.054460199999935 ], [ -49.850362799999971, -6.054363699999965 ], [ -49.850554799999941, -6.057633699999934 ], [ -49.850226799999973, -6.057661 ], [ -49.848778699999976, -6.057781299999934 ], [ -49.84878619999995, -6.057415799999957 ], [ -49.847352799999953, -6.057395399999971 ], [ -49.845716399999958, -6.057409799999943 ], [ -49.846025099999963, -6.0618871 ], [ -49.845942699999959, -6.062296399999981 ], [ -49.845872199999981, -6.062549599999985 ], [ -49.84610449999996, -6.062938399999974 ], [ -49.846077799999932, -6.063122199999939 ], [ -49.845966499999975, -6.06346889999995 ], [ -49.845966199999964, -6.063694799999927 ], [ -49.846097799999939, -6.064146799999922 ], [ -49.846409199999982, -6.064352 ], [ -49.847164299999982, -6.064747 ], [ -49.84726969999997, -6.065025599999981 ], [ -49.84732809999997, -6.065363499999965 ], [ -49.847311199999979, -6.065726599999937 ], [ -49.846688899999947, -6.067624699999922 ], [ -49.847515699999981, -6.06881609999992 ], [ -49.847846699999941, -6.070336799999928 ], [ -49.847840099999985, -6.071262099999945 ], [ -49.847350699999943, -6.071992699999934 ], [ -49.84777679999997, -6.072457699999946 ], [ -49.848108099999941, -6.072753199999974 ], [ -49.849360899999972, -6.0750788 ], [ -49.849489599999977, -6.075327699999939 ], [ -49.849680599999942, -6.075598899999941 ], [ -49.84971319999994, -6.075645199999972 ], [ -49.844980799999981, -6.087533899999906 ], [ -49.843996499999946, -6.08700279999993 ], [ -49.842425599999963, -6.086380199999945 ], [ -49.839523299999939, -6.085470699999963 ], [ -49.837496, -6.084793699999945 ], [ -49.836992199999948, -6.084625799999985 ], [ -49.8362772, -6.084598199999989 ], [ -49.835783699999979, -6.0845611 ], [ -49.835626299999952, -6.0845821 ], [ -49.835119199999959, -6.084649599999969 ], [ -49.834742499999955, -6.084699799999923 ], [ -49.83456579999995, -6.084741399999933 ], [ -49.834389199999976, -6.084783 ], [ -49.834267399999938, -6.08485 ], [ -49.834232099999959, -6.084869399999929 ], [ -49.834090599999968, -6.08494719999992 ], [ -49.834051399999964, -6.084968699999924 ], [ -49.833599, -6.085217499999958 ], [ -49.833013299999948, -6.085346899999934 ], [ -49.832532399999941, -6.085362599999955 ], [ -49.832446199999943, -6.085365399999967 ], [ -49.823692699999981, -6.087911899999921 ], [ -49.823704899999939, -6.088101099999951 ], [ -49.823729299999968, -6.08846989999993 ], [ -49.823783499999934, -6.088904799999973 ], [ -49.824024299999962, -6.090836 ], [ -49.822579899999937, -6.102851199999957 ], [ -49.821908599999972, -6.108911899999936 ], [ -49.821298099999979, -6.114423499999947 ], [ -49.821146399999975, -6.115838299999946 ], [ -49.820663399999944, -6.1195271 ], [ -49.821927599999988, -6.121119299999988 ], [ -49.833015, -6.130879099999968 ], [ -49.83444419999995, -6.128142 ], [ -49.834789199999939, -6.127476199999958 ], [ -49.837277699999959, -6.122673699999916 ], [ -49.838100399999973, -6.121086 ], [ -49.838705299999951, -6.119918499999895 ], [ -49.840204599999936, -6.117176499999987 ], [ -49.84272679999998, -6.112369399999967 ], [ -49.844615499999975, -6.108761399999937 ], [ -49.84737389999998, -6.107358799999902 ], [ -49.84818329999996, -6.106393299999971 ], [ -49.848373199999976, -6.105836099999977 ], [ -49.850187199999937, -6.105806099999934 ], [ -49.850663499999946, -6.105173799999926 ], [ -49.854591599999942, -6.104426 ], [ -49.854659299999987, -6.104624699999953 ], [ -49.855122, -6.105319099999948 ], [ -49.856262499999957, -6.106460099999917 ], [ -49.857559599999945, -6.107747799999968 ], [ -49.860207599999967, -6.109133499999926 ], [ -49.860387299999957, -6.109981699999913 ], [ -49.860445199999958, -6.113772 ], [ -49.861326199999951, -6.115606399999923 ], [ -49.861611699999969, -6.115924699999921 ], [ -49.863907599999941, -6.115820099999979 ], [ -49.864028799999971, -6.115722499999962 ], [ -49.864157899999952, -6.114926399999962 ], [ -49.864282499999945, -6.114303899999897 ], [ -49.864434899999942, -6.113810199999911 ], [ -49.865031499999979, -6.113219099999988 ], [ -49.865837099999965, -6.112615799999979 ], [ -49.866198499999939, -6.112120199999965 ], [ -49.866374299999961, -6.111818 ], [ -49.8667291, -6.111122 ], [ -49.867110899999943, -6.11064519999997 ], [ -49.867598399999963, -6.11018839999998 ], [ -49.868101699999961, -6.109620099999949 ], [ -49.868324099999938, -6.109147499999945 ], [ -49.868070099999954, -6.1032577 ], [ -49.867974, -6.101030499999958 ], [ -49.867970699999937, -6.100954099999983 ], [ -49.868195899999932, -6.100281799999943 ], [ -49.868695299999956, -6.099018399999975 ], [ -49.86859979999997, -6.097937399999954 ], [ -49.86858969999998, -6.097816299999969 ], [ -49.868596299999979, -6.097817199999981 ], [ -49.86889089999994, -6.097840799999953 ], [ -49.870898699999941, -6.098001799999935 ], [ -49.871678599999946, -6.098044 ], [ -49.872690599999949, -6.098065099999951 ], [ -49.87277719999998, -6.0981818 ], [ -49.873792599999945, -6.0982855 ], [ -49.875304799999988, -6.098539 ], [ -49.876196, -6.097746299999954 ], [ -49.880689899999936, -6.097603399999971 ], [ -49.883414899999934, -6.092611 ], [ -49.883588, -6.092659 ], [ -49.883606199999974, -6.092810699999959 ], [ -49.884057299999938, -6.093230399999896 ], [ -49.884123799999941, -6.093834399999909 ], [ -49.8843361, -6.094026699999971 ], [ -49.884317499999952, -6.094173699999947 ], [ -49.884306899999956, -6.094257099999965 ], [ -49.884480699999976, -6.094257299999987 ], [ -49.88463489999998, -6.094526099999918 ], [ -49.884809399999938, -6.094687099999912 ], [ -49.884801799999934, -6.094949099999925 ], [ -49.884914299999934, -6.095195899999972 ], [ -49.884944299999972, -6.095487299999944 ], [ -49.884838799999955, -6.095868 ], [ -49.884711, -6.096076499999965 ], [ -49.884543, -6.096309399999948 ], [ -49.884397699999973, -6.096519299999932 ], [ -49.884135499999964, -6.096816899999973 ], [ -49.883927399999948, -6.097089399999958 ], [ -49.883881499999966, -6.097381599999968 ], [ -49.883917399999973, -6.097675799999906 ], [ -49.88411039999994, -6.097781299999965 ], [ -49.8843361, -6.0978082 ], [ -49.884531199999969, -6.098046699999937 ], [ -49.884787499999966, -6.098510499999943 ], [ -49.884867899999954, -6.098717 ], [ -49.884919899999943, -6.098988699999921 ], [ -49.884764099999984, -6.099148499999965 ], [ -49.884560499999964, -6.099121099999937 ], [ -49.884332799999989, -6.099173299999983 ], [ -49.88400189999993, -6.099220299999959 ], [ -49.883922899999959, -6.099384 ], [ -49.883880899999959, -6.099562099999937 ], [ -49.88374529999993, -6.099659699999959 ], [ -49.883482899999933, -6.099832 ], [ -49.883381399999962, -6.1000645 ], [ -49.88340119999998, -6.10031619999994 ], [ -49.883458499999961, -6.100546399999902 ], [ -49.883568299999979, -6.100823 ], [ -49.883526499999967, -6.101467399999938 ], [ -49.883229699999966, -6.101991799999926 ], [ -49.8832288, -6.102447799999927 ], [ -49.883164299999976, -6.102471899999941 ], [ -49.882911299999932, -6.102582699999983 ], [ -49.882683, -6.102721 ], [ -49.882269, -6.103172599999927 ], [ -49.882155499999946, -6.103439199999953 ], [ -49.882056899999952, -6.103782399999968 ], [ -49.882056699999964, -6.104096099999958 ], [ -49.882272399999977, -6.104234599999954 ], [ -49.882267799999966, -6.104458 ], [ -49.8819491, -6.1045093 ], [ -49.881277499999953, -6.104732 ], [ -49.880994399999963, -6.10515829999998 ], [ -49.880772, -6.105466499999988 ], [ -49.88067, -6.10572519999992 ], [ -49.880531699999949, -6.105950599999985 ], [ -49.880544399999955, -6.106194899999955 ], [ -49.88095729999997, -6.106377199999941 ], [ -49.881047299999985, -6.106571899999953 ], [ -49.881048199999952, -6.106652 ], [ -49.88101439999997, -6.106806399999927 ], [ -49.880973499999982, -6.107183399999953 ], [ -49.881023299999981, -6.107423399999938 ], [ -49.881238, -6.107763 ], [ -49.862917299999943, -6.123200899999954 ], [ -49.862491299999938, -6.123697299999962 ], [ -49.861031399999952, -6.124725499999979 ], [ -49.860761799999977, -6.125221 ], [ -49.860685699999983, -6.126627299999934 ], [ -49.860671399999944, -6.1290003 ], [ -49.86070379999996, -6.131808899999924 ], [ -49.860737099999938, -6.134692499999961 ], [ -49.860738399999939, -6.137404499999977 ], [ -49.860610299999969, -6.137860299999975 ], [ -49.860371899999961, -6.138217499999926 ], [ -49.860238099999947, -6.138361799999948 ], [ -49.859704699999959, -6.138587899999965 ], [ -49.858794399999972, -6.138776599999969 ], [ -49.857990799999982, -6.13893859999993 ], [ -49.857039599999943, -6.139165799999926 ], [ -49.856592499999969, -6.1394622 ], [ -49.856407899999965, -6.139775199999967 ], [ -49.856232899999952, -6.140073 ], [ -49.856251699999973, -6.140312499999942 ], [ -49.856250499999931, -6.140359899999974 ], [ -49.856245299999955, -6.140582399999943 ], [ -49.856294399999975, -6.140827799999918 ], [ -49.856399099999976, -6.141097699999928 ], [ -49.856873499999949, -6.141748299999957 ], [ -49.85783159999994, -6.143009699999907 ], [ -49.859307099999974, -6.14488 ], [ -49.860188299999955, -6.145990899999955 ], [ -49.860370099999955, -6.146227199999947 ], [ -49.860551899999962, -6.146463499999957 ], [ -49.860742799999969, -6.146911399999967 ], [ -49.860797899999966, -6.147344299999904 ], [ -49.860840399999972, -6.148152799999927 ], [ -49.860864099999958, -6.1493126 ], [ -49.860867299999938, -6.149416699999953 ], [ -49.860896499999967, -6.150382599999975 ], [ -49.860937099999944, -6.150968099999943 ], [ -49.861169199999949, -6.1517919 ], [ -49.861292, -6.152282099999967 ], [ -49.861298699999963, -6.152513599999944 ], [ -49.861195499999951, -6.153092099999959 ], [ -49.860996399999976, -6.153758099999918 ], [ -49.860920699999959, -6.154180099999949 ], [ -49.860879199999943, -6.154643799999973 ], [ -49.860905699999932, -6.155780599999963 ], [ -49.86091209999995, -6.156216199999976 ], [ -49.861014299999965, -6.1568766 ], [ -49.861075499999963, -6.157509099999962 ], [ -49.861222599999962, -6.157472799999934 ], [ -49.861364699999974, -6.1573526 ], [ -49.861423699999932, -6.157260799999952 ], [ -49.86205869999997, -6.157595799999943 ], [ -49.862267299999985, -6.157641899999908 ], [ -49.862655, -6.157644199999956 ], [ -49.862828399999955, -6.157544 ], [ -49.862966099999944, -6.157429099999964 ], [ -49.863164299999937, -6.15740319999998 ], [ -49.863541, -6.157453899999923 ], [ -49.8639237, -6.157452799999962 ], [ -49.864094699999953, -6.157355899999963 ], [ -49.864447599999956, -6.156906699999965 ], [ -49.864618699999937, -6.156805399999909 ], [ -49.864806799999947, -6.156763199999919 ], [ -49.86497559999998, -6.156665199999964 ], [ -49.865142699999979, -6.156597099999946 ], [ -49.86528119999997, -6.156456399999973 ], [ -49.86540279999997, -6.156242499999965 ], [ -49.865387, -6.156079199999952 ], [ -49.868553599999977, -6.157924199999949 ], [ -49.868553599999984, -6.157938199999911 ], [ -49.868586399999977, -6.158715 ], [ -49.868688, -6.159187499999986 ], [ -49.868738, -6.159292499999912 ], [ -49.868778, -6.159400899999985 ], [ -49.86881969999996, -6.159582599999936 ], [ -49.868833, -6.159751 ], [ -49.868677799999944, -6.160022299999953 ], [ -49.86862659999997, -6.160171899999962 ], [ -49.86858639999997, -6.160942399999978 ], [ -49.8686259, -6.161235699999956 ], [ -49.868705299999938, -6.161403599999952 ], [ -49.868698599999959, -6.1615303 ], [ -49.868515599999967, -6.161902699999938 ], [ -49.868501899999956, -6.163544 ], [ -49.868528899999944, -6.164624699999949 ], [ -49.868810899999964, -6.16471679999998 ], [ -49.869222099999945, -6.164842299999983 ], [ -49.869591399999933, -6.164980299999977 ], [ -49.869880899999949, -6.165076599999985 ], [ -49.870262799999978, -6.165181199999931 ], [ -49.870573399999955, -6.165277399999971 ], [ -49.870788899999987, -6.165378699999961 ], [ -49.871267099999955, -6.165708799999924 ], [ -49.871455899999944, -6.165788199999955 ], [ -49.871628, -6.165800899999942 ], [ -49.871854699999972, -6.165763499999954 ], [ -49.872010099999962, -6.1657595 ], [ -49.872205199999939, -6.165826399999975 ], [ -49.872347799999943, -6.165918299999942 ], [ -49.873070899999959, -6.166685799999893 ], [ -49.873200199999985, -6.166798 ], [ -49.873382599999957, -6.166880599999979 ], [ -49.873525299999983, -6.166920299999935 ], [ -49.873691199999939, -6.166851199999943 ], [ -49.874265599999951, -6.166432699999964 ], [ -49.874331599999955, -6.166348199999955 ], [ -49.874347399999976, -6.1576297 ], [ -49.874529299999949, -6.1575417 ], [ -49.875021199999935, -6.1571312 ], [ -49.875403699999936, -6.156941199999962 ], [ -49.87554959999995, -6.156703799999965 ], [ -49.875905799999948, -6.156300099999947 ], [ -49.87612629999996, -6.155954 ], [ -49.876163599999984, -6.155740299999918 ], [ -49.876213599999971, -6.155578299999928 ], [ -49.876299099999983, -6.155394299999954 ], [ -49.876389, -6.155236499999945 ], [ -49.876501799999971, -6.1550847 ], [ -49.876815399999948, -6.154850599999971 ], [ -49.877152099999932, -6.154646299999945 ], [ -49.877332499999966, -6.154609799999974 ], [ -49.87753859999998, -6.154589399999951 ], [ -49.877737699999955, -6.154587699999974 ], [ -49.878068, -6.15481839999995 ], [ -49.878246499999932, -6.1549181 ], [ -49.878453299999933, -6.154954099999918 ], [ -49.878654299999937, -6.154973599999966 ], [ -49.878841199999954, -6.154975699999967 ], [ -49.879030599999957, -6.15495839999995 ], [ -49.879201799999976, -6.154900299999975 ], [ -49.879394699999978, -6.154861199999951 ], [ -49.87958869999995, -6.154862899999949 ], [ -49.879775099999961, -6.154919799999967 ], [ -49.879968, -6.155016899999967 ], [ -49.880179899999973, -6.155014299999977 ], [ -49.880352399999936, -6.154960099999929 ], [ -49.88054139999997, -6.154863399999976 ], [ -49.880708599999942, -6.154833099999951 ], [ -49.88126, -6.156576 ], [ -49.882617499999988, -6.160696299999937 ], [ -49.883342099999936, -6.162893099999941 ], [ -49.884210099999954, -6.164277299999978 ], [ -49.884745499999951, -6.164942699999933 ], [ -49.885883099999944, -6.166166399999944 ], [ -49.886883, -6.167173899999962 ], [ -49.887377899999933, -6.167519499999965 ], [ -49.887473599999971, -6.164612799999947 ], [ -49.887723799999947, -6.164190699999982 ], [ -49.889101899999957, -6.162898 ], [ -49.889049099999966, -6.162782799999936 ], [ -49.889061799999979, -6.161622899999925 ], [ -49.888853699999977, -6.160977599999974 ], [ -49.888856099999948, -6.160357399999951 ], [ -49.889124799999934, -6.160020099999964 ], [ -49.889530499999978, -6.159868699999964 ], [ -49.890081299999963, -6.159927199999954 ], [ -49.890363699999973, -6.160210299999966 ], [ -49.890888, -6.160808399999972 ], [ -49.891817499999945, -6.161367899999927 ], [ -49.892724399999963, -6.161524499999939 ], [ -49.893810499999972, -6.161399899999962 ], [ -49.894727899999957, -6.160920199999954 ], [ -49.895142799999981, -6.160511 ], [ -49.895145799999966, -6.1597538 ], [ -49.895057799999961, -6.156715399999944 ], [ -49.894789499999945, -6.155275599999919 ], [ -49.894345299999948, -6.153944199999973 ], [ -49.893843699999934, -6.153255499999963 ], [ -49.89326479999994, -6.152719199999959 ], [ -49.892969499999936, -6.152132299999942 ], [ -49.89286309999995, -6.151303499999939 ], [ -49.892657799999931, -6.1505506 ], [ -49.89242969999998, -6.15001559999995 ], [ -49.892323, -6.149629599999936 ], [ -49.892319399999963, -6.149226399999958 ], [ -49.892660199999966, -6.148269399999919 ], [ -49.892615199999966, -6.147667 ], [ -49.892595899999947, -6.147237499999927 ], [ -49.892692199999942, -6.146860899999967 ], [ -49.892683, -6.146525699999942 ], [ -49.892821899999944, -6.146023499999973 ], [ -49.893110099999944, -6.145472799999919 ], [ -49.89417659999998, -6.144143499999956 ], [ -49.894551699999965, -6.143977799999977 ], [ -49.897141699999963, -6.142833699999911 ], [ -49.897145899999948, -6.142831799999965 ], [ -49.898357899999958, -6.143350199999928 ], [ -49.899291, -6.142749299999948 ], [ -49.90007479999997, -6.141591199999922 ], [ -49.900758399999972, -6.13922879999996 ], [ -49.901056099999948, -6.138911099999969 ], [ -49.901844799999935, -6.138069499999946 ], [ -49.902356399999974, -6.136992699999937 ], [ -49.902521599999943, -6.136453799999975 ], [ -49.902588699999967, -6.135635599999924 ], [ -49.902811499999984, -6.134732 ], [ -49.902717599999967, -6.134124599999935 ], [ -49.902521199999974, -6.132854599999961 ], [ -49.902589399999961, -6.132625199999943 ], [ -49.902627699999975, -6.1325833 ], [ -49.903004399999986, -6.132171099999963 ], [ -49.903101799999952, -6.132126399999944 ], [ -49.903872099999944, -6.131772699999937 ], [ -49.904131599999971, -6.131095099999919 ], [ -49.904253599999947, -6.130949799999922 ], [ -49.904289499999955, -6.130683 ], [ -49.904380799999949, -6.129666499999962 ], [ -49.905331199999985, -6.128177399999944 ], [ -49.905356799999936, -6.127966599999947 ], [ -49.905482599999971, -6.126932099999983 ], [ -49.906020599999977, -6.125324099999959 ], [ -49.907705499999963, -6.121912499999985 ], [ -49.907948499999975, -6.121420599999967 ], [ -49.90893669999997, -6.12084109999993 ], [ -49.911955299999931, -6.120342599999948 ] ] ], [ [ [ -50.072955099999945, -6.064878099999923 ], [ -50.070422, -6.064374099999933 ], [ -50.067889699999959, -6.063871399999947 ], [ -50.065395899999942, -6.063385499999958 ], [ -50.064382599999924, -6.063185199999976 ], [ -50.06385719999998, -6.063292899999928 ], [ -50.063349499999958, -6.06356569999997 ], [ -50.062862299999949, -6.064026099999958 ], [ -50.062517, -6.064539799999959 ], [ -50.062251599999975, -6.065524099999953 ], [ -50.061624099999968, -6.069333699999968 ], [ -50.061377899999968, -6.070612099999922 ], [ -50.060351499999967, -6.075913899999927 ], [ -50.067953299999942, -6.077240899999905 ], [ -50.075111899999968, -6.078510499999946 ], [ -50.07632279999995, -6.071469399999981 ], [ -50.076549199999931, -6.07018709999995 ], [ -50.074630699999936, -6.069854199999989 ], [ -50.075487199999941, -6.065357399999908 ], [ -50.072955099999945, -6.064878099999923 ] ] ], [ [ [ -49.895507199999948, -5.998863799999984 ], [ -49.895530199999939, -5.9988549 ], [ -49.895598599999971, -5.998828399999981 ], [ -49.896630799999969, -5.998428199999971 ], [ -49.896825599999943, -5.998291499999908 ], [ -49.897362599999951, -5.99808049999996 ], [ -49.89749819999998, -5.997916599999937 ], [ -49.897996099999943, -5.9979731 ], [ -49.897978299999977, -5.996464 ], [ -49.897312799999952, -5.996145099999974 ], [ -49.897058699999945, -5.995976199999972 ], [ -49.896804499999973, -5.995807399999936 ], [ -49.896669699999968, -5.995703099999972 ], [ -49.896135499999957, -5.99529 ], [ -49.895959299999951, -5.995119200000011 ], [ -49.895738, -5.994904899999939 ], [ -49.895049799999974, -5.994168399999969 ], [ -49.894437599999947, -5.99335139999992 ], [ -49.894360499999941, -5.993248499999969 ], [ -49.894009899999958, -5.992531299999913 ], [ -49.893747099999985, -5.991993799999914 ], [ -49.893468599999949, -5.990829799999954 ], [ -49.893450699999967, -5.990704599999941 ], [ -49.89327319999996, -5.989467699999989 ], [ -49.893092199999955, -5.988178599999947 ], [ -49.89305939999997, -5.9879746 ], [ -49.893057099999972, -5.987960899999972 ], [ -49.893055399999973, -5.9879501 ], [ -49.893055, -5.987947499999983 ], [ -49.893054599999964, -5.9879453 ], [ -49.893053899999984, -5.987940899999961 ], [ -49.89305219999995, -5.987929799999944 ], [ -49.89304929999998, -5.98791129999994 ], [ -49.893044, -5.98787769999993 ], [ -49.893035099999963, -5.987820599999963 ], [ -49.893020199999967, -5.987725199999955 ], [ -49.892874399999982, -5.987725899999951 ], [ -49.891849099999945, -5.987731 ], [ -49.890460799999978, -5.987738 ], [ -49.890327799999959, -5.987738699999989 ], [ -49.890170299999966, -5.987887799999932 ], [ -49.889845699999967, -5.988261 ], [ -49.889602399999944, -5.988543399999962 ], [ -49.88934409999996, -5.988907199999979 ], [ -49.889144799999933, -5.989190599999961 ], [ -49.888811099999941, -5.989748799999953 ], [ -49.888248, -5.991193799999945 ], [ -49.888079599999976, -5.992228899999918 ], [ -49.888078399999984, -5.992243899999941 ], [ -49.888075599999986, -5.992254499999944 ], [ -49.888054199999942, -5.992275399999913 ], [ -49.888044499999978, -5.992286899999926 ], [ -49.887948799999947, -5.992409699999958 ], [ -49.887804, -5.992378699999981 ], [ -49.887613, -5.9924723 ], [ -49.887523099999953, -5.992498499999981 ], [ -49.887362099999962, -5.992448599999936 ], [ -49.8871228, -5.992456 ], [ -49.886936799999937, -5.99255589999995 ], [ -49.886706, -5.992840499999918 ], [ -49.886541, -5.993076399999921 ], [ -49.886459399999978, -5.993177899999973 ], [ -49.886609199999953, -5.993355899999938 ], [ -49.88665419999996, -5.99343579999994 ], [ -49.886625899999956, -5.993540699999925 ], [ -49.886454499999957, -5.993643799999968 ], [ -49.886068399999942, -5.993840199999962 ], [ -49.885996, -5.993906799999932 ], [ -49.886072499999955, -5.994011599999982 ], [ -49.886079199999983, -5.994099799999971 ], [ -49.885906099999943, -5.994089799999927 ], [ -49.885773, -5.994153099999953 ], [ -49.885633199999972, -5.994450899999958 ], [ -49.885533399999986, -5.994494199999941 ], [ -49.885445199999936, -5.994454299999966 ], [ -49.885235499999965, -5.994411 ], [ -49.884934299999948, -5.994411 ], [ -49.884841099999953, -5.994439299999982 ], [ -49.884786199999951, -5.9944293 ], [ -49.884746199999931, -5.994227899999954 ], [ -49.884748299999956, -5.99405989999997 ], [ -49.884566899999982, -5.993796899999968 ], [ -49.883973199999957, -5.993470799999982 ], [ -49.883702, -5.993269399999958 ], [ -49.883442399999979, -5.993256099999939 ], [ -49.88313949999997, -5.9931579 ], [ -49.882787099999973, -5.992986499999953 ], [ -49.882634, -5.992996499999942 ], [ -49.882399799999973, -5.993119599999935 ], [ -49.882253799999944, -5.99311959999995 ], [ -49.881965899999955, -5.9931013 ], [ -49.881662199999944, -5.992966899999953 ], [ -49.881356799999935, -5.99283169999997 ], [ -49.881007299999972, -5.992831699999932 ], [ -49.880881699999982, -5.99288 ], [ -49.880667, -5.99288 ], [ -49.880347499999971, -5.992710199999952 ], [ -49.879778299999941, -5.992696899999941 ], [ -49.879595699999982, -5.992635399999918 ], [ -49.879447599999935, -5.992485599999942 ], [ -49.879260399999971, -5.992459 ], [ -49.878549799999973, -5.992452299999965 ], [ -49.878235299999979, -5.992500599999949 ], [ -49.877974399999971, -5.992628699999941 ], [ -49.877815099999971, -5.992743499999958 ], [ -49.877629499999955, -5.992800099999967 ], [ -49.877527199999982, -5.992905 ], [ -49.877389599999951, -5.993205 ], [ -49.877375599999937, -5.993235599999943 ], [ -49.877183299999956, -5.993758299999977 ], [ -49.877089, -5.994019299999959 ], [ -49.877059099999947, -5.994082099999928 ], [ -49.877051399999971, -5.994158699999966 ], [ -49.877049299999953, -5.994248799999969 ], [ -49.8769736, -5.994492899999948 ], [ -49.876925399999948, -5.994608 ], [ -49.876881699999956, -5.994677399999931 ], [ -49.87679629999996, -5.994798199999951 ], [ -49.876739199999982, -5.994887299999935 ], [ -49.876716699999982, -5.994971499999948 ], [ -49.87722059999993, -5.995141299999929 ], [ -49.877643299999932, -5.995287199999916 ], [ -49.878016799999948, -5.99542009999994 ], [ -49.87862389999998, -5.995644799999969 ], [ -49.879334899999954, -5.995912799999936 ], [ -49.879867199999978, -5.99611409999992 ], [ -49.880031099999947, -5.9961762 ], [ -49.880748899999958, -5.996448499999932 ], [ -49.880899199999924, -5.996505499999958 ], [ -49.881121599999972, -5.996589899999933 ], [ -49.88158889999994, -5.996747499999985 ], [ -49.882107, -5.996920199999976 ], [ -49.882648899999928, -5.997099099999948 ], [ -49.883179299999938, -5.997272899999952 ], [ -49.883708799999965, -5.997438299999961 ], [ -49.884222099999931, -5.997598699999984 ], [ -49.885362499999985, -5.997960499999983 ], [ -49.885720899999967, -5.998080099999938 ], [ -49.886463799999952, -5.998317899999946 ], [ -49.886660499999948, -5.998380799999952 ], [ -49.888096399999938, -5.998840299999919 ], [ -49.888708099999981, -5.999036099999962 ], [ -49.889335799999969, -5.999237 ], [ -49.890006599999936, -5.999451699999942 ], [ -49.8912888, -5.999862099999986 ], [ -49.892006299999935, -6.00009169999995 ], [ -49.892366899999956, -6.000207099999948 ], [ -49.89272109999996, -6.000320499999916 ], [ -49.892961299999968, -6.000397299999978 ], [ -49.893036799999948, -6.000334399999933 ], [ -49.893375899999967, -6.000052 ], [ -49.893790499999966, -5.999706599999977 ], [ -49.894557599999985, -5.999263299999947 ], [ -49.895246099999952, -5.998973299999953 ], [ -49.895485899999983, -5.998872199999953 ], [ -49.895489599999962, -5.998870699999921 ], [ -49.895491399999969, -5.998869899999931 ], [ -49.895507199999948, -5.998863799999984 ] ] ], [ [ [ -49.849356899999982, -5.958638199999958 ], [ -49.849346299999979, -5.959068099999977 ], [ -49.849079199999956, -5.959591599999931 ], [ -49.849057799999976, -5.960013499999918 ], [ -49.849247399999967, -5.960334 ], [ -49.84923409999994, -5.960670499999932 ], [ -49.848512599999935, -5.964118199999951 ], [ -49.852556, -5.965312499999935 ], [ -49.852896699999981, -5.964496 ], [ -49.855477799999967, -5.957806299999945 ], [ -49.856128099999985, -5.954974199999968 ], [ -49.854355499999933, -5.954613699999903 ], [ -49.852391299999972, -5.9547979 ], [ -49.851255, -5.9574044 ], [ -49.851164199999971, -5.9578023 ], [ -49.85102269999993, -5.957967899999964 ], [ -49.850878499999965, -5.958077399999988 ], [ -49.850707599999971, -5.958125399999989 ], [ -49.850419099999954, -5.958363099999929 ], [ -49.850042599999938, -5.958427199999952 ], [ -49.849356899999982, -5.958638199999958 ] ] ], [ [ [ -50.235598599999953, -5.915194299999905 ], [ -50.23556119999995, -5.914719799999951 ], [ -50.235365099999967, -5.9140806 ], [ -50.235397599999949, -5.913694799999975 ], [ -50.235213899999955, -5.91322 ], [ -50.235310299999981, -5.91262559999994 ], [ -50.235394, -5.911997399999956 ], [ -50.235306199999968, -5.911430899999956 ], [ -50.235359399999943, -5.910817899999945 ], [ -50.235292199999954, -5.910365799999946 ], [ -50.235073199999931, -5.909761199999925 ], [ -50.233327199999962, -5.909967699999924 ], [ -50.233155899999986, -5.91024 ], [ -50.232931599999972, -5.910131799999952 ], [ -50.232836, -5.910089199999971 ], [ -50.232786499999975, -5.910023599999923 ], [ -50.232786499999982, -5.909859599999958 ], [ -50.232464799999946, -5.909767899999966 ], [ -50.232092099999939, -5.909607099999937 ], [ -50.231915499999957, -5.909552199999921 ], [ -50.231789899999967, -5.90953639999995 ], [ -50.231581899999988, -5.90947349999991 ], [ -50.231389699999966, -5.909328699999922 ], [ -50.231276, -5.909275799999937 ], [ -50.231169799999975, -5.909220799999988 ], [ -50.231176499999947, -5.909163399999978 ], [ -50.231117499999982, -5.908979899999961 ], [ -50.23036529999996, -5.909372 ], [ -50.229471799999942, -5.910407599999925 ], [ -50.228776299999936, -5.910715899999937 ], [ -50.227849599999963, -5.911209699999975 ], [ -50.227045799999985, -5.911321299999947 ], [ -50.22612, -5.91131119999991 ], [ -50.225718299999976, -5.9112236 ], [ -50.225569499999949, -5.911431899999952 ], [ -50.225463699999978, -5.911979099999948 ], [ -50.225052399999981, -5.912482399999915 ], [ -50.224745399999961, -5.913255099999925 ], [ -50.223988, -5.914142 ], [ -50.223696, -5.914941 ], [ -50.22374549999995, -5.916055299999934 ], [ -50.224130199999934, -5.917021199999961 ], [ -50.225050199999941, -5.918010699999972 ], [ -50.225202599999932, -5.918754499999989 ], [ -50.225877599999933, -5.919244499999913 ], [ -50.226698699999986, -5.9192897 ], [ -50.226705899999956, -5.919294299999896 ], [ -50.226694699999939, -5.917695599999922 ], [ -50.226707099999942, -5.91771109999996 ], [ -50.227086399999962, -5.917705699999933 ], [ -50.233747499999936, -5.917609899999952 ], [ -50.235591099999958, -5.917822499999926 ], [ -50.235597399999953, -5.917496399999958 ], [ -50.235445699999957, -5.917234199999936 ], [ -50.235446299999978, -5.916861499999947 ], [ -50.235557899999947, -5.916599699999931 ], [ -50.235470799999973, -5.916174499999969 ], [ -50.23551539999994, -5.915535799999905 ], [ -50.235598599999953, -5.915194299999905 ] ] ], [ [ [ -49.815754599999927, -6.169945699999961 ], [ -49.816110699999975, -6.169725499999944 ], [ -49.8165805, -6.1692692 ], [ -49.817211199999974, -6.168719199999972 ], [ -49.817517299999963, -6.168706799999941 ], [ -49.817758499999975, -6.168797 ], [ -49.818022299999939, -6.168898 ], [ -49.818461399999933, -6.168784099999901 ], [ -49.818790699999973, -6.168796099999915 ], [ -49.819006499999944, -6.16877159999997 ], [ -49.819205299999965, -6.168553099999964 ], [ -49.81969619999996, -6.16790019999997 ], [ -49.820369699999958, -6.167207399999916 ], [ -49.820212799999979, -6.16699859999992 ], [ -49.820588799999946, -6.166367599999909 ], [ -49.820987099999968, -6.165745199999921 ], [ -49.821106699999973, -6.165593599999953 ], [ -49.821858299999981, -6.165279699999916 ], [ -49.822496799999946, -6.164926099999971 ], [ -49.823127899999974, -6.164533399999921 ], [ -49.823411, -6.164323099999923 ], [ -49.823643599999969, -6.164044299999955 ], [ -49.824081199999966, -6.163421399999932 ], [ -49.824536099999925, -6.162801799999944 ], [ -49.824721299999965, -6.162577699999938 ], [ -49.824777799999943, -6.1623734 ], [ -49.824801599999944, -6.162015099999965 ], [ -49.824837799999955, -6.161512 ], [ -49.824057799999935, -6.16062049999992 ], [ -49.823719399999966, -6.160283399999946 ], [ -49.823981299999957, -6.158716199999953 ], [ -49.820691099999976, -6.1597341 ], [ -49.819970199999943, -6.159957099999942 ], [ -49.819171499999989, -6.160219 ], [ -49.818917799999959, -6.160290599999941 ], [ -49.818094099999939, -6.157734499999965 ], [ -49.817986399999938, -6.157677299999936 ], [ -49.816745199999964, -6.15810339999998 ], [ -49.815054, -6.15863879999995 ], [ -49.81439789999996, -6.158875699999938 ], [ -49.812969699999947, -6.159272799999934 ], [ -49.812263099999932, -6.15846629999991 ], [ -49.811515899999961, -6.157424099999955 ], [ -49.810743899999977, -6.156084199999945 ], [ -49.80997119999995, -6.1556123 ], [ -49.809273299999973, -6.1551653 ], [ -49.80732729999994, -6.155709 ], [ -49.805332, -6.156414199999963 ], [ -49.805226, -6.165005099999957 ], [ -49.80522579999996, -6.165011 ], [ -49.805173399999951, -6.166808199999908 ], [ -49.805163499999935, -6.168064 ], [ -49.80515429999997, -6.168472599999935 ], [ -49.805070099999966, -6.172240499999928 ], [ -49.813655299999937, -6.1722121 ], [ -49.813783399999977, -6.171582699999904 ], [ -49.813815199999972, -6.171254299999909 ], [ -49.813899899999967, -6.170989499999964 ], [ -49.814172699999972, -6.1707337 ], [ -49.814737, -6.170291 ], [ -49.814934699999981, -6.170203 ], [ -49.815417399999944, -6.170039099999921 ], [ -49.815754599999927, -6.169945699999961 ] ] ], [ [ [ -49.834548799999936, -6.139029399999969 ], [ -49.850327099999959, -6.139800199999939 ], [ -49.850105699999979, -6.135974599999928 ], [ -49.846590499999941, -6.130727299999938 ], [ -49.84647589999998, -6.130421699999947 ], [ -49.839050799999939, -6.129619299999941 ], [ -49.836387399999978, -6.134998699999903 ], [ -49.834548799999936, -6.139029399999969 ] ] ], [ [ [ -49.782186199999948, -6.077040099999977 ], [ -49.790249899999928, -6.079481099999961 ], [ -49.791736799999967, -6.079721599999965 ], [ -49.793027799999948, -6.079746099999961 ], [ -49.793693, -6.079758799999977 ], [ -49.795203099999981, -6.079714399999946 ], [ -49.800891299999932, -6.079275199999935 ], [ -49.801286, -6.079324799999911 ], [ -49.809625899999958, -6.070244399999953 ], [ -49.809094399999942, -6.05740819999991 ], [ -49.808428099999958, -6.0566489 ], [ -49.798973499999931, -6.054823199999946 ], [ -49.790724, -6.05318949999995 ], [ -49.790470499999969, -6.053219 ], [ -49.770440699999938, -6.055547499999913 ], [ -49.770139099999938, -6.057129899999977 ], [ -49.770109, -6.057156599999939 ], [ -49.770321199999962, -6.057345099999948 ], [ -49.772241699999938, -6.060485899999957 ], [ -49.77343859999997, -6.0636264 ], [ -49.77584029999997, -6.067372499999951 ], [ -49.77583519999996, -6.069423299999904 ], [ -49.776673699999947, -6.071717799999936 ], [ -49.778835399999934, -6.074618799999936 ], [ -49.778832099999931, -6.076055399999979 ], [ -49.77883049999997, -6.076751599999939 ], [ -49.778947499999958, -6.076047399999938 ], [ -49.781367599999953, -6.076784099999915 ], [ -49.782186199999948, -6.077040099999977 ] ] ], [ [ [ -49.833577699999978, -5.994631399999981 ], [ -49.83497559999995, -5.995088099999975 ], [ -49.836025699999936, -5.995531 ], [ -49.836786899999943, -5.99562089999993 ], [ -49.836724599999968, -5.995890799999912 ], [ -49.836489299999982, -5.996271399999937 ], [ -49.836184899999978, -5.997011899999978 ], [ -49.836088, -5.997579299999927 ], [ -49.83570049999998, -5.998465099999981 ], [ -49.835465199999931, -5.999392399999964 ], [ -49.835485899999981, -5.999496199999923 ], [ -49.854187399999951, -6.0067 ], [ -49.862948199999948, -5.999101699999922 ], [ -49.856304899999948, -5.996928799999989 ], [ -49.857889599999965, -5.9925934 ], [ -49.86054, -5.993295799999946 ], [ -49.860892899999953, -5.992233599999971 ], [ -49.867084599999941, -5.994178099999965 ], [ -49.86839249999997, -5.99092569999991 ], [ -49.859386099999938, -5.988206099999982 ], [ -49.855002199999937, -5.989157599999955 ], [ -49.849857199999974, -5.987164599999984 ], [ -49.848057899999958, -5.9866249 ], [ -49.847518199999968, -5.986306599999955 ], [ -49.841290099999981, -5.983926099999948 ], [ -49.830169599999977, -5.982161399999912 ], [ -49.82789809999997, -5.994077799999957 ], [ -49.828161099999932, -5.994105499999919 ], [ -49.830250899999953, -5.9944722 ], [ -49.832249099999949, -5.994963499999897 ], [ -49.832705799999985, -5.994839 ], [ -49.833217899999966, -5.994582899999937 ], [ -49.833577699999978, -5.994631399999981 ] ] ], [ [ [ -49.838145599999969, -5.953624099999918 ], [ -49.838181299999974, -5.953247699999986 ], [ -49.83819619999997, -5.953091299999948 ], [ -49.838218199999972, -5.952874299999963 ], [ -49.838258699999983, -5.952476 ], [ -49.838526599999966, -5.950975899999952 ], [ -49.838706199999933, -5.951101799999948 ], [ -49.838958899999966, -5.9512837 ], [ -49.839190099999939, -5.951397 ], [ -49.839431499999932, -5.951574399999986 ], [ -49.839804399999935, -5.951746099999987 ], [ -49.840117899999939, -5.951883399999932 ], [ -49.840429199999967, -5.951993299999949 ], [ -49.841028699999988, -5.952285099999954 ], [ -49.841064099999983, -5.9522737 ], [ -49.84112019999997, -5.952257699999988 ], [ -49.841207199999985, -5.952243899999942 ], [ -49.841930899999966, -5.95215639999995 ], [ -49.842581299999949, -5.952040199999935 ], [ -49.845684, -5.951468 ], [ -49.84584689999997, -5.951559099999913 ], [ -49.851788599999963, -5.954764299999943 ], [ -49.853331399999945, -5.953326099999948 ], [ -49.856413, -5.950646699999905 ], [ -49.854694699999989, -5.948249099999962 ], [ -49.853987699999948, -5.947095399999956 ], [ -49.85354169999993, -5.946315599999942 ], [ -49.853255899999965, -5.946118 ], [ -49.85282859999996, -5.9456026 ], [ -49.85250949999994, -5.945271399999977 ], [ -49.852151699999979, -5.944726699999944 ], [ -49.851889899999946, -5.944454299999964 ], [ -49.851516099999969, -5.94420859999994 ], [ -49.851072799999947, -5.9440003 ], [ -49.850752299999954, -5.94389339999997 ], [ -49.850522599999977, -5.943850699999931 ], [ -49.85002059999993, -5.943872099999945 ], [ -49.849001799999947, -5.943978899999907 ], [ -49.847662499999956, -5.944155199999965 ], [ -49.847227499999974, -5.9441899 ], [ -49.846782899999937, -5.9442673 ], [ -49.845938299999943, -5.944448499999933 ], [ -49.846050499999933, -5.94418 ], [ -49.846578699999959, -5.943401499999965 ], [ -49.84758549999998, -5.94254859999996 ], [ -49.847947399999953, -5.941430899999967 ], [ -49.848461199999981, -5.9404613 ], [ -49.848483599999952, -5.94044 ], [ -49.848520699999938, -5.940301299999955 ], [ -49.848829599999931, -5.939696199999958 ], [ -49.849013799999966, -5.93929159999991 ], [ -49.849218099999973, -5.938494499999941 ], [ -49.8493223, -5.93819 ], [ -49.849402399999981, -5.93737279999991 ], [ -49.849490499999945, -5.936880099999918 ], [ -49.849378399999978, -5.936267199999967 ], [ -49.849041899999968, -5.936010899999904 ], [ -49.848392899999965, -5.935674399999927 ], [ -49.848212699999976, -5.9353619 ], [ -49.848168599999958, -5.93512959999992 ], [ -49.848280799999941, -5.934761099999974 ], [ -49.848489099999945, -5.934436599999987 ], [ -49.848581199999956, -5.934316399999913 ], [ -49.848172599999941, -5.934248299999975 ], [ -49.847732, -5.934284399999944 ], [ -49.847463599999969, -5.934228299999989 ], [ -49.84734339999995, -5.934120099999956 ], [ -49.847147099999972, -5.933827699999974 ], [ -49.847055, -5.933647399999941 ], [ -49.846678399999973, -5.933499199999957 ], [ -49.846197699999948, -5.933174799999966 ], [ -49.84580519999998, -5.932962399999941 ], [ -49.845152199999973, -5.932754099999935 ], [ -49.843950199999938, -5.934502199999925 ], [ -49.843932, -5.934527699999921 ], [ -49.840426599999944, -5.939172499999948 ], [ -49.840371499999947, -5.939251599999989 ], [ -49.840301899999986, -5.9393492 ], [ -49.838887799999959, -5.938210299999978 ], [ -49.837677, -5.937572499999921 ], [ -49.836874299999977, -5.937174199999978 ], [ -49.833704799999964, -5.942865399999954 ], [ -49.830854599999945, -5.947610399999982 ], [ -49.827374299999974, -5.956130599999963 ], [ -49.836581599999931, -5.959547899999968 ], [ -49.838049499999954, -5.954506799999903 ], [ -49.838128599999948, -5.95378659999996 ], [ -49.83814, -5.9536828 ], [ -49.838140399999986, -5.953679399999962 ], [ -49.838140599999974, -5.953676899999937 ], [ -49.838142199999936, -5.953660299999946 ], [ -49.838145599999969, -5.953624099999918 ] ] ] ] } }
]
}
