{
"type": "FeatureCollection",
"name": "1507805",
"crs": { "type": "name", "properties": { "name": "urn:ogc:def:crs:OGC:1.3:CRS84" } },
"features": [
{ "type": "Feature", "properties": { "CD_MUN": "1507805", "NM_MUN": "Senador José Porfírio" }, "geometry": { "type": "Polygon", "coordinates": [ [ [ -51.947148499999976, -2.603384099999946 ], [ -51.946962099999951, -2.604502399999939 ], [ -51.946543899999931, -2.606543499999957 ], [ -51.946539399999949, -2.606820800000013 ], [ -51.946653, -2.607320800000029 ], [ -51.946889399999975, -2.607925399999883 ], [ -51.947398499999963, -2.6091846 ], [ -51.947589499999935, -2.609639199999952 ], [ -51.947706399999959, -2.609886499999948 ], [ -51.948950499999967, -2.6092801 ], [ -51.949850199999958, -2.609295699999983 ], [ -51.951034499999942, -2.609285299999907 ], [ -51.950936899999938, -2.608967199999968 ], [ -51.950738099999974, -2.608554199999932 ], [ -51.950591, -2.6083054 ], [ -51.950291399999969, -2.607908799999942 ], [ -51.950023699999974, -2.607662599999959 ], [ -51.949878799999965, -2.607503 ], [ -51.949804, -2.60730729999992 ], [ -51.949741599999982, -2.607164100000019 ], [ -51.949694099999931, -2.6070303 ], [ -51.949741, -2.606584599999989 ], [ -51.94971959999998, -2.606238699999887 ], [ -51.949628399999938, -2.605960699999979 ], [ -51.949709699999978, -2.605847299999883 ], [ -51.949836799999957, -2.605773099999981 ], [ -51.950076299999978, -2.605719699999982 ], [ -51.950375299999969, -2.605691 ], [ -51.95073739999998, -2.605560199999935 ], [ -51.9508565, -2.605428299999922 ], [ -51.950786699999981, -2.605303 ], [ -51.950697799999944, -2.605160299999958 ], [ -51.950361699999974, -2.605213 ], [ -51.949748, -2.605353499999985 ], [ -51.949648499999967, -2.605257499999939 ], [ -51.949559, -2.605154899999958 ], [ -51.949506799999938, -2.604966 ], [ -51.949349299999938, -2.604652399999949 ], [ -51.949252099999967, -2.604366 ], [ -51.94923189999998, -2.604234099999944 ], [ -51.949249099999975, -2.6039664 ], [ -51.949353799999983, -2.6034431 ], [ -51.949514799999967, -2.603394499999936 ], [ -51.949628299999979, -2.603305499999907 ], [ -51.949791199999936, -2.603165400000031 ], [ -51.949801799999932, -2.602979199999985 ], [ -51.949706799999952, -2.602911099999926 ], [ -51.950106699999935, -2.597681599999962 ], [ -51.951527699999986, -2.59797569999989 ], [ -51.952662399999952, -2.597793599999862 ], [ -51.953279599999973, -2.59738219999996 ], [ -51.953519399999941, -2.597191800000013 ], [ -51.953795799999973, -2.596923599999919 ], [ -51.954357499999951, -2.596378699999948 ], [ -51.954868499999975, -2.595676 ], [ -51.955131299999948, -2.595172799999945 ], [ -51.955394199999944, -2.594669600000041 ], [ -51.955647599999956, -2.594021499999954 ], [ -51.955896199999977, -2.592857299999878 ], [ -51.955954399999946, -2.592584700000022 ], [ -51.956001899999933, -2.592362099999907 ], [ -51.956045199999956, -2.592138499999946 ], [ -51.956045199999942, -2.591787799999963 ], [ -51.956354299999987, -2.590559799999962 ], [ -51.95636079999997, -2.589859099999958 ], [ -51.956350199999981, -2.589769099999879 ], [ -51.956255599999963, -2.588964799999921 ], [ -51.956238, -2.588631699999981 ], [ -51.956238, -2.5880881 ], [ -51.956255599999956, -2.587614700000015 ], [ -51.956021799999974, -2.58696459999997 ], [ -51.955764699999975, -2.586457699999954 ], [ -51.950870499999958, -2.585311499999927 ], [ -51.946088399999944, -2.584191700000015 ], [ -51.945100099999934, -2.583975100000037 ], [ -51.936727699999942, -2.582131699999926 ], [ -51.936693299999945, -2.58231570000004 ], [ -51.936575199999936, -2.58269660000002 ], [ -51.936446899999972, -2.58306350000005 ], [ -51.935103199999958, -2.582831799999911 ], [ -51.932316499999956, -2.582172 ], [ -51.929359199999972, -2.581535099999964 ], [ -51.927691, -2.581155899999942 ], [ -51.927611399999932, -2.581148399999943 ], [ -51.926846499999954, -2.580829499999988 ], [ -51.924287799999945, -2.58026089999987 ], [ -51.913918099999933, -2.586410899999914 ], [ -51.912736, -2.587608 ], [ -51.923619, -2.591449599999919 ], [ -51.926352599999973, -2.592071399999933 ], [ -51.932396199999978, -2.5933605 ], [ -51.933793299999934, -2.593680899999903 ], [ -51.93382969999994, -2.593415099999979 ], [ -51.9343037, -2.5935558 ], [ -51.934504, -2.593580699999904 ], [ -51.934632, -2.593601599999947 ], [ -51.934730499999951, -2.593618700000018 ], [ -51.9348275, -2.593633699999931 ], [ -51.935133499999957, -2.593674799999923 ], [ -51.935471099999972, -2.593717099999914 ], [ -51.935915499999957, -2.593786 ], [ -51.936323899999941, -2.593863799999968 ], [ -51.936876799999943, -2.59396379999986 ], [ -51.937458399999976, -2.594075799999899 ], [ -51.937899499999958, -2.594164099999885 ], [ -51.938279199999954, -2.594237299999915 ], [ -51.938735599999973, -2.594347 ], [ -51.938881099999954, -2.594382 ], [ -51.939349899999968, -2.59448 ], [ -51.940137499999935, -2.5946742 ], [ -51.940852199999938, -2.594830499999893 ], [ -51.941256399999986, -2.594912299999989 ], [ -51.941491699999965, -2.594962600000038 ], [ -51.941706399999987, -2.594983 ], [ -51.941906599999982, -2.5949954 ], [ -51.942136299999959, -2.594996699999946 ], [ -51.942343, -2.594954 ], [ -51.942459299999939, -2.594930699999965 ], [ -51.942580599999985, -2.594899 ], [ -51.94286059999996, -2.594831599999917 ], [ -51.943012, -2.5947939 ], [ -51.943067599999949, -2.594777899999919 ], [ -51.943304, -2.594854799999989 ], [ -51.943460899999934, -2.594910699999986 ], [ -51.943619399999932, -2.594982899999982 ], [ -51.943979599999977, -2.595141599999963 ], [ -51.944238899999959, -2.595264199999914 ], [ -51.944491199999952, -2.595395100000027 ], [ -51.944668, -2.595479299999915 ], [ -51.944720599999982, -2.59550590000002 ], [ -51.944988299999977, -2.5956373999999 ], [ -51.94539089999995, -2.595830299999982 ], [ -51.945724699999971, -2.595994 ], [ -51.946136499999966, -2.596163199999934 ], [ -51.947321099999954, -2.596652499999914 ], [ -51.947345599999949, -2.596653199999941 ], [ -51.947321299999942, -2.598570099999989 ], [ -51.947248499999944, -2.602697699999909 ], [ -51.947148499999976, -2.603384099999946 ] ] ] } }
]
}
