{
"type": "FeatureCollection",
"name": "1508100",
"crs": { "type": "name", "properties": { "name": "urn:ogc:def:crs:OGC:1.3:CRS84" } },
"features": [
{ "type": "Feature", "properties": { "CD_MUN": "1508100", "NM_MUN": "Tucuruí" }, "geometry": { "type": "MultiPolygon", "coordinates": [ [ [ [ -49.687110699999955, -3.833051699999976 ], [ -49.682139799999959, -3.832137599999939 ], [ -49.680934899999961, -3.830543599999953 ], [ -49.680939899999949, -3.827613699999927 ], [ -49.678427799999952, -3.825234599999882 ], [ -49.676216699999941, -3.82386660000001 ], [ -49.675590199999931, -3.823782199999942 ], [ -49.674900299999941, -3.824957099999976 ], [ -49.67459139999994, -3.824941899999943 ], [ -49.67434309999993, -3.825127799999942 ], [ -49.674386199999958, -3.823607500000015 ], [ -49.6743618, -3.823282599999945 ], [ -49.674217099999964, -3.823055600000016 ], [ -49.67402089999996, -3.822907799999953 ], [ -49.673735699999952, -3.82279159999997 ], [ -49.672544899999934, -3.822361499999913 ], [ -49.671436, -3.822124099999949 ], [ -49.671123099999932, -3.82193829999996 ], [ -49.670797099999959, -3.82168219999996 ], [ -49.670037199999967, -3.821102399999952 ], [ -49.669618799999967, -3.821100499999921 ], [ -49.669355799999948, -3.821234499999917 ], [ -49.66915209999997, -3.821559099999973 ], [ -49.669102799999969, -3.821726499999983 ], [ -49.669118099999935, -3.821986799999959 ], [ -49.669268499999937, -3.822334299999921 ], [ -49.670093, -3.823090199999985 ], [ -49.670284299999935, -3.823379599999934 ], [ -49.670436399999971, -3.823817 ], [ -49.670359199999957, -3.824255199999894 ], [ -49.669991299999936, -3.824759899999923 ], [ -49.669089, -3.825739899999942 ], [ -49.668934199999967, -3.825809199999961 ], [ -49.668179799999962, -3.825795899999906 ], [ -49.668007199999984, -3.829715 ], [ -49.66790849999996, -3.829671799999936 ], [ -49.667701299999969, -3.830293799999928 ], [ -49.667484299999956, -3.835257199999934 ], [ -49.667449299999937, -3.835434199999978 ], [ -49.667799, -3.837281799999975 ], [ -49.668028699999972, -3.838068 ], [ -49.668273799999952, -3.838275599999976 ], [ -49.668498, -3.838344099999969 ], [ -49.668686799999932, -3.838318699999972 ], [ -49.669478599999934, -3.837935499999941 ], [ -49.670004199999937, -3.837939899999932 ], [ -49.670362, -3.8378427 ], [ -49.671771, -3.837794099999957 ], [ -49.672044899999946, -3.837922199999988 ], [ -49.67217739999996, -3.838218199999958 ], [ -49.672193899999968, -3.839590799999965 ], [ -49.673183299999948, -3.840809899999906 ], [ -49.674384799999984, -3.841304599999933 ], [ -49.675338899999986, -3.841976 ], [ -49.676069899999959, -3.841984799999981 ], [ -49.676676499999978, -3.841798799999933 ], [ -49.676823799999966, -3.841890399999929 ], [ -49.676944299999946, -3.842419299999922 ], [ -49.677111099999934, -3.842701899999986 ], [ -49.677180499999963, -3.843378099999963 ], [ -49.677185599999973, -3.844151299999941 ], [ -49.677224599999931, -3.844523099999975 ], [ -49.677313499999968, -3.845334899999904 ], [ -49.677109499999972, -3.845338399999901 ], [ -49.676789599999942, -3.845527399999978 ], [ -49.677018099999948, -3.846064199999987 ], [ -49.677241899999956, -3.846142899999962 ], [ -49.677562899999941, -3.846095799999952 ], [ -49.677877599999924, -3.845858 ], [ -49.678235299999983, -3.845758 ], [ -49.678537499999955, -3.845844399999933 ], [ -49.678632399999969, -3.8477723 ], [ -49.679273199999962, -3.848571199999979 ], [ -49.679605899999963, -3.848605099999894 ], [ -49.679725799999972, -3.849282 ], [ -49.680227099999961, -3.849735299999939 ], [ -49.681331099999973, -3.8496728 ], [ -49.681310799999949, -3.850184199999931 ], [ -49.680990799999968, -3.851627299999975 ], [ -49.686672299999941, -3.846769299999943 ], [ -49.685837499999941, -3.846062399999945 ], [ -49.685751399999958, -3.845688099999943 ], [ -49.685380599999974, -3.8454336 ], [ -49.685738899999933, -3.844793399999936 ], [ -49.68637949999993, -3.843500099999975 ], [ -49.68550469999996, -3.840737700000015 ], [ -49.687055899999962, -3.83701869999993 ], [ -49.687110699999955, -3.833051699999976 ] ] ], [ [ [ -49.711202399999934, -3.794395599999973 ], [ -49.713016099999948, -3.794617899999928 ], [ -49.70937889999994, -3.787114099999957 ], [ -49.705102799999963, -3.79003 ], [ -49.706641699999977, -3.792919799999914 ], [ -49.709726599999954, -3.791408499999919 ], [ -49.711202399999934, -3.794395599999973 ] ] ], [ [ [ -49.68654539999995, -3.790990300000018 ], [ -49.686752699999943, -3.789797699999913 ], [ -49.687879699999939, -3.788950799999969 ], [ -49.687979899999959, -3.788859400000022 ], [ -49.682984399999953, -3.786425 ], [ -49.687333, -3.7835122 ], [ -49.68734129999995, -3.783149099999973 ], [ -49.6872, -3.782456799999954 ], [ -49.685923699999933, -3.782402199999988 ], [ -49.684883499999955, -3.782027399999913 ], [ -49.685704399999963, -3.781154199999981 ], [ -49.686348, -3.7814142 ], [ -49.686760599999957, -3.78053949999997 ], [ -49.686273699999965, -3.779483299999927 ], [ -49.685873399999934, -3.779163499999941 ], [ -49.685456599999952, -3.778843199999894 ], [ -49.685493699999938, -3.777966499999911 ], [ -49.685431299999948, -3.77718509999991 ], [ -49.68507, -3.7767914 ], [ -49.68378179999997, -3.776111899999964 ], [ -49.6834947, -3.775895299999938 ], [ -49.682733799999937, -3.775321300000026 ], [ -49.68186129999998, -3.774362099999949 ], [ -49.68184, -3.7739066 ], [ -49.681911699999944, -3.773801499999907 ], [ -49.682484099999954, -3.772911899999917 ], [ -49.682088099999937, -3.772395099999906 ], [ -49.682406799999967, -3.772129 ], [ -49.68221489999997, -3.771172799999925 ], [ -49.682713499999977, -3.771004 ], [ -49.682837899999988, -3.7701196999999 ], [ -49.686361399999953, -3.770870599999935 ], [ -49.68643569999994, -3.770651899999959 ], [ -49.686974099999986, -3.770843799999985 ], [ -49.68732429999995, -3.770832599999973 ], [ -49.688376199999944, -3.771600499999967 ], [ -49.690482799999984, -3.770332199999965 ], [ -49.691290399999957, -3.7695826 ], [ -49.695669399999986, -3.771092 ], [ -49.695356499999946, -3.768045 ], [ -49.694340299999965, -3.76712539999994 ], [ -49.694833299999971, -3.766783899999969 ], [ -49.695221199999935, -3.7663997 ], [ -49.695627499999944, -3.766155099999923 ], [ -49.696251599999989, -3.76565539999994 ], [ -49.696635599999986, -3.765553299999925 ], [ -49.697148499999969, -3.765415099999886 ], [ -49.697616399999959, -3.765245799999911 ], [ -49.69892509999994, -3.764672699999903 ], [ -49.699367699999982, -3.764706 ], [ -49.700620299999976, -3.757896099999933 ], [ -49.700628499999929, -3.757853899999932 ], [ -49.701264399999964, -3.754616399999954 ], [ -49.700995599999949, -3.754243899999926 ], [ -49.701212899999973, -3.752850499999976 ], [ -49.703105799999953, -3.7482178 ], [ -49.702667099999985, -3.748152399999933 ], [ -49.700373799999966, -3.747728499999954 ], [ -49.701346299999948, -3.734321 ], [ -49.682401099999936, -3.723162699999933 ], [ -49.68210449999998, -3.7232069 ], [ -49.681630599999949, -3.723193299999964 ], [ -49.68112629999996, -3.723228699999969 ], [ -49.680624099999932, -3.723170199999975 ], [ -49.679978899999981, -3.7231848 ], [ -49.679154, -3.723137199999901 ], [ -49.678474299999955, -3.723173299999879 ], [ -49.677374399999962, -3.723125399999974 ], [ -49.676992299999938, -3.723075199999935 ], [ -49.676619499999966, -3.723083199999983 ], [ -49.675597, -3.722873299999987 ], [ -49.670747499999948, -3.722759 ], [ -49.668778599999946, -3.7228876 ], [ -49.668564299999957, -3.723834 ], [ -49.668374099999937, -3.726172799999929 ], [ -49.668032499999981, -3.728238399999988 ], [ -49.667951699999946, -3.730454399999944 ], [ -49.667468699999972, -3.733332199999982 ], [ -49.666637099999946, -3.7362775 ], [ -49.665705, -3.738897 ], [ -49.664997599999943, -3.74134619999992 ], [ -49.6648206, -3.742242199999933 ], [ -49.664665499999956, -3.7424528 ], [ -49.664388699999961, -3.743625699999953 ], [ -49.664296099999945, -3.744739099999983 ], [ -49.664329099999968, -3.74542549999995 ], [ -49.664323599999932, -3.745588499999948 ], [ -49.664345699999956, -3.745710799999957 ], [ -49.664355, -3.74580409999998 ], [ -49.664378499999941, -3.745961399999952 ], [ -49.664386799999924, -3.746341099999977 ], [ -49.664513899999982, -3.746764799999977 ], [ -49.664516399999968, -3.746805799999926 ], [ -49.664527299999975, -3.746982899999947 ], [ -49.664538199999981, -3.747160099999985 ], [ -49.664548699999955, -3.747341499999925 ], [ -49.664565599999953, -3.7476355 ], [ -49.664587, -3.747676 ], [ -49.664522299999931, -3.74808009999989 ], [ -49.664614799999988, -3.748348399999957 ], [ -49.664923299999941, -3.749552699999938 ], [ -49.664727, -3.750016300000011 ], [ -49.6647976, -3.750152199999897 ], [ -49.664795799999979, -3.75022069999997 ], [ -49.664789399999961, -3.750464699999977 ], [ -49.664781399999988, -3.750505499999945 ], [ -49.664769499999977, -3.750933 ], [ -49.664833499999986, -3.751419599999954 ], [ -49.664990899999957, -3.751994499999928 ], [ -49.664924499999977, -3.752406299999978 ], [ -49.664934799999969, -3.75244 ], [ -49.664894799999963, -3.752572399999988 ], [ -49.66525119999995, -3.753131799999968 ], [ -49.665121499999948, -3.753946799999953 ], [ -49.665078, -3.754484099999935 ], [ -49.664895099999967, -3.754902799999929 ], [ -49.665070599999979, -3.756699 ], [ -49.665252499999951, -3.75712909999995 ], [ -49.665003, -3.758059499999917 ], [ -49.665137199999947, -3.759974799999912 ], [ -49.665160299999968, -3.76193259999993 ], [ -49.665176799999983, -3.762346 ], [ -49.665084899999947, -3.762824 ], [ -49.664705199999958, -3.763294 ], [ -49.664292199999977, -3.764125799999896 ], [ -49.664045099999953, -3.7643886 ], [ -49.663665599999945, -3.764608899999934 ], [ -49.663651, -3.76514409999993 ], [ -49.663453499999953, -3.765227199999948 ], [ -49.663106899999953, -3.765969299999959 ], [ -49.662980199999936, -3.766758299999895 ], [ -49.662699599999947, -3.767549799999912 ], [ -49.662416, -3.767844599999926 ], [ -49.662293399999953, -3.768234699999896 ], [ -49.662208899999939, -3.7693603 ], [ -49.66216629999996, -3.769473699999986 ], [ -49.66198, -3.769749699999947 ], [ -49.661804699999948, -3.770024599999942 ], [ -49.661773199999971, -3.770234099999943 ], [ -49.661756, -3.770349199999976 ], [ -49.661574199999961, -3.77066979999991 ], [ -49.661296099999959, -3.7709659 ], [ -49.66112719999996, -3.771557799999944 ], [ -49.661075499999981, -3.771679599999976 ], [ -49.661058899999951, -3.771718599999912 ], [ -49.660780799999948, -3.772289499999937 ], [ -49.66062809999994, -3.7725489 ], [ -49.660621099999958, -3.7725566 ], [ -49.660453299999972, -3.772740099999946 ], [ -49.660386399999929, -3.772900299999985 ], [ -49.660385499999961, -3.772913099999927 ], [ -49.660365399999939, -3.773191599999947 ], [ -49.660280099999966, -3.7733852 ], [ -49.660054, -3.773788499999981 ], [ -49.660041499999977, -3.77381079999995 ], [ -49.659936399999943, -3.774003700000014 ], [ -49.659868299999964, -3.774159 ], [ -49.659798899999942, -3.7742827 ], [ -49.659656899999959, -3.774351899999933 ], [ -49.6594391, -3.7745775 ], [ -49.659268699999984, -3.774828899999964 ], [ -49.659247, -3.775063 ], [ -49.659166499999969, -3.775316699999963 ], [ -49.659153899999986, -3.775967899999953 ], [ -49.659128199999941, -3.77642919999998 ], [ -49.659214499999962, -3.7769999 ], [ -49.659327699999942, -3.777571099999953 ], [ -49.659320799999925, -3.777600699999887 ], [ -49.659314, -3.7776304 ], [ -49.659586399999966, -3.7777381 ], [ -49.659346699999958, -3.778025699999941 ], [ -49.659204899999963, -3.778519699999986 ], [ -49.659164899999951, -3.779385599999977 ], [ -49.659284799999966, -3.78038659999995 ], [ -49.659240899999986, -3.780838699999955 ], [ -49.659217899999938, -3.781112699999943 ], [ -49.659051499999975, -3.781703 ], [ -49.660833899999943, -3.78273739999995 ], [ -49.661827099999982, -3.782651699999979 ], [ -49.662285599999954, -3.782831099999922 ], [ -49.662518099999943, -3.783243 ], [ -49.662965399999969, -3.7841723 ], [ -49.663700499999948, -3.786163399999982 ], [ -49.664100799999972, -3.785962099999935 ], [ -49.664328399999938, -3.78642179999993 ], [ -49.662410599999923, -3.791412699999978 ], [ -49.661554599999938, -3.7925807 ], [ -49.661518899999976, -3.792949799999979 ], [ -49.661600099999937, -3.794180599999906 ], [ -49.661688299999987, -3.794578099999939 ], [ -49.661844599999938, -3.795121399999954 ], [ -49.661988399999984, -3.795332899999937 ], [ -49.66282149999995, -3.795864899999949 ], [ -49.66331919999994, -3.7955266 ], [ -49.66342659999998, -3.795182299999936 ], [ -49.663370599999951, -3.794806799999964 ], [ -49.663480199999988, -3.79404309999994 ], [ -49.663680799999952, -3.793538600000016 ], [ -49.664823299999973, -3.79418 ], [ -49.666435599999943, -3.795075 ], [ -49.667598299999952, -3.795762799999987 ], [ -49.668674199999948, -3.796342 ], [ -49.668493899999937, -3.796793299999894 ], [ -49.666185599999949, -3.8025706 ], [ -49.670959699999969, -3.804245 ], [ -49.673691799999972, -3.805098 ], [ -49.674112499999971, -3.804358099999922 ], [ -49.67475109999998, -3.803563699999962 ], [ -49.675161899999978, -3.803028199999934 ], [ -49.67528109999995, -3.803056899999928 ], [ -49.67573109999995, -3.80297449999993 ], [ -49.676594199999954, -3.802737799999921 ], [ -49.677411399999983, -3.802539 ], [ -49.679244199999971, -3.798931 ], [ -49.679236299999957, -3.79896159999992 ], [ -49.679303699999934, -3.799082699999915 ], [ -49.679371099999969, -3.799203799999908 ], [ -49.681632699999973, -3.797923899999955 ], [ -49.685477699999979, -3.795757099999975 ], [ -49.687658799999959, -3.7967629 ], [ -49.688698799999948, -3.793716 ], [ -49.689488799999943, -3.79173 ], [ -49.68654539999995, -3.790990300000018 ] ] ] ] } }
]
}
