{
"type": "FeatureCollection",
"name": "2101400",
"crs": { "type": "name", "properties": { "name": "urn:ogc:def:crs:OGC:1.3:CRS84" } },
"features": [
{ "type": "Feature", "properties": { "CD_MUN": "2101400", "NM_MUN": "Balsas" }, "geometry": { "type": "Polygon", "coordinates": [ [ [ -46.090248199999969, -7.565882199999971 ], [ -46.090652699999964, -7.565838899999975 ], [ -46.091201599999977, -7.566142199999946 ], [ -46.090941599999951, -7.566987299999933 ], [ -46.093547299999955, -7.568540299999955 ], [ -46.09484029999993, -7.5692336999999 ], [ -46.09504069999997, -7.568720899999948 ], [ -46.096434799999948, -7.569580399999932 ], [ -46.096514199999945, -7.569320399999973 ], [ -46.097113699999966, -7.569529899999965 ], [ -46.098197199999959, -7.569818799999953 ], [ -46.098933899999956, -7.569948799999946 ], [ -46.099598499999956, -7.567695199999959 ], [ -46.100441499999931, -7.564540899999939 ], [ -46.100796899999978, -7.56287119999993 ], [ -46.100899399999939, -7.562261599999954 ], [ -46.101324799999986, -7.561019399999987 ], [ -46.102014899999972, -7.5587012 ], [ -46.102326899999987, -7.557574499999943 ], [ -46.102760199999977, -7.556049199999967 ], [ -46.101520899999969, -7.555607199999941 ], [ -46.099544899999955, -7.55484459999995 ], [ -46.097898299999933, -7.554428599999945 ], [ -46.096265, -7.554289099999933 ], [ -46.093881399999937, -7.553104499999958 ], [ -46.092436799999973, -7.552454499999937 ], [ -46.091873399999947, -7.551992199999986 ], [ -46.090905499999963, -7.551529899999944 ], [ -46.089273, -7.550894299999912 ], [ -46.087392, -7.550073699999944 ], [ -46.085024799999985, -7.536328399999941 ], [ -46.084954699999962, -7.535921799999924 ], [ -46.084604799999966, -7.53389 ], [ -46.084464099999934, -7.53307319999994 ], [ -46.081502899999968, -7.515879 ], [ -46.081450399999937, -7.515818699999936 ], [ -46.081518399999936, -7.515544399999956 ], [ -46.081366799999955, -7.515070499999959 ], [ -46.081142499999942, -7.514256899999943 ], [ -46.06915129999993, -7.507604399999924 ], [ -46.05982419999998, -7.502459 ], [ -46.051816899999949, -7.499528499999959 ], [ -46.045528199999978, -7.49043429999996 ], [ -46.037793099999938, -7.48152779999997 ], [ -46.03466009999994, -7.48231829999996 ], [ -46.036113499999935, -7.485817899999977 ], [ -46.038298399999974, -7.488475299999927 ], [ -46.038395299999934, -7.488513 ], [ -46.037904799999986, -7.489735099999947 ], [ -46.037629199999969, -7.490365 ], [ -46.036212399999954, -7.493947299999957 ], [ -46.03606, -7.49468249999995 ], [ -46.036042299999963, -7.49530109999993 ], [ -46.036006899999961, -7.495946199999929 ], [ -46.035927399999942, -7.496246699999976 ], [ -46.035803699999974, -7.496397 ], [ -46.035467799999942, -7.497233099999987 ], [ -46.034701799999944, -7.496936399999988 ], [ -46.034106199999947, -7.498488299999949 ], [ -46.031434899999965, -7.497472 ], [ -46.030882099999985, -7.497301099999977 ], [ -46.030369599999972, -7.497083399999934 ], [ -46.025723399999947, -7.495417899999954 ], [ -46.022405699999972, -7.48800179999996 ], [ -46.021791799999967, -7.4866317 ], [ -46.021370299999944, -7.485671599999915 ], [ -46.017272599999956, -7.506194599999971 ], [ -46.017563299999949, -7.506822499999946 ], [ -46.0187514, -7.509609799999951 ], [ -46.019961799999983, -7.514451399999912 ], [ -46.019772499999931, -7.516904299999984 ], [ -46.019796399999962, -7.518705 ], [ -46.020293799999934, -7.520059099999967 ], [ -46.020340199999971, -7.520557899999975 ], [ -46.020386599999945, -7.521056699999966 ], [ -46.020713299999954, -7.522351499999957 ], [ -46.02113379999998, -7.523428399999966 ], [ -46.021181299999974, -7.52355019999995 ], [ -46.021349099999952, -7.524176399999912 ], [ -46.021587799999963, -7.525509499999942 ], [ -46.022085299999958, -7.527032199999959 ], [ -46.023046699999952, -7.527719799999941 ], [ -46.023857299999975, -7.5282003 ], [ -46.024838299999935, -7.528452899999926 ], [ -46.025792099999933, -7.528101099999986 ], [ -46.026786199999947, -7.527769299999939 ], [ -46.027552699999937, -7.5283138 ], [ -46.027857099999949, -7.528881399999909 ], [ -46.028598, -7.5306517 ], [ -46.029273199999977, -7.5315366 ], [ -46.029705499999977, -7.531973899999957 ], [ -46.026533599999937, -7.534976099999922 ], [ -46.026511, -7.534997399999934 ], [ -46.02638079999997, -7.535304199999936 ], [ -46.025715599999955, -7.540843499999923 ], [ -46.025601499999937, -7.548803699999945 ], [ -46.025553099999975, -7.552174 ], [ -46.033955699999972, -7.549997199999953 ], [ -46.036452899999972, -7.550448299999953 ], [ -46.039032199999944, -7.550323899999971 ], [ -46.040557599999936, -7.549462499999929 ], [ -46.040397499999983, -7.549150599999972 ], [ -46.039527399999933, -7.5466926 ], [ -46.039554, -7.5456359 ], [ -46.046492899999976, -7.546941699999929 ], [ -46.046599899999933, -7.546958899999959 ], [ -46.046639899999946, -7.546959499999946 ], [ -46.04668, -7.546960099999966 ], [ -46.046716299999957, -7.546964299999954 ], [ -46.046756399999936, -7.5469649 ], [ -46.046796399999948, -7.546965499999958 ], [ -46.046836499999984, -7.546966199999956 ], [ -46.046872699999938, -7.546977499999947 ], [ -46.0469126, -7.546989 ], [ -46.046993399999963, -7.547034499999918 ], [ -46.047007, -7.5470592 ], [ -46.04700639999993, -7.547097499999967 ], [ -46.047005799999958, -7.547139299999989 ], [ -46.047005099999986, -7.547181199999938 ], [ -46.047004399999942, -7.54722649999996 ], [ -46.047003699999955, -7.547275299999951 ], [ -46.047003099999984, -7.547310099999955 ], [ -46.047002599999985, -7.547341499999979 ], [ -46.047001899999941, -7.547386799999959 ], [ -46.047004799999961, -7.547428699999961 ], [ -46.047018199999975, -7.547467299999953 ], [ -46.047038799999939, -7.547502499999964 ], [ -46.04707, -7.547534299999938 ], [ -46.047097699999945, -7.547559099999957 ], [ -46.047132499999982, -7.547584099999925 ], [ -46.047163799999964, -7.547609 ], [ -46.047198599999945, -7.547630399999939 ], [ -46.047233399999989, -7.547655399999962 ], [ -46.047250399999946, -7.547690499999915 ], [ -46.047256799999957, -7.547732399999967 ], [ -46.047266799999932, -7.547764 ], [ -46.047283799999946, -7.547802599999944 ], [ -46.047307899999964, -7.547834299999971 ], [ -46.047339299999976, -7.547855699999975 ], [ -46.047370399999984, -7.547891099999973 ], [ -46.047394499999939, -7.547919299999931 ], [ -46.047415099999967, -7.547954499999949 ], [ -46.047439299999951, -7.547979299999974 ], [ -46.047463399999977, -7.548014499999952 ], [ -46.047491, -7.54804629999993 ], [ -46.04751159999995, -7.548078 ], [ -46.047528699999937, -7.548109699999961 ], [ -46.047552799999941, -7.548148399999923 ], [ -46.047573399999976, -7.548180099999983 ], [ -46.04759039999994, -7.548215199999943 ], [ -46.047625099999948, -7.548247099999939 ], [ -46.047649299999932, -7.548271899999961 ], [ -46.047684, -7.548300399999946 ], [ -46.047711699999972, -7.548332199999946 ], [ -46.047739099999951, -7.548374399999927 ], [ -46.047749299999964, -7.548402499999938 ], [ -46.047769799999969, -7.548441099999954 ], [ -46.047776099999972, -7.548483099999955 ], [ -46.047779099999957, -7.548521499999947 ], [ -46.047778599999958, -7.548552799999919 ], [ -46.047778, -7.548591199999956 ], [ -46.047777299999957, -7.548633 ], [ -46.047776799999951, -7.548667899999945 ], [ -46.047783199999976, -7.548706299999929 ], [ -46.047814499999966, -7.54873119999997 ], [ -46.047845799999948, -7.548749099999938 ], [ -46.047877199999959, -7.548767 ], [ -46.047908499999956, -7.548788399999965 ], [ -46.04793989999996, -7.54880639999991 ], [ -46.047971299999972, -7.5488243 ], [ -46.048006299999948, -7.548835299999962 ], [ -46.048048399999978, -7.548842899999938 ], [ -46.048090299999956, -7.548857499999914 ], [ -46.048125299999981, -7.548868499999974 ], [ -46.048163799999941, -7.548886499999984 ], [ -46.048191699999961, -7.5489009 ], [ -46.048304299999984, -7.548961899999954 ], [ -46.048339199999937, -7.548976399999965 ], [ -46.048374099999933, -7.548997799999916 ], [ -46.048405399999979, -7.549015699999941 ], [ -46.048447499999959, -7.549023399999948 ], [ -46.048493, -7.549038 ], [ -46.048528099999942, -7.549042 ], [ -46.048559799999957, -7.549042499999927 ], [ -46.048602, -7.5490432 ], [ -46.048644199999956, -7.54904379999994 ], [ -46.048683, -7.549037399999963 ], [ -46.048732199999968, -7.549038199999932 ], [ -46.048785199999941, -7.54902159999992 ], [ -46.048813499999937, -7.549011499999946 ], [ -46.048866499999981, -7.548994899999959 ], [ -46.048894699999948, -7.548991899999979 ], [ -46.04893, -7.548982 ], [ -46.048976, -7.548965199999933 ], [ -46.049007899999935, -7.548951799999969 ], [ -46.049053799999967, -7.548938499999945 ], [ -46.049096099999986, -7.548935699999964 ], [ -46.049134799999933, -7.548929299999952 ], [ -46.04918059999995, -7.54893 ], [ -46.049215799999956, -7.548927099999969 ], [ -46.049254499999961, -7.548927699999964 ], [ -46.049286099999961, -7.548928099999973 ], [ -46.049328399999979, -7.548925299999925 ], [ -46.049364299999986, -7.548925 ], [ -46.049371499999943, -7.548983 ], [ -46.049438199999933, -7.548993499999959 ], [ -46.04949, -7.549027599999932 ], [ -46.049741199999971, -7.549235 ], [ -46.049955099999977, -7.549335099999969 ], [ -46.050038299999983, -7.5495531 ], [ -46.050121499999939, -7.549765099999942 ], [ -46.050341299999957, -7.549912399999937 ], [ -46.050537399999939, -7.550089099999989 ], [ -46.050608699999941, -7.55027759999995 ], [ -46.050893899999949, -7.550301099999961 ], [ -46.05113159999997, -7.550466099999944 ], [ -46.051345499999968, -7.550772399999981 ], [ -46.051452499999982, -7.551031599999932 ], [ -46.051464299999964, -7.551302499999974 ], [ -46.0516545, -7.55157349999998 ], [ -46.051820899999946, -7.551655899999979 ], [ -46.051844599999988, -7.55210359999995 ], [ -46.051844599999981, -7.552433499999954 ], [ -46.052129799999932, -7.552763399999935 ], [ -46.05234379999996, -7.55351729999993 ], [ -46.052236799999939, -7.55398859999996 ], [ -46.052462599999963, -7.554554 ], [ -46.053306399999933, -7.5549546 ], [ -46.053555899999942, -7.555366899999961 ], [ -46.053983699999954, -7.55553179999993 ], [ -46.054078799999957, -7.555732099999958 ], [ -46.05381739999995, -7.5561562 ], [ -46.05396, -7.556474299999916 ], [ -46.05435209999996, -7.556874899999945 ], [ -46.054352099999967, -7.5572165 ], [ -46.054803699999979, -7.557287199999972 ], [ -46.055029499999939, -7.557463899999929 ], [ -46.055314799999962, -7.558029399999942 ], [ -46.055683199999976, -7.558559499999945 ], [ -46.056515, -7.55896 ], [ -46.057275599999976, -7.559525499999964 ], [ -46.057691499999976, -7.5600674 ], [ -46.058107499999956, -7.560491499999962 ], [ -46.058606599999969, -7.560915599999916 ], [ -46.058879899999958, -7.561528199999928 ], [ -46.059414699999941, -7.562258599999932 ], [ -46.059527599999967, -7.562441199999945 ], [ -46.059836599999983, -7.562747499999939 ], [ -46.060151499999961, -7.56302439999994 ], [ -46.060288199999945, -7.563483799999972 ], [ -46.060329799999984, -7.563790099999966 ], [ -46.060597199999961, -7.564043399999946 ], [ -46.061351799999954, -7.564173 ], [ -46.06192219999997, -7.564414499999937 ], [ -46.062766, -7.564714899999936 ], [ -46.062974, -7.564614699999925 ], [ -46.063187899999946, -7.5643909 ], [ -46.063473099999946, -7.564343799999974 ], [ -46.063698899999956, -7.563978599999898 ], [ -46.064697099999933, -7.564190599999971 ], [ -46.06526759999997, -7.564414499999935 ], [ -46.065647899999938, -7.564296699999951 ], [ -46.065766699999983, -7.564084599999957 ], [ -46.065945, -7.56338959999991 ], [ -46.066277699999951, -7.563636899999939 ], [ -46.066717399999959, -7.563672299999968 ], [ -46.067204699999934, -7.563460199999964 ], [ -46.067953299999942, -7.56308329999998 ], [ -46.068476199999964, -7.563012599999967 ], [ -46.06855939999997, -7.562930099999943 ], [ -46.068642599999976, -7.562564899999913 ], [ -46.069308099999944, -7.562352899999946 ], [ -46.069581399999954, -7.562506 ], [ -46.07035389999993, -7.562187899999987 ], [ -46.070758, -7.5618345 ], [ -46.07142349999998, -7.561316199999981 ], [ -46.071886899999981, -7.561221899999967 ], [ -46.072374199999963, -7.560956899999939 ], [ -46.072932699999974, -7.560674099999966 ], [ -46.07342, -7.560344299999918 ], [ -46.073812099999941, -7.5600851 ], [ -46.074121099999957, -7.559608 ], [ -46.074578699999961, -7.559284 ], [ -46.074774699999978, -7.559107299999934 ], [ -46.074947099999974, -7.55904839999992 ], [ -46.075077799999974, -7.559125 ], [ -46.075618499999962, -7.558877599999967 ], [ -46.075820499999971, -7.558995399999957 ], [ -46.075981, -7.558753899999933 ], [ -46.076236499999936, -7.558777399999949 ], [ -46.076486, -7.558789199999961 ], [ -46.076741499999969, -7.558877599999941 ], [ -46.077109899999982, -7.558854 ], [ -46.077383299999944, -7.558801 ], [ -46.077710099999933, -7.558759799999939 ], [ -46.07796559999997, -7.559013099999961 ], [ -46.078108199999981, -7.559225099999933 ], [ -46.07845279999998, -7.55918979999994 ], [ -46.078868799999952, -7.5591426 ], [ -46.079510499999969, -7.559342899999933 ], [ -46.079676899999981, -7.559613899999931 ], [ -46.080104699999936, -7.559602099999939 ], [ -46.080805799999958, -7.559920199999974 ], [ -46.081364399999984, -7.559931899999969 ], [ -46.081661499999939, -7.55993189999996 ], [ -46.081768499999953, -7.560202899999975 ], [ -46.08218439999996, -7.560285399999946 ], [ -46.082600299999974, -7.560179299999956 ], [ -46.08333709999993, -7.560038 ], [ -46.083836299999973, -7.56049739999996 ], [ -46.084382899999987, -7.560850799999965 ], [ -46.084466099999986, -7.561286699999935 ], [ -46.084763199999934, -7.561510599999966 ], [ -46.084869799999986, -7.561513899999967 ], [ -46.084738699999939, -7.563556399999936 ], [ -46.085894399999972, -7.563700799999914 ], [ -46.087057399999928, -7.563881399999977 ], [ -46.087209, -7.563953599999951 ], [ -46.089453599999956, -7.565369399999949 ], [ -46.090248199999969, -7.565882199999971 ] ] ] } }
]
}
