{
"type": "FeatureCollection",
"name": "2102101",
"crs": { "type": "name", "properties": { "name": "urn:ogc:def:crs:OGC:1.3:CRS84" } },
"features": [
{ "type": "Feature", "properties": { "CD_MUN": "2102101", "NM_MUN": "Brejo" }, "geometry": { "type": "MultiPolygon", "coordinates": [ [ [ [ -42.74461139999994, -3.701167499999924 ], [ -42.744560099999951, -3.701526099999975 ], [ -42.74460629999993, -3.701858899999969 ], [ -42.744556499999938, -3.702190199999983 ], [ -42.74455839999996, -3.702205 ], [ -42.744711499999944, -3.703372099999987 ], [ -42.745185199999987, -3.703405 ], [ -42.745676299999957, -3.703660499999936 ], [ -42.745818799999938, -3.703961699999935 ], [ -42.746177499999938, -3.704059799999967 ], [ -42.746415799999973, -3.704343099999917 ], [ -42.746774, -3.7042857 ], [ -42.747084, -3.704414899999931 ], [ -42.749044399999953, -3.70734119999996 ], [ -42.749196, -3.7074668 ], [ -42.749304499999944, -3.707478 ], [ -42.749392499999942, -3.707491299999933 ], [ -42.749525199999937, -3.707558399999922 ], [ -42.749857, -3.707709399999957 ], [ -42.750106, -3.7077768 ], [ -42.750338799999952, -3.707660599999982 ], [ -42.750787299999956, -3.707628399999928 ], [ -42.751003199999957, -3.7076456 ], [ -42.751252499999964, -3.707579499999988 ], [ -42.751518799999985, -3.707346599999904 ], [ -42.751918099999962, -3.707097299999903 ], [ -42.752333899999947, -3.706864799999981 ], [ -42.752616799999942, -3.706682 ], [ -42.752949699999938, -3.706399099999957 ], [ -42.75309939999994, -3.706225199999912 ], [ -42.75317559999997, -3.706386299999922 ], [ -42.753345799999977, -3.706542499999985 ], [ -42.753748599999938, -3.706668199999979 ], [ -42.754120599999965, -3.706747 ], [ -42.754446199999968, -3.706747799999985 ], [ -42.754537699999958, -3.707355599999944 ], [ -42.754737599999949, -3.708025899999962 ], [ -42.754922399999948, -3.708524899999954 ], [ -42.755107, -3.709117299999941 ], [ -42.75538489999996, -3.709616499999953 ], [ -42.755663099999936, -3.709959899999974 ], [ -42.755881, -3.709664499999957 ], [ -42.756037099999958, -3.709228699999888 ], [ -42.756161899999938, -3.708948699999909 ], [ -42.756550599999969, -3.708513499999956 ], [ -42.756923799999981, -3.708125 ], [ -42.757420899999943, -3.707768 ], [ -42.757606599999974, -3.707908599999916 ], [ -42.757544299999957, -3.708017499999897 ], [ -42.757264199999952, -3.708390699999962 ], [ -42.757527199999963, -3.708625 ], [ -42.75769779999996, -3.708641 ], [ -42.758008099999984, -3.708563899999972 ], [ -42.758318499999973, -3.708440099999932 ], [ -42.758924099999938, -3.708098899999918 ], [ -42.759157, -3.707990499999888 ], [ -42.75925, -3.707990699999908 ], [ -42.759482099999957, -3.708193799999984 ], [ -42.759853899999939, -3.708366099999959 ], [ -42.760054799999978, -3.708600299999989 ], [ -42.760240199999949, -3.70889669999996 ], [ -42.760317799999946, -3.7088502 ], [ -42.7605976, -3.708570499999895 ], [ -42.760908399999948, -3.708306499999964 ], [ -42.761367799999967, -3.708136899999913 ], [ -42.761916399999961, -3.708108399999986 ], [ -42.762420299999974, -3.708246499999929 ], [ -42.762734, -3.708475799999947 ], [ -42.762922099999976, -3.7083005 ], [ -42.763025899999946, -3.7080126 ], [ -42.763052399999935, -3.70746139999992 ], [ -42.76324939999995, -3.707043199999898 ], [ -42.763811499999974, -3.706987399999971 ], [ -42.764440299999933, -3.707056199999981 ], [ -42.764647199999963, -3.706973 ], [ -42.767953099999943, -3.700202899999923 ], [ -42.766697599999929, -3.700527499999966 ], [ -42.7651, -3.700488899999901 ], [ -42.765127899999989, -3.700209599999922 ], [ -42.765096199999967, -3.699929799999975 ], [ -42.764943599999981, -3.699565799999958 ], [ -42.764652, -3.699083399999963 ], [ -42.764416799999935, -3.698826 ], [ -42.764139299999961, -3.698555899999966 ], [ -42.763896699999982, -3.69819849999989 ], [ -42.768249599999933, -3.693341099999971 ], [ -42.767718599999967, -3.693155199999955 ], [ -42.767285899999941, -3.69298430000001 ], [ -42.766453, -3.692548599999972 ], [ -42.766034099999956, -3.6923351 ], [ -42.765724099999943, -3.692101500000016 ], [ -42.765548, -3.69192989999993 ], [ -42.765430799999933, -3.691775299999944 ], [ -42.765093399999955, -3.691152099999977 ], [ -42.764768099999969, -3.69059089999993 ], [ -42.764560499999959, -3.690200699999949 ], [ -42.764295, -3.6897336 ], [ -42.764224299999967, -3.689638799999955 ], [ -42.764192799999933, -3.6895802 ], [ -42.764076, -3.68936129999996 ], [ -42.763940899999959, -3.689089199999971 ], [ -42.763793299999975, -3.688816 ], [ -42.763638, -3.688566 ], [ -42.763451399999951, -3.688252 ], [ -42.763215699999932, -3.688012 ], [ -42.762699, -3.687563599999943 ], [ -42.762290599999979, -3.687207799999971 ], [ -42.762645099999929, -3.686835099999911 ], [ -42.763054099999977, -3.68648259999997 ], [ -42.763519699999961, -3.686186899999885 ], [ -42.76380249999994, -3.685850499999943 ], [ -42.763663799999968, -3.685741499999952 ], [ -42.763420099999962, -3.685557099999928 ], [ -42.763104099999971, -3.685340699999968 ], [ -42.762862499999983, -3.685157699999926 ], [ -42.762486799999969, -3.684862099999938 ], [ -42.762225199999932, -3.684697599999923 ], [ -42.761987199999965, -3.684549799999967 ], [ -42.761758, -3.6844914 ], [ -42.761527099999967, -3.684465099999978 ], [ -42.76124, -3.684433799999923 ], [ -42.76122179999993, -3.684226399999961 ], [ -42.761376599999949, -3.683724 ], [ -42.761641199999985, -3.682954399999986 ], [ -42.761735599999945, -3.682794199999959 ], [ -42.76178079999994, -3.6825916 ], [ -42.761778199999988, -3.6824637 ], [ -42.761839699999939, -3.68235859999993 ], [ -42.761985399999958, -3.682031499999977 ], [ -42.762040599999985, -3.681777399999907 ], [ -42.762044099999969, -3.681682299999975 ], [ -42.76193029999996, -3.681588399999916 ], [ -42.761795899999981, -3.6815144 ], [ -42.76160409999995, -3.68129679999989 ], [ -42.761355, -3.680922499999958 ], [ -42.760545, -3.679784199999978 ], [ -42.759845299999945, -3.6787843 ], [ -42.75920339999994, -3.6779075 ], [ -42.759123699999975, -3.677879099999886 ], [ -42.7625159, -3.67564139999994 ], [ -42.764540899999922, -3.674351199999951 ], [ -42.765176, -3.674041899999981 ], [ -42.765481499999972, -3.673919799999958 ], [ -42.766049499999951, -3.6737239 ], [ -42.766576799999946, -3.673574799999924 ], [ -42.766999099999957, -3.673480499999971 ], [ -42.767640299999989, -3.673361 ], [ -42.768312799999933, -3.673242499999935 ], [ -42.771852299999978, -3.67261309999994 ], [ -42.770982899999979, -3.672508199999883 ], [ -42.770223499999929, -3.672357499999968 ], [ -42.767495799999949, -3.671633 ], [ -42.766532499999975, -3.671486399999918 ], [ -42.764719099999979, -3.671432299999909 ], [ -42.764804399999939, -3.670601699999986 ], [ -42.765475499999987, -3.670045199999981 ], [ -42.765913, -3.669367499999952 ], [ -42.766110699999963, -3.668921499999901 ], [ -42.76664, -3.668170599999917 ], [ -42.767157499999939, -3.667791300000021 ], [ -42.767399499999961, -3.667387299999938 ], [ -42.767261499999961, -3.666465099999904 ], [ -42.766873799999985, -3.666158799999961 ], [ -42.766765, -3.665694500000017 ], [ -42.765546099999938, -3.664773799999963 ], [ -42.76405989999995, -3.664052599999971 ], [ -42.763762899999961, -3.664268699999982 ], [ -42.763469299999947, -3.664224799999961 ], [ -42.763328, -3.664198399999987 ], [ -42.763023499999981, -3.6642788 ], [ -42.761669899999958, -3.665142799999946 ], [ -42.760846099999981, -3.6655384 ], [ -42.760269199999989, -3.665548199999903 ], [ -42.75966869999997, -3.665630699999945 ], [ -42.759075299999949, -3.665612299999981 ], [ -42.75819649999994, -3.66491549999995 ], [ -42.756455199999948, -3.665136499999955 ], [ -42.756277799999964, -3.665183699999926 ], [ -42.748585099999957, -3.668038599999922 ], [ -42.740783199999953, -3.674762699999972 ], [ -42.740719899999931, -3.674862099999967 ], [ -42.74060859999998, -3.674806499999978 ], [ -42.740484799999933, -3.674739 ], [ -42.740366299999941, -3.674801899999974 ], [ -42.74026, -3.674854199999979 ], [ -42.740185, -3.674870799999961 ], [ -42.74008989999993, -3.674850699999955 ], [ -42.739949799999977, -3.67486309999995 ], [ -42.739931499999962, -3.674835 ], [ -42.739929199999949, -3.6747862 ], [ -42.740022499999959, -3.674736299999943 ], [ -42.740081, -3.674692199999914 ], [ -42.740111499999962, -3.674607699999952 ], [ -42.740055299999938, -3.6745007 ], [ -42.73981909999997, -3.674191399999958 ], [ -42.739724199999955, -3.67413 ], [ -42.739614099999983, -3.674074 ], [ -42.739481499999954, -3.674028300000022 ], [ -42.739382199999973, -3.673994499999971 ], [ -42.739303099999972, -3.673961299999982 ], [ -42.739234299999971, -3.673932499999986 ], [ -42.739138099999934, -3.6739193 ], [ -42.739092, -3.673939099999955 ], [ -42.739026199999948, -3.673956899999978 ], [ -42.738984699999953, -3.673939599999968 ], [ -42.738968899999975, -3.673882099999938 ], [ -42.739009099999983, -3.673795299999932 ], [ -42.739040799999934, -3.673749099999958 ], [ -42.73903259999998, -3.673703299999957 ], [ -42.739055099999973, -3.673637299999975 ], [ -42.73908159999997, -3.673587599999931 ], [ -42.739113699999969, -3.673594099999934 ], [ -42.739145299999961, -3.673610299999977 ], [ -42.739150499999937, -3.673642399999925 ], [ -42.739154599999949, -3.673701 ], [ -42.739200799999935, -3.673760800000013 ], [ -42.739248899999957, -3.673781099999898 ], [ -42.739278599999984, -3.673778299999955 ], [ -42.739284099999963, -3.673731 ], [ -42.739272399999948, -3.673644599999903 ], [ -42.739307399999973, -3.673562699999948 ], [ -42.739354, -3.673503499999965 ], [ -42.739323199999937, -3.673475799999958 ], [ -42.739247199999966, -3.673466899999962 ], [ -42.739191199999944, -3.67345649999993 ], [ -42.739116899999942, -3.673398799999931 ], [ -42.738906, -3.673164599999898 ], [ -42.738582099999974, -3.673206299999982 ], [ -42.738418299999985, -3.6732059 ], [ -42.738217, -3.673040799999926 ], [ -42.738167099999949, -3.672876099999908 ], [ -42.738167299999922, -3.67278749999998 ], [ -42.737928299999965, -3.672609599999952 ], [ -42.737663599999969, -3.672621599999918 ], [ -42.73755029999996, -3.672583299999914 ], [ -42.737399499999988, -3.672418399999944 ], [ -42.737337199999949, -3.672152299999922 ], [ -42.737337799999985, -3.671899099999921 ], [ -42.73712409999996, -3.671683399999913 ], [ -42.736910199999954, -3.671556199999984 ], [ -42.736645799999962, -3.67147959999995 ], [ -42.736217099999969, -3.671554499999983 ], [ -42.735952799999943, -3.671439799999919 ], [ -42.735802, -3.671262199999939 ], [ -42.736004399999963, -3.670971499999943 ], [ -42.736017599999968, -3.67071839999994 ], [ -42.735753299999942, -3.670565799999967 ], [ -42.735564899999986, -3.670350099999972 ], [ -42.735671099999941, -3.670100299999965 ], [ -42.735634, -3.6692031 ], [ -42.73549219999996, -3.669040199999904 ], [ -42.735367199999985, -3.668889099999975 ], [ -42.735154799999975, -3.668782699999919 ], [ -42.735042799999974, -3.668782399999961 ], [ -42.734972799999973, -3.668782199999973 ], [ -42.734860899999951, -3.6687679 ], [ -42.734721099999945, -3.668683099999924 ], [ -42.734637199999945, -3.668626599999943 ], [ -42.734497099999942, -3.668654399999987 ], [ -42.734413599999982, -3.668443199999933 ], [ -42.734428299999941, -3.668176 ], [ -42.734428699999967, -3.668007199999924 ], [ -42.734359199999972, -3.667838199999919 ], [ -42.734292399999958, -3.667564099999916 ], [ -42.734416299999964, -3.667388299999935 ], [ -42.734416499999959, -3.667303900000011 ], [ -42.734528799999964, -3.6671775 ], [ -42.734613299999978, -3.666994899999985 ], [ -42.734529799999962, -3.666783699999933 ], [ -42.734348099999977, -3.666670699999983 ], [ -42.734222199999977, -3.6666422 ], [ -42.734096399999942, -3.666543499999931 ], [ -42.734012699999937, -3.666402599999975 ], [ -42.733808299999964, -3.666427699999954 ], [ -42.733691399999934, -3.6661204 ], [ -42.7334537, -3.666021399999944 ], [ -42.733174199999951, -3.665809699999953 ], [ -42.733021099999974, -3.6654436 ], [ -42.732699299999979, -3.665358299999979 ], [ -42.732447599999951, -3.665203 ], [ -42.7323502, -3.664963600000016 ], [ -42.732140799999968, -3.664738 ], [ -42.731861, -3.664652899999965 ], [ -42.731609499999934, -3.6644272 ], [ -42.731483799999985, -3.664300299999967 ], [ -42.731256499999979, -3.664188699999942 ], [ -42.731048599999944, -3.663934099999955 ], [ -42.730514499999963, -3.66366459999997 ], [ -42.730142399999984, -3.66351249999993 ], [ -42.729657599999939, -3.663250699999919 ], [ -42.729175499999947, -3.663244399999964 ], [ -42.728521099999973, -3.664306399999945 ], [ -42.725965599999938, -3.668529299999922 ], [ -42.724156199999982, -3.673993699999877 ], [ -42.728127799999989, -3.677566699999941 ], [ -42.740256899999963, -3.676443599999982 ], [ -42.738524499999983, -3.68298909999988 ], [ -42.738986, -3.683538 ], [ -42.739417299999964, -3.683835700000021 ], [ -42.739616099999985, -3.684332099999916 ], [ -42.740059, -3.685262499999928 ], [ -42.740474899999988, -3.686151899999988 ], [ -42.740825199999968, -3.688230699999931 ], [ -42.740751199999977, -3.68835949999988 ], [ -42.73981519999996, -3.689160699999982 ], [ -42.738682099999949, -3.690119 ], [ -42.737014, -3.691490399999925 ], [ -42.736140199999966, -3.692208299999963 ], [ -42.735830599999986, -3.692488599999911 ], [ -42.735812699999947, -3.692502599999904 ], [ -42.743009499999971, -3.699273799999947 ], [ -42.744579199999983, -3.700750599999924 ], [ -42.744632099999933, -3.70084449999993 ], [ -42.74461139999994, -3.701167499999924 ] ] ], [ [ [ -42.802155699999965, -3.672641199999901 ], [ -42.802207699999947, -3.672268 ], [ -42.802410799999969, -3.671946700000011 ], [ -42.803782299999966, -3.670016499999986 ], [ -42.804037499999936, -3.669754199999987 ], [ -42.80421819999998, -3.669549799999988 ], [ -42.804362299999987, -3.669341899999892 ], [ -42.805274099999963, -3.669527799999989 ], [ -42.806220899999978, -3.669607899999912 ], [ -42.808743899999968, -3.669377699999898 ], [ -42.809008899999981, -3.669352299999956 ], [ -42.809387499999957, -3.669315899999936 ], [ -42.809382699999965, -3.669176399999966 ], [ -42.789420499999949, -3.654218899999885 ], [ -42.786329199999955, -3.655961 ], [ -42.781469099999974, -3.658148899999924 ], [ -42.774267399999985, -3.672184899999973 ], [ -42.774354699999947, -3.672169399999988 ], [ -42.790854299999978, -3.678377 ], [ -42.791075199999966, -3.678460199999949 ], [ -42.8004428, -3.677441899999947 ], [ -42.800634199999941, -3.677201 ], [ -42.800757099999942, -3.676969399999987 ], [ -42.800908299999953, -3.676617399999945 ], [ -42.801380799999954, -3.675530599999941 ], [ -42.801614699999952, -3.6752093 ], [ -42.802155699999965, -3.672641199999901 ] ] ] ] } }
]
}
