{
"type": "FeatureCollection",
"name": "2102705",
"crs": { "type": "name", "properties": { "name": "urn:ogc:def:crs:OGC:1.3:CRS84" } },
"features": [
{ "type": "Feature", "properties": { "CD_MUN": "2102705", "NM_MUN": "Cantanhede" }, "geometry": { "type": "Polygon", "coordinates": [ [ [ -44.39683139999994, -3.654592 ], [ -44.396878699999952, -3.65197969999995 ], [ -44.398489699999963, -3.6486057 ], [ -44.398562399999946, -3.648588 ], [ -44.39869, -3.648574799999943 ], [ -44.399060299999981, -3.648499899999949 ], [ -44.399449199999943, -3.648533299999936 ], [ -44.40012349999995, -3.648632899999907 ], [ -44.400404299999941, -3.648624299999896 ], [ -44.400463499999951, -3.6486222 ], [ -44.400553299999956, -3.648617199999938 ], [ -44.400599899999975, -3.6486179 ], [ -44.400931, -3.648625199999957 ], [ -44.401098499999932, -3.648603 ], [ -44.401217199999969, -3.648612299999987 ], [ -44.40150229999994, -3.648669399999924 ], [ -44.401741499999957, -3.648714699999938 ], [ -44.40191509999994, -3.648729599999928 ], [ -44.402079599999986, -3.648720099999907 ], [ -44.402265099999973, -3.6486856 ], [ -44.4023706, -3.648702100000033 ], [ -44.402522599999941, -3.648758 ], [ -44.402636899999948, -3.648837100000027 ], [ -44.402732299999968, -3.648906699999925 ], [ -44.402832599999961, -3.6490322 ], [ -44.402897899999971, -3.6491148 ], [ -44.403008499999942, -3.64913439999998 ], [ -44.403169399999967, -3.649110799999909 ], [ -44.403181099999983, -3.649110399999923 ], [ -44.403377, -3.649087299999921 ], [ -44.403727799999963, -3.6490507 ], [ -44.404001199999982, -3.649030199999937 ], [ -44.404206599999952, -3.649014799999989 ], [ -44.40446639999994, -3.64894479999997 ], [ -44.40474119999994, -3.648839199999901 ], [ -44.405034399999984, -3.648695 ], [ -44.405251299999982, -3.648551399999934 ], [ -44.405330499999941, -3.648507199999892 ], [ -44.405565, -3.648442799999926 ], [ -44.405732299999954, -3.648412299999966 ], [ -44.405875299999934, -3.6484176 ], [ -44.405992399999953, -3.64843029999997 ], [ -44.406082599999941, -3.648438900000015 ], [ -44.406178299999965, -3.648409199999949 ], [ -44.406367199999984, -3.648363 ], [ -44.406575399999944, -3.648361 ], [ -44.406780199999957, -3.648355899999944 ], [ -44.40697339999997, -3.648389199999951 ], [ -44.407204199999967, -3.648479699999958 ], [ -44.407282199999933, -3.648511199999983 ], [ -44.407416199999943, -3.648516199999915 ], [ -44.407539099999951, -3.648516299999963 ], [ -44.407611299999985, -3.6485493 ], [ -44.407821699999943, -3.648646199999947 ], [ -44.4079723, -3.648732399999943 ], [ -44.408093699999938, -3.648808299999928 ], [ -44.408184399999982, -3.648875899999972 ], [ -44.408334899999943, -3.649036399999939 ], [ -44.408434199999931, -3.64914320000001 ], [ -44.408518399999934, -3.64920219999995 ], [ -44.408628599999979, -3.64925 ], [ -44.408728299999943, -3.649250399999979 ], [ -44.408744399999932, -3.649247 ], [ -44.408834699999943, -3.6491988 ], [ -44.409019199999932, -3.649032499999946 ], [ -44.409149399999933, -3.648941 ], [ -44.409274499999981, -3.6484851 ], [ -44.409363199999973, -3.647228199999929 ], [ -44.409518499999933, -3.646762399999909 ], [ -44.409725499999979, -3.645121099999874 ], [ -44.409880799999939, -3.644359499999899 ], [ -44.408712599999944, -3.641402199999985 ], [ -44.406803399999944, -3.6391652 ], [ -44.402893699999936, -3.640085299999901 ], [ -44.402125699999949, -3.636600099999981 ], [ -44.386162, -3.634694799999938 ], [ -44.386196, -3.63464339999993 ], [ -44.386285699999974, -3.634497299999978 ], [ -44.386392099999966, -3.634382399999894 ], [ -44.386502799999967, -3.63426309999991 ], [ -44.386536899999953, -3.634203499999983 ], [ -44.386805899999956, -3.63421729999996 ], [ -44.386915899999963, -3.634139599999918 ], [ -44.387022299999956, -3.6341993 ], [ -44.387128799999978, -3.634148199999951 ], [ -44.38712449999997, -3.634016199999965 ], [ -44.387158599999957, -3.633807499999896 ], [ -44.387162799999942, -3.6335904 ], [ -44.387252199999971, -3.633505199999959 ], [ -44.387350199999965, -3.633437099999976 ], [ -44.387452399999965, -3.633390199999985 ], [ -44.387482199999972, -3.633254 ], [ -44.387592899999966, -3.633028299999977 ], [ -44.387597099999937, -3.632674899999965 ], [ -44.387558799999965, -3.632525899999914 ], [ -44.387635499999924, -3.632308699999987 ], [ -44.38769079999998, -3.6322491 ], [ -44.387873899999938, -3.632138399999978 ], [ -44.387993099999967, -3.632049 ], [ -44.388103799999961, -3.63192129999991 ], [ -44.38816769999994, -3.6318531 ], [ -44.388189, -3.631721099999976 ], [ -44.388193199999932, -3.631618899999982 ], [ -44.388257099999976, -3.63136349999994 ], [ -44.388346499999955, -3.63124 ], [ -44.388614799999971, -3.631142 ], [ -44.388606299999942, -3.630988799999986 ], [ -44.388597799999957, -3.630920599999933 ], [ -44.388661599999985, -3.630856799999947 ], [ -44.38870849999995, -3.630605499999986 ], [ -44.388648799999949, -3.630550199999943 ], [ -44.388614799999971, -3.630460799999951 ], [ -44.388712699999985, -3.630256399999933 ], [ -44.388538099999948, -3.63023079999997 ], [ -44.388397599999969, -3.630103099999954 ], [ -44.388189, -3.630060499999924 ], [ -44.388010199999933, -3.630094599999951 ], [ -44.387882399999974, -3.630069 ], [ -44.387890899999945, -3.62992 ], [ -44.38804, -3.629800799999941 ], [ -44.387980299999981, -3.62958359999991 ], [ -44.387661, -3.629349399999933 ], [ -44.387448099999972, -3.629119499999914 ], [ -44.387477899999965, -3.628885299999932 ], [ -44.387508699999955, -3.628731799999944 ], [ -44.384748099999975, -3.629917699999977 ], [ -44.384738199999958, -3.629636799999933 ], [ -44.384649499999966, -3.625565499999898 ], [ -44.384442499999977, -3.624067099999936 ], [ -44.383747399999947, -3.623614599999952 ], [ -44.383388699999955, -3.622753799999964 ], [ -44.382898, -3.6233040999999 ], [ -44.381874899999964, -3.624657799999984 ], [ -44.378780899999988, -3.628439099999972 ], [ -44.37733, -3.630155699999942 ], [ -44.376912699999934, -3.630718 ], [ -44.374723599999975, -3.63363529999996 ], [ -44.373578699999939, -3.6352343 ], [ -44.372521199999937, -3.6362111 ], [ -44.371869, -3.6367179 ], [ -44.371041699999978, -3.637123799999981 ], [ -44.370568299999938, -3.6374364 ], [ -44.369658599999973, -3.637614899999956 ], [ -44.369094, -3.637860099999952 ], [ -44.366226599999948, -3.638051299999961 ], [ -44.364885, -3.637764899999932 ], [ -44.361402, -3.637052199999937 ], [ -44.360567799999956, -3.636774899999945 ], [ -44.360194399999962, -3.636557299999946 ], [ -44.360170399999959, -3.637264199999936 ], [ -44.360111699999955, -3.637650600000018 ], [ -44.359914699999933, -3.6383647 ], [ -44.359933599999977, -3.638690499999886 ], [ -44.359963899999961, -3.639086399999965 ], [ -44.360024499999959, -3.639332599999973 ], [ -44.360088899999937, -3.6395846 ], [ -44.360087, -3.640255099999905 ], [ -44.360060499999967, -3.640793099999968 ], [ -44.360064299999983, -3.64095029999989 ], [ -44.36007, -3.641183299999945 ], [ -44.354184199999963, -3.6472502 ], [ -44.357478399999941, -3.651085 ], [ -44.364581299999941, -3.6540054 ], [ -44.370118099999956, -3.653033199999888 ], [ -44.387246399999988, -3.659156299999958 ], [ -44.387313799999966, -3.659341799999929 ], [ -44.387372499999977, -3.65948 ], [ -44.387638699999968, -3.6600945 ], [ -44.387726, -3.6602789 ], [ -44.387836199999988, -3.660494199999951 ], [ -44.388143199999952, -3.661135199999891 ], [ -44.388293899999951, -3.661454099999971 ], [ -44.391419399999961, -3.660824699999945 ], [ -44.396727899999973, -3.659309 ], [ -44.397912699999949, -3.657148 ], [ -44.397733399999936, -3.656189 ], [ -44.39683139999994, -3.654592 ] ] ] } }
]
}
