{
"type": "FeatureCollection",
"name": "2103406",
"crs": { "type": "name", "properties": { "name": "urn:ogc:def:crs:OGC:1.3:CRS84" } },
"features": [
{ "type": "Feature", "properties": { "CD_MUN": "2103406", "NM_MUN": "Coelho Neto" }, "geometry": { "type": "Polygon", "coordinates": [ [ [ -43.027129299999963, -4.271476 ], [ -43.030893599999956, -4.273302699999932 ], [ -43.031881599999977, -4.274809599999934 ], [ -43.032098899999937, -4.274847599999907 ], [ -43.03231349999993, -4.275227799999891 ], [ -43.032680599999942, -4.275547299999961 ], [ -43.0337148, -4.27415239999993 ], [ -43.03377039999998, -4.274061099999926 ], [ -43.033728699999983, -4.273918899999927 ], [ -43.034167199999963, -4.273236199999926 ], [ -43.035090199999964, -4.271628199999932 ], [ -43.035729, -4.270632799999908 ], [ -43.036296299999947, -4.269703299999919 ], [ -43.032261799999965, -4.266533 ], [ -43.030990899999949, -4.262836599999952 ], [ -43.032228499999981, -4.255508799999983 ], [ -43.032227399999947, -4.255460199999948 ], [ -43.032934, -4.255372699999961 ], [ -43.032996599999933, -4.250323099999919 ], [ -43.031115899999975, -4.249399299999904 ], [ -43.029986, -4.247227899999888 ], [ -43.028953799999954, -4.247234799999956 ], [ -43.02558229999994, -4.243410499999937 ], [ -43.024516699999936, -4.242146699999949 ], [ -43.024869499999973, -4.238176399999964 ], [ -43.024885599999948, -4.237994599999966 ], [ -43.01357789999998, -4.235389699999962 ], [ -43.013069599999938, -4.235272299999949 ], [ -43.015246799999943, -4.228193 ], [ -43.013334699999966, -4.22762989999995 ], [ -43.011737699999976, -4.231990099999926 ], [ -43.009155799999974, -4.234146799999944 ], [ -43.007319, -4.24114 ], [ -43.003758499999947, -4.242607 ], [ -43.002814699999931, -4.243044499999918 ], [ -43.0020866, -4.243248699999945 ], [ -43.002039499999967, -4.243261899999912 ], [ -43.001976199999945, -4.243279699999924 ], [ -43.000561099999977, -4.246489599999934 ], [ -42.998335599999969, -4.248643299999958 ], [ -42.995079899999951, -4.25062529999992 ], [ -42.997080699999977, -4.2535905 ], [ -43.001467099999957, -4.25707849999996 ], [ -43.003119, -4.25924549999993 ], [ -43.007844899999952, -4.262328899999973 ], [ -43.014152499999966, -4.266271799999988 ], [ -43.015933899999936, -4.27059109999992 ], [ -43.016146599999963, -4.270995099999898 ], [ -43.021063599999934, -4.26887339999995 ], [ -43.022454499999981, -4.268101799999966 ], [ -43.027129299999963, -4.271476 ] ] ] } }
]
}
