{
"type": "FeatureCollection",
"name": "2103901",
"crs": { "type": "name", "properties": { "name": "urn:ogc:def:crs:OGC:1.3:CRS84" } },
"features": [
{ "type": "Feature", "properties": { "CD_MUN": "2103901", "NM_MUN": "Duque Bacelar" }, "geometry": { "type": "Polygon", "coordinates": [ [ [ -42.948695299999947, -4.160439799999922 ], [ -42.948719199999971, -4.16043 ], [ -42.963661, -4.15436119999995 ], [ -42.963627099999947, -4.154082199999972 ], [ -42.963633499999958, -4.15384040000001 ], [ -42.948631499999983, -4.138527599999935 ], [ -42.948342099999934, -4.138363099999969 ], [ -42.948000199999967, -4.138034799999946 ], [ -42.946130899999957, -4.137115799999924 ], [ -42.94558, -4.1365418 ], [ -42.943050699999958, -4.130701 ], [ -42.942769699999985, -4.129946299999986 ], [ -42.941166399999936, -4.128930199999978 ], [ -42.941155799999933, -4.128967099999937 ], [ -42.936213699999932, -4.146082899999955 ], [ -42.934226799999976, -4.152964099999965 ], [ -42.932587099999978, -4.156932399999978 ], [ -42.935841699999976, -4.159122599999919 ], [ -42.938255299999987, -4.161318499999889 ], [ -42.941557699999983, -4.165681599999967 ], [ -42.943628299999943, -4.165155 ], [ -42.948695299999947, -4.160439799999922 ] ] ] } }
]
}
