{
"type": "FeatureCollection",
"name": "2104107",
"crs": { "type": "name", "properties": { "name": "urn:ogc:def:crs:OGC:1.3:CRS84" } },
"features": [
{ "type": "Feature", "properties": { "CD_MUN": "2104107", "NM_MUN": "Fortaleza dos Nogueiras" }, "geometry": { "type": "Polygon", "coordinates": [ [ [ -46.189380399999941, -6.9710145 ], [ -46.193601599999965, -6.970734599999946 ], [ -46.194072799999958, -6.9686551 ], [ -46.190768299999945, -6.960566899999934 ], [ -46.190232699999967, -6.960069 ], [ -46.189959699999974, -6.959822 ], [ -46.189698199999945, -6.959611299999933 ], [ -46.189643599999954, -6.95957019999998 ], [ -46.189101199999982, -6.958665099999972 ], [ -46.187731399999954, -6.954579199999971 ], [ -46.187693, -6.954464599999943 ], [ -46.187870199999963, -6.954567499999941 ], [ -46.188051699999967, -6.954553299999935 ], [ -46.18825, -6.954508099999943 ], [ -46.188754499999966, -6.954318399999979 ], [ -46.189158299999974, -6.954158099999983 ], [ -46.189214199999988, -6.954135899999939 ], [ -46.189549, -6.953960399999987 ], [ -46.189200899999946, -6.953413 ], [ -46.188701799999926, -6.953269799999908 ], [ -46.181830099999964, -6.949300899999956 ], [ -46.17894729999994, -6.951137699999965 ], [ -46.177654399999938, -6.951706599999988 ], [ -46.175901899999985, -6.952477799999953 ], [ -46.175796, -6.95252449999998 ], [ -46.173256099999946, -6.952068399999966 ], [ -46.168366299999946, -6.955791799999907 ], [ -46.167865, -6.959662499999978 ], [ -46.165006, -6.9603099 ], [ -46.164912299999969, -6.960491 ], [ -46.164885, -6.960681099999921 ], [ -46.164973499999974, -6.960777699999933 ], [ -46.164970599999947, -6.960854099999925 ], [ -46.16501, -6.960954299999961 ], [ -46.165105599999947, -6.961041 ], [ -46.165175499999975, -6.96111709999995 ], [ -46.165216799999939, -6.96121149999995 ], [ -46.165264099999945, -6.9613057 ], [ -46.165286099999946, -6.961378 ], [ -46.165297699999932, -6.961459799999972 ], [ -46.165332699999965, -6.961556699999947 ], [ -46.165353899999964, -6.961618799999933 ], [ -46.165341299999959, -6.961706899999948 ], [ -46.165374199999974, -6.9617646 ], [ -46.165369099999971, -6.961809499999967 ], [ -46.165384, -6.961878 ], [ -46.165385299999969, -6.961953199999944 ], [ -46.165312599999936, -6.962080199999928 ], [ -46.1652433, -6.962178799999943 ], [ -46.165178699999956, -6.96228549999992 ], [ -46.16507619999993, -6.962314499999946 ], [ -46.164881899999955, -6.962363299999912 ], [ -46.164790699999969, -6.962421499999953 ], [ -46.164659, -6.9625594 ], [ -46.164522099999942, -6.962698099999984 ], [ -46.164309099999976, -6.962771099999915 ], [ -46.1641145, -6.96277369999993 ], [ -46.164040599999964, -6.962828 ], [ -46.163957299999936, -6.962917299999965 ], [ -46.163943099999983, -6.962988499999937 ], [ -46.163929699999976, -6.963103299999948 ], [ -46.163942299999974, -6.963233299999942 ], [ -46.163983299999977, -6.963319199999933 ], [ -46.164024299999937, -6.963405099999948 ], [ -46.164106899999972, -6.963563699999939 ], [ -46.164163199999969, -6.96367489999992 ], [ -46.164235, -6.963766099999897 ], [ -46.164342399999953, -6.96403759999992 ], [ -46.164430699999969, -6.964159599999924 ], [ -46.164481599999938, -6.964274099999963 ], [ -46.164542599999947, -6.964536799999932 ], [ -46.164637399999947, -6.964976399999954 ], [ -46.16475139999995, -6.965037299999964 ], [ -46.164791, -6.965101699999932 ], [ -46.164820299999981, -6.965136899999929 ], [ -46.164837199999965, -6.965160099999941 ], [ -46.164854, -6.9651833 ], [ -46.1647976, -6.9651656 ], [ -46.160567499999956, -6.965942599999932 ], [ -46.160385499999961, -6.965693 ], [ -46.160274299999976, -6.965610399999933 ], [ -46.160197299999936, -6.965526099999986 ], [ -46.160138, -6.965409799999972 ], [ -46.160100099999966, -6.965289299999935 ], [ -46.160088699999953, -6.965239099999957 ], [ -46.160065399999951, -6.965194599999975 ], [ -46.16002739999994, -6.965132499999961 ], [ -46.159965699999937, -6.965060299999944 ], [ -46.159913299999978, -6.964965299999938 ], [ -46.159872499999942, -6.964932399999937 ], [ -46.159813599999957, -6.964891899999937 ], [ -46.158922699999948, -6.964571099999959 ], [ -46.157569699999954, -6.964063799999934 ], [ -46.157021099999952, -6.963846799999923 ], [ -46.156853099999985, -6.963795599999969 ], [ -46.156741799999963, -6.963768399999928 ], [ -46.156210599999952, -6.963571099999948 ], [ -46.15532149999995, -6.963283099999972 ], [ -46.155281899999977, -6.963348 ], [ -46.154844, -6.964065199999926 ], [ -46.154049, -6.965638099999947 ], [ -46.15422209999997, -6.967234699999931 ], [ -46.154484199999956, -6.967116299999939 ], [ -46.154844099999934, -6.967034599999963 ], [ -46.15528269999993, -6.967024399999961 ], [ -46.155366299999969, -6.967032599999909 ], [ -46.155657299999973, -6.967060899999962 ], [ -46.155996199999954, -6.9671658 ], [ -46.157474799999932, -6.967678799999938 ], [ -46.157903199999964, -6.96783839999996 ], [ -46.159292, -6.968355799999925 ], [ -46.160577799999949, -6.968792799999949 ], [ -46.161499899999967, -6.96895569999996 ], [ -46.162527399999931, -6.969099299999932 ], [ -46.162745299999983, -6.969115599999976 ], [ -46.163087399999931, -6.969122199999962 ], [ -46.163522699999938, -6.969017399999919 ], [ -46.164087199999983, -6.96870769999993 ], [ -46.164435299999987, -6.968465799999911 ], [ -46.164758099999972, -6.9686723 ], [ -46.1648335, -6.968695099999938 ], [ -46.164833499999979, -6.969137299999939 ], [ -46.164923699999974, -6.969443899999912 ], [ -46.164851599999956, -6.969840799999952 ], [ -46.1648335, -6.970057199999947 ], [ -46.164923699999974, -6.97021959999995 ], [ -46.165078899999969, -6.970476599999939 ], [ -46.164948699999961, -6.97064 ], [ -46.165187099999969, -6.970851099999938 ], [ -46.165194, -6.971205799999955 ], [ -46.165217899999959, -6.971818899999966 ], [ -46.164893499999955, -6.972270799999932 ], [ -46.173531499999967, -6.971691899999934 ], [ -46.189380399999941, -6.9710145 ] ] ] } }
]
}
