{
"type": "FeatureCollection",
"name": "2105104",
"crs": { "type": "name", "properties": { "name": "urn:ogc:def:crs:OGC:1.3:CRS84" } },
"features": [
{ "type": "Feature", "properties": { "CD_MUN": "2105104", "NM_MUN": "Icatu" }, "geometry": { "type": "MultiPolygon", "coordinates": [ [ [ [ -44.050497699999937, -2.794614899999924 ], [ -44.050860899999968, -2.794301500000012 ], [ -44.051092299999944, -2.794155 ], [ -44.051332399999971, -2.793947099999946 ], [ -44.051373399999932, -2.793803499999965 ], [ -44.05152279999993, -2.793551699999949 ], [ -44.051669199999935, -2.79335250000001 ], [ -44.052020699999957, -2.793106499999941 ], [ -44.053231799999928, -2.7914941 ], [ -44.05379709999994, -2.790996199999987 ], [ -44.053876199999934, -2.790849699999958 ], [ -44.053937699999949, -2.790621299999882 ], [ -44.053993299999938, -2.79047189999992 ], [ -44.054116399999941, -2.790346 ], [ -44.054210099999985, -2.790302 ], [ -44.054415099999972, -2.790243399999954 ], [ -44.054564499999962, -2.790225899999983 ], [ -44.054737299999942, -2.790173099999952 ], [ -44.055074099999956, -2.7899271 ], [ -44.055264499999964, -2.789634199999926 ], [ -44.055507599999949, -2.789159699999961 ], [ -44.055525199999977, -2.789068899999983 ], [ -44.055563199999938, -2.788989899999879 ], [ -44.055613, -2.788925399999894 ], [ -44.055788799999959, -2.788852199999956 ], [ -44.055844399999955, -2.788720399999962 ], [ -44.0558415, -2.78862669999998 ], [ -44.055800499999968, -2.788518299999955 ], [ -44.055610099999967, -2.788131699999936 ], [ -44.055381699999941, -2.787759700000022 ], [ -44.055217599999942, -2.787370199999925 ], [ -44.05510339999995, -2.787191499999925 ], [ -44.054751899999985, -2.786925 ], [ -44.054526399999929, -2.78672 ], [ -44.054409299999982, -2.786626199999913 ], [ -44.054183699999953, -2.786415299999954 ], [ -44.053732699999955, -2.785967199999893 ], [ -44.053732699999955, -2.785875 ], [ -44.053706299999938, -2.785817799999977 ], [ -44.053685799999982, -2.78579 ], [ -44.053595, -2.7857139 ], [ -44.053441199999959, -2.785544 ], [ -44.053378299999963, -2.785451699999941 ], [ -44.053354799999966, -2.7853873 ], [ -44.053293299999957, -2.785293599999977 ], [ -44.053253799999943, -2.785267199999947 ], [ -44.05321569999996, -2.785257 ], [ -44.052930099999976, -2.785257 ], [ -44.052783699999964, -2.785216 ], [ -44.052697299999977, -2.785183699999889 ], [ -44.052623599999954, -2.785123100000015 ], [ -44.052689499999978, -2.785085599999936 ], [ -44.052741299999987, -2.784852099999963 ], [ -44.052789799999978, -2.7846965 ], [ -44.052847699999965, -2.784573799999968 ], [ -44.052899299999986, -2.78445120000003 ], [ -44.052999799999952, -2.784387200000022 ], [ -44.053085599999982, -2.784358 ], [ -44.053234699999969, -2.784348899999984 ], [ -44.053312199999944, -2.784346199999973 ], [ -44.053362099999966, -2.784487399999878 ], [ -44.053488399999935, -2.7844666 ], [ -44.053634, -2.784372 ], [ -44.053788199999985, -2.784327 ], [ -44.053853699999934, -2.784209099999903 ], [ -44.053961299999969, -2.784263299999961 ], [ -44.054038099999957, -2.784310199999914 ], [ -44.054107899999963, -2.784313799999933 ], [ -44.054111899999945, -2.78422 ], [ -44.05421639999998, -2.784127499999957 ], [ -44.054364199999952, -2.784135599999903 ], [ -44.054455599999983, -2.78416850000001 ], [ -44.054497599999941, -2.7842704 ], [ -44.0545, -2.78443229999997 ], [ -44.054583699999974, -2.784476399999972 ], [ -44.054648199999974, -2.784467 ], [ -44.054727, -2.784352399999871 ], [ -44.054820799999959, -2.784244400000037 ], [ -44.05495789999997, -2.784258099999928 ], [ -44.055031799999945, -2.784339699999931 ], [ -44.055128599999925, -2.784342799999897 ], [ -44.055304299999932, -2.784434 ], [ -44.055374399999948, -2.784547 ], [ -44.055372799999937, -2.784629799999942 ], [ -44.05534, -2.784723299999953 ], [ -44.055176399999944, -2.784891299999966 ], [ -44.055283599999946, -2.785008099999911 ], [ -44.055461199999961, -2.78506 ], [ -44.055692099999924, -2.7850638 ], [ -44.055825899999952, -2.785018899999932 ], [ -44.055923, -2.785075 ], [ -44.056012199999948, -2.785033799999903 ], [ -44.056067399999961, -2.784882 ], [ -44.056033, -2.784736 ], [ -44.055926199999924, -2.784637299999904 ], [ -44.05597019999994, -2.784417599999935 ], [ -44.056034199999942, -2.784309099999988 ], [ -44.056054499999952, -2.784138299999942 ], [ -44.05609329999993, -2.784003799999976 ], [ -44.056202199999973, -2.783979799999898 ], [ -44.05634689999993, -2.784038599999922 ], [ -44.056487599999969, -2.784236399999927 ], [ -44.056692499999947, -2.784489 ], [ -44.056841899999938, -2.78463849999993 ], [ -44.05700829999995, -2.78490169999995 ], [ -44.05715, -2.7848779 ], [ -44.057202699999948, -2.784815900000022 ], [ -44.057290299999984, -2.78471279999995 ], [ -44.057449, -2.784655099999942 ], [ -44.057617099999959, -2.78447689999991 ], [ -44.057854199999952, -2.784414899999925 ], [ -44.058109699999932, -2.784241199999891 ], [ -44.058258199999955, -2.784198800000018 ], [ -44.058373299999978, -2.784241799999916 ], [ -44.058611699999972, -2.784422 ], [ -44.058757799999974, -2.784482399999977 ], [ -44.05890229999995, -2.784409699999955 ], [ -44.059029399999986, -2.784217100000012 ], [ -44.059124399999973, -2.783954699999966 ], [ -44.059312599999942, -2.783871099999907 ], [ -44.059522499999964, -2.783944899999887 ], [ -44.05966159999997, -2.784135 ], [ -44.05972729999997, -2.784394899999944 ], [ -44.059928699999944, -2.784662699999913 ], [ -44.060054699999966, -2.784890299999967 ], [ -44.060326, -2.7850823 ], [ -44.060608, -2.785059299999987 ], [ -44.060855199999942, -2.78481269999995 ], [ -44.060954899999963, -2.784429499999904 ], [ -44.061051299999981, -2.784019399999965 ], [ -44.061209199999944, -2.783739599999961 ], [ -44.061752099999985, -2.783533499999972 ], [ -44.062182399999983, -2.783444599999881 ], [ -44.067932599999956, -2.783115199999957 ], [ -44.0673733, -2.781943 ], [ -44.067267199999947, -2.7798914 ], [ -44.067735299999988, -2.777988 ], [ -44.068458299999975, -2.776229699999865 ], [ -44.068933699999945, -2.774743099999908 ], [ -44.069929, -2.771630500000022 ], [ -44.07036339999997, -2.770272 ], [ -44.071176399999963, -2.767729699999945 ], [ -44.058750199999963, -2.765128499999969 ], [ -44.058118499999985, -2.7649566 ], [ -44.054297599999984, -2.763916499999948 ], [ -44.048817299999939, -2.762399199999942 ], [ -44.048774399999957, -2.762387299999945 ], [ -44.048641499999974, -2.762381199999955 ], [ -44.047896899999955, -2.763188899999939 ], [ -44.039949299999932, -2.771809399999948 ], [ -44.038920699999949, -2.772925200000019 ], [ -44.038896399999949, -2.77301189999991 ], [ -44.035919599999943, -2.777399900000017 ], [ -44.034449499999937, -2.779673699999868 ], [ -44.034421699999939, -2.780417699999904 ], [ -44.035748299999973, -2.78480329999994 ], [ -44.036747, -2.7857782999999 ], [ -44.036779099999926, -2.785814600000029 ], [ -44.040885, -2.790453699999953 ], [ -44.042018199999973, -2.7909965 ], [ -44.042942299999929, -2.7919867 ], [ -44.044031599999975, -2.793306899999912 ], [ -44.044381299999948, -2.7936826 ], [ -44.044648699999982, -2.793861299999921 ], [ -44.044709099999977, -2.796259299999981 ], [ -44.044648699999982, -2.7964998 ], [ -44.044444699999985, -2.796726 ], [ -44.044544299999984, -2.796884399999942 ], [ -44.042603699999972, -2.800232399999907 ], [ -44.043886899999961, -2.800723299999979 ], [ -44.044935499999951, -2.7990728 ], [ -44.045076299999948, -2.798635799999933 ], [ -44.045139399999989, -2.7980679 ], [ -44.045285, -2.796965899999952 ], [ -44.045383199999954, -2.796597699999949 ], [ -44.045654, -2.796615399999937 ], [ -44.045931399999965, -2.79812919999992 ], [ -44.045948199999941, -2.799627799999978 ], [ -44.046558299999958, -2.798502799999958 ], [ -44.047687099999962, -2.7976626 ], [ -44.050136599999973, -2.795851599999983 ], [ -44.050165199999988, -2.795761499999966 ], [ -44.050368799999944, -2.794910699999915 ], [ -44.050497699999937, -2.794614899999924 ] ] ], [ [ [ -43.781453799999952, -2.5624153 ], [ -43.769915399999945, -2.557399699999952 ], [ -43.768229499999968, -2.562262 ], [ -43.77039549999995, -2.56653469999996 ], [ -43.775367499999959, -2.569494499999964 ], [ -43.780345199999942, -2.57105 ], [ -43.781453799999952, -2.5624153 ] ] ], [ [ [ -43.784316099999963, -2.550350799999956 ], [ -43.783547099999964, -2.550740499999942 ], [ -43.782196399999982, -2.55655590000003 ], [ -43.781453799999952, -2.5624153 ], [ -43.789592099999936, -2.560148800000026 ], [ -43.790785899999953, -2.550462799999906 ], [ -43.789615799999972, -2.549090799999908 ], [ -43.789243699999986, -2.548658799999926 ], [ -43.788852699999957, -2.548132100000022 ], [ -43.788505199999975, -2.5477167 ], [ -43.784316099999963, -2.550350799999956 ] ] ] ] } }
]
}
