{
"type": "FeatureCollection",
"name": "2105708",
"crs": { "type": "name", "properties": { "name": "urn:ogc:def:crs:OGC:1.3:CRS84" } },
"features": [
{ "type": "Feature", "properties": { "CD_MUN": "2105708", "NM_MUN": "Lago da Pedra" }, "geometry": { "type": "Polygon", "coordinates": [ [ [ -45.146032399999967, -4.596065299999942 ], [ -45.146288399999946, -4.59655349999998 ], [ -45.146388599999973, -4.596738599999989 ], [ -45.146562099999983, -4.596990099999978 ], [ -45.147012699999948, -4.597558599999944 ], [ -45.147255099999946, -4.597999699999963 ], [ -45.147340899999968, -4.598182899999946 ], [ -45.14750139999996, -4.598686499999934 ], [ -45.147654399999965, -4.599170199999919 ], [ -45.148630399999952, -4.599131199999912 ], [ -45.15104069999996, -4.597576699999951 ], [ -45.151997199999983, -4.596173099999948 ], [ -45.153198399999951, -4.59646759999994 ], [ -45.154091199999989, -4.596510599999975 ], [ -45.15459449999998, -4.595460899999964 ], [ -45.155212, -4.595070699999974 ], [ -45.154946599999953, -4.594231399999916 ], [ -45.155815199999942, -4.591557299999936 ], [ -45.155754, -4.589100699999934 ], [ -45.155404499999975, -4.584084299999985 ], [ -45.154166799999985, -4.583516099999974 ], [ -45.153982099999951, -4.5832819 ], [ -45.153363699999943, -4.582931 ], [ -45.153021399999943, -4.58293319999994 ], [ -45.152673699999973, -4.5828309 ], [ -45.151974099999961, -4.582586700000019 ], [ -45.147795699999961, -4.582444899999927 ], [ -45.147342, -4.581139599999972 ], [ -45.147154299999954, -4.58091209999996 ], [ -45.14674279999997, -4.580790599999958 ], [ -45.146266, -4.580635699999949 ], [ -45.145855799999936, -4.580534499999946 ], [ -45.145492599999955, -4.5805318 ], [ -45.145248299999935, -4.5804454 ], [ -45.144913299999985, -4.58038869999995 ], [ -45.144637399999972, -4.580405199999935 ], [ -45.144309599999985, -4.580522499999978 ], [ -45.144134599999973, -4.580536899999955 ], [ -45.14388079999997, -4.580731399999917 ], [ -45.143586599999935, -4.580814899999952 ], [ -45.143093599999986, -4.580968499999966 ], [ -45.142696499999943, -4.581133799999953 ], [ -45.142242899999985, -4.581293299999945 ], [ -45.142023499999937, -4.581327199999968 ], [ -45.141779799999945, -4.581482299999959 ], [ -45.141420499999988, -4.581873799999934 ], [ -45.14123, -4.582049099999953 ], [ -45.140941299999952, -4.582544299999936 ], [ -45.140768799999933, -4.582771899999977 ], [ -45.140072799999977, -4.583292399999963 ], [ -45.139706, -4.583592099999966 ], [ -45.139401899999946, -4.583209199999908 ], [ -45.138881199999958, -4.582553399999908 ], [ -45.138377399999968, -4.581746099999982 ], [ -45.138099199999949, -4.5812486 ], [ -45.137847299999969, -4.580656799999924 ], [ -45.137449699999941, -4.579783199999956 ], [ -45.13729009999998, -4.579454099999931 ], [ -45.137225799999953, -4.579288899999962 ], [ -45.136996, -4.57836 ], [ -45.138991099999942, -4.577447499999911 ], [ -45.138821, -4.577060799999936 ], [ -45.138774599999977, -4.576117399999887 ], [ -45.138635399999949, -4.575668899999934 ], [ -45.138341499999967, -4.575158499999955 ], [ -45.137993599999959, -4.574601799999919 ], [ -45.137978099999941, -4.573805299999925 ], [ -45.138094099999932, -4.5734805 ], [ -45.138009, -4.57316349999993 ], [ -45.137978099999934, -4.572289599999947 ], [ -45.137815699999976, -4.571995799999987 ], [ -45.137738399999932, -4.57075079999991 ], [ -45.137893, -4.570371899999967 ], [ -45.138140499999963, -4.570031599999906 ], [ -45.138906, -4.569157799999988 ], [ -45.139640699999973, -4.568508199999977 ], [ -45.139857199999938, -4.568361299999972 ], [ -45.140390799999977, -4.568253 ], [ -45.141063499999973, -4.567897299999971 ], [ -45.141256799999951, -4.567634399999948 ], [ -45.141697599999929, -4.567541599999936 ], [ -45.142556, -4.567704 ], [ -45.142965799999963, -4.567417899999928 ], [ -45.143128199999978, -4.567131799999963 ], [ -45.143236499999936, -4.567000299999968 ], [ -45.143207199999942, -4.566690699999981 ], [ -45.145122099999973, -4.566332299999965 ], [ -45.145928399999953, -4.566161 ], [ -45.146152299999983, -4.5661225 ], [ -45.146565499999951, -4.566041299999914 ], [ -45.146927, -4.566006699999961 ], [ -45.147388899999953, -4.566025499999971 ], [ -45.147841699999958, -4.566022599999966 ], [ -45.14833289999995, -4.565988899999972 ], [ -45.14904359999997, -4.565988799999972 ], [ -45.150605699999971, -4.5660204 ], [ -45.151426899999933, -4.566134199999956 ], [ -45.152228399999956, -4.566316799999917 ], [ -45.152839, -4.5663888 ], [ -45.153420099999948, -4.566369 ], [ -45.154197499999952, -4.566070799999964 ], [ -45.154895299999964, -4.565869599999943 ], [ -45.154598599999986, -4.562902899999937 ], [ -45.150617799999964, -4.56278809999998 ], [ -45.143922699999962, -4.560769 ], [ -45.146341199999945, -4.559955599999924 ], [ -45.145266, -4.55791980000001 ], [ -45.150985, -4.560324 ], [ -45.154428899999971, -4.560492299999943 ], [ -45.153698499999962, -4.548106099999933 ], [ -45.153259699999978, -4.540524599999988 ], [ -45.152280699999942, -4.539938699999941 ], [ -45.141043, -4.549741 ], [ -45.139992099999972, -4.550796 ], [ -45.139642399999964, -4.551126099999945 ], [ -45.138944699999968, -4.550035299999973 ], [ -45.137316899999966, -4.55163689999997 ], [ -45.135866, -4.550142499999942 ], [ -45.135541299999936, -4.549772299999937 ], [ -45.133925099999942, -4.551346899999904 ], [ -45.13370569999995, -4.551525799999974 ], [ -45.133301599999982, -4.5519356 ], [ -45.133085499999943, -4.552138899999906 ], [ -45.13302989999994, -4.551898199999941 ], [ -45.132808299999972, -4.551064699999914 ], [ -45.132733199999954, -4.5506561 ], [ -45.132692, -4.5500441 ], [ -45.132656199999985, -4.549482399999969 ], [ -45.132474499999944, -4.548556 ], [ -45.132277099999953, -4.547737899999967 ], [ -45.1322694, -4.547510599999947 ], [ -45.13229339999998, -4.547362299999975 ], [ -45.132406699999933, -4.5471896 ], [ -45.132580599999983, -4.547026199999934 ], [ -45.132965299999967, -4.5468127 ], [ -45.133926899999949, -4.54623559999995 ], [ -45.13431809999998, -4.545996799999958 ], [ -45.134619899999961, -4.545863299999959 ], [ -45.13533, -4.545553099999933 ], [ -45.135641199999952, -4.54548939999998 ], [ -45.136121499999945, -4.545435499999959 ], [ -45.136803, -4.545446699999929 ], [ -45.136877799999979, -4.545422199999943 ], [ -45.136963, -4.545382099999943 ], [ -45.137037899999939, -4.545262899999959 ], [ -45.137249299999951, -4.544594 ], [ -45.137534199999948, -4.543839199999951 ], [ -45.137726599999944, -4.543313699999975 ], [ -45.138281, -4.541866899999921 ], [ -45.138526099999979, -4.5412517 ], [ -45.138559899999962, -4.541171 ], [ -45.137244199999948, -4.541285699999923 ], [ -45.133698299999935, -4.5413826 ], [ -45.127703899999972, -4.547056699999896 ], [ -45.123989199999983, -4.545912599999937 ], [ -45.122690099999943, -4.547660299999943 ], [ -45.121885899999938, -4.547907699999935 ], [ -45.121088899999961, -4.547701499999964 ], [ -45.121645699999931, -4.54816789999996 ], [ -45.121942199999978, -4.54844979999995 ], [ -45.122169499999984, -4.548681399999979 ], [ -45.122348, -4.548874699999965 ], [ -45.122513299999973, -4.5490798 ], [ -45.122716899999951, -4.549354299999942 ], [ -45.122908699999982, -4.5496449 ], [ -45.123105, -4.549980399999944 ], [ -45.123278199999959, -4.550342499999961 ], [ -45.123397199999943, -4.550625499999938 ], [ -45.123575299999978, -4.551126699999946 ], [ -45.123705599999944, -4.551573799999981 ], [ -45.123843399999942, -4.552019399999987 ], [ -45.123859099999947, -4.55207 ], [ -45.123976599999935, -4.552486599999942 ], [ -45.124053, -4.552742899999971 ], [ -45.124121599999974, -4.5529855 ], [ -45.12429879999997, -4.553584399999964 ], [ -45.124560799999983, -4.554449299999964 ], [ -45.12461449999995, -4.554629299999893 ], [ -45.124708099999971, -4.5549612 ], [ -45.12471979999998, -4.555004 ], [ -45.124811099999931, -4.555316299999948 ], [ -45.12430279999996, -4.55549889999995 ], [ -45.124028, -4.555596499999979 ], [ -45.123924499999937, -4.555645299999981 ], [ -45.123852799999952, -4.555716 ], [ -45.123793099999951, -4.555847399999977 ], [ -45.123566099999948, -4.556517299999964 ], [ -45.123491899999976, -4.55673459999995 ], [ -45.121305899999982, -4.555926799999948 ], [ -45.120200099999977, -4.557048 ], [ -45.118160799999949, -4.563377299999972 ], [ -45.117548199999923, -4.563150699999903 ], [ -45.109365699999948, -4.560140099999957 ], [ -45.109359699999963, -4.560137899999989 ], [ -45.109356399999967, -4.560136699999965 ], [ -45.109353, -4.560135499999945 ], [ -45.108652199999938, -4.562034499999961 ], [ -45.108239499999968, -4.562391 ], [ -45.108084499999961, -4.562654299999939 ], [ -45.10363469999993, -4.570212799999989 ], [ -45.104148299999963, -4.571716199999976 ], [ -45.104250299999933, -4.571617899999957 ], [ -45.105354899999952, -4.570552399999964 ], [ -45.106560299999963, -4.569840199999905 ], [ -45.10965, -4.568247599999946 ], [ -45.110343399999969, -4.568337 ], [ -45.111083099999973, -4.568517499999913 ], [ -45.112446899999952, -4.568843399999967 ], [ -45.113963499999954, -4.569190399999981 ], [ -45.114299, -4.5692708 ], [ -45.11554509999997, -4.569564299999977 ], [ -45.117081199999973, -4.569941399999907 ], [ -45.118695499999951, -4.570363199999972 ], [ -45.119706799999967, -4.570608799999987 ], [ -45.12054379999995, -4.570810699999904 ], [ -45.120353299999977, -4.571543699999914 ], [ -45.120799199999972, -4.571805299999905 ], [ -45.121551, -4.572041199999968 ], [ -45.123353, -4.572284399999982 ], [ -45.123500399999955, -4.573338399999959 ], [ -45.123935199999949, -4.573360499999938 ], [ -45.123988699999984, -4.575569699999972 ], [ -45.123940799999957, -4.57671950000001 ], [ -45.12377129999993, -4.5781641 ], [ -45.124591199999941, -4.5783673999999 ], [ -45.12491069999993, -4.585368799999983 ], [ -45.125648699999942, -4.585942 ], [ -45.131374299999948, -4.589462199999986 ], [ -45.131093699999951, -4.590749499999953 ], [ -45.13202119999994, -4.59084319999993 ], [ -45.1325887, -4.589392299999944 ], [ -45.144254399999966, -4.594313099999924 ], [ -45.145030199999951, -4.595005899999935 ], [ -45.145661399999945, -4.595594 ], [ -45.146032399999967, -4.596065299999942 ] ] ] } }
]
}
