{
"type": "FeatureCollection",
"name": "2106904",
"crs": { "type": "name", "properties": { "name": "urn:ogc:def:crs:OGC:1.3:CRS84" } },
"features": [
{ "type": "Feature", "properties": { "CD_MUN": "2106904", "NM_MUN": "Monção" }, "geometry": { "type": "Polygon", "coordinates": [ [ [ -45.253527599999984, -3.494733099999975 ], [ -45.254517499999956, -3.49431579999994 ], [ -45.254916799999933, -3.4941982999999 ], [ -45.255191799999977, -3.4941236 ], [ -45.257583, -3.493807399999934 ], [ -45.259021099999984, -3.493901099999989 ], [ -45.260051499999975, -3.49412149999991 ], [ -45.260756799999967, -3.494330899999965 ], [ -45.261011899999971, -3.494203399999931 ], [ -45.261314699999964, -3.494035199999946 ], [ -45.261623799999938, -3.493916099999963 ], [ -45.266612, -3.493371 ], [ -45.26608, -3.490074 ], [ -45.266006199999943, -3.489779 ], [ -45.262851799999964, -3.482095 ], [ -45.2572651, -3.477671499999957 ], [ -45.257048399999974, -3.477499899999922 ], [ -45.253077799999971, -3.474356 ], [ -45.252019699999948, -3.474538099999907 ], [ -45.251728799999967, -3.473924 ], [ -45.251333199999976, -3.473330499999927 ], [ -45.251184799999983, -3.472242599999959 ], [ -45.251481499999961, -3.471401899999976 ], [ -45.251283699999931, -3.470610599999899 ], [ -45.241761599999968, -3.471038599999939 ], [ -45.243662799999981, -3.473516399999987 ], [ -45.240633199999934, -3.474334199999972 ], [ -45.239521399999944, -3.477864699999914 ], [ -45.238643599999939, -3.481609599999925 ], [ -45.237239299999942, -3.482604399999926 ], [ -45.238472099999967, -3.4852311 ], [ -45.238601599999981, -3.486146899999937 ], [ -45.238601599999981, -3.486594099999918 ], [ -45.238889799999988, -3.4871396 ], [ -45.239450399999946, -3.487140499999981 ], [ -45.239836699999955, -3.486732499999928 ], [ -45.239889099999971, -3.487416299999928 ], [ -45.240694799999979, -3.487572099999976 ], [ -45.240299799999946, -3.4884243 ], [ -45.241280299999971, -3.489062499999879 ], [ -45.242572, -3.488695 ], [ -45.242668099999946, -3.489069 ], [ -45.24432319999994, -3.492221599999974 ], [ -45.244703399999935, -3.491519899999949 ], [ -45.245522499999936, -3.49118 ], [ -45.246247899999958, -3.491665 ], [ -45.245930299999941, -3.492167699999934 ], [ -45.245638199999973, -3.492747 ], [ -45.245783399999937, -3.4932994 ], [ -45.245642099999948, -3.493665399999883 ], [ -45.245077099999946, -3.493864399999985 ], [ -45.244518599999935, -3.494153299999981 ], [ -45.244326, -3.494609199999925 ], [ -45.244770599999981, -3.495201399999897 ], [ -45.244557699999973, -3.496014499999938 ], [ -45.244088599999941, -3.496413099999982 ], [ -45.243797899999947, -3.496896 ], [ -45.245552699999962, -3.4984196 ], [ -45.246441599999969, -3.4991913 ], [ -45.246906, -3.498792399999927 ], [ -45.247127299999931, -3.498638599999975 ], [ -45.248094599999938, -3.497989599999976 ], [ -45.248754599999984, -3.497521099999923 ], [ -45.250728399999957, -3.496364099999898 ], [ -45.252293199999947, -3.495396 ], [ -45.253527599999984, -3.494733099999975 ] ] ] } }
]
}
