{
"type": "FeatureCollection",
"name": "2106607",
"crs": { "type": "name", "properties": { "name": "urn:ogc:def:crs:OGC:1.3:CRS84" } },
"features": [
{ "type": "Feature", "properties": { "CD_MUN": "2106607", "NM_MUN": "Matões" }, "geometry": { "type": "Polygon", "coordinates": [ [ [ -43.203309899999958, -5.540199899999963 ], [ -43.203888199999938, -5.540080599999941 ], [ -43.205198899999971, -5.53982 ], [ -43.206766299999977, -5.5395063 ], [ -43.21160469999996, -5.53855209999994 ], [ -43.213874799999985, -5.538102199999985 ], [ -43.215350099999966, -5.537811799999908 ], [ -43.219597299999975, -5.536945699999921 ], [ -43.220989699999969, -5.5366566 ], [ -43.222364, -5.536406399999973 ], [ -43.224018299999962, -5.5360676 ], [ -43.224490199999934, -5.535877499999935 ], [ -43.225402899999949, -5.535527599999972 ], [ -43.222919, -5.53453719999991 ], [ -43.222124899999983, -5.534219099999949 ], [ -43.219542199999978, -5.533184699999958 ], [ -43.215443799999953, -5.531543199999941 ], [ -43.214883199999974, -5.521528299999907 ], [ -43.214704899999965, -5.518724399999967 ], [ -43.214577699999957, -5.513450499999958 ], [ -43.216150199999952, -5.509507599999919 ], [ -43.216443899999952, -5.5085501 ], [ -43.215007699999944, -5.50791429999991 ], [ -43.214865899999957, -5.501254499999952 ], [ -43.212058199999952, -5.49983549999995 ], [ -43.2101608, -5.498815699999939 ], [ -43.209956499999976, -5.499446799999946 ], [ -43.208468799999935, -5.5038443 ], [ -43.208274299999978, -5.504541099999901 ], [ -43.208111, -5.505049699999975 ], [ -43.207930799999986, -5.505615599999939 ], [ -43.207642699999951, -5.506516399999938 ], [ -43.20739709999998, -5.507284599999914 ], [ -43.204966599999977, -5.502813199999915 ], [ -43.199120599999965, -5.505529199999932 ], [ -43.19852469999995, -5.509397299999899 ], [ -43.19799949999998, -5.512225199999913 ], [ -43.198302499999961, -5.514184599999984 ], [ -43.198302499999961, -5.51455319999996 ], [ -43.198539899999957, -5.51526519999995 ], [ -43.194265199999968, -5.517772499999978 ], [ -43.193116399999951, -5.517194299999984 ], [ -43.192141799999945, -5.51698719999995 ], [ -43.191768099999933, -5.516825599999925 ], [ -43.191333799999938, -5.5163459 ], [ -43.189985499999977, -5.516472099999953 ], [ -43.185528599999934, -5.516716899999973 ], [ -43.185999899999956, -5.5155417 ], [ -43.187078099999958, -5.513011799999973 ], [ -43.186921499999983, -5.5112468 ], [ -43.186722, -5.510775899999933 ], [ -43.186563, -5.510312599999962 ], [ -43.186504899999925, -5.510219199999916 ], [ -43.185823, -5.50957089999998 ], [ -43.183375099999978, -5.5131777 ], [ -43.17775069999994, -5.515798099999909 ], [ -43.17796809999993, -5.516156399999949 ], [ -43.17978769999997, -5.519155099999947 ], [ -43.184425799999985, -5.519415399999944 ], [ -43.186313399999968, -5.521768 ], [ -43.184753099999973, -5.528008799999927 ], [ -43.183286499999959, -5.53014489999993 ], [ -43.188494399999975, -5.538126099999954 ], [ -43.188582, -5.538245599999902 ], [ -43.191152599999953, -5.540597 ], [ -43.195050199999976, -5.544215599999952 ], [ -43.196379299999933, -5.545361399999923 ], [ -43.19644, -5.545522299999972 ], [ -43.196704899999929, -5.544964399999952 ], [ -43.196947299999984, -5.544266899999947 ], [ -43.197234699999974, -5.542972099999941 ], [ -43.197412199999967, -5.54237469999992 ], [ -43.197429299999953, -5.542320499999975 ], [ -43.198870899999974, -5.542786299999919 ], [ -43.199936599999944, -5.539708499999946 ], [ -43.20126149999993, -5.540134899999948 ], [ -43.202297399999971, -5.540412499999949 ], [ -43.203309899999958, -5.540199899999963 ] ] ] } }
]
}
