{
"type": "FeatureCollection",
"name": "2106631",
"crs": { "type": "name", "properties": { "name": "urn:ogc:def:crs:OGC:1.3:CRS84" } },
"features": [
{ "type": "Feature", "properties": { "CD_MUN": "2106631", "NM_MUN": "Matões do Norte" }, "geometry": { "type": "Polygon", "coordinates": [ [ [ -44.576263099999949, -3.63861119999997 ], [ -44.579335899999933, -3.639633299999917 ], [ -44.580843799999968, -3.640202899999989 ], [ -44.581534099999942, -3.63865479999996 ], [ -44.577446, -3.637227299999902 ], [ -44.574336399999929, -3.636195200000012 ], [ -44.572513499999957, -3.6355318 ], [ -44.570030499999966, -3.634493 ], [ -44.568534599999964, -3.633966899999976 ], [ -44.567413299999949, -3.633551899999955 ], [ -44.567329, -3.633520699999933 ], [ -44.56739939999995, -3.633484099999928 ], [ -44.567992599999968, -3.632413199999959 ], [ -44.568739199999982, -3.631112699999931 ], [ -44.56736889999997, -3.630625399999905 ], [ -44.558726899999961, -3.627468399999954 ], [ -44.55803439999994, -3.627115499999896 ], [ -44.558047799999947, -3.626878699999906 ], [ -44.55827789999995, -3.626154899999917 ], [ -44.558329199999946, -3.625913599999957 ], [ -44.558550399999945, -3.6251139 ], [ -44.558372799999972, -3.623766799999973 ], [ -44.558258899999942, -3.622775 ], [ -44.558245499999948, -3.6224834 ], [ -44.558315799999946, -3.622141699999973 ], [ -44.558540299999947, -3.621216799999918 ], [ -44.558724599999955, -3.62036229999997 ], [ -44.559066399999942, -3.618512699999946 ], [ -44.558560899999982, -3.618404099999985 ], [ -44.557870199999968, -3.6189047 ], [ -44.557491499999976, -3.618683599999952 ], [ -44.55721, -3.618700299999952 ], [ -44.557019, -3.6187539 ], [ -44.556653799999943, -3.618740499999895 ], [ -44.555960199999951, -3.618934899999989 ], [ -44.555347, -3.619323599999989 ], [ -44.554733699999986, -3.620111 ], [ -44.553577699999948, -3.621508299999926 ], [ -44.553282799999984, -3.621833399999945 ], [ -44.552659499999947, -3.622681199999958 ], [ -44.552394799999945, -3.6229878 ], [ -44.552165299999956, -3.62308489999994 ], [ -44.551570499999968, -3.62294080000002 ], [ -44.550990799999965, -3.6231587 ], [ -44.550553499999978, -3.622962599999934 ], [ -44.550446299999976, -3.622954199999946 ], [ -44.550183199999942, -3.623160299999916 ], [ -44.550112899999931, -3.623341299999929 ], [ -44.550121299999951, -3.62357749999992 ], [ -44.550305599999945, -3.623731699999917 ], [ -44.550588699999935, -3.62374 ], [ -44.550593699999972, -3.623852299999972 ], [ -44.550374199999965, -3.624174 ], [ -44.550107899999944, -3.6244806 ], [ -44.549977199999944, -3.624664899999949 ], [ -44.549762699999981, -3.624832399999925 ], [ -44.549722499999973, -3.624969799999954 ], [ -44.549802899999975, -3.625127299999955 ], [ -44.549963799999944, -3.6251742 ], [ -44.550050899999974, -3.625301499999947 ], [ -44.550146099999949, -3.6255176 ], [ -44.55127559999994, -3.625820899999962 ], [ -44.550139699999924, -3.6287563 ], [ -44.549167899999929, -3.630914299999974 ], [ -44.54975769999993, -3.631235900000027 ], [ -44.549245, -3.632331699999904 ], [ -44.550391, -3.633450899999921 ], [ -44.551070399999958, -3.633821199999962 ], [ -44.552360699999959, -3.634354299999886 ], [ -44.55246139999997, -3.63426369999992 ], [ -44.552720099999938, -3.6341471 ], [ -44.552800699999977, -3.634034699999928 ], [ -44.552813399999941, -3.633617 ], [ -44.552802799999938, -3.633394299999945 ], [ -44.55345159999996, -3.632126299999966 ], [ -44.553956299999982, -3.6320542 ], [ -44.554770599999983, -3.632372199999983 ], [ -44.555546699999987, -3.632660599999902 ], [ -44.556360899999966, -3.632826 ], [ -44.556475399999947, -3.632520699999892 ], [ -44.557618399999967, -3.632906599999976 ], [ -44.558844, -3.63334339999993 ], [ -44.560788499999944, -3.634009200000012 ], [ -44.561038699999983, -3.63318649999993 ], [ -44.561373699999933, -3.633235299999921 ], [ -44.562527299999942, -3.633633899999896 ], [ -44.564043399999946, -3.634202199999958 ], [ -44.564948899999926, -3.634526599999961 ], [ -44.565665599999932, -3.63479379999998 ], [ -44.56715209999993, -3.6352879 ], [ -44.56834589999994, -3.635709899999955 ], [ -44.569294, -3.636074799999969 ], [ -44.570831399999982, -3.636647599999959 ], [ -44.574577699999971, -3.6380148 ], [ -44.576263099999949, -3.63861119999997 ] ] ] } }
]
}
