{
"type": "FeatureCollection",
"name": "2107209",
"crs": { "type": "name", "properties": { "name": "urn:ogc:def:crs:OGC:1.3:CRS84" } },
"features": [
{ "type": "Feature", "properties": { "CD_MUN": "2107209", "NM_MUN": "Nina Rodrigues" }, "geometry": { "type": "Polygon", "coordinates": [ [ [ -43.900578, -3.467982699999943 ], [ -43.900577899999973, -3.467991199999928 ], [ -43.901320899999973, -3.46837079999992 ], [ -43.902351899999978, -3.468892199999951 ], [ -43.902725499999974, -3.46892739999989 ], [ -43.902941799999951, -3.4689938 ], [ -43.903074899999979, -3.469193099999944 ], [ -43.902725499999974, -3.471003199999921 ], [ -43.90239269999995, -3.471302199999952 ], [ -43.902010099999984, -3.471252399999939 ], [ -43.901095, -3.471235699999967 ], [ -43.900313099999941, -3.471418399999979 ], [ -43.899730699999964, -3.4714849 ], [ -43.899283499999967, -3.471618799999905 ], [ -43.899231599999951, -3.471634299999978 ], [ -43.89891549999993, -3.471883399999923 ], [ -43.898665899999969, -3.471734 ], [ -43.898190299999953, -3.471815799999932 ], [ -43.898183399999937, -3.471817 ], [ -43.898183699999947, -3.471820500000014 ], [ -43.897834099999962, -3.472066099999946 ], [ -43.897858699999972, -3.472401799999938 ], [ -43.897740199999944, -3.472857299999895 ], [ -43.898120499999948, -3.473044199999987 ], [ -43.898518599999932, -3.4733009 ], [ -43.898851299999933, -3.473609399999909 ], [ -43.899588099999967, -3.473751699999963 ], [ -43.900016, -3.473941499999961 ], [ -43.900134799999933, -3.474249899999927 ], [ -43.900063499999931, -3.47474809999992 ], [ -43.899825799999974, -3.4754361 ], [ -43.899992199999986, -3.475720799999975 ], [ -43.900396199999932, -3.475863199999968 ], [ -43.900657699999954, -3.475863199999986 ], [ -43.900919099999953, -3.475981799999941 ], [ -43.901299399999971, -3.475768299999988 ], [ -43.90160839999993, -3.475720799999957 ], [ -43.902036199999948, -3.475792 ], [ -43.902440299999967, -3.476100399999942 ], [ -43.903177099999944, -3.476574899999986 ], [ -43.903842599999955, -3.477049399999919 ], [ -43.904460599999936, -3.477476399999979 ], [ -43.904698, -3.47752449999994 ], [ -43.9052607, -3.47744319999997 ], [ -43.905489599999953, -3.477714799999977 ], [ -43.905519, -3.477749699999924 ], [ -43.9073906, -3.478138699999945 ], [ -43.912295, -3.478306099999936 ], [ -43.914789499999983, -3.4783312 ], [ -43.915154, -3.4783061 ], [ -43.915686599999965, -3.478269599999922 ], [ -43.916420599999974, -3.478128800000017 ], [ -43.916536, -3.4780635 ], [ -43.917561399999961, -3.477483499999957 ], [ -43.918284, -3.4768382 ], [ -43.918892399999947, -3.475699499999949 ], [ -43.918892399999955, -3.47509209999996 ], [ -43.919272699999965, -3.474370899999918 ], [ -43.919279499999959, -3.474299199999935 ], [ -43.919386799999984, -3.473156199999984 ], [ -43.919234699999947, -3.472435 ], [ -43.919538899999964, -3.471789699999914 ], [ -43.920147399999969, -3.470840699999961 ], [ -43.92037559999995, -3.469967699999925 ], [ -43.920451599999978, -3.469398299999958 ], [ -43.920527699999987, -3.468791 ], [ -43.920413599999961, -3.468145599999925 ], [ -43.920147399999969, -3.467728099999964 ], [ -43.919615, -3.467462399999909 ], [ -43.919196699999937, -3.4673485 ], [ -43.918362299999956, -3.467154399999973 ], [ -43.918347399999959, -3.467150899999975 ], [ -43.9177428, -3.466593199999926 ], [ -43.917908599999976, -3.466072599999924 ], [ -43.918142599999946, -3.465225799999961 ], [ -43.917246199999965, -3.464257 ], [ -43.916818499999984, -3.463399699999945 ], [ -43.916722499999935, -3.463314899999969 ], [ -43.916170699999959, -3.462827199999963 ], [ -43.915907599999969, -3.461159 ], [ -43.913897899999945, -3.459484299999927 ], [ -43.913060599999945, -3.459268899999969 ], [ -43.910811699999954, -3.4591254 ], [ -43.908211499999929, -3.459104 ], [ -43.908196799999985, -3.459048799999964 ], [ -43.908123099999948, -3.458771100000029 ], [ -43.907744299999933, -3.458934699999941 ], [ -43.907007799999974, -3.459269 ], [ -43.905517199999963, -3.459565900000012 ], [ -43.904407299999953, -3.459467599999944 ], [ -43.90378259999995, -3.459615699999934 ], [ -43.903773699999931, -3.4596108 ], [ -43.903307799999943, -3.459727 ], [ -43.902675599999952, -3.459677199999978 ], [ -43.901877, -3.460275 ], [ -43.901278, -3.461454199999897 ], [ -43.90129989999997, -3.462525199999909 ], [ -43.901303399999961, -3.462698799999889 ], [ -43.901336699999945, -3.463379699999914 ], [ -43.901170299999933, -3.46546529999992 ], [ -43.901004899999975, -3.466956699999975 ], [ -43.900578, -3.467982699999943 ] ] ] } }
]
}
