{
"type": "FeatureCollection",
"name": "2108702",
"crs": { "type": "name", "properties": { "name": "urn:ogc:def:crs:OGC:1.3:CRS84" } },
"features": [
{ "type": "Feature", "properties": { "CD_MUN": "2108702", "NM_MUN": "Pio XII" }, "geometry": { "type": "Polygon", "coordinates": [ [ [ -45.180131499999966, -3.901444300000012 ], [ -45.182977199999975, -3.895654699999954 ], [ -45.183529399999941, -3.887191899999984 ], [ -45.184136399999936, -3.881135 ], [ -45.183809699999983, -3.881232399999951 ], [ -45.183531099999989, -3.881317299999966 ], [ -45.181928399999954, -3.8818511 ], [ -45.181310899999971, -3.882087299999932 ], [ -45.180471099999977, -3.882544299999989 ], [ -45.179863799999964, -3.882871599999947 ], [ -45.179303899999987, -3.883193699999963 ], [ -45.178685299999984, -3.883571399999896 ], [ -45.177487199999973, -3.8844943 ], [ -45.176949799999932, -3.884872099999904 ], [ -45.177232899999986, -3.883664099999989 ], [ -45.176897899999972, -3.883380099999981 ], [ -45.176905199999965, -3.8831799 ], [ -45.17661389999995, -3.8823861 ], [ -45.175867399999952, -3.881625 ], [ -45.173930299999938, -3.880609099999988 ], [ -45.173602599999981, -3.880379699999944 ], [ -45.173340399999972, -3.880463499999964 ], [ -45.172972599999973, -3.880161299999974 ], [ -45.172907099999975, -3.880015599999968 ], [ -45.172939899999967, -3.879775299999931 ], [ -45.172109699999972, -3.878981499999932 ], [ -45.170457399999968, -3.8783525 ], [ -45.171019, -3.877073399999925 ], [ -45.171762099999967, -3.8753069 ], [ -45.173906299999942, -3.87033339999991 ], [ -45.172513399999957, -3.869614199999894 ], [ -45.169005699999964, -3.870458099999963 ], [ -45.166458099999943, -3.871982299999928 ], [ -45.163635599999971, -3.872349099999918 ], [ -45.157218, -3.874630499999965 ], [ -45.157742, -3.875147699999911 ], [ -45.157858199999964, -3.875307699999951 ], [ -45.15790879999998, -3.875381599999944 ], [ -45.158026499999949, -3.875758699999927 ], [ -45.158044299999979, -3.876014799999965 ], [ -45.158035299999938, -3.876348299999952 ], [ -45.158082399999955, -3.876456799999963 ], [ -45.158172399999955, -3.876573199999902 ], [ -45.158336, -3.876675599999938 ], [ -45.158517599999982, -3.876781299999946 ], [ -45.158728399999973, -3.876933199999967 ], [ -45.158901899999933, -3.8770337 ], [ -45.159089399999964, -3.877114 ], [ -45.15924119999994, -3.877168499999892 ], [ -45.159516499999945, -3.8773234 ], [ -45.159652699999974, -3.877428799999987 ], [ -45.160496399999943, -3.87807949999998 ], [ -45.1612952, -3.878485 ], [ -45.162457, -3.878956199999972 ], [ -45.163024399999983, -3.879154199999954 ], [ -45.16311989999997, -3.879184699999933 ], [ -45.161964199999943, -3.882785099999968 ], [ -45.163847099999941, -3.883733899999901 ], [ -45.1642035, -3.883924799999895 ], [ -45.16336529999996, -3.885774799999947 ], [ -45.16318659999996, -3.886024799999931 ], [ -45.162961599999967, -3.8861898 ], [ -45.162371599999979, -3.886284799999934 ], [ -45.162121599999985, -3.8863148 ], [ -45.161786599999971, -3.88645979999992 ], [ -45.161336699999943, -3.886604799999957 ], [ -45.160851699999967, -3.886724799999952 ], [ -45.160437499999944, -3.886772099999981 ], [ -45.159811199999986, -3.886782 ], [ -45.158777399999963, -3.887001499999985 ], [ -45.15870289999998, -3.887252799999917 ], [ -45.158480699999984, -3.8874567 ], [ -45.158280899999966, -3.887562 ], [ -45.157286399999975, -3.888101899999965 ], [ -45.157647799999957, -3.888816599999915 ], [ -45.157166499999967, -3.891612399999949 ], [ -45.160847599999954, -3.900736899999947 ], [ -45.169547099999932, -3.9016387 ], [ -45.180131499999966, -3.901444300000012 ] ] ] } }
]
}
