{
"type": "FeatureCollection",
"name": "2108207",
"crs": { "type": "name", "properties": { "name": "urn:ogc:def:crs:OGC:1.3:CRS84" } },
"features": [
{ "type": "Feature", "properties": { "CD_MUN": "2108207", "NM_MUN": "Pedreiras" }, "geometry": { "type": "MultiPolygon", "coordinates": [ [ [ [ -44.638989299999935, -4.845718399999934 ], [ -44.639007, -4.846815 ], [ -44.638529399999982, -4.848566099999945 ], [ -44.637723, -4.8505815 ], [ -44.638071799999977, -4.854327199999913 ], [ -44.638638699999952, -4.862501199999961 ], [ -44.642999499999974, -4.857024799999947 ], [ -44.644040399999945, -4.85569579999995 ], [ -44.644170399999958, -4.854966399999935 ], [ -44.644333799999963, -4.854049599999962 ], [ -44.645672599999955, -4.8518501 ], [ -44.6454045, -4.850186299999942 ], [ -44.643900899999949, -4.849705299999898 ], [ -44.643529799999961, -4.848835399999905 ], [ -44.64414979999998, -4.848337799999983 ], [ -44.64640959999997, -4.847984899999986 ], [ -44.647587499999986, -4.847115599999971 ], [ -44.648887399999978, -4.845376 ], [ -44.648271399999942, -4.843635199999961 ], [ -44.646474799999964, -4.84276369999995 ], [ -44.646131399999938, -4.842694799999972 ], [ -44.644307199999957, -4.842326299999963 ], [ -44.642356499999948, -4.842297 ], [ -44.642100699999958, -4.842227799999907 ], [ -44.641428599999983, -4.842046 ], [ -44.641305599999953, -4.841362499999918 ], [ -44.641888199999975, -4.840982499999903 ], [ -44.642542899999974, -4.84055559999994 ], [ -44.643658099999982, -4.838938399999975 ], [ -44.64328839999996, -4.837509799999969 ], [ -44.642979799999978, -4.837073699999987 ], [ -44.644187, -4.836359199999947 ], [ -44.64449529999996, -4.835055899999944 ], [ -44.643631, -4.834123 ], [ -44.643136899999945, -4.83307919999995 ], [ -44.643445299999946, -4.83177319999993 ], [ -44.643508499999939, -4.830529 ], [ -44.641899299999977, -4.829346899999953 ], [ -44.641807099999937, -4.828384399999974 ], [ -44.642487499999959, -4.827886699999948 ], [ -44.643108199999979, -4.827266 ], [ -44.643108599999948, -4.826457399999968 ], [ -44.642427599999969, -4.826022399999925 ], [ -44.641871, -4.825462399999916 ], [ -44.64162319999997, -4.824467499999946 ], [ -44.64187069999997, -4.823784499999934 ], [ -44.642304, -4.823287 ], [ -44.642367, -4.8217956 ], [ -44.641841599999964, -4.820148099999918 ], [ -44.641842499999939, -4.818904799999948 ], [ -44.64202929999994, -4.817908699999942 ], [ -44.641948, -4.818129599999984 ], [ -44.641823399999964, -4.818325399999978 ], [ -44.641665899999964, -4.818465199999958 ], [ -44.641469399999949, -4.818611599999908 ], [ -44.641274899999985, -4.818746099999962 ], [ -44.641114299999977, -4.818844799999949 ], [ -44.640949099999943, -4.818945399999964 ], [ -44.640635699999962, -4.8190453 ], [ -44.64042029999996, -4.819165399999984 ], [ -44.640050499999973, -4.819404099999959 ], [ -44.639741699999938, -4.81959379999997 ], [ -44.639581699999951, -4.819743199999944 ], [ -44.639077699999973, -4.820219799999967 ], [ -44.63895579999997, -4.820267 ], [ -44.638721199999964, -4.820331099999939 ], [ -44.638525, -4.820446599999973 ], [ -44.638358299999936, -4.82058959999994 ], [ -44.638255199999954, -4.820778799999974 ], [ -44.638077399999986, -4.821106899999926 ], [ -44.637838599999952, -4.821554599999941 ], [ -44.637664499999971, -4.822022299999963 ], [ -44.637576499999959, -4.822160399999986 ], [ -44.637266299999972, -4.8225535 ], [ -44.637064699999939, -4.822856 ], [ -44.636941899999954, -4.8231666 ], [ -44.636811699999953, -4.823393899999917 ], [ -44.636734699999984, -4.823573599999948 ], [ -44.636593599999969, -4.82373209999998 ], [ -44.636193599999956, -4.824068899999915 ], [ -44.635881099999942, -4.824238899999934 ], [ -44.635322, -4.824765899999965 ], [ -44.635052099999946, -4.825139299999956 ], [ -44.634958599999948, -4.825380799999917 ], [ -44.634862899999973, -4.825536199999936 ], [ -44.634732699999972, -4.825770799999942 ], [ -44.634589299999966, -4.825938499999919 ], [ -44.634279499999934, -4.826171299999926 ], [ -44.633828599999958, -4.826353599999945 ], [ -44.633737, -4.826423299999949 ], [ -44.633707699999945, -4.826562599999927 ], [ -44.633825, -4.827202299999921 ], [ -44.633788299999942, -4.827418599999908 ], [ -44.633478799999985, -4.82826579999993 ], [ -44.633266599999963, -4.828564499999973 ], [ -44.633199399999967, -4.832804099999986 ], [ -44.633195399999977, -4.833057099999974 ], [ -44.633470799999941, -4.833678399999926 ], [ -44.636389299999969, -4.838095099999939 ], [ -44.638158, -4.84196859999998 ], [ -44.638989299999935, -4.845718399999934 ] ] ], [ [ [ -44.602852699999971, -4.589685299999917 ], [ -44.606075599999947, -4.589711199999944 ], [ -44.60874519999993, -4.591318 ], [ -44.608976199999979, -4.591066799999956 ], [ -44.610173399999951, -4.5917861 ], [ -44.61275889999996, -4.58701529999998 ], [ -44.613658099999959, -4.586144099999976 ], [ -44.614873899999964, -4.5830642 ], [ -44.615494399999932, -4.579925399999949 ], [ -44.614688299999955, -4.579449099999949 ], [ -44.613959099999924, -4.578822499999904 ], [ -44.613314199999941, -4.578338799999901 ], [ -44.613013699999961, -4.578118899999905 ], [ -44.612647299999935, -4.577822099999929 ], [ -44.610434099999971, -4.575902099999957 ], [ -44.610364499999946, -4.575370099999947 ], [ -44.610181699999941, -4.575225399999951 ], [ -44.610154, -4.57502709999997 ], [ -44.610428, -4.57373 ], [ -44.610507899999959, -4.573032799999925 ], [ -44.610363, -4.572703 ], [ -44.61007909999995, -4.572478499999924 ], [ -44.609628199999975, -4.572301 ], [ -44.609196, -4.572260599999912 ], [ -44.608286199999952, -4.572358399999917 ], [ -44.608099199999977, -4.57233479999996 ], [ -44.606892299999977, -4.572378499999969 ], [ -44.606878799999947, -4.572379 ], [ -44.606233199999963, -4.572228699999923 ], [ -44.605950199999938, -4.571768799999935 ], [ -44.60588829999994, -4.571070199999954 ], [ -44.605925499999955, -4.570348299999943 ], [ -44.605927299999962, -4.57031229999996 ], [ -44.605928799999965, -4.570284399999959 ], [ -44.60593249999993, -4.5702123 ], [ -44.60575149999994, -4.569492199999974 ], [ -44.605165399999969, -4.567159400000018 ], [ -44.605048099999976, -4.566692499999937 ], [ -44.604765099999959, -4.56457 ], [ -44.604641699999952, -4.563721299999942 ], [ -44.604623599999968, -4.563597199999932 ], [ -44.604726599999935, -4.563139799999904 ], [ -44.604758899999979, -4.56265289999997 ], [ -44.604825199999937, -4.562385900000025 ], [ -44.604898499999933, -4.562184499999953 ], [ -44.605749099999969, -4.561061799999954 ], [ -44.606374799999962, -4.560474699999912 ], [ -44.606928, -4.559830499999981 ], [ -44.608277699999974, -4.558383899999952 ], [ -44.608585399999981, -4.558095899999965 ], [ -44.608757299999979, -4.5578758 ], [ -44.608848699999953, -4.5577043 ], [ -44.60941239999994, -4.557000399999966 ], [ -44.609568099999933, -4.556710899999952 ], [ -44.609613899999943, -4.556302699999939 ], [ -44.609470599999952, -4.555961099999915 ], [ -44.609353699999986, -4.5558146 ], [ -44.609210099999984, -4.55578189999994 ], [ -44.607676399999953, -4.557264699999955 ], [ -44.60742659999994, -4.5573057999999 ], [ -44.607068499999968, -4.557215699999951 ], [ -44.606932899999947, -4.55706869999995 ], [ -44.606856599999958, -4.556414199999931 ], [ -44.606861, -4.555384599999973 ], [ -44.606928899999964, -4.555190599999957 ], [ -44.607175299999945, -4.554927799999961 ], [ -44.607337399999956, -4.5548016 ], [ -44.605458799999958, -4.554001199999929 ], [ -44.604742099999953, -4.554306799999988 ], [ -44.605326399999967, -4.555451499999906 ], [ -44.604357599999965, -4.558303399999972 ], [ -44.603604199999957, -4.558453299999916 ], [ -44.603227899999979, -4.558662399999951 ], [ -44.599815499999977, -4.557736899999949 ], [ -44.599405099999956, -4.558187 ], [ -44.598604099999932, -4.559065299999952 ], [ -44.59585189999995, -4.556031199999957 ], [ -44.594844799999983, -4.555520099999984 ], [ -44.593813399999938, -4.556419799999926 ], [ -44.593133699999953, -4.558129599999936 ], [ -44.593354599999941, -4.561004199999983 ], [ -44.59210939999997, -4.561166199999958 ], [ -44.591731799999941, -4.561257699999941 ], [ -44.587695599999954, -4.562235599999982 ], [ -44.586915399999953, -4.562504699999965 ], [ -44.586696, -4.562738599999895 ], [ -44.586914199999967, -4.563078299999937 ], [ -44.586889699999972, -4.5633761 ], [ -44.586678699999936, -4.563767 ], [ -44.586268199999957, -4.564254599999957 ], [ -44.584406799999954, -4.566088 ], [ -44.58309589999994, -4.5679206 ], [ -44.585162, -4.568572299999946 ], [ -44.585021, -4.569714199999935 ], [ -44.58496729999996, -4.570765 ], [ -44.584657799999938, -4.570833199999923 ], [ -44.584244899999931, -4.570880499999948 ], [ -44.583918199999971, -4.570883299999919 ], [ -44.583309, -4.57083 ], [ -44.582802099999981, -4.570734699999925 ], [ -44.58245949999997, -4.570717799999935 ], [ -44.582013, -4.570684399999952 ], [ -44.58164359999995, -4.57066529999993 ], [ -44.58105779999994, -4.570574699999964 ], [ -44.580805099999964, -4.5705004 ], [ -44.580556, -4.57038689999995 ], [ -44.580308399999986, -4.570309099999984 ], [ -44.578686299999966, -4.570248199999962 ], [ -44.578507699999932, -4.570312499999951 ], [ -44.577725899999962, -4.570650099999983 ], [ -44.577036899999939, -4.570893899999923 ], [ -44.576124799999938, -4.571297199999928 ], [ -44.575764699999972, -4.571397599999936 ], [ -44.575248699999975, -4.571480699999926 ], [ -44.574728599999958, -4.571514899999961 ], [ -44.57436, -4.57152409999997 ], [ -44.57400709999996, -4.571454099999923 ], [ -44.573935499999955, -4.5714235 ], [ -44.573917399999971, -4.571605499999979 ], [ -44.573730699999942, -4.571955399999976 ], [ -44.573614899999939, -4.572204499999938 ], [ -44.573445199999981, -4.572857799999916 ], [ -44.573324099999972, -4.573202899999964 ], [ -44.57309749999996, -4.573826499999917 ], [ -44.573109, -4.574324199999953 ], [ -44.57309209999994, -4.57493969999996 ], [ -44.57309749999996, -4.5753675 ], [ -44.573163899999948, -4.575765199999984 ], [ -44.573235199999949, -4.575952599999959 ], [ -44.573390699999948, -4.576129399999979 ], [ -44.57398569999998, -4.576612199999913 ], [ -44.574158599999976, -4.5770535 ], [ -44.574322599999959, -4.577256 ], [ -44.57537, -4.57760179999997 ], [ -44.575485599999986, -4.577679799999923 ], [ -44.575630099999955, -4.577839499999962 ], [ -44.575767199999973, -4.578088199999953 ], [ -44.575725299999938, -4.5783716 ], [ -44.575638799999972, -4.578608499999953 ], [ -44.575524399999949, -4.578880599999927 ], [ -44.575452299999938, -4.579137299999935 ], [ -44.575447099999963, -4.579392699999975 ], [ -44.575547699999959, -4.57977629999993 ], [ -44.575755599999987, -4.580244599999986 ], [ -44.57504, -4.581131699999981 ], [ -44.575372699999946, -4.5812286 ], [ -44.575808199999983, -4.581298199999919 ], [ -44.576744699999949, -4.58141189999996 ], [ -44.577700199999981, -4.581540499999965 ], [ -44.578671399999969, -4.581669799999894 ], [ -44.579646799999971, -4.581776699999955 ], [ -44.580594599999984, -4.5819026 ], [ -44.58158839999993, -4.58202459999994 ], [ -44.582140199999969, -4.582078899999971 ], [ -44.5818197, -4.58497369999996 ], [ -44.581563899999928, -4.586014099999914 ], [ -44.580966699999976, -4.587161799999914 ], [ -44.580529199999944, -4.587798099999915 ], [ -44.582788, -4.588837 ], [ -44.581264899999951, -4.5902839 ], [ -44.580178699999976, -4.591373399999918 ], [ -44.5801479, -4.592022799999925 ], [ -44.58044979999994, -4.592093 ], [ -44.5808646, -4.592288 ], [ -44.580593599999922, -4.592629499999963 ], [ -44.58045, -4.592949899999956 ], [ -44.580284399999982, -4.593568 ], [ -44.57986649999998, -4.594645499999986 ], [ -44.579828199999952, -4.5949519 ], [ -44.579765499999951, -4.595256399999911 ], [ -44.579404299999965, -4.595676899999976 ], [ -44.579043599999977, -4.5960691999999 ], [ -44.578422099999955, -4.597169799999935 ], [ -44.579115899999984, -4.597740399999981 ], [ -44.579392399999961, -4.598054299999935 ], [ -44.57971079999993, -4.598513599999912 ], [ -44.580162199999961, -4.5986488 ], [ -44.58078949999998, -4.598970299999964 ], [ -44.581226199999946, -4.599290799999941 ], [ -44.581584, -4.599380499999932 ], [ -44.581941899999954, -4.599254599999929 ], [ -44.582319199999972, -4.598935599999962 ], [ -44.582298499999979, -4.598252099999966 ], [ -44.582769, -4.597836599999951 ], [ -44.583119899999986, -4.597092799999911 ], [ -44.588683, -4.593508 ], [ -44.594279899999947, -4.585957 ], [ -44.596799699999963, -4.58145679999994 ], [ -44.596711099999943, -4.581227199999957 ], [ -44.598990299999969, -4.580968599999976 ], [ -44.59903369999995, -4.581209199999975 ], [ -44.599305099999981, -4.581484599999942 ], [ -44.599615899999947, -4.5816925 ], [ -44.600136599999985, -4.581845099999945 ], [ -44.600389599999971, -4.582133799999985 ], [ -44.600548, -4.5824259 ], [ -44.600633899999941, -4.582930699999977 ], [ -44.600562399999951, -4.58312 ], [ -44.600641799999941, -4.583534099999984 ], [ -44.600724, -4.583962699999957 ], [ -44.600549299999962, -4.58445129999992 ], [ -44.600324099999966, -4.584725200000016 ], [ -44.600237399999969, -4.585138699999972 ], [ -44.600460699999985, -4.585480899999955 ], [ -44.600602299999935, -4.585725599999899 ], [ -44.600627499999973, -4.586140599999974 ], [ -44.600698899999941, -4.586473 ], [ -44.600866299999943, -4.586717799999976 ], [ -44.600959799999941, -4.586918399999961 ], [ -44.601153299999964, -4.58714369999997 ], [ -44.601286499999958, -4.587396 ], [ -44.602852699999971, -4.589685299999917 ] ] ] ] } }
]
}
