{
"type": "FeatureCollection",
"name": "2109106",
"crs": { "type": "name", "properties": { "name": "urn:ogc:def:crs:OGC:1.3:CRS84" } },
"features": [
{ "type": "Feature", "properties": { "CD_MUN": "2109106", "NM_MUN": "Presidente Dutra" }, "geometry": { "type": "Polygon", "coordinates": [ [ [ -44.481955399999947, -5.32692519999996 ], [ -44.482531499999943, -5.327172099999927 ], [ -44.484040299999954, -5.326815499999984 ], [ -44.485192499999982, -5.326815499999981 ], [ -44.486015499999951, -5.327089799999952 ], [ -44.487030599999969, -5.328132099999947 ], [ -44.487689, -5.330024799999928 ], [ -44.488265099999985, -5.331862699999959 ], [ -44.488704, -5.333097099999948 ], [ -44.492654399999935, -5.332466199999955 ], [ -44.494844899999975, -5.328297499999954 ], [ -44.495058799999974, -5.328484599999953 ], [ -44.495558, -5.328707399999896 ], [ -44.495798599999944, -5.329072799999924 ], [ -44.496003599999938, -5.329812599999958 ], [ -44.496244299999951, -5.330293799999969 ], [ -44.496850399999971, -5.330579 ], [ -44.497420899999959, -5.330828599999966 ], [ -44.49784869999997, -5.3311227 ], [ -44.497973499999944, -5.331497 ], [ -44.498232, -5.332103 ], [ -44.498543899999959, -5.332388199999971 ], [ -44.498971799999936, -5.332468499999933 ], [ -44.499444199999978, -5.332165399999973 ], [ -44.499898599999931, -5.331709299999961 ], [ -44.500561, -5.330996 ], [ -44.500764799999956, -5.33020629999992 ], [ -44.500994099999957, -5.329620399999946 ], [ -44.500968599999965, -5.3289326 ], [ -44.501172399999973, -5.328550499999976 ], [ -44.50158, -5.328142899999937 ], [ -44.501758399999964, -5.327582499999949 ], [ -44.50215959999997, -5.326929699999903 ], [ -44.502694699999957, -5.326675 ], [ -44.503459, -5.326241899999973 ], [ -44.504620199999984, -5.324285799999953 ], [ -44.504824, -5.323088499999936 ], [ -44.504874899999948, -5.321993099999939 ], [ -44.505078699999956, -5.321407199999934 ], [ -44.505969799999946, -5.320299599999928 ], [ -44.505771599999953, -5.320128899999926 ], [ -44.5055081, -5.320037 ], [ -44.505271, -5.319971399999903 ], [ -44.504981299999947, -5.319466299999956 ], [ -44.504902199999954, -5.319283 ], [ -44.504625399999952, -5.319296099999987 ], [ -44.504348299999947, -5.3192185 ], [ -44.504269099999931, -5.318956099999969 ], [ -44.50442739999994, -5.3188115 ], [ -44.504704299999958, -5.31881179999996 ], [ -44.504757099999949, -5.318615399999917 ], [ -44.50455919999996, -5.318194799999933 ], [ -44.504335199999957, -5.317865899999978 ], [ -44.504163599999963, -5.317708399999945 ], [ -44.503529199999946, -5.317681 ], [ -44.50337049999996, -5.317497599999943 ], [ -44.503317599999946, -5.317169 ], [ -44.503542299999935, -5.316721599999904 ], [ -44.50383359999995, -5.316352299999928 ], [ -44.503873499999948, -5.316063 ], [ -44.503807399999971, -5.31570849999998 ], [ -44.503979199999947, -5.315458699999963 ], [ -44.504150699999968, -5.315196 ], [ -44.504058199999982, -5.314879499999939 ], [ -44.503992099999948, -5.314748499999922 ], [ -44.504084399999947, -5.314473099999915 ], [ -44.504203, -5.314132099999909 ], [ -44.504506499999934, -5.313961599999978 ], [ -44.504704599999968, -5.313829199999915 ], [ -44.504955199999976, -5.31357779999994 ], [ -44.504942099999937, -5.313343299999939 ], [ -44.504862899999978, -5.313239 ], [ -44.504638399999976, -5.31316059999997 ], [ -44.504413799999959, -5.31316089999993 ], [ -44.504255299999961, -5.313029499999966 ], [ -44.504110099999941, -5.312700599999957 ], [ -44.503951799999989, -5.312195199999953 ], [ -44.504004599999973, -5.311958699999923 ], [ -44.504281699999972, -5.311499699999973 ], [ -44.504312599999928, -5.311146899999949 ], [ -44.504136299999978, -5.310937699999935 ], [ -44.503895, -5.310707699999957 ], [ -44.50357, -5.31033629999994 ], [ -44.503394499999956, -5.309956799999981 ], [ -44.503371, -5.309638499999934 ], [ -44.503344199999958, -5.309480499999978 ], [ -44.503483, -5.309239699999966 ], [ -44.503706799999975, -5.309127499999961 ], [ -44.503951599999944, -5.308992499999921 ], [ -44.50403079999996, -5.308664099999966 ], [ -44.503726799999988, -5.308519499999921 ], [ -44.50362089999993, -5.308283 ], [ -44.503726399999948, -5.308033399999963 ], [ -44.503700399999957, -5.307730199999961 ], [ -44.503569199999966, -5.307387399999923 ], [ -44.50312119999996, -5.307281699999973 ], [ -44.503121499999963, -5.307137 ], [ -44.50324, -5.306874399999976 ], [ -44.503438399999936, -5.306427599999932 ], [ -44.503437799999972, -5.305928199999904 ], [ -44.503263499999946, -5.305586899999973 ], [ -44.502986899999939, -5.305256399999935 ], [ -44.50289609999993, -5.30511 ], [ -44.502793599999954, -5.304875799999929 ], [ -44.502691099999929, -5.304641699999946 ], [ -44.502917799999977, -5.304243 ], [ -44.503343399999949, -5.303646 ], [ -44.503600399999989, -5.3031162 ], [ -44.503710799999958, -5.3030244 ], [ -44.504012099999954, -5.302206699999961 ], [ -44.504040699999962, -5.302069799999938 ], [ -44.504321499999946, -5.30101579999998 ], [ -44.504516499999973, -5.3004544 ], [ -44.504573499999935, -5.300321799999938 ], [ -44.504687599999947, -5.300018899999918 ], [ -44.504725599999972, -5.299753899999955 ], [ -44.504725599999972, -5.299413099999962 ], [ -44.504915799999935, -5.29890189999997 ], [ -44.504953799999946, -5.298769299999947 ], [ -44.504801699999973, -5.298617899999959 ], [ -44.504706599999963, -5.298371699999983 ], [ -44.504782699999964, -5.298163499999971 ], [ -44.504972799999962, -5.298144499999952 ], [ -44.50485869999995, -5.297879499999968 ], [ -44.50480169999998, -5.297614399999898 ], [ -44.504687599999954, -5.297330399999987 ], [ -44.504630599999984, -5.297046399999953 ], [ -44.504497499999957, -5.296876 ], [ -44.504288299999985, -5.29670559999992 ], [ -44.504288299999985, -5.296535199999958 ], [ -44.504117199999946, -5.296440599999887 ], [ -44.503955599999983, -5.296336399999941 ], [ -44.503908, -5.296175499999905 ], [ -44.503927, -5.295929399999975 ], [ -44.504060099999947, -5.295721099999954 ], [ -44.504231299999958, -5.2954655 ], [ -44.504163199999937, -5.295362399999938 ], [ -44.5041629, -5.295141299999972 ], [ -44.504367299999956, -5.295037099999973 ], [ -44.504476699999941, -5.295013499999933 ], [ -44.504557499999983, -5.294914099999956 ], [ -44.504638299999954, -5.294795699999929 ], [ -44.504738099999933, -5.294507 ], [ -44.504899699999953, -5.294525899999916 ], [ -44.505018599999971, -5.294516499999913 ], [ -44.504947299999969, -5.294369699999944 ], [ -44.505032799999988, -5.294218299999938 ], [ -44.5051802, -5.294114099999936 ], [ -44.505204, -5.293972099999941 ], [ -44.505237199999954, -5.293782799999986 ], [ -44.505270499999945, -5.293588699999936 ], [ -44.505384599999957, -5.293337899999909 ], [ -44.505389399999956, -5.293172199999979 ], [ -44.505484399999943, -5.29304909999996 ], [ -44.505820699999958, -5.29283609999997 ], [ -44.50602989999993, -5.292774599999977 ], [ -44.50623429999996, -5.292774599999987 ], [ -44.506296099999979, -5.292661 ], [ -44.506508799999949, -5.292490599999968 ], [ -44.506608699999958, -5.292424399999955 ], [ -44.506637199999943, -5.292367599999967 ], [ -44.50668469999993, -5.292268199999937 ], [ -44.506760799999945, -5.292235 ], [ -44.506889099999967, -5.292183 ], [ -44.50693659999996, -5.292055199999921 ], [ -44.507017499999968, -5.291917899999923 ], [ -44.507183799999957, -5.291865799999963 ], [ -44.507374, -5.291917899999929 ], [ -44.507488099999932, -5.291998399999952 ], [ -44.50767819999993, -5.292064599999944 ], [ -44.50801569999993, -5.292041 ], [ -44.5082819, -5.29197 ], [ -44.508296199999961, -5.291832699999929 ], [ -44.508339, -5.291700200000014 ], [ -44.508415, -5.291468199999957 ], [ -44.508438799999972, -5.291345199999969 ], [ -44.508419799999956, -5.291231599999949 ], [ -44.508429299999932, -5.291113199999923 ], [ -44.508514799999951, -5.291051699999943 ], [ -44.508586099999945, -5.290758199999974 ], [ -44.508643199999938, -5.29055 ], [ -44.508695499999938, -5.290379599999929 ], [ -44.508781, -5.290256499999922 ], [ -44.508937899999978, -5.290171299999924 ], [ -44.509109, -5.29011449999995 ], [ -44.509250499999958, -5.289982 ], [ -44.509298, -5.28987779999991 ], [ -44.509445399999954, -5.28984 ], [ -44.509578499999982, -5.289868399999975 ], [ -44.509744799999964, -5.289863599999948 ], [ -44.50984939999995, -5.289849399999966 ], [ -44.509944499999968, -5.289802099999971 ], [ -44.510025299999946, -5.289683799999984 ], [ -44.510125099999975, -5.289556 ], [ -44.510224899999969, -5.289456599999923 ], [ -44.510305799999969, -5.289409199999975 ], [ -44.510443599999974, -5.289328799999963 ], [ -44.510533899999984, -5.289186799999945 ], [ -44.510505399999943, -5.288992699999924 ], [ -44.510438899999947, -5.288864899999942 ], [ -44.510410299999933, -5.288656599999986 ], [ -44.510481599999935, -5.288576099999949 ], [ -44.510629, -5.288401 ], [ -44.510724099999948, -5.288320499999912 ], [ -44.510795399999949, -5.288178499999928 ], [ -44.510861899999952, -5.288027099999966 ], [ -44.510819099999935, -5.288022299999973 ], [ -44.510757299999973, -5.287946599999946 ], [ -44.510785899999973, -5.287847199999939 ], [ -44.5109, -5.287766699999939 ], [ -44.510895199999936, -5.2876863 ], [ -44.510890399999937, -5.2875963 ], [ -44.510995, -5.287525299999953 ], [ -44.511033099999963, -5.287473299999965 ], [ -44.51098079999997, -5.287350199999909 ], [ -44.510957, -5.2871987 ], [ -44.51098079999997, -5.287085099999931 ], [ -44.511071099999981, -5.2869952 ], [ -44.511052799999959, -5.286817099999963 ], [ -44.51111479999998, -5.286834499999953 ], [ -44.511152099999947, -5.28667 ], [ -44.511227699999949, -5.2864152 ], [ -44.511131, -5.286349399999946 ], [ -44.510955, -5.286291399999898 ], [ -44.51018769999996, -5.286093699999984 ], [ -44.509172699999972, -5.285778 ], [ -44.50842149999994, -5.285554 ], [ -44.5083954, -5.2855458 ], [ -44.506583299999932, -5.284973 ], [ -44.506564699999963, -5.28496709999996 ], [ -44.506377499999978, -5.284908 ], [ -44.506297099999983, -5.284882499999959 ], [ -44.506246799999985, -5.284867099999917 ], [ -44.505821899999951, -5.284732 ], [ -44.506294199999964, -5.282293099999938 ], [ -44.505869599999976, -5.28220209999996 ], [ -44.505907499999978, -5.281155799999969 ], [ -44.505649699999942, -5.280374799999976 ], [ -44.505058299999973, -5.279374 ], [ -44.504842899999971, -5.278838699999932 ], [ -44.50609319999996, -5.2785324 ], [ -44.50593779999997, -5.276917399999939 ], [ -44.503852699999982, -5.275582899999958 ], [ -44.502700199999943, -5.276962899999937 ], [ -44.501646299999948, -5.277611099999922 ], [ -44.502692499999966, -5.279366899999989 ], [ -44.501762699999979, -5.279606099999946 ], [ -44.500904699999978, -5.2798263 ], [ -44.50039239999996, -5.279958699999981 ], [ -44.499911399999974, -5.280082399999974 ], [ -44.498990599999956, -5.280312399999982 ], [ -44.497732499999984, -5.280637399999959 ], [ -44.497130499999969, -5.280803299999935 ], [ -44.496572299999968, -5.280940899999945 ], [ -44.496174, -5.281027 ], [ -44.495950899999976, -5.280521199999926 ], [ -44.495758099999932, -5.28014939999998 ], [ -44.495499299999949, -5.279729099999956 ], [ -44.495248499999946, -5.2794443 ], [ -44.495032899999963, -5.279226899999958 ], [ -44.494581699999976, -5.278783899999952 ], [ -44.494274799999971, -5.278470599999956 ], [ -44.494239199999981, -5.278527699999931 ], [ -44.494231, -5.2785365 ], [ -44.494149199999981, -5.2786237 ], [ -44.49390109999996, -5.278688099999965 ], [ -44.493739499999954, -5.278669099999951 ], [ -44.493720599999968, -5.278509899999936 ], [ -44.493619899999949, -5.278456599999974 ], [ -44.493471099999965, -5.278405199999979 ], [ -44.493331299999966, -5.278468399999951 ], [ -44.49327459999995, -5.278494 ], [ -44.49321979999997, -5.278513299999902 ], [ -44.492615299999962, -5.278726199999903 ], [ -44.492309599999949, -5.278794 ], [ -44.492156599999923, -5.27893009999997 ], [ -44.4919867, -5.279168299999989 ], [ -44.491935599999977, -5.279202299999922 ], [ -44.491902099999947, -5.2793308 ], [ -44.491801399999986, -5.27935329999998 ], [ -44.49179879999997, -5.27950829999998 ], [ -44.491467499999942, -5.279728299999901 ], [ -44.491172499999948, -5.279775399999921 ], [ -44.490820499999984, -5.280009499999928 ], [ -44.49070769999998, -5.280092499999958 ], [ -44.490591799999955, -5.280253099999887 ], [ -44.490475699999941, -5.280674199999977 ], [ -44.490083699999964, -5.281200699999979 ], [ -44.489901499999981, -5.281396199999954 ], [ -44.489898299999936, -5.281399699999935 ], [ -44.489864499999953, -5.2814359 ], [ -44.489542099999937, -5.281606699999961 ], [ -44.489154699999979, -5.28183479999997 ], [ -44.48901369999993, -5.281909799999943 ], [ -44.489016, -5.281989699999959 ], [ -44.48879739999996, -5.282259499999916 ], [ -44.488716599999982, -5.282571899999916 ], [ -44.488407599999967, -5.282898499999951 ], [ -44.488322, -5.283201399999922 ], [ -44.488036799999975, -5.283163599999959 ], [ -44.487865699999936, -5.2829174 ], [ -44.48743779999996, -5.283035799999901 ], [ -44.487262, -5.283291399999957 ], [ -44.487480599999969, -5.283646399999969 ], [ -44.487490099999953, -5.283920899999948 ], [ -44.487233399999973, -5.284072399999981 ], [ -44.486515699999984, -5.284006099999947 ], [ -44.4867177, -5.284332699999908 ], [ -44.486522799999932, -5.284583599999936 ], [ -44.486156799999947, -5.284541 ], [ -44.485876299999973, -5.284607199999931 ], [ -44.485876299999973, -5.284422599999952 ], [ -44.48579129999996, -5.284352899999893 ], [ -44.485567799999963, -5.284471799999973 ], [ -44.485311499999966, -5.284444199999934 ], [ -44.485079099999957, -5.284741799999944 ], [ -44.484913099999964, -5.284658699999976 ], [ -44.484505199999937, -5.284862599999974 ], [ -44.484063499999934, -5.284828299999945 ], [ -44.483757799999971, -5.284862 ], [ -44.483451799999962, -5.285202299999969 ], [ -44.483417599999946, -5.285406499999986 ], [ -44.483417299999985, -5.285747099999962 ], [ -44.482975599999975, -5.286257499999969 ], [ -44.482465799999943, -5.286257 ], [ -44.481990199999984, -5.286358799999948 ], [ -44.481616599999938, -5.286460599999933 ], [ -44.481310599999972, -5.28697109999993 ], [ -44.481174099999976, -5.287583899999986 ], [ -44.481173799999972, -5.288026499999904 ], [ -44.481122199999959, -5.288457599999944 ], [ -44.48021939999996, -5.288741499999932 ], [ -44.479607399999971, -5.289081499999964 ], [ -44.478933299999937, -5.289667499999962 ], [ -44.478383399999977, -5.290149 ], [ -44.477845799999962, -5.290016299999929 ], [ -44.477228899999943, -5.290101 ], [ -44.476889, -5.290100699999948 ], [ -44.476889, -5.290305 ], [ -44.476617199999964, -5.290509099999955 ], [ -44.476336099999962, -5.2906295 ], [ -44.475942099999941, -5.290017499999981 ], [ -44.475637899999988, -5.289051899999968 ], [ -44.475314599999933, -5.288578499999975 ], [ -44.469420299999967, -5.291808099999964 ], [ -44.468089199999952, -5.2926302 ], [ -44.461464299999932, -5.296874299999963 ], [ -44.46142569999995, -5.296890799999948 ], [ -44.475305599999963, -5.312304299999952 ], [ -44.474701, -5.314204899999908 ], [ -44.472659, -5.322159499999926 ], [ -44.480493699999954, -5.325326099999924 ], [ -44.480653099999984, -5.325367199999947 ], [ -44.48069019999997, -5.325300299999964 ], [ -44.480983499999979, -5.325400799999986 ], [ -44.481185399999958, -5.325463 ], [ -44.481507499999964, -5.325678399999927 ], [ -44.481455, -5.325756899999901 ], [ -44.481401699999935, -5.325836399999978 ], [ -44.481560399999978, -5.325999099999945 ], [ -44.48164689999993, -5.326176199999977 ], [ -44.481702899999959, -5.326085299999928 ], [ -44.481738299999961, -5.326027799999969 ], [ -44.48182, -5.326118799999938 ], [ -44.481882499999983, -5.326243199999976 ], [ -44.481934, -5.326259699999965 ], [ -44.48200269999996, -5.326281499999967 ], [ -44.481955399999947, -5.32692519999996 ] ] ] } }
]
}
