{
"type": "FeatureCollection",
"name": "2109304",
"crs": { "type": "name", "properties": { "name": "urn:ogc:def:crs:OGC:1.3:CRS84" } },
"features": [
{ "type": "Feature", "properties": { "CD_MUN": "2109304", "NM_MUN": "Presidente Vargas" }, "geometry": { "type": "Polygon", "coordinates": [ [ [ -44.029742499999941, -3.413320399999954 ], [ -44.029885699999966, -3.413052799999946 ], [ -44.030032, -3.412781099999957 ], [ -44.029986199999946, -3.412657899999972 ], [ -44.029829399999983, -3.412277699999932 ], [ -44.029894599999984, -3.412027499999954 ], [ -44.02992729999994, -3.411896899999961 ], [ -44.030003399999948, -3.411777199999952 ], [ -44.030177499999972, -3.411614 ], [ -44.030286299999943, -3.411407299999933 ], [ -44.030210099999977, -3.411244099999943 ], [ -44.029992599999964, -3.411070099999956 ], [ -44.029768499999939, -3.410823399999942 ], [ -44.029873, -3.410614499999939 ], [ -44.030087799999933, -3.410402599999969 ], [ -44.029997799999933, -3.41024 ], [ -44.030047199999963, -3.409978799999983 ], [ -44.030401299999944, -3.409772699999977 ], [ -44.030682899999931, -3.409642099999954 ], [ -44.030889, -3.409719799999955 ], [ -44.031503099999952, -3.409951499999936 ], [ -44.031804099999924, -3.4095115 ], [ -44.031856799999957, -3.409383899999922 ], [ -44.032249299999933, -3.408547900000023 ], [ -44.03311489999993, -3.406765299999909 ], [ -44.033840199999922, -3.406143499999947 ], [ -44.034646199999933, -3.405625399999983 ], [ -44.035739899999953, -3.405095799999964 ], [ -44.03620049999995, -3.405015199999955 ], [ -44.036545899999957, -3.404589200000017 ], [ -44.036925799999949, -3.404036599999915 ], [ -44.037248199999972, -3.403334299999889 ], [ -44.037467, -3.402770099999899 ], [ -44.03768569999994, -3.402252 ], [ -44.038100199999974, -3.401745399999933 ], [ -44.038560699999948, -3.401503599999926 ], [ -44.039021299999945, -3.401388499999946 ], [ -44.039009799999974, -3.40105459999996 ], [ -44.038894599999935, -3.400444399999938 ], [ -44.03915939999996, -3.399937799999951 ], [ -44.039378199999931, -3.399362099999941 ], [ -44.039631499999984, -3.3989131 ], [ -44.039815699999963, -3.398475599999886 ], [ -44.039861799999983, -3.398095599999928 ], [ -44.039861799999983, -3.397842299999934 ], [ -44.039524, -3.3977012 ], [ -44.039398, -3.397720200000035 ], [ -44.039031799999975, -3.397791 ], [ -44.038785, -3.397839599999926 ], [ -44.038445, -3.397906299999965 ], [ -44.038147599999945, -3.3979225 ], [ -44.037846099999967, -3.39792459999994 ], [ -44.037514299999948, -3.397971099999932 ], [ -44.037269399999957, -3.398033799999982 ], [ -44.036870799999974, -3.398155199999948 ], [ -44.036532899999941, -3.398254399999929 ], [ -44.036164699999972, -3.398396 ], [ -44.035881399999944, -3.398499199999947 ], [ -44.03553949999997, -3.398655 ], [ -44.035325, -3.398774400000019 ], [ -44.035124699999983, -3.398907899999934 ], [ -44.03496679999995, -3.399029299999906 ], [ -44.034790799999939, -3.399209399999915 ], [ -44.034620799999971, -3.399399599999942 ], [ -44.03453589999998, -3.3994987 ], [ -44.034359799999947, -3.39970109999998 ], [ -44.034256599999935, -3.399828600000019 ], [ -44.03418639999996, -3.399929899999937 ], [ -44.034033399999942, -3.400229899999957 ], [ -44.033893799999937, -3.400493799999955 ], [ -44.033729599999958, -3.400805200000011 ], [ -44.03354, -3.401138499999948 ], [ -44.033350399999968, -3.401465299999952 ], [ -44.033259699999974, -3.401618499999883 ], [ -44.033166, -3.401795299999954 ], [ -44.032915099999968, -3.402262899999911 ], [ -44.032749199999962, -3.402604399999947 ], [ -44.031056699999972, -3.401594299999979 ], [ -44.029700899999973, -3.400709799999912 ], [ -44.029864699999962, -3.400495799999985 ], [ -44.0309094, -3.3992612 ], [ -44.03101, -3.399177599999936 ], [ -44.030794799999974, -3.399045199999905 ], [ -44.030657899999937, -3.398987099999951 ], [ -44.0304546, -3.398916499999926 ], [ -44.030321799999967, -3.398916499999899 ], [ -44.029935899999948, -3.3990618 ], [ -44.029635, -3.3990846 ], [ -44.029504299999985, -3.399128199999967 ], [ -44.029226299999955, -3.399273400000014 ], [ -44.02907689999995, -3.399325299999884 ], [ -44.028886, -3.399509899999984 ], [ -44.028869399999955, -3.399729899999918 ], [ -44.028902599999981, -3.399983 ], [ -44.028890199999978, -3.400136499999944 ], [ -44.028857, -3.400252699999905 ], [ -44.028757399999968, -3.40033989999998 ], [ -44.028657799999969, -3.400356499999894 ], [ -44.028520799999967, -3.400339899999979 ], [ -44.028313299999979, -3.400232 ], [ -44.028209599999961, -3.400227799999965 ], [ -44.02812659999995, -3.400261 ], [ -44.027915, -3.400269299999936 ], [ -44.027769699999965, -3.400335699999942 ], [ -44.027578899999973, -3.400377200000015 ], [ -44.025836, -3.400709199999904 ], [ -44.024645, -3.400812899999971 ], [ -44.024852499999952, -3.40212839999998 ], [ -44.025010199999947, -3.402734199999925 ], [ -44.025064199999981, -3.403024699999904 ], [ -44.025138899999938, -3.403365 ], [ -44.025176199999976, -3.403651299999945 ], [ -44.025165499999957, -3.403926599999961 ], [ -44.025079099999971, -3.403834699999906 ], [ -44.024874499999953, -3.40355639999992 ], [ -44.024794499999985, -3.403485 ], [ -44.024637299999945, -3.403344499999962 ], [ -44.024372199999959, -3.403269899999937 ], [ -44.024170799999972, -3.403215599999972 ], [ -44.023305299999954, -3.403039799999897 ], [ -44.022815399999956, -3.402687899999929 ], [ -44.022286499999943, -3.402322 ], [ -44.021749499999942, -3.401973299999954 ], [ -44.021716699999956, -3.401952 ], [ -44.021709599999959, -3.401742099999964 ], [ -44.021657399999981, -3.40144109999996 ], [ -44.021295, -3.400906799999977 ], [ -44.020702299999982, -3.400139 ], [ -44.019233199999974, -3.398669899999973 ], [ -44.0177, -3.396839699999985 ], [ -44.017550599999936, -3.396657199999977 ], [ -44.011602699999969, -3.399752799999898 ], [ -44.008960699999939, -3.405306199999897 ], [ -44.008692499999931, -3.407840399999909 ], [ -44.009032599999955, -3.408860599999918 ], [ -44.010284199999944, -3.410981399999926 ], [ -44.013056899999981, -3.4167193 ], [ -44.022640899999949, -3.416186899999957 ], [ -44.029742499999941, -3.413320399999954 ] ] ] } }
]
}
