{
"type": "FeatureCollection",
"name": "2110278",
"crs": { "type": "name", "properties": { "name": "urn:ogc:def:crs:OGC:1.3:CRS84" } },
"features": [
{ "type": "Feature", "properties": { "CD_MUN": "2110278", "NM_MUN": "Santo Amaro do Maranhão" }, "geometry": { "type": "Polygon", "coordinates": [ [ [ -43.250497099999954, -2.528593799999988 ], [ -43.250618699999968, -2.528619 ], [ -43.250895299999968, -2.528476499999897 ], [ -43.25110489999998, -2.528317199999908 ], [ -43.251261099999958, -2.528300100000034 ], [ -43.251273399999945, -2.528293399999948 ], [ -43.251735399999973, -2.5281631 ], [ -43.252335199999948, -2.528300900000038 ], [ -43.252501899999977, -2.52813 ], [ -43.2525634, -2.527864499999944 ], [ -43.252499099999973, -2.52753759999994 ], [ -43.252547499999935, -2.527473799999887 ], [ -43.25265, -2.527353199999928 ], [ -43.253016699999932, -2.527280599999987 ], [ -43.253630699999974, -2.526589 ], [ -43.253862599999934, -2.526506599999945 ], [ -43.254391699999985, -2.526576 ], [ -43.254842399999973, -2.526311499999956 ], [ -43.255110699999932, -2.526285399999925 ], [ -43.255460899999946, -2.526304 ], [ -43.25595449999998, -2.526026499999905 ], [ -43.256312099999953, -2.526007900000035 ], [ -43.256749, -2.526149 ], [ -43.259776799999941, -2.526238799999947 ], [ -43.261909099999968, -2.526164 ], [ -43.264797399999971, -2.525019499999933 ], [ -43.272494299999948, -2.506726899999975 ], [ -43.27238269999998, -2.5067 ], [ -43.272241599999973, -2.506644499999986 ], [ -43.272138699999971, -2.506593399999877 ], [ -43.272063399999979, -2.506525699999966 ], [ -43.27203289999995, -2.5064286 ], [ -43.272004799999934, -2.506352199999971 ], [ -43.271938, -2.506342399999964 ], [ -43.271874699999955, -2.506351199999971 ], [ -43.271809, -2.5063329 ], [ -43.271741099999986, -2.506249899999975 ], [ -43.27162119999997, -2.5060407 ], [ -43.27153519999996, -2.5058767 ], [ -43.271444599999946, -2.505618599999977 ], [ -43.271291399999939, -2.505372899999972 ], [ -43.271145299999944, -2.505099299999976 ], [ -43.270946, -2.5049134999999 ], [ -43.2707, -2.504629900000019 ], [ -43.270459399999936, -2.504271 ], [ -43.27028949999994, -2.504078499999942 ], [ -43.270217099999975, -2.5038212 ], [ -43.270067, -2.503613299999893 ], [ -43.269859799999949, -2.503472 ], [ -43.269637499999931, -2.503406799999949 ], [ -43.269459899999951, -2.503421900000047 ], [ -43.269233099999951, -2.5034136 ], [ -43.269042399999925, -2.503378899999981 ], [ -43.268800799999951, -2.503362399999966 ], [ -43.26850909999996, -2.503342099999966 ], [ -43.26824, -2.5031778999999 ], [ -43.268036699999989, -2.503075799999903 ], [ -43.267737299999958, -2.502841599999902 ], [ -43.267606199999932, -2.502687599999903 ], [ -43.267451799999947, -2.502508700000025 ], [ -43.267228199999977, -2.502439099999901 ], [ -43.267172199999955, -2.502435099999912 ], [ -43.267104199999949, -2.502403199999919 ], [ -43.266996299999967, -2.502371199999916 ], [ -43.266912399999974, -2.502403199999935 ], [ -43.266856399999938, -2.502479099999928 ], [ -43.266828399999959, -2.502578900000011 ], [ -43.266800399999966, -2.502698699999913 ], [ -43.266800399999966, -2.502770600000016 ], [ -43.266784399999949, -2.502842499999862 ], [ -43.266692499999976, -2.502890500000036 ], [ -43.266624499999978, -2.502902399999983 ], [ -43.266560499999969, -2.502914399999934 ], [ -43.266476599999976, -2.502930400000028 ], [ -43.26640459999993, -2.502946399999929 ], [ -43.266352699999977, -2.502982299999877 ], [ -43.266308699999968, -2.5030302 ], [ -43.26621669999998, -2.503050199999985 ], [ -43.266088799999977, -2.5030462 ], [ -43.265992899999965, -2.503002299999883 ], [ -43.265936899999986, -2.502918399999894 ], [ -43.265916899999979, -2.502842499999957 ], [ -43.265932899999946, -2.502778599999875 ], [ -43.265980899999931, -2.502598900000026 ], [ -43.266004899999984, -2.50247110000002 ], [ -43.2660408, -2.5022914 ], [ -43.266044799999975, -2.502135600000033 ], [ -43.266056799999944, -2.502047699999937 ], [ -43.266060799999934, -2.501788099999936 ], [ -43.266056799999944, -2.501704199999912 ], [ -43.266048799999965, -2.501616399999967 ], [ -43.266024799999968, -2.5015165 ], [ -43.265996899999948, -2.5014247 ], [ -43.265944899999973, -2.501312799999913 ], [ -43.265900899999956, -2.50124089999994 ], [ -43.26586089999995, -2.501145099999942 ], [ -43.265801, -2.501053199999947 ], [ -43.265757, -2.500993299999949 ], [ -43.265669, -2.50094539999994 ], [ -43.265585099999953, -2.500925399999963 ], [ -43.265501099999931, -2.500925400000041 ], [ -43.265441199999941, -2.500877499999911 ], [ -43.265405199999975, -2.500769699999936 ], [ -43.26536119999998, -2.500653799999931 ], [ -43.26532119999996, -2.50055 ], [ -43.26528529999996, -2.500450100000024 ], [ -43.265237299999967, -2.500362299999981 ], [ -43.265133299999952, -2.50024639999993 ], [ -43.265069399999959, -2.500182499999977 ], [ -43.265013399999923, -2.500122599999969 ], [ -43.264941399999948, -2.500054699999893 ], [ -43.264893499999978, -2.4999948 ], [ -43.264785499999959, -2.499739199999985 ], [ -43.264737599999933, -2.499643299999871 ], [ -43.264641599999948, -2.49957149999995 ], [ -43.264521699999932, -2.499483599999971 ], [ -43.264409699999931, -2.499379699999964 ], [ -43.2643298, -2.4992759 ], [ -43.264273799999955, -2.49914809999996 ], [ -43.264201899999939, -2.49901229999993 ], [ -43.264129899999936, -2.498892499999902 ], [ -43.264061099999935, -2.498797500000019 ], [ -43.264076, -2.498924099999894 ], [ -43.26404679999996, -2.499064099999968 ], [ -43.26398839999996, -2.499192400000035 ], [ -43.263924099999947, -2.499303299999962 ], [ -43.263854099999939, -2.4994841 ], [ -43.263824899999982, -2.49963 ], [ -43.263813199999966, -2.499799099999913 ], [ -43.263865799999962, -2.499945 ], [ -43.263994199999956, -2.50006749999988 ], [ -43.264029299999947, -2.500172500000011 ], [ -43.264023399999985, -2.500242499999888 ], [ -43.263953299999962, -2.500318399999925 ], [ -43.263854099999953, -2.50033 ], [ -43.263737299999939, -2.50033 ], [ -43.263678899999938, -2.500341699999936 ], [ -43.263620499999952, -2.500388399999978 ], [ -43.263562099999945, -2.500458399999976 ], [ -43.263486199999932, -2.500621699999962 ], [ -43.263433599999985, -2.500831699999942 ], [ -43.263369399999931, -2.5009251 ], [ -43.263322699999947, -2.501082599999985 ], [ -43.263293499999982, -2.501187599999904 ], [ -43.26325259999993, -2.501263400000019 ], [ -43.263217599999962, -2.501374299999959 ], [ -43.263287699999985, -2.501549299999953 ], [ -43.263357699999972, -2.501700899999884 ], [ -43.263404499999979, -2.501858500000032 ], [ -43.263462799999949, -2.502045099999948 ], [ -43.263453699999957, -2.502143799999983 ], [ -43.263324199999943, -2.502262699999923 ], [ -43.263117199999961, -2.502266199999912 ], [ -43.262951899999969, -2.502338099999955 ], [ -43.262736899999943, -2.502494199999985 ], [ -43.262605599999979, -2.5026587 ], [ -43.262295, -2.502741699999971 ], [ -43.261961499999984, -2.50277159999993 ], [ -43.261763599999945, -2.502721799999942 ], [ -43.261605899999957, -2.502675199999902 ], [ -43.2614483, -2.502605199999907 ], [ -43.261284799999949, -2.502576 ], [ -43.261133, -2.502581799999918 ], [ -43.261004499999956, -2.502546799999985 ], [ -43.260858499999983, -2.502506 ], [ -43.260593599999943, -2.502438499999907 ], [ -43.260333299999964, -2.50243669999994 ], [ -43.2600834, -2.502481499999927 ], [ -43.259667299999933, -2.502628499999983 ], [ -43.259543099999973, -2.502690599999925 ], [ -43.259387, -2.502768499999988 ], [ -43.259257399999967, -2.502790799999953 ], [ -43.259217699999965, -2.502797700000012 ], [ -43.25920229999997, -2.502798299999942 ], [ -43.258820399999941, -2.502768199999878 ], [ -43.258474199999974, -2.502672699999945 ], [ -43.258355299999955, -2.502611099999979 ], [ -43.258777499999951, -2.5017522 ], [ -43.258870599999959, -2.501022 ], [ -43.25899359999994, -2.500854399999939 ], [ -43.259217099999944, -2.499956499999931 ], [ -43.259120199999984, -2.499576499999981 ], [ -43.258736499999941, -2.499215199999924 ], [ -43.25827449999997, -2.4985781 ], [ -43.258273, -2.497476899999951 ], [ -43.257885199999976, -2.4974698 ], [ -43.257270499999947, -2.497566600000028 ], [ -43.256570099999983, -2.497831199999875 ], [ -43.25584369999995, -2.497782699999923 ], [ -43.255139499999984, -2.497462299999961 ], [ -43.25490479999997, -2.496650200000013 ], [ -43.254923499999961, -2.496042899999976 ], [ -43.254923499999968, -2.49567779999993 ], [ -43.2543199, -2.494694299999897 ], [ -43.2540145, -2.49389709999997 ], [ -43.253893, -2.493050299999926 ], [ -43.253643299999965, -2.493066 ], [ -43.253087899999969, -2.492941699999911 ], [ -43.252538399999942, -2.493013 ], [ -43.252543299999964, -2.493213699999912 ], [ -43.25057209999995, -2.494221200000036 ], [ -43.249430299999972, -2.49479119999989 ], [ -43.249212299999954, -2.4949886 ], [ -43.249216, -2.495303399999945 ], [ -43.249599799999942, -2.495784 ], [ -43.250750899999964, -2.496190099999974 ], [ -43.252084699999955, -2.4965962 ], [ -43.251853699999977, -2.497147499999889 ], [ -43.250549799999931, -2.496734 ], [ -43.248172899999922, -2.496707899999877 ], [ -43.248016399999983, -2.496626 ], [ -43.247535799999987, -2.496421099999937 ], [ -43.246418199999937, -2.49636149999993 ], [ -43.245493, -2.495974499999935 ], [ -43.245530199999962, -2.4959499 ], [ -43.245539099999974, -2.4959116 ], [ -43.24554089999998, -2.495875099999943 ], [ -43.245531299999982, -2.4958376 ], [ -43.245541899999985, -2.495800599999933 ], [ -43.24557939999994, -2.495781899999916 ], [ -43.245605299999973, -2.4957628 ], [ -43.245631399999979, -2.495732499999977 ], [ -43.245644699999957, -2.495692899999924 ], [ -43.245623899999941, -2.495655799999983 ], [ -43.24560409999998, -2.495606199999913 ], [ -43.245602099999985, -2.495561 ], [ -43.243981699999949, -2.4947111 ], [ -43.243076499999972, -2.494182 ], [ -43.2429274, -2.493857899999984 ], [ -43.242092899999939, -2.493437 ], [ -43.241910399999931, -2.493723799999975 ], [ -43.240953299999944, -2.4931893 ], [ -43.23982929999994, -2.493226499999972 ], [ -43.239392, -2.493546899999957 ], [ -43.238132699999944, -2.496199399999973 ], [ -43.236456299999929, -2.499693900000024 ], [ -43.237510599999951, -2.506671699999936 ], [ -43.23783229999998, -2.507123299999949 ], [ -43.2392536, -2.508122399999879 ], [ -43.242048299999965, -2.510488699999923 ], [ -43.242405099999985, -2.51059419999989 ], [ -43.242502699999932, -2.510588599999952 ], [ -43.242666199999974, -2.510646899999872 ], [ -43.2426708, -2.510649499999958 ], [ -43.24243389999998, -2.510638699999888 ], [ -43.242226, -2.510670699999969 ], [ -43.242082099999948, -2.510726599999964 ], [ -43.241986099999963, -2.510910299999915 ], [ -43.242010099999959, -2.511102 ], [ -43.242082099999948, -2.511253799999961 ], [ -43.242194, -2.511437499999904 ], [ -43.242322, -2.511589299999899 ], [ -43.242473899999936, -2.511749100000041 ], [ -43.242585799999972, -2.511932799999983 ], [ -43.242721699999954, -2.512196399999918 ], [ -43.2428417, -2.512436 ], [ -43.243033599999926, -2.512747499999943 ], [ -43.243209499999978, -2.5130671 ], [ -43.243377499999951, -2.513279699999971 ], [ -43.243583599999965, -2.513471500000038 ], [ -43.243780399999935, -2.513692899999941 ], [ -43.244068199999958, -2.513904899999909 ], [ -43.244216199999983, -2.5141365 ], [ -43.244343799999967, -2.514415699999941 ], [ -43.244372299999952, -2.514647800000036 ], [ -43.244277799999963, -2.5149786 ], [ -43.24414569999994, -2.515188199999929 ], [ -43.243916699999943, -2.515400099999919 ], [ -43.243668799999973, -2.515538499999872 ], [ -43.243406399999969, -2.515729699999921 ], [ -43.242930499999943, -2.515931599999965 ], [ -43.242427899999939, -2.516088 ], [ -43.242064499999969, -2.516108699999948 ], [ -43.24158429999995, -2.516110699999943 ], [ -43.241125099999977, -2.516148 ], [ -43.240451299999954, -2.516241200000022 ], [ -43.240039599999932, -2.516464399999936 ], [ -43.23973669999998, -2.516888499999933 ], [ -43.239524699999947, -2.517282299999926 ], [ -43.239161199999955, -2.51757 ], [ -43.238873499999954, -2.517933499999967 ], [ -43.238753699999961, -2.5184732 ], [ -43.239256399999931, -2.519876199999879 ], [ -43.239668599999966, -2.5204811 ], [ -43.239966099999954, -2.521046899999944 ], [ -43.240446699999957, -2.521600199999911 ], [ -43.240979899999957, -2.52207559999996 ], [ -43.24200819999993, -2.522209699999969 ], [ -43.242470099999935, -2.522209699999902 ], [ -43.242768199999944, -2.522448199999938 ], [ -43.242872499999983, -2.523327399999921 ], [ -43.242930699999931, -2.523558799999913 ], [ -43.243330299999975, -2.524017100000043 ], [ -43.243601299999959, -2.524480899999902 ], [ -43.243514699999935, -2.5252688 ], [ -43.243489499999953, -2.526403199999881 ], [ -43.243581699999929, -2.526922899999932 ], [ -43.244243899999958, -2.52751529999991 ], [ -43.245093299999944, -2.527775099999892 ], [ -43.245909199999971, -2.5273029 ], [ -43.246208199999955, -2.527411899999924 ], [ -43.246440099999973, -2.52769969999992 ], [ -43.24710459999995, -2.527574399999903 ], [ -43.247905599999967, -2.527812899999908 ], [ -43.248224099999966, -2.527991700000015 ], [ -43.24842249999994, -2.528173299999971 ], [ -43.248714, -2.528334399999965 ], [ -43.249172699999981, -2.5282781 ], [ -43.249608099999939, -2.528289699999948 ], [ -43.2497274, -2.528256199999908 ], [ -43.249914099999955, -2.528362899999932 ], [ -43.25005989999994, -2.528424799999871 ], [ -43.250259599999936, -2.528526799999947 ], [ -43.250497099999954, -2.528593799999988 ] ] ] } }
]
}
