{
"type": "FeatureCollection",
"name": "2111532",
"crs": { "type": "name", "properties": { "name": "urn:ogc:def:crs:OGC:1.3:CRS84" } },
"features": [
{ "type": "Feature", "properties": { "CD_MUN": "2111532", "NM_MUN": "São Pedro da Água Branca" }, "geometry": { "type": "Polygon", "coordinates": [ [ [ -48.433356799999956, -5.095310699999956 ], [ -48.433728299999977, -5.095674799999959 ], [ -48.43399949999997, -5.0957218 ], [ -48.434379099999944, -5.095826399999972 ], [ -48.435318499999944, -5.094112799999948 ], [ -48.435682399999962, -5.093449099999936 ], [ -48.43576969999998, -5.093203899999948 ], [ -48.437039199999958, -5.089638899999943 ], [ -48.437170699999967, -5.088206699999952 ], [ -48.437174799999987, -5.088161899999915 ], [ -48.43722779999996, -5.087585099999921 ], [ -48.437237099999948, -5.087483599999898 ], [ -48.437288199999955, -5.0869269 ], [ -48.437297, -5.086831299999976 ], [ -48.437324299999943, -5.086534099999922 ], [ -48.437329699999964, -5.086475 ], [ -48.437332699999956, -5.086442799999921 ], [ -48.437357, -5.086178399999941 ], [ -48.437596599999956, -5.083569 ], [ -48.437019899999939, -5.080067399999939 ], [ -48.43679, -5.078671799999933 ], [ -48.435810599999968, -5.077768099999936 ], [ -48.43462379999994, -5.076673 ], [ -48.434501199999943, -5.076586099999957 ], [ -48.431908499999963, -5.07474769999992 ], [ -48.431552699999941, -5.074495499999986 ], [ -48.431534399999975, -5.074498899999988 ], [ -48.430324199999973, -5.074726899999964 ], [ -48.429763199999968, -5.074832599999953 ], [ -48.428055099999938, -5.075154499999957 ], [ -48.4272989, -5.075296899999955 ], [ -48.427118699999937, -5.075552799999989 ], [ -48.424985099999965, -5.078581 ], [ -48.422437199999933, -5.082197199999947 ], [ -48.421776099999931, -5.083135499999973 ], [ -48.421683, -5.083267799999924 ], [ -48.419690899999985, -5.08511379999991 ], [ -48.419046299999934, -5.085710900000011 ], [ -48.419076799999971, -5.085946899999961 ], [ -48.419168699999943, -5.0866586 ], [ -48.419608699999969, -5.091220099999903 ], [ -48.419996499999968, -5.091787599999957 ], [ -48.422105399999971, -5.0949957 ], [ -48.422792399999935, -5.095442699999939 ], [ -48.427273799999966, -5.0971312 ], [ -48.429959799999949, -5.0955443 ], [ -48.430002599999973, -5.092518299999939 ], [ -48.430212799999943, -5.092536 ], [ -48.430655499999951, -5.09261169999994 ], [ -48.430834, -5.092862 ], [ -48.431092599999943, -5.093061299999934 ], [ -48.43121049999997, -5.093343199999933 ], [ -48.431263199999933, -5.093468199999942 ], [ -48.431334299999953, -5.093636799999933 ], [ -48.431640899999934, -5.093942299999963 ], [ -48.432106799999985, -5.094235899999974 ], [ -48.432495899999935, -5.094523699999986 ], [ -48.432565099999984, -5.094577299999957 ], [ -48.432599, -5.094654299999957 ], [ -48.432619799999941, -5.094671599999986 ], [ -48.432779, -5.094776199999976 ], [ -48.433356799999956, -5.095310699999956 ] ] ] } }
]
}
