{
"type": "FeatureCollection",
"name": "2112704",
"crs": { "type": "name", "properties": { "name": "urn:ogc:def:crs:OGC:1.3:CRS84" } },
"features": [
{ "type": "Feature", "properties": { "CD_MUN": "2112704", "NM_MUN": "Vargem Grande" }, "geometry": { "type": "Polygon", "coordinates": [ [ [ -43.92046, -3.564263799999915 ], [ -43.922656599999982, -3.566695899999957 ], [ -43.924290399999961, -3.56846769999992 ], [ -43.924775099999977, -3.568977899999963 ], [ -43.925278099999957, -3.56951969999998 ], [ -43.925760199999964, -3.568066 ], [ -43.925858, -3.567346200000011 ], [ -43.926260599999985, -3.566726399999943 ], [ -43.926426, -3.565936899999977 ], [ -43.925645, -3.564346199999922 ], [ -43.925739399999941, -3.56320309999995 ], [ -43.925427199999945, -3.5626495999999 ], [ -43.925318799999957, -3.562185599999979 ], [ -43.925312199999951, -3.5620041 ], [ -43.925331799999981, -3.5619419 ], [ -43.925508899999947, -3.5619149 ], [ -43.925578499999972, -3.561860799999961 ], [ -43.9255788, -3.561783499999902 ], [ -43.925579299999981, -3.561698500000019 ], [ -43.925595199999975, -3.561621199999968 ], [ -43.925649399999941, -3.561559299999895 ], [ -43.925719099999981, -3.561505199999973 ], [ -43.925825699999962, -3.561392899999932 ], [ -43.925841199999986, -3.561385199999941 ], [ -43.925895299999979, -3.56133159999995 ], [ -43.925918399999951, -3.5612547 ], [ -43.925871899999947, -3.561177499999955 ], [ -43.9258253, -3.561115699999945 ], [ -43.925778799999939, -3.561046199999939 ], [ -43.925786399999936, -3.560969199999967 ], [ -43.925794199999984, -3.560884 ], [ -43.925879399999985, -3.560861 ], [ -43.925956799999945, -3.560830299999973 ], [ -43.926011099999975, -3.5607684 ], [ -43.926057599999979, -3.5606754 ], [ -43.926135199999976, -3.560628699999904 ], [ -43.926212799999973, -3.56060519999995 ], [ -43.926290399999978, -3.560581699999954 ], [ -43.926367899999946, -3.560542599999947 ], [ -43.926414399999942, -3.560465 ], [ -43.926445399999977, -3.560379599999944 ], [ -43.92643, -3.56031 ], [ -43.9263835, -3.560248099999908 ], [ -43.92643, -3.560178300000012 ], [ -43.926515199999983, -3.560147099999978 ], [ -43.926592599999942, -3.560116 ], [ -43.926669899999986, -3.560139099999924 ], [ -43.926762699999983, -3.560131299999928 ], [ -43.926832299999937, -3.560123599999959 ], [ -43.926878699999975, -3.560054099999931 ], [ -43.926909699999953, -3.559976899999931 ], [ -43.926917399999979, -3.559899699999942 ], [ -43.926948299999935, -3.5598226 ], [ -43.92696379999996, -3.559745399999966 ], [ -43.926979299999971, -3.559706799999984 ], [ -43.926994799999932, -3.559668199999948 ], [ -43.927087599999936, -3.559583199999956 ], [ -43.927149399999962, -3.55956009999992 ], [ -43.927226699999949, -3.559513699999964 ], [ -43.927319399999931, -3.559451899999939 ], [ -43.927412299999958, -3.559374799999956 ], [ -43.927482, -3.559320799999914 ], [ -43.927574599999964, -3.559297499999929 ], [ -43.927651799999985, -3.559289799999929 ], [ -43.927752099999964, -3.559282 ], [ -43.927836899999924, -3.559258799999974 ], [ -43.927929499999955, -3.559235599999971 ], [ -43.92801419999995, -3.5592047 ], [ -43.928083599999979, -3.5591661 ], [ -43.928137499999934, -3.559112099999967 ], [ -43.928145199999967, -3.559035 ], [ -43.928183599999954, -3.558957899999967 ], [ -43.92826059999993, -3.558927099999925 ], [ -43.928345199999967, -3.558934800000015 ], [ -43.928437599999938, -3.55891939999993 ], [ -43.928529899999944, -3.558904 ], [ -43.928606899999984, -3.558865499999971 ], [ -43.92863, -3.5587962 ], [ -43.928560799999957, -3.558742199999882 ], [ -43.928483899999954, -3.558703699999968 ], [ -43.928399199999951, -3.558703599999938 ], [ -43.928322299999934, -3.558672799999964 ], [ -43.928299199999977, -3.55859569999993 ], [ -43.9283377, -3.558518599999945 ], [ -43.928422299999966, -3.558472499999981 ], [ -43.928491899999983, -3.5584339 ], [ -43.928577, -3.558395299999942 ], [ -43.928669799999973, -3.558364499999935 ], [ -43.928731699999958, -3.558325899999941 ], [ -43.928801399999941, -3.558287299999939 ], [ -43.928840199999968, -3.558210199999986 ], [ -43.9288701, -3.558141099999931 ], [ -43.92889219999995, -3.5580568 ], [ -43.928891399999948, -3.557964699999931 ], [ -43.928890699999961, -3.557888 ], [ -43.928882499999922, -3.557811299999976 ], [ -43.928881699999977, -3.557719399999904 ], [ -43.928881099999955, -3.557642899999979 ], [ -43.928926099999956, -3.5575744 ], [ -43.929017699999982, -3.557544099999943 ], [ -43.929109199999978, -3.5575293 ], [ -43.92914959999996, -3.557520699999932 ], [ -43.929191699999933, -3.557506799999975 ], [ -43.929238299999952, -3.557502199999903 ], [ -43.929285, -3.557483700000019 ], [ -43.929336199999959, -3.557474499999943 ], [ -43.929382799999985, -3.5574745 ], [ -43.929438599999976, -3.55747 ], [ -43.929489799999942, -3.55747 ], [ -43.929540899999957, -3.55747 ], [ -43.929592, -3.557484 ], [ -43.929619899999977, -3.557516599999919 ], [ -43.929661599999974, -3.557544399999889 ], [ -43.929707899999983, -3.557553799999951 ], [ -43.929763499999979, -3.557553799999928 ], [ -43.929814399999934, -3.557544600000023 ], [ -43.929865399999976, -3.557521399999938 ], [ -43.929911799999957, -3.557493699999895 ], [ -43.929967199999965, -3.557484499999938 ], [ -43.930013499999973, -3.55747059999997 ], [ -43.930059699999958, -3.5574614 ], [ -43.930096599999949, -3.557433699999924 ], [ -43.930133699999949, -3.557401399999911 ], [ -43.93016159999997, -3.55735969999997 ], [ -43.930194099999937, -3.55732729999992 ], [ -43.93025449999994, -3.557285599999972 ], [ -43.930305499999974, -3.557257799999955 ], [ -43.930351799999983, -3.55723010000001 ], [ -43.93038439999998, -3.557197599999929 ], [ -43.930430899999976, -3.557151299999933 ], [ -43.930437599999948, -3.557141399999959 ], [ -43.930458899999962, -3.557109499999968 ], [ -43.9304777, -3.557072299999907 ], [ -43.930459599999949, -3.5570258 ], [ -43.930485, -3.5570131 ], [ -43.931235599999972, -3.554847 ], [ -43.931308099999967, -3.5546972 ], [ -43.934262699999969, -3.548587599999968 ], [ -43.941299, -3.535629499999964 ], [ -43.941323299999958, -3.535584799999969 ], [ -43.941258599999969, -3.535547499999981 ], [ -43.941074, -3.535441099999972 ], [ -43.931377399999967, -3.529850199999965 ], [ -43.932261499999981, -3.529238799999973 ], [ -43.933938099999985, -3.527907099999949 ], [ -43.934570899999983, -3.527519299999891 ], [ -43.935648, -3.527131399999966 ], [ -43.9361373, -3.52687079999995 ], [ -43.936484899999989, -3.526346200000011 ], [ -43.937116399999979, -3.52483 ], [ -43.93728729999998, -3.524101499999985 ], [ -43.937967699999952, -3.521754499999911 ], [ -43.938352899999984, -3.521301499999982 ], [ -43.935183099999968, -3.521085599999933 ], [ -43.934080399999971, -3.52088009999992 ], [ -43.933274399999966, -3.520337699999934 ], [ -43.932400799999982, -3.518770599999883 ], [ -43.932242499999973, -3.517940100000013 ], [ -43.932088399999941, -3.516950800000012 ], [ -43.931874799999939, -3.5168987 ], [ -43.929902, -3.5180488 ], [ -43.930345299999949, -3.516009299999987 ], [ -43.930205099999974, -3.513461699999985 ], [ -43.928659799999934, -3.513770599999885 ], [ -43.928046, -3.512908099999928 ], [ -43.92589159999995, -3.512615099999944 ], [ -43.924462499999947, -3.5119003 ], [ -43.922318499999953, -3.511507499999905 ], [ -43.919391, -3.512708 ], [ -43.918423599999983, -3.517798799999934 ], [ -43.914693, -3.517233399999928 ], [ -43.91448139999995, -3.5168467 ], [ -43.914153099999972, -3.516708 ], [ -43.913241, -3.5169415 ], [ -43.913328499999984, -3.517291799999958 ], [ -43.913424599999978, -3.51775 ], [ -43.902591199999961, -3.534595299999987 ], [ -43.901991099999975, -3.541176 ], [ -43.900171199999939, -3.540881599999946 ], [ -43.900151799999946, -3.543985500000018 ], [ -43.900778, -3.5440082 ], [ -43.90077239999993, -3.546495899999949 ], [ -43.901626899999947, -3.546503399999976 ], [ -43.90201449999995, -3.546510199999968 ], [ -43.902062599999965, -3.546689299999935 ], [ -43.901840499999935, -3.547156 ], [ -43.901330199999968, -3.547563499999931 ], [ -43.900999499999955, -3.547571699999896 ], [ -43.901077199999975, -3.548456099999989 ], [ -43.901437199999968, -3.548728299999925 ], [ -43.901787299999967, -3.549338499999956 ], [ -43.901728799999951, -3.54990169999997 ], [ -43.901398299999975, -3.550687599999955 ], [ -43.900731699999938, -3.552270499999989 ], [ -43.900799799999966, -3.552806399999954 ], [ -43.900862099999983, -3.552926 ], [ -43.900883599999936, -3.552967299999949 ], [ -43.899683099999955, -3.553103699999907 ], [ -43.899699499999933, -3.553145099999977 ], [ -43.90002439999995, -3.553968399999981 ], [ -43.900455699999945, -3.554956799999986 ], [ -43.900944399999958, -3.555970099999967 ], [ -43.901295499999954, -3.556669599999962 ], [ -43.910919199999967, -3.565592699999964 ], [ -43.911075, -3.565593 ], [ -43.912308099999962, -3.565003299999973 ], [ -43.912982699999937, -3.565056299999949 ], [ -43.913949599999967, -3.565273499999907 ], [ -43.9147483, -3.565042399999906 ], [ -43.915634099999977, -3.564356499999942 ], [ -43.915765799999981, -3.56398069999997 ], [ -43.91591869999997, -3.5634789 ], [ -43.915940699999972, -3.563083799999948 ], [ -43.915997899999979, -3.562309499999953 ], [ -43.916097599999944, -3.560935 ], [ -43.916261299999974, -3.559607399999985 ], [ -43.916782199999943, -3.560304799999903 ], [ -43.92046, -3.564263799999915 ] ] ] } }
]
}
