{
"type": "FeatureCollection",
"name": "2112209",
"crs": { "type": "name", "properties": { "name": "urn:ogc:def:crs:OGC:1.3:CRS84" } },
"features": [
{ "type": "Feature", "properties": { "CD_MUN": "2112209", "NM_MUN": "Timon" }, "geometry": { "type": "MultiPolygon", "coordinates": [ [ [ [ -43.18117749999994, -5.170682 ], [ -43.181261099999972, -5.170481199999915 ], [ -43.181447099999964, -5.17018809999998 ], [ -43.181907399999943, -5.169462600000012 ], [ -43.182105199999967, -5.1691911 ], [ -43.182285099999952, -5.168919399999953 ], [ -43.182501, -5.168609199999951 ], [ -43.182620399999962, -5.168596199999948 ], [ -43.183390499999973, -5.168512499999987 ], [ -43.201156399999945, -5.166580499999931 ], [ -43.202587199999982, -5.166424899999964 ], [ -43.203744899999954, -5.166299 ], [ -43.204018, -5.166269299999964 ], [ -43.204072099999962, -5.166036099999914 ], [ -43.204371599999945, -5.164743899999983 ], [ -43.204966299999974, -5.162178099999939 ], [ -43.205796, -5.158598899999933 ], [ -43.205873499999946, -5.158264199999928 ], [ -43.205914699999944, -5.158086899999974 ], [ -43.205922699999981, -5.155221599999938 ], [ -43.205932299999972, -5.1517903999999 ], [ -43.205935599999982, -5.150627599999945 ], [ -43.201095899999984, -5.147166299999962 ], [ -43.189135099999937, -5.148211799999928 ], [ -43.172090799999978, -5.14970149999997 ], [ -43.171872499999949, -5.150206799999947 ], [ -43.171793199999975, -5.150390299999971 ], [ -43.171582199999932, -5.150878699999958 ], [ -43.179637899999932, -5.167936799999923 ], [ -43.180877599999974, -5.170561899999971 ], [ -43.181105499999951, -5.170745 ], [ -43.181136099999954, -5.170769599999947 ], [ -43.18117749999994, -5.170682 ] ] ], [ [ [ -42.874294299999967, -5.139893599999958 ], [ -42.87478689999994, -5.139740099999895 ], [ -42.874988699999967, -5.139702599999944 ], [ -42.87513679999995, -5.13964189999997 ], [ -42.875288499999947, -5.13956329999998 ], [ -42.875351, -5.139468699999981 ], [ -42.875765199999933, -5.139468699999946 ], [ -42.876364899999942, -5.139226 ], [ -42.877121799999941, -5.139104599999947 ], [ -42.879006799999964, -5.1387119 ], [ -42.881113, -5.136704099999944 ], [ -42.882447499999948, -5.1356491 ], [ -42.887470499999949, -5.134619799999952 ], [ -42.893526799999961, -5.13341079999997 ], [ -42.891013799999939, -5.121384099999958 ], [ -42.896559299999979, -5.118225599999954 ], [ -42.896563399999934, -5.117149399999952 ], [ -42.896618199999978, -5.102855699999924 ], [ -42.896457299999959, -5.1028517 ], [ -42.896618699999976, -5.102744599999943 ], [ -42.896641799999948, -5.096710299999911 ], [ -42.9043066, -5.093554599999948 ], [ -42.904413699999971, -5.093509699999965 ], [ -42.908136199999944, -5.091976599999969 ], [ -42.908134299999972, -5.091930299999956 ], [ -42.908216799999941, -5.09194339999994 ], [ -42.922595899999969, -5.0860218 ], [ -42.922632599999986, -5.08600669999992 ], [ -42.922634, -5.086006 ], [ -42.92553479999998, -5.084811499999974 ], [ -42.917494, -5.063551899999922 ], [ -42.917718, -5.063245299999946 ], [ -42.917691199999979, -5.063209199999975 ], [ -42.917658099999983, -5.062579599999893 ], [ -42.917623, -5.062459899999926 ], [ -42.917623, -5.062354599999967 ], [ -42.9176437, -5.062212199999989 ], [ -42.917718, -5.061902599999979 ], [ -42.917773699999948, -5.060482499999949 ], [ -42.917763399999963, -5.060383399999984 ], [ -42.917455899999936, -5.059339 ], [ -42.917398099999964, -5.058916899999891 ], [ -42.917371199999941, -5.058800199999966 ], [ -42.917291799999923, -5.058556699999929 ], [ -42.917252499999954, -5.058371899999951 ], [ -42.917252499999954, -5.058148 ], [ -42.91729179999993, -5.057782599999925 ], [ -42.917326799999955, -5.057308899999982 ], [ -42.917227799999978, -5.056528699999978 ], [ -42.916881, -5.055405799999936 ], [ -42.916724099999961, -5.054827899999927 ], [ -42.916666299999982, -5.054526499999962 ], [ -42.916534199999951, -5.053378899999953 ], [ -42.91645989999995, -5.053040399999956 ], [ -42.916418599999929, -5.0529 ], [ -42.916348499999962, -5.052726599999972 ], [ -42.915902599999981, -5.051752399999931 ], [ -42.915807699999959, -5.051529399999899 ], [ -42.915613599999972, -5.05130649999998 ], [ -42.915316399999931, -5.051108399999962 ], [ -42.914841699999954, -5.050963899999963 ], [ -42.914552699999945, -5.050976299999936 ], [ -42.914222399999971, -5.050947399999957 ], [ -42.914011899999934, -5.050881299999947 ], [ -42.913871499999971, -5.05074509999997 ], [ -42.913487599999939, -5.0497832 ], [ -42.912814699999956, -5.049704799999971 ], [ -42.912260299999957, -5.049714199999909 ], [ -42.912272, -5.049543699999946 ], [ -42.912040599999955, -5.0496757 ], [ -42.904163799999942, -5.048295099999943 ], [ -42.881673499999984, -5.044353199999941 ], [ -42.865800499999978, -5.039100199999937 ], [ -42.865715899999941, -5.038926900000013 ], [ -42.865651699999944, -5.03905089999997 ], [ -42.846685299999933, -5.032774099999937 ], [ -42.846685, -5.032777299999982 ], [ -42.843002599999984, -5.031358899999943 ], [ -42.842482299999972, -5.033644 ], [ -42.841896, -5.04600739999996 ], [ -42.841692399999943, -5.04938739999996 ], [ -42.841492399999936, -5.052708099999968 ], [ -42.841309599999938, -5.055742199999965 ], [ -42.840096899999935, -5.061513599999964 ], [ -42.839550499999973, -5.064114 ], [ -42.836279099999956, -5.072319399999947 ], [ -42.835395099999978, -5.0739684 ], [ -42.834528599999942, -5.074896099999911 ], [ -42.833419099999951, -5.076391599999934 ], [ -42.830901599999947, -5.079299799999944 ], [ -42.82983269999994, -5.080829399999948 ], [ -42.829320399999979, -5.081562499999939 ], [ -42.827432299999948, -5.0842643 ], [ -42.826396899999963, -5.085347199999948 ], [ -42.824877, -5.086936799999936 ], [ -42.824505399999964, -5.087325499999976 ], [ -42.823523199999954, -5.088352699999952 ], [ -42.822470399999929, -5.089795899999956 ], [ -42.821804399999955, -5.0911384 ], [ -42.820640199999964, -5.093025099999948 ], [ -42.819706699999983, -5.094688199999955 ], [ -42.818245499999939, -5.09755149999997 ], [ -42.817659299999939, -5.099764599999953 ], [ -42.817585499999957, -5.100140599999984 ], [ -42.817268599999977, -5.101737099999956 ], [ -42.817238799999984, -5.102340799999961 ], [ -42.817105, -5.105052199999943 ], [ -42.817094399999981, -5.105266199999936 ], [ -42.816975499999948, -5.1076749 ], [ -42.816955699999937, -5.108241399999939 ], [ -42.816874899999959, -5.110554899999969 ], [ -42.81678, -5.113271899999948 ], [ -42.816743699999968, -5.11364479999996 ], [ -42.81616449999995, -5.119590799999956 ], [ -42.816144799999961, -5.119793499999961 ], [ -42.815460699999967, -5.125779699999975 ], [ -42.815113899999972, -5.126889399999895 ], [ -42.813940399999979, -5.130644499999926 ], [ -42.813920799999948, -5.130707099999927 ], [ -42.813164099999945, -5.133128599999967 ], [ -42.812766, -5.135229799999937 ], [ -42.812040599999932, -5.138258099999987 ], [ -42.810780899999941, -5.140476299999953 ], [ -42.807935699999973, -5.14490609999995 ], [ -42.805394799999931, -5.14860479999995 ], [ -42.804466299999937, -5.152790099999974 ], [ -42.803147, -5.161014699999972 ], [ -42.802267499999978, -5.168460499999967 ], [ -42.802719399999944, -5.168938099999919 ], [ -42.823625399999969, -5.171973199999948 ], [ -42.823986099999956, -5.172065899999979 ], [ -42.827742699999931, -5.172929699999979 ], [ -42.82815659999995, -5.173029399999932 ], [ -42.830150799999956, -5.173509799999977 ], [ -42.832069299999944, -5.173936699999926 ], [ -42.832704599999943, -5.174047199999936 ], [ -42.833686399999976, -5.174320899999934 ], [ -42.834110799999962, -5.174361 ], [ -42.834290199999941, -5.17352149999995 ], [ -42.841544499999941, -5.174574699999924 ], [ -42.84997519999996, -5.175798699999929 ], [ -42.852720099999942, -5.16709089999995 ], [ -42.854474099999941, -5.161481299999956 ], [ -42.8551, -5.158449599999894 ], [ -42.855343599999969, -5.157269899999947 ], [ -42.85585709999998, -5.154782799999952 ], [ -42.858697599999971, -5.149758599999923 ], [ -42.86348159999995, -5.151313199999952 ], [ -42.866421, -5.139854199999912 ], [ -42.866867699999943, -5.139994599999965 ], [ -42.867271899999928, -5.140066099999961 ], [ -42.867814599999974, -5.140206499999944 ], [ -42.868408399999971, -5.140349399999907 ], [ -42.868576199999957, -5.140423099999955 ], [ -42.868705899999959, -5.1405136 ], [ -42.869012899999973, -5.1406112 ], [ -42.869241399999972, -5.14072539999993 ], [ -42.869593699999939, -5.140780099999967 ], [ -42.87031, -5.140677799999908 ], [ -42.87104069999998, -5.140565899999932 ], [ -42.871916599999963, -5.140343399999932 ], [ -42.872230799999961, -5.140247 ], [ -42.872819799999938, -5.140195199999929 ], [ -42.8732, -5.140129199999963 ], [ -42.873553499999957, -5.140047099999937 ], [ -42.873730199999954, -5.140025699999989 ], [ -42.873801599999986, -5.13997569999996 ], [ -42.873958699999946, -5.139929299999923 ], [ -42.874139, -5.139929299999959 ], [ -42.874294299999967, -5.139893599999958 ] ] ] ] } }
]
}
