{
"type": "FeatureCollection",
"name": "2112274",
"crs": { "type": "name", "properties": { "name": "urn:ogc:def:crs:OGC:1.3:CRS84" } },
"features": [
{ "type": "Feature", "properties": { "CD_MUN": "2112274", "NM_MUN": "Tufilândia" }, "geometry": { "type": "Polygon", "coordinates": [ [ [ -45.620630099999971, -3.67667340000002 ], [ -45.620411399999966, -3.676872699999888 ], [ -45.619375199999979, -3.677812 ], [ -45.620192799999984, -3.678665799999953 ], [ -45.623446799999954, -3.678839299999943 ], [ -45.627896399999941, -3.679653199999945 ], [ -45.635546, -3.678172699999932 ], [ -45.641361899999943, -3.6766891 ], [ -45.643492499999979, -3.674209499999971 ], [ -45.642628499999944, -3.673159799999964 ], [ -45.642131599999971, -3.6724778 ], [ -45.641322699999932, -3.671264499999915 ], [ -45.639528899999959, -3.668600599999976 ], [ -45.6383206, -3.667087 ], [ -45.63853, -3.666171599999916 ], [ -45.638591599999984, -3.666039899999883 ], [ -45.638895299999945, -3.665743899999943 ], [ -45.639221299999974, -3.665353 ], [ -45.638268899999957, -3.665095 ], [ -45.638020099999949, -3.665120899999973 ], [ -45.637354799999969, -3.665209599999919 ], [ -45.63712819999995, -3.665139399999958 ], [ -45.636783299999934, -3.666081399999944 ], [ -45.636739499999969, -3.666110699999942 ], [ -45.635665099999983, -3.665091 ], [ -45.63542259999997, -3.665430699999916 ], [ -45.635418399999935, -3.667509499999972 ], [ -45.63464689999995, -3.668437199999972 ], [ -45.634273, -3.667917599999916 ], [ -45.633712, -3.667473 ], [ -45.633071199999961, -3.667493499999941 ], [ -45.632730799999933, -3.667604 ], [ -45.632358099999976, -3.667724899999951 ], [ -45.631509699999981, -3.667423899999968 ], [ -45.631230499999958, -3.667345600000023 ], [ -45.630917699999948, -3.667191 ], [ -45.630189599999937, -3.667164 ], [ -45.629907899999985, -3.667232099999945 ], [ -45.629652, -3.667271099999908 ], [ -45.62943619999993, -3.667355499999948 ], [ -45.628701299999939, -3.667877 ], [ -45.627912, -3.668173899999985 ], [ -45.62714, -3.668093899999981 ], [ -45.626059899999966, -3.668932799999908 ], [ -45.624952099999973, -3.671781399999933 ], [ -45.624371899999971, -3.672150599999974 ], [ -45.623422299999959, -3.672977099999975 ], [ -45.622485699999963, -3.674101199999922 ], [ -45.621424899999973, -3.675426899999905 ], [ -45.620805699999956, -3.676026099999928 ], [ -45.620896099999975, -3.676626199999941 ], [ -45.620630099999971, -3.67667340000002 ] ] ] } }
]
}
