{
"type": "FeatureCollection",
"name": "2201200",
"crs": { "type": "name", "properties": { "name": "urn:ogc:def:crs:OGC:1.3:CRS84" } },
"features": [
{ "type": "Feature", "properties": { "CD_MUN": "2201200", "NM_MUN": "Barras" }, "geometry": { "type": "Polygon", "coordinates": [ [ [ -42.29824449999996, -4.250567499999913 ], [ -42.297774, -4.24889779999991 ], [ -42.297971699999948, -4.246747499999936 ], [ -42.298550699999964, -4.245267 ], [ -42.299778399999973, -4.243230599999952 ], [ -42.30014, -4.241991 ], [ -42.300733299999933, -4.2401062 ], [ -42.30147379999994, -4.238703699999958 ], [ -42.302703499999957, -4.236953599999899 ], [ -42.303138599999954, -4.2368174 ], [ -42.304770599999983, -4.237708199999925 ], [ -42.305662299999945, -4.238762499999902 ], [ -42.306809099999953, -4.241168899999907 ], [ -42.307294199999944, -4.243224499999938 ], [ -42.30728559999995, -4.244968499999933 ], [ -42.307277, -4.247308499999948 ], [ -42.307404699999942, -4.250342299999923 ], [ -42.314741199999965, -4.240668299999899 ], [ -42.314758099999956, -4.2406434 ], [ -42.314776399999978, -4.240620599999953 ], [ -42.314901199999959, -4.240453199999968 ], [ -42.315296, -4.23689 ], [ -42.315329, -4.236609 ], [ -42.314743, -4.235787 ], [ -42.312148699999966, -4.2340586999999 ], [ -42.311857799999984, -4.233943699999966 ], [ -42.311561499999982, -4.233717399999931 ], [ -42.311482, -4.233646 ], [ -42.31119549999994, -4.233692199999939 ], [ -42.310952299999947, -4.233697499999985 ], [ -42.310540699999933, -4.233799799999958 ], [ -42.310284599999932, -4.233899499999959 ], [ -42.309905699999945, -4.233924 ], [ -42.309419899999966, -4.233902699999937 ], [ -42.309280499999936, -4.23390169999997 ], [ -42.308104799999967, -4.23115149999991 ], [ -42.305397699999958, -4.227104899999961 ], [ -42.302307799999944, -4.22704819999995 ], [ -42.302432899999985, -4.223521699999944 ], [ -42.302518599999985, -4.220125899999942 ], [ -42.3025598, -4.218574199999968 ], [ -42.302552, -4.217786099999925 ], [ -42.30265779999997, -4.21758129999994 ], [ -42.303334499999956, -4.215753299999944 ], [ -42.303647499999954, -4.214940299999947 ], [ -42.304776899999972, -4.212172799999938 ], [ -42.305817599999969, -4.209593099999918 ], [ -42.301835599999954, -4.203962299999918 ], [ -42.301511099999971, -4.200568 ], [ -42.300182, -4.200456899999904 ], [ -42.299132599999957, -4.200139899999946 ], [ -42.297324499999945, -4.199668399999939 ], [ -42.296981599999974, -4.201016499999947 ], [ -42.296704, -4.202013399999923 ], [ -42.296548199999961, -4.202678199999945 ], [ -42.296307199999944, -4.203558199999987 ], [ -42.296280699999954, -4.2035513 ], [ -42.293597, -4.202852 ], [ -42.293158, -4.204543 ], [ -42.292149, -4.204307 ], [ -42.290084, -4.212407 ], [ -42.28883929999995, -4.214773899999931 ], [ -42.278631899999937, -4.216597399999931 ], [ -42.278752499999939, -4.217040599999951 ], [ -42.278989399999944, -4.217730299999955 ], [ -42.279047399999968, -4.2179884 ], [ -42.279207, -4.2186963 ], [ -42.279435799999931, -4.219678899999963 ], [ -42.279485599999937, -4.220753299999964 ], [ -42.279514899999981, -4.221065499999962 ], [ -42.279537899999973, -4.221501199999988 ], [ -42.279577299999971, -4.221764799999979 ], [ -42.279649099999979, -4.221977199999956 ], [ -42.279796799999986, -4.222420199999934 ], [ -42.280171899999971, -4.223535 ], [ -42.271506799999941, -4.223216799999935 ], [ -42.263968499999976, -4.22036449999994 ], [ -42.260509499999955, -4.220410799999956 ], [ -42.25702739999997, -4.220503399999969 ], [ -42.257001899999985, -4.22048839999997 ], [ -42.256707, -4.220589799999947 ], [ -42.256675599999937, -4.220600599999949 ], [ -42.257735, -4.221940699999972 ], [ -42.258039, -4.222279100000014 ], [ -42.258375799999961, -4.222577199999934 ], [ -42.25896, -4.223017 ], [ -42.260647899999981, -4.224006599999977 ], [ -42.263270299999931, -4.225532399999918 ], [ -42.262843699999969, -4.2263283 ], [ -42.262085599999978, -4.227801 ], [ -42.261996699999941, -4.227949500000014 ], [ -42.260803099999983, -4.22990909999991 ], [ -42.259670299999982, -4.23189589999993 ], [ -42.259056599999951, -4.232942699999981 ], [ -42.258885699999958, -4.233248299999913 ], [ -42.261649, -4.234241399999934 ], [ -42.265325899999937, -4.235534399999932 ], [ -42.265206199999966, -4.236561699999911 ], [ -42.265156599999955, -4.237154099999952 ], [ -42.265090399999963, -4.237370699999934 ], [ -42.264817, -4.238010599999944 ], [ -42.264736099999936, -4.238395599999946 ], [ -42.264528199999972, -4.238929899999926 ], [ -42.264395199999967, -4.239345399999904 ], [ -42.264152699999954, -4.239835399999953 ], [ -42.264088599999987, -4.239907699999945 ], [ -42.26386279999997, -4.239919 ], [ -42.263731799999967, -4.239966099999954 ], [ -42.26335, -4.241094199999983 ], [ -42.263409, -4.241428 ], [ -42.263364, -4.242051 ], [ -42.263342, -4.243121 ], [ -42.263047, -4.24456 ], [ -42.26463549999994, -4.244794 ], [ -42.266171099999951, -4.245136599999932 ], [ -42.26671639999995, -4.246273 ], [ -42.267165199999958, -4.247809399999946 ], [ -42.2680759, -4.249357599999971 ], [ -42.268781399999966, -4.249893899999937 ], [ -42.269557599999985, -4.2499549 ], [ -42.270114399999954, -4.249876399999988 ], [ -42.270679199999961, -4.249487299999966 ], [ -42.271105799999937, -4.248875799999936 ], [ -42.272034699999956, -4.247544099999947 ], [ -42.272483, -4.246901599999958 ], [ -42.27299359999995, -4.246195699999899 ], [ -42.274482, -4.244138 ], [ -42.274768399999971, -4.243986 ], [ -42.27484, -4.243948 ], [ -42.275326, -4.243806 ], [ -42.277408, -4.243961 ], [ -42.279081, -4.244346 ], [ -42.280025, -4.244945 ], [ -42.280232599999984, -4.245577399999969 ], [ -42.280009799999959, -4.246386099999935 ], [ -42.279644699999956, -4.246860699999942 ], [ -42.278756499999929, -4.248771099999956 ], [ -42.27791069999995, -4.250322599999955 ], [ -42.27616, -4.250385499999898 ], [ -42.276167599999944, -4.250395599999968 ], [ -42.273957199999984, -4.250745499999893 ], [ -42.272407599999951, -4.252385199999973 ], [ -42.272422699999936, -4.252628 ], [ -42.2717636, -4.252500099999952 ], [ -42.271937099999953, -4.252688 ], [ -42.272941, -4.253655399999971 ], [ -42.277686699999947, -4.257652799999951 ], [ -42.276390799999945, -4.263457099999951 ], [ -42.276282099999953, -4.263810299999967 ], [ -42.277036599999974, -4.265117699999974 ], [ -42.27820939999998, -4.26543739999992 ], [ -42.280361299999981, -4.262209399999929 ], [ -42.283304499999986, -4.260111099999922 ], [ -42.286751899999956, -4.260117899999975 ], [ -42.287466499999944, -4.259637199999907 ], [ -42.28838049999996, -4.26123 ], [ -42.288439399999966, -4.261328 ], [ -42.288828099999932, -4.261991099999931 ], [ -42.289033299999979, -4.262311599999939 ], [ -42.289733199999951, -4.2632161 ], [ -42.290894199999968, -4.264691499999954 ], [ -42.292979499999952, -4.267323299999944 ], [ -42.293528099999946, -4.268023099999924 ], [ -42.294033699999943, -4.268686199999907 ], [ -42.294142, -4.268830899999967 ], [ -42.294404399999962, -4.269244199999895 ], [ -42.294606399999964, -4.2696483 ], [ -42.294704699999954, -4.269903299999953 ], [ -42.294674, -4.269917399999918 ], [ -42.294819199999949, -4.270474399999945 ], [ -42.291395699999953, -4.271506599999984 ], [ -42.29077239999998, -4.272017499999972 ], [ -42.289689099999975, -4.27377529999991 ], [ -42.288227699999936, -4.275747599999964 ], [ -42.287423799999949, -4.278394399999931 ], [ -42.289290499999936, -4.281276299999975 ], [ -42.291937399999938, -4.278009499999902 ], [ -42.292080399999975, -4.27741 ], [ -42.294948699999971, -4.276643499999984 ], [ -42.295185, -4.277256 ], [ -42.297685, -4.276775 ], [ -42.29770579999996, -4.274969299999981 ], [ -42.297744199999961, -4.271626 ], [ -42.297782, -4.268344 ], [ -42.298543399999971, -4.266736899999945 ], [ -42.299663199999948, -4.264373499999939 ], [ -42.300349399999959, -4.262942599999939 ], [ -42.300334499999963, -4.262908599999967 ], [ -42.300318599999969, -4.262872699999969 ], [ -42.299472, -4.260959499999967 ], [ -42.299549699999943, -4.259534499999985 ], [ -42.299487, -4.257018899999969 ], [ -42.298694899999937, -4.251967599999904 ], [ -42.29866339999996, -4.251782 ], [ -42.29824449999996, -4.250567499999913 ] ] ] } }
]
}
