{
"type": "FeatureCollection",
"name": "2202653",
"crs": { "type": "name", "properties": { "name": "urn:ogc:def:crs:OGC:1.3:CRS84" } },
"features": [
{ "type": "Feature", "properties": { "CD_MUN": "2202653", "NM_MUN": "Caxingó" }, "geometry": { "type": "Polygon", "coordinates": [ [ [ -41.887612399999966, -3.42223 ], [ -41.879836099999984, -3.427650199999916 ], [ -41.8733855, -3.432112099999931 ], [ -41.872062099999937, -3.439522199999922 ], [ -41.87290639999997, -3.441010499999944 ], [ -41.875309, -3.438634399999979 ], [ -41.87968369999993, -3.433194399999918 ], [ -41.886257699999931, -3.427227600000025 ], [ -41.894150499999967, -3.425089699999902 ], [ -41.894580099999985, -3.423863499999914 ], [ -41.895016799999951, -3.422612 ], [ -41.895154199999979, -3.422383300000017 ], [ -41.896298, -3.423373099999942 ], [ -41.897066399999972, -3.422176399999943 ], [ -41.897295499999984, -3.4215634 ], [ -41.896994099999972, -3.421295899999954 ], [ -41.896797899999974, -3.421057399999888 ], [ -41.896670699999959, -3.420718 ], [ -41.896453299999969, -3.420511199999933 ], [ -41.896241199999963, -3.4201825 ], [ -41.896235899999965, -3.419997 ], [ -41.896347299999945, -3.419753099999986 ], [ -41.896336699999949, -3.419456099999945 ], [ -41.895886, -3.418740399999878 ], [ -41.895456499999966, -3.418549499999908 ], [ -41.895043, -3.417854899999913 ], [ -41.894958099999947, -3.417277 ], [ -41.894846799999975, -3.416863499999938 ], [ -41.89452579999994, -3.416535899999953 ], [ -41.891611499999961, -3.418714099999893 ], [ -41.887612399999966, -3.42223 ] ] ] } }
]
}
