{
"type": "FeatureCollection",
"name": "2204659",
"crs": { "type": "name", "properties": { "name": "urn:ogc:def:crs:OGC:1.3:CRS84" } },
"features": [
{ "type": "Feature", "properties": { "CD_MUN": "2204659", "NM_MUN": "Ilha Grande" }, "geometry": { "type": "Polygon", "coordinates": [ [ [ -41.81301, -2.856975 ], [ -41.813473, -2.857352 ], [ -41.813497299999945, -2.857768599999908 ], [ -41.813594, -2.858098 ], [ -41.815413, -2.857798 ], [ -41.816237, -2.857078 ], [ -41.816495, -2.856558 ], [ -41.816598, -2.856421 ], [ -41.816791, -2.856327 ], [ -41.81704, -2.856366 ], [ -41.817202899999977, -2.856550099999917 ], [ -41.817311, -2.856831 ], [ -41.817376399999951, -2.856858899999962 ], [ -41.817693, -2.856994 ], [ -41.817976, -2.856921 ], [ -41.818109, -2.856707 ], [ -41.818217, -2.856416 ], [ -41.81829, -2.856069 ], [ -41.818466, -2.855902 ], [ -41.818817, -2.855786 ], [ -41.819023, -2.855812 ], [ -41.819118, -2.85615 ], [ -41.81929, -2.856232 ], [ -41.819586, -2.856309 ], [ -41.819947, -2.856257 ], [ -41.820055, -2.856386 ], [ -41.8202, -2.856617 ], [ -41.820763, -2.857157 ], [ -41.820964, -2.857161 ], [ -41.821153, -2.857221 ], [ -41.821239, -2.857435 ], [ -41.821346, -2.857615 ], [ -41.821475, -2.857679 ], [ -41.821908, -2.857568 ], [ -41.822007, -2.857649 ], [ -41.822072, -2.857786 ], [ -41.8222, -2.857872 ], [ -41.822346, -2.857821 ], [ -41.822492, -2.857731 ], [ -41.822621, -2.857773 ], [ -41.822681, -2.857923 ], [ -41.822612, -2.858099 ], [ -41.822634, -2.858236 ], [ -41.822724, -2.85842 ], [ -41.822986, -2.858245 ], [ -41.823283699999926, -2.857761500000031 ], [ -41.823506099999975, -2.857348799999909 ], [ -41.823707, -2.856964 ], [ -41.82352359999993, -2.85695419999997 ], [ -41.823163399999949, -2.856493199999922 ], [ -41.82290409999996, -2.85596020000002 ], [ -41.822875299999964, -2.855528 ], [ -41.82258719999993, -2.855067 ], [ -41.822155, -2.854519599999965 ], [ -41.821593199999938, -2.854015400000034 ], [ -41.82114659999997, -2.853395899999921 ], [ -41.820383099999965, -2.852819699999889 ], [ -41.819778, -2.852459499999989 ], [ -41.819461099999963, -2.852344299999982 ], [ -41.819173, -2.852113799999859 ], [ -41.819028899999985, -2.851796799999946 ], [ -41.818928099999937, -2.8513791 ], [ -41.818438299999968, -2.85093249999992 ], [ -41.818063699999982, -2.850615599999959 ], [ -41.817746799999952, -2.850226599999936 ], [ -41.81776119999995, -2.849722400000019 ], [ -41.817825, -2.849457199999988 ], [ -41.817934099999945, -2.849002099999963 ], [ -41.818092499999977, -2.848656399999928 ], [ -41.818193399999984, -2.848339399999955 ], [ -41.818063699999982, -2.848080099999922 ], [ -41.818092499999977, -2.84784959999998 ], [ -41.818092499999985, -2.847575899999967 ], [ -41.817991699999936, -2.847143699999978 ], [ -41.81803489999993, -2.846999699999975 ], [ -41.818121299999966, -2.846783600000018 ], [ -41.81812129999998, -2.846524299999947 ], [ -41.818092499999977, -2.846250599999977 ], [ -41.818308599999959, -2.8459624 ], [ -41.818409499999973, -2.845688699999888 ], [ -41.818423899999971, -2.845184499999935 ], [ -41.818495899999967, -2.844795599999913 ], [ -41.818697599999958, -2.844349 ], [ -41.818654399999957, -2.843844799999884 ], [ -41.818740799999944, -2.843599899999942 ], [ -41.81901449999998, -2.8434702 ], [ -41.8191442, -2.843254099999907 ], [ -41.819129799999978, -2.843081299999963 ], [ -41.819273799999962, -2.842894 ], [ -41.819619599999953, -2.842433 ], [ -41.8199274, -2.842027499999928 ], [ -41.820210199999963, -2.841655099999945 ], [ -41.820570299999929, -2.841251699999876 ], [ -41.820973699999975, -2.840949199999971 ], [ -41.821650799999929, -2.840358499999962 ], [ -41.822083, -2.840214499999982 ], [ -41.824099799999942, -2.839191699999979 ], [ -41.825715299999956, -2.83817 ], [ -41.826764899999951, -2.8375062 ], [ -41.828508, -2.83632490000001 ], [ -41.829444399999943, -2.835662199999884 ], [ -41.8296893, -2.835374099999935 ], [ -41.829790099999975, -2.8350284 ], [ -41.829516399999939, -2.834668199999906 ], [ -41.829545199999984, -2.833703 ], [ -41.83004939999995, -2.832694600000017 ], [ -41.830228299999938, -2.832058599999868 ], [ -41.830396399999984, -2.83146070000002 ], [ -41.830318599999941, -2.828973 ], [ -41.824758, -2.826931 ], [ -41.822988, -2.832213 ], [ -41.82273, -2.83306 ], [ -41.822848, -2.834228 ], [ -41.822441, -2.835353 ], [ -41.821196, -2.835235 ], [ -41.820617, -2.834796 ], [ -41.820252, -2.834785 ], [ -41.818449, -2.835225 ], [ -41.816041, -2.834951 ], [ -41.814206, -2.834137 ], [ -41.813059, -2.833312 ], [ -41.809791899999937, -2.83730929999991 ], [ -41.804249499999969, -2.842448099999909 ], [ -41.803630399999975, -2.843167 ], [ -41.797175099999947, -2.850662699999968 ], [ -41.79718169999996, -2.8507385 ], [ -41.796968, -2.85195 ], [ -41.797058, -2.852301 ], [ -41.797432, -2.85255 ], [ -41.797556, -2.852704 ], [ -41.797595, -2.85282 ], [ -41.797573, -2.85297 ], [ -41.797427, -2.853064 ], [ -41.797383699999962, -2.853191399999958 ], [ -41.79739619999998, -2.853204899999931 ], [ -41.797618, -2.853444 ], [ -41.797919, -2.853547 ], [ -41.798339, -2.853547 ], [ -41.799232, -2.854104 ], [ -41.799773, -2.854258 ], [ -41.800185, -2.854241 ], [ -41.800614, -2.854301 ], [ -41.80112, -2.854421 ], [ -41.801429, -2.854652 ], [ -41.802339, -2.854901 ], [ -41.802623, -2.854535 ], [ -41.802636, -2.854373 ], [ -41.802902, -2.854235 ], [ -41.803344, -2.854133 ], [ -41.803718, -2.85412 ], [ -41.804198, -2.854373 ], [ -41.804464, -2.85442 ], [ -41.804812, -2.854364 ], [ -41.805228, -2.854544 ], [ -41.806039, -2.854771 ], [ -41.806721, -2.854723 ], [ -41.807982, -2.854732 ], [ -41.810241499999954, -2.855566599999988 ], [ -41.810841, -2.855786 ], [ -41.81204, -2.856718 ], [ -41.81301, -2.856975 ] ] ] } }
]
}
