{
"type": "FeatureCollection",
"name": "2205805",
"crs": { "type": "name", "properties": { "name": "urn:ogc:def:crs:OGC:1.3:CRS84" } },
"features": [
{ "type": "Feature", "properties": { "CD_MUN": "2205805", "NM_MUN": "Luzilândia" }, "geometry": { "type": "MultiPolygon", "coordinates": [ [ [ [ -42.36705649999994, -3.486889399999969 ], [ -42.362903699999954, -3.487546399999919 ], [ -42.363097599999946, -3.489046399999988 ], [ -42.36618389999996, -3.488578299999937 ], [ -42.366303099999982, -3.488175299999939 ], [ -42.366418599999975, -3.487881199999946 ], [ -42.366548599999931, -3.48764019999996 ], [ -42.366842599999977, -3.487180199999974 ], [ -42.36705649999994, -3.486889399999969 ] ] ], [ [ [ -42.37209729999995, -3.474665099999945 ], [ -42.372116799999958, -3.472728800000014 ], [ -42.37164149999996, -3.47169059999992 ], [ -42.371450799999941, -3.470598899999944 ], [ -42.371412699999958, -3.469452299999903 ], [ -42.371409799999981, -3.469410799999931 ], [ -42.371719299999938, -3.469299199999921 ], [ -42.371852399999966, -3.469233599999923 ], [ -42.371985499999937, -3.469168099999929 ], [ -42.372154399999943, -3.469008099999956 ], [ -42.372253, -3.468877599999937 ], [ -42.37255219999998, -3.468481399999983 ], [ -42.373177299999952, -3.467666799999966 ], [ -42.373592199999962, -3.467111499999895 ], [ -42.37408709999994, -3.466423199999976 ], [ -42.37424169999997, -3.466219099999903 ], [ -42.374977099999967, -3.465259399999972 ], [ -42.375569699999978, -3.464495299999918 ], [ -42.375688, -3.464222899999931 ], [ -42.375710699999964, -3.464018399999902 ], [ -42.375669299999977, -3.463730899999919 ], [ -42.375579399999943, -3.463121699999938 ], [ -42.375396, -3.461943899999924 ], [ -42.375183299999939, -3.460889599999944 ], [ -42.375229, -3.460892199999972 ], [ -42.375750799999935, -3.460888699999919 ], [ -42.375767099999962, -3.4600103 ], [ -42.376251299999986, -3.460003 ], [ -42.376245499999989, -3.4597583 ], [ -42.376365599999986, -3.459620599999917 ], [ -42.376788699999963, -3.459309599999967 ], [ -42.376817499999959, -3.45895560000001 ], [ -42.376689799999959, -3.458615199999914 ], [ -42.376455699999951, -3.458303199999946 ], [ -42.375770499999931, -3.458235199999926 ], [ -42.374889399999972, -3.457711699999982 ], [ -42.374468, -3.457511099999952 ], [ -42.374444099999948, -3.457478399999973 ], [ -42.374167599999964, -3.457069699999969 ], [ -42.373572899999942, -3.456610199999891 ], [ -42.372707799999951, -3.455808299999924 ], [ -42.371755399999984, -3.455113799999935 ], [ -42.371277199999952, -3.454565199999932 ], [ -42.371018, -3.454316199999972 ], [ -42.370648, -3.454265099999962 ], [ -42.370605099999977, -3.45308479999998 ], [ -42.369670599999949, -3.453114199999975 ], [ -42.364892099999963, -3.452558399999962 ], [ -42.364252799999974, -3.452509299999984 ], [ -42.36214549999994, -3.45365879999995 ], [ -42.360508099999947, -3.455661299999923 ], [ -42.358091799999954, -3.458576599999911 ], [ -42.356003499999986, -3.461210499999927 ], [ -42.354623699999934, -3.463039299999977 ], [ -42.35461509999994, -3.4634632 ], [ -42.354613899999947, -3.463529899999949 ], [ -42.354596099999981, -3.463484499999911 ], [ -42.353545499999946, -3.460816399999952 ], [ -42.353196199999964, -3.458662099999969 ], [ -42.352213899999988, -3.457513399999948 ], [ -42.351149699999951, -3.457819199999946 ], [ -42.350838099999976, -3.458739199999921 ], [ -42.34930849999995, -3.463322299999958 ], [ -42.35035739999995, -3.464607 ], [ -42.349722099999951, -3.466267399999957 ], [ -42.349343499999975, -3.467596800000012 ], [ -42.349333499999943, -3.468006499999954 ], [ -42.349302299999977, -3.4685243 ], [ -42.349382499999933, -3.468777 ], [ -42.349571799999985, -3.468806 ], [ -42.349741, -3.469215699999917 ], [ -42.3501012, -3.469094599999934 ], [ -42.3503305, -3.469523599999957 ], [ -42.350480299999958, -3.469489399999967 ], [ -42.350923899999934, -3.469546299999978 ], [ -42.351369699999964, -3.46968949999994 ], [ -42.352227, -3.470015599999972 ], [ -42.352215099999974, -3.470056599999944 ], [ -42.351906499999984, -3.471117 ], [ -42.351852799999968, -3.471581 ], [ -42.352009, -3.472662399999926 ], [ -42.35202709999993, -3.472815 ], [ -42.354361299999937, -3.472962499999936 ], [ -42.357035199999984, -3.471945900000021 ], [ -42.357416399999977, -3.473608499999917 ], [ -42.357575499999939, -3.477615 ], [ -42.358775699999974, -3.477598799999922 ], [ -42.363487, -3.477980099999954 ], [ -42.366501299999982, -3.477882199999912 ], [ -42.36821209999993, -3.47783249999994 ], [ -42.368781799999965, -3.477758199999886 ], [ -42.372069, -3.4770214 ], [ -42.37209729999995, -3.474665099999945 ] ] ] ] } }
]
}
