{
"type": "FeatureCollection",
"name": "2207504",
"crs": { "type": "name", "properties": { "name": "urn:ogc:def:crs:OGC:1.3:CRS84" } },
"features": [
{ "type": "Feature", "properties": { "CD_MUN": "2207504", "NM_MUN": "Palmeirais" }, "geometry": { "type": "Polygon", "coordinates": [ [ [ -43.043536599999982, -5.984805499999944 ], [ -43.044394299999972, -5.987562199999982 ], [ -43.044473599999947, -5.987517099999938 ], [ -43.045457799999951, -5.988001299999969 ], [ -43.046424399999978, -5.988727099999941 ], [ -43.046785599999964, -5.989063499999963 ], [ -43.046814099999942, -5.989088099999928 ], [ -43.049076899999932, -5.986780299999985 ], [ -43.049571, -5.98626009999998 ], [ -43.050040299999978, -5.985847499999957 ], [ -43.050450799999972, -5.985545299999964 ], [ -43.051238799999965, -5.985076 ], [ -43.051943799999947, -5.9845971 ], [ -43.052186699999936, -5.984411099999942 ], [ -43.052679699999942, -5.983797499999984 ], [ -43.053484199999957, -5.982716499999973 ], [ -43.053517799999952, -5.982768599999932 ], [ -43.054990799999985, -5.985575899999967 ], [ -43.060072599999955, -5.982174099999938 ], [ -43.06271129999994, -5.981785299999974 ], [ -43.065838599999942, -5.980667599999953 ], [ -43.067595599999947, -5.979571099999959 ], [ -43.070822699999951, -5.977557299999937 ], [ -43.073949899999938, -5.973475 ], [ -43.072050899999965, -5.974087499999947 ], [ -43.071622199999986, -5.973896699999964 ], [ -43.071342099999988, -5.973838699999938 ], [ -43.071069799999975, -5.973802499999953 ], [ -43.070860599999946, -5.973828899999925 ], [ -43.070741099999964, -5.973869599999978 ], [ -43.070643099999984, -5.973921599999903 ], [ -43.070514599999974, -5.973960899999957 ], [ -43.070001599999955, -5.974060699999971 ], [ -43.069696099999931, -5.97413789999996 ], [ -43.069384, -5.974181199999959 ], [ -43.069295099999977, -5.974142599999916 ], [ -43.06916119999994, -5.974003099999959 ], [ -43.069030799999958, -5.973865299999929 ], [ -43.068934899999931, -5.973640899999971 ], [ -43.068748699999958, -5.973462899999959 ], [ -43.068670599999962, -5.973236099999953 ], [ -43.068465199999935, -5.97298079999998 ], [ -43.068235799999968, -5.972698899999958 ], [ -43.067966299999966, -5.9724257 ], [ -43.067719299999965, -5.972202199999974 ], [ -43.067408899999975, -5.972006799999951 ], [ -43.067055099999955, -5.971855099999974 ], [ -43.066795899999931, -5.971763699999972 ], [ -43.066569, -5.971626199999963 ], [ -43.066326399999973, -5.971564299999947 ], [ -43.066051299999977, -5.971574699999941 ], [ -43.065872099999979, -5.971676099999971 ], [ -43.065580299999965, -5.971841899999936 ], [ -43.065434899999957, -5.972063099999942 ], [ -43.065396199999952, -5.972183099999908 ], [ -43.065244199999945, -5.972291499999931 ], [ -43.065056099999936, -5.972374599999965 ], [ -43.064976299999955, -5.972414799999953 ], [ -43.064925, -5.97256119999996 ], [ -43.064877599999932, -5.972788499999969 ], [ -43.064769, -5.972928899999927 ], [ -43.064657499999946, -5.973226899999947 ], [ -43.064523799999961, -5.971329199999937 ], [ -43.064519899999944, -5.971273699999935 ], [ -43.064517, -5.971231899999983 ], [ -43.064188299999955, -5.966567499999914 ], [ -43.06255989999994, -5.959582099999988 ], [ -43.062235299999941, -5.959628499999966 ], [ -43.062207299999955, -5.959631699999945 ], [ -43.061755699999942, -5.959700599999967 ], [ -43.061112699999967, -5.959945199999911 ], [ -43.060736299999981, -5.960030399999966 ], [ -43.060451499999949, -5.959991599999935 ], [ -43.060240199999953, -5.959875299999967 ], [ -43.060169499999979, -5.959803699999929 ], [ -43.05948589999997, -5.959006499999932 ], [ -43.059081599999956, -5.958544099999941 ], [ -43.058762499999951, -5.95832 ], [ -43.05856179999995, -5.958263499999931 ], [ -43.058326299999976, -5.958251799999965 ], [ -43.057594199999976, -5.958234199999937 ], [ -43.057246099999936, -5.958224399999962 ], [ -43.054477599999984, -5.958259599999972 ], [ -43.054454799999981, -5.958286399999984 ], [ -43.054409199999952, -5.958340599999927 ], [ -43.054292899999943, -5.9584538 ], [ -43.054204699999964, -5.958539599999908 ], [ -43.050043699999947, -5.962717499999917 ], [ -43.049287199999981, -5.963165699999949 ], [ -43.048957399999949, -5.96364169999991 ], [ -43.047797299999964, -5.964697699999904 ], [ -43.049524099999985, -5.973715399999954 ], [ -43.049275399999942, -5.973647699999956 ], [ -43.04912749999994, -5.973571399999932 ], [ -43.04891989999993, -5.973511799999946 ], [ -43.048647899999942, -5.973466399999925 ], [ -43.048461899999957, -5.97349979999992 ], [ -43.048223299999968, -5.973566599999955 ], [ -43.047798599999965, -5.973609599999953 ], [ -43.0477772, -5.9741607 ], [ -43.047719899999947, -5.974380199999951 ], [ -43.047674599999937, -5.974852499999927 ], [ -43.047789099999932, -5.97538209999993 ], [ -43.047951299999966, -5.975930799999952 ], [ -43.047997699999939, -5.97605579999995 ], [ -43.044613, -5.981245699999915 ], [ -43.044607799999945, -5.981247899999952 ], [ -43.043684499999983, -5.982150299999963 ], [ -43.043536599999982, -5.984805499999944 ] ] ] } }
]
}
