{
"type": "FeatureCollection",
"name": "2302800",
"crs": { "type": "name", "properties": { "name": "urn:ogc:def:crs:OGC:1.3:CRS84" } },
"features": [
{ "type": "Feature", "properties": { "CD_MUN": "2302800", "NM_MUN": "Canindé" }, "geometry": { "type": "MultiPolygon", "coordinates": [ [ [ [ -39.391082199999964, -4.626558799999956 ], [ -39.391630299999981, -4.626211199999965 ], [ -39.391897699999959, -4.626077499999921 ], [ -39.392392299999983, -4.625435799999932 ], [ -39.39249929999994, -4.625235299999949 ], [ -39.39298059999993, -4.624526799999949 ], [ -39.38960469999995, -4.619601599999958 ], [ -39.389424499999961, -4.619580399999988 ], [ -39.38930419999997, -4.619580399999983 ], [ -39.38915719999995, -4.619593799999953 ], [ -39.38901009999995, -4.619740799999974 ], [ -39.388889799999951, -4.619901199999967 ], [ -39.38886309999998, -4.620088399999914 ], [ -39.388729399999932, -4.620182 ], [ -39.388595699999932, -4.6202221 ], [ -39.388542199999975, -4.620395899999937 ], [ -39.388395199999934, -4.6204627 ], [ -39.388261499999935, -4.6204895 ], [ -39.388154499999985, -4.620542899999953 ], [ -39.388060899999971, -4.620649899999921 ], [ -39.387900499999944, -4.620823699999961 ], [ -39.387740099999974, -4.620944 ], [ -39.387514799999963, -4.621122399999914 ], [ -39.386951399999923, -4.621452 ], [ -39.386710699999981, -4.621532199999894 ], [ -39.386443399999962, -4.621665899999956 ], [ -39.38613589999995, -4.621746099999936 ], [ -39.385815, -4.621799599999949 ], [ -39.385641199999952, -4.621906499999969 ], [ -39.385494199999982, -4.621826299999977 ], [ -39.385307, -4.621692599999928 ], [ -39.385066399999971, -4.621478699999953 ], [ -39.385093099999949, -4.621772799999945 ], [ -39.385053, -4.622053599999981 ], [ -39.384959499999972, -4.622641799999943 ], [ -39.384906, -4.623203299999941 ], [ -39.384932699999986, -4.6236845 ], [ -39.384972799999957, -4.624005399999904 ], [ -39.384919399999944, -4.624219299999975 ], [ -39.384879199999951, -4.624593599999955 ], [ -39.384865899999966, -4.624847599999912 ], [ -39.384608, -4.625153 ], [ -39.384618, -4.625929 ], [ -39.38481, -4.626613 ], [ -39.384935, -4.627394 ], [ -39.384989, -4.629896 ], [ -39.383808, -4.630891 ], [ -39.382854, -4.631447 ], [ -39.381748, -4.632345 ], [ -39.389929, -4.632008 ], [ -39.388964, -4.626731 ], [ -39.389290899999942, -4.626812799999939 ], [ -39.389571599999961, -4.6268127999999 ], [ -39.38979889999996, -4.626786 ], [ -39.390079599999986, -4.626652299999906 ], [ -39.39024, -4.626679099999899 ], [ -39.390467299999955, -4.626652299999974 ], [ -39.390788099999952, -4.6265187 ], [ -39.391082199999964, -4.626558799999956 ] ] ], [ [ [ -39.61037749999997, -4.41408159999995 ], [ -39.608564199999932, -4.41484529999996 ], [ -39.607401099999954, -4.415580299999935 ], [ -39.605816699999934, -4.416839599999971 ], [ -39.605363299999958, -4.417343599999962 ], [ -39.610176599999924, -4.419634299999965 ], [ -39.613637099999956, -4.421184099999955 ], [ -39.614083699999981, -4.419847799999926 ], [ -39.612868599999956, -4.418981 ], [ -39.612322399999989, -4.418142799999959 ], [ -39.611320299999939, -4.415005199999921 ], [ -39.61037749999997, -4.41408159999995 ] ] ], [ [ [ -39.455006199999964, -4.4012137 ], [ -39.455318199999965, -4.40210219999998 ], [ -39.455069099999946, -4.402432599999965 ], [ -39.453741399999949, -4.401655599999955 ], [ -39.452962899999939, -4.401802499999979 ], [ -39.452577899999945, -4.402121599999929 ], [ -39.453573099999964, -4.404410599999962 ], [ -39.453465499999943, -4.40640529999993 ], [ -39.45681159999998, -4.405987199999973 ], [ -39.457157099999968, -4.405982299999953 ], [ -39.459996299999943, -4.400907799999986 ], [ -39.456100399999976, -4.398732699999906 ], [ -39.455735199999936, -4.399165799999898 ], [ -39.455518899999959, -4.399739699999907 ], [ -39.4552293, -4.400199099999924 ], [ -39.455006199999964, -4.4012137 ] ] ], [ [ [ -39.514637199999989, -4.387228699999957 ], [ -39.514651199999946, -4.3875571 ], [ -39.514411699999982, -4.388175499999916 ], [ -39.514420599999944, -4.388688799999928 ], [ -39.515243799999951, -4.3899661 ], [ -39.515622099999973, -4.390618699999965 ], [ -39.515792399999953, -4.391578099999952 ], [ -39.515755099999978, -4.392225899999963 ], [ -39.515063, -4.393012299999984 ], [ -39.514972599999965, -4.393654199999939 ], [ -39.515419599999973, -4.394414899999926 ], [ -39.516135399999946, -4.3949842 ], [ -39.516950299999969, -4.395223499999963 ], [ -39.51757669999995, -4.395478099999909 ], [ -39.520942599999948, -4.391221 ], [ -39.519344899999965, -4.38379259999991 ], [ -39.519157699999937, -4.383106799999977 ], [ -39.515979799999975, -4.382605199999934 ], [ -39.515406799999944, -4.383488699999906 ], [ -39.514968799999963, -4.383911199999958 ], [ -39.515124299999961, -4.384537599999897 ], [ -39.515394299999969, -4.38509779999988 ], [ -39.514897599999983, -4.385626199999963 ], [ -39.514637199999989, -4.387228699999957 ] ] ], [ [ [ -39.446389099999983, -4.316981199999952 ], [ -39.446418499999936, -4.317009199999948 ], [ -39.447342399999968, -4.317326399999935 ], [ -39.44734329999995, -4.31728549999995 ], [ -39.447373599999942, -4.317216899999955 ], [ -39.447379399999932, -4.317171 ], [ -39.44747679999994, -4.316764199999988 ], [ -39.447591399999958, -4.316060399999977 ], [ -39.447462799999983, -4.315400499999933 ], [ -39.447870199999961, -4.315112199999911 ], [ -39.448286899999971, -4.314983699999947 ], [ -39.448318099999938, -4.314983799999898 ], [ -39.448749699999951, -4.3149245 ], [ -39.449254799999942, -4.315222599999985 ], [ -39.449709899999966, -4.315680199999946 ], [ -39.449933799999933, -4.316101799999932 ], [ -39.45144739999995, -4.316651199999953 ], [ -39.45157339999998, -4.318370799999982 ], [ -39.453381099999959, -4.319095399999973 ], [ -39.453562, -4.31999069999992 ], [ -39.457053599999945, -4.319305299999926 ], [ -39.457343099999946, -4.318371699999969 ], [ -39.457310099999972, -4.317396199999947 ], [ -39.45724789999997, -4.3168729 ], [ -39.458494, -4.317274399999952 ], [ -39.459390699999972, -4.317243599999891 ], [ -39.459908399999961, -4.3164396 ], [ -39.458648199999971, -4.3153115 ], [ -39.458712199999979, -4.313775799999966 ], [ -39.457890599999978, -4.312012299999924 ], [ -39.456935699999967, -4.3118825 ], [ -39.457236499999972, -4.310837599999949 ], [ -39.456434099999967, -4.308124499999959 ], [ -39.454027499999945, -4.306289 ], [ -39.445115199999982, -4.311770199999966 ], [ -39.445046099999956, -4.313947 ], [ -39.443902, -4.314542299999949 ], [ -39.443829799999946, -4.315115799999969 ], [ -39.443881799999929, -4.315469899999933 ], [ -39.444475599999976, -4.315566699999954 ], [ -39.444833699999947, -4.315868499999984 ], [ -39.444879799999974, -4.315868899999957 ], [ -39.445815699999962, -4.3159128 ], [ -39.446049499999958, -4.316456499999936 ], [ -39.446389099999983, -4.316981199999952 ] ] ], [ [ [ -39.726739299999956, -4.208980799999979 ], [ -39.727202199999965, -4.209270099999956 ], [ -39.727520499999962, -4.2096463 ], [ -39.727809899999954, -4.210051399999938 ], [ -39.728186, -4.210369599999958 ], [ -39.728562199999942, -4.21080369999994 ], [ -39.729198699999984, -4.211758499999948 ], [ -39.729690599999977, -4.211961 ], [ -39.729864199999952, -4.212047799999975 ], [ -39.730008899999973, -4.212337199999949 ], [ -39.730269299999975, -4.212452899999979 ], [ -39.730645399999965, -4.212424 ], [ -39.730992599999972, -4.212655499999945 ], [ -39.7313688, -4.212886899999934 ], [ -39.732931199999946, -4.213292 ], [ -39.735564199999942, -4.213726 ], [ -39.735882499999953, -4.213870699999985 ], [ -39.736229699999967, -4.213841799999945 ], [ -39.736461199999951, -4.214073199999938 ], [ -39.737242399999957, -4.2143336 ], [ -39.738052599999953, -4.2143915 ], [ -39.738341899999973, -4.214478299999979 ], [ -39.738833799999959, -4.214738699999979 ], [ -39.73921, -4.214796599999938 ], [ -39.739586099999933, -4.214854499999956 ], [ -39.739962299999945, -4.214854499999924 ], [ -39.740367299999939, -4.215028099999917 ], [ -39.741061799999962, -4.215172699999925 ], [ -39.741640399999945, -4.215346299999933 ], [ -39.742363799999957, -4.215404199999961 ], [ -39.742816499999947, -4.214555399999937 ], [ -39.742826699999974, -4.214536199999962 ], [ -39.743029299999932, -4.213986399999935 ], [ -39.743029299999939, -4.211642799999908 ], [ -39.742681399999981, -4.211437699999967 ], [ -39.741785099999959, -4.210948299999927 ], [ -39.739933299999961, -4.2104275 ], [ -39.739354599999956, -4.210369599999967 ], [ -39.738255099999947, -4.210398599999959 ], [ -39.738023699999985, -4.210311799999968 ], [ -39.73764749999998, -4.210167099999951 ], [ -39.737213499999939, -4.209964599999938 ], [ -39.736808399999973, -4.20950159999995 ], [ -39.736548, -4.208922899999912 ], [ -39.736374399999931, -4.208604700000012 ], [ -39.736229699999967, -4.208228499999934 ], [ -39.735853599999984, -4.207389399999937 ], [ -39.735771599999964, -4.207034199999914 ], [ -39.735766799999965, -4.207013299999972 ], [ -39.735708899999963, -4.206550299999921 ], [ -39.735795699999983, -4.206145199999988 ], [ -39.735882499999953, -4.205624399999966 ], [ -39.736027199999967, -4.205219399999969 ], [ -39.735911499999929, -4.204872099999919 ], [ -39.735535299999981, -4.204148799999922 ], [ -39.735332799999988, -4.203888399999889 ], [ -39.734840899999945, -4.203685799999925 ], [ -39.733943899999936, -4.203338599999984 ], [ -39.732294699999954, -4.202962499999964 ], [ -39.731687099999938, -4.20296249999997 ], [ -39.730934799999943, -4.203917299999944 ], [ -39.730703299999959, -4.204004099999924 ], [ -39.730211399999973, -4.204062 ], [ -39.72980629999995, -4.204119899999944 ], [ -39.729430199999967, -4.204322399999967 ], [ -39.729054, -4.204524899999931 ], [ -39.728243899999939, -4.204553899999933 ], [ -39.726999699999965, -4.2046985 ], [ -39.726710399999952, -4.204524899999969 ], [ -39.726305299999972, -4.20440919999992 ], [ -39.725695099999932, -4.204492399999919 ], [ -39.725668699999979, -4.204496 ], [ -39.72503219999993, -4.204467099999961 ], [ -39.724135199999978, -4.20435129999992 ], [ -39.723759099999938, -4.204264499999948 ], [ -39.723325099999947, -4.204351299999933 ], [ -39.722891, -4.204351299999916 ], [ -39.722630599999945, -4.204409199999966 ], [ -39.722514899999965, -4.204698499999928 ], [ -39.722413699999947, -4.20485039999997 ], [ -39.722341299999982, -4.204958899999921 ], [ -39.72225449999997, -4.205190399999972 ], [ -39.722486, -4.205798 ], [ -39.724337799999951, -4.207505199999939 ], [ -39.726739299999956, -4.208980799999979 ] ] ], [ [ [ -39.302678199999946, -4.696963399999982 ], [ -39.305679299999952, -4.698630799999922 ], [ -39.308516699999984, -4.70097749999998 ], [ -39.309010099999966, -4.700237099999977 ], [ -39.306491199999989, -4.697796399999931 ], [ -39.303082299999978, -4.695762299999914 ], [ -39.302678199999946, -4.696963399999982 ] ] ], [ [ [ -39.240488499999962, -4.639608499999965 ], [ -39.241036199999947, -4.639856799999961 ], [ -39.241544699999963, -4.640137 ], [ -39.241937899999982, -4.6401361 ], [ -39.242286899999961, -4.640028399999954 ], [ -39.24260929999997, -4.640156499999954 ], [ -39.241420299999959, -4.64144319999995 ], [ -39.240582, -4.642850199999973 ], [ -39.245731099999951, -4.642761399999958 ], [ -39.248380299999944, -4.639064299999945 ], [ -39.250508699999948, -4.63460949999994 ], [ -39.251916199999989, -4.633802199999976 ], [ -39.249422599999939, -4.6318249 ], [ -39.249192899999969, -4.63273669999997 ], [ -39.248950499999985, -4.633174099999934 ], [ -39.248788699999977, -4.633515 ], [ -39.248654299999941, -4.6337363 ], [ -39.248163499999976, -4.634113799999956 ], [ -39.247899299999972, -4.634189299999941 ], [ -39.247540599999979, -4.634415799999958 ], [ -39.247182, -4.634585699999982 ], [ -39.246521399999949, -4.634982 ], [ -39.24633259999996, -4.635038699999932 ], [ -39.24586069999998, -4.635246299999928 ], [ -39.24531339999993, -4.635548299999924 ], [ -39.244954699999944, -4.635680399999917 ], [ -39.244539499999973, -4.635906899999952 ], [ -39.244275199999954, -4.636020199999924 ], [ -39.243841099999941, -4.636171199999952 ], [ -39.243160799999949, -4.636390499999919 ], [ -39.242859599999981, -4.636510899999969 ], [ -39.242614199999927, -4.636548699999966 ], [ -39.242125099999953, -4.636730799999988 ], [ -39.241460199999942, -4.636724399999974 ], [ -39.24091679999998, -4.637148 ], [ -39.240749899999969, -4.637435199999982 ], [ -39.240755699999958, -4.637829299999977 ], [ -39.240106499999968, -4.638335 ], [ -39.239516599999945, -4.638825599999987 ], [ -39.239104499999947, -4.640267199999931 ], [ -39.240488499999962, -4.639608499999965 ] ] ], [ [ [ -39.387520199999976, -4.448085 ], [ -39.392803099999988, -4.446396599999925 ], [ -39.392898399999979, -4.4459881 ], [ -39.391849299999926, -4.445840899999963 ], [ -39.390638199999955, -4.445375399999927 ], [ -39.390951399999956, -4.444544899999922 ], [ -39.390461199999947, -4.444395099999915 ], [ -39.390229699999963, -4.444163599999983 ], [ -39.389998299999952, -4.444122799999951 ], [ -39.389848499999964, -4.444136399999961 ], [ -39.389358299999977, -4.443741499999971 ], [ -39.389099599999945, -4.443646199999964 ], [ -39.388800099999976, -4.443578099999967 ], [ -39.388446099999953, -4.44337389999993 ], [ -39.388064799999938, -4.443060699999934 ], [ -39.387193399999944, -4.442706699999926 ], [ -39.387016399999943, -4.442611399999937 ], [ -39.386213099999964, -4.442543299999985 ], [ -39.385750199999968, -4.443019899999969 ], [ -39.384878699999938, -4.443768799999954 ], [ -39.384769799999958, -4.443973 ], [ -39.384797099999957, -4.444286199999926 ], [ -39.384701699999944, -4.444531199999949 ], [ -39.384266, -4.444980599999976 ], [ -39.384157099999982, -4.44523929999994 ], [ -39.384211599999965, -4.445647699999906 ], [ -39.384415799999942, -4.446097099999964 ], [ -39.384715399999955, -4.446505499999941 ], [ -39.384851499999968, -4.44680509999997 ], [ -39.386608, -4.446791499999987 ], [ -39.387520199999976, -4.448085 ] ] ], [ [ [ -39.329740199999954, -4.363635399999937 ], [ -39.327269299999955, -4.361482699999949 ], [ -39.328954799999963, -4.361046 ], [ -39.328544499999964, -4.358893799999952 ], [ -39.328120299999973, -4.358970199999908 ], [ -39.327737899999931, -4.356507299999983 ], [ -39.328291599999943, -4.356407299999987 ], [ -39.328707699999939, -4.356378699999954 ], [ -39.329224199999942, -4.356477599999948 ], [ -39.329778399999952, -4.356616699999969 ], [ -39.330181, -4.356539299999957 ], [ -39.33167739999994, -4.355947699999954 ], [ -39.333287699999978, -4.356336799999927 ], [ -39.332162, -4.35302979999994 ], [ -39.331484699999969, -4.351342599999956 ], [ -39.33250959999998, -4.350839199999921 ], [ -39.332290699999923, -4.35014909999997 ], [ -39.335595399999939, -4.348461299999901 ], [ -39.333754799999952, -4.347954 ], [ -39.328943199999969, -4.346627 ], [ -39.325475299999937, -4.341139599999919 ], [ -39.322987399999931, -4.342549099999954 ], [ -39.322899399999983, -4.342813699999977 ], [ -39.32245, -4.343391599999983 ], [ -39.321306399999969, -4.34418419999996 ], [ -39.321000099999928, -4.343223299999951 ], [ -39.320928799999933, -4.342434199999975 ], [ -39.320968, -4.341611099999963 ], [ -39.320447699999932, -4.341032699999953 ], [ -39.319640599999957, -4.3406295 ], [ -39.318747599999952, -4.340771199999935 ], [ -39.31771209999993, -4.339224099999988 ], [ -39.315908899999968, -4.338806 ], [ -39.314989099999934, -4.338129 ], [ -39.314448, -4.337998 ], [ -39.312842, -4.337756 ], [ -39.312576, -4.337732 ], [ -39.3121771, -4.337684 ], [ -39.311633899999947, -4.337539 ], [ -39.310715899999934, -4.337297 ], [ -39.310088, -4.3372 ], [ -39.309604899999954, -4.337055 ], [ -39.309086199999967, -4.336837 ], [ -39.308722899999971, -4.336643 ], [ -39.307925899999923, -4.336389 ], [ -39.307636099999975, -4.336389 ], [ -39.30735889999994, -4.336207 ], [ -39.30694809999995, -4.335965 ], [ -39.306742899999954, -4.335819 ], [ -39.306548899999939, -4.335698 ], [ -39.306355899999978, -4.335601 ], [ -39.306089899999954, -4.335541 ], [ -39.305715799999973, -4.335505 ], [ -39.305414199999987, -4.335323 ], [ -39.305003, -4.335117 ], [ -39.30471289999997, -4.334899 ], [ -39.304472, -4.334535 ], [ -39.304327, -4.334366 ], [ -39.302708899999978, -4.333792399999965 ], [ -39.303042199999936, -4.334691099999898 ], [ -39.303704399999965, -4.335814899999923 ], [ -39.301873099999973, -4.338605699999952 ], [ -39.299928, -4.34157 ], [ -39.295303899999972, -4.339095199999941 ], [ -39.292895699999981, -4.336168699999951 ], [ -39.290187099999962, -4.336064899999953 ], [ -39.289636499999979, -4.3363563999999 ], [ -39.287156899999957, -4.333227199999982 ], [ -39.287145099999975, -4.333227899999932 ], [ -39.285307899999971, -4.330978399999896 ], [ -39.282918599999959, -4.332306699999979 ], [ -39.282183, -4.332816 ], [ -39.281115, -4.333166699999897 ], [ -39.279996699999977, -4.333680199999953 ], [ -39.278451799999971, -4.333909899999956 ], [ -39.278654499999973, -4.335122799999938 ], [ -39.27943, -4.336026699999908 ], [ -39.281525299999942, -4.337337599999921 ], [ -39.283205199999941, -4.337777499999986 ], [ -39.283935, -4.3385395 ], [ -39.284119699999962, -4.339754 ], [ -39.284879399999973, -4.340710399999954 ], [ -39.286785099999967, -4.341198399999955 ], [ -39.287716299999957, -4.3416058 ], [ -39.290096499999962, -4.344804199999933 ], [ -39.293192899999958, -4.346258499999938 ], [ -39.295428299999969, -4.347458899999936 ], [ -39.296995499999973, -4.3477306 ], [ -39.297653, -4.347672799999922 ], [ -39.297952299999963, -4.347592899999928 ], [ -39.299995299999985, -4.350280199999949 ], [ -39.300444199999959, -4.351026599999953 ], [ -39.300752899999964, -4.351799599999904 ], [ -39.301065699999981, -4.352812599999905 ], [ -39.301253499999973, -4.354431399999928 ], [ -39.301476399999956, -4.3563523 ], [ -39.301702299999938, -4.358300299999938 ], [ -39.301891799999964, -4.359718599999933 ], [ -39.302162199999941, -4.36198819999996 ], [ -39.302173099999948, -4.362403 ], [ -39.302301199999938, -4.363171199999947 ], [ -39.302365599999973, -4.363603499999961 ], [ -39.302789099999984, -4.367555899999938 ], [ -39.303130199999941, -4.368912699999926 ], [ -39.303340699999985, -4.369560099999953 ], [ -39.303978599999937, -4.370753399999955 ], [ -39.305992, -4.3739529 ], [ -39.306050299999981, -4.3739027 ], [ -39.306291299999941, -4.37429329999997 ], [ -39.306681799999986, -4.374904 ], [ -39.307072399999981, -4.375514699999949 ], [ -39.307915699999967, -4.37660739999993 ], [ -39.308277199999964, -4.377201499999931 ], [ -39.308352, -4.377243 ], [ -39.308430899999962, -4.377267899999928 ], [ -39.308530599999983, -4.377280399999978 ], [ -39.308634499999989, -4.377234699999957 ], [ -39.308684299999982, -4.376756899999986 ], [ -39.30866709999998, -4.376258 ], [ -39.308659399999961, -4.375049399999939 ], [ -39.308725699999968, -4.375012599999938 ], [ -39.308744899999958, -4.375002 ], [ -39.308798899999942, -4.374983 ], [ -39.308865799999971, -4.374959 ], [ -39.308962, -4.374838 ], [ -39.309017, -4.374668 ], [ -39.309089, -4.374529 ], [ -39.309179, -4.374389 ], [ -39.309311899999948, -4.374359 ], [ -39.309536199999975, -4.374341 ], [ -39.309705, -4.374219 ], [ -39.309813, -4.374116 ], [ -39.30994579999998, -4.374116 ], [ -39.310079, -4.374037 ], [ -39.310193899999952, -4.373953 ], [ -39.310278099999948, -4.373795 ], [ -39.31029609999996, -4.373656 ], [ -39.310411, -4.373613 ], [ -39.310737099999983, -4.373474 ], [ -39.3107457, -4.373461199999955 ], [ -39.311717099999953, -4.373484599999904 ], [ -39.311970799999983, -4.373059600000015 ], [ -39.312781099999938, -4.372390899999977 ], [ -39.315308499999951, -4.371860599999948 ], [ -39.316339599999942, -4.371893499999953 ], [ -39.31800369999997, -4.373095899999917 ], [ -39.320925199999984, -4.369874899999978 ], [ -39.322107, -4.370340599999946 ], [ -39.322591199999977, -4.370407199999964 ], [ -39.323390299999978, -4.370384099999976 ], [ -39.324118199999937, -4.37091709999996 ], [ -39.324348199999982, -4.371123 ], [ -39.324367399999971, -4.371351099999933 ], [ -39.324667199999972, -4.371748099999921 ], [ -39.325684799999976, -4.372282499999957 ], [ -39.325949299999927, -4.372586799999937 ], [ -39.331586899999927, -4.372809199999979 ], [ -39.330894699999931, -4.369559399999934 ], [ -39.330962399999976, -4.369027 ], [ -39.330908399999942, -4.3687816 ], [ -39.332310899999989, -4.367314099999897 ], [ -39.329740199999954, -4.363635399999937 ] ] ], [ [ [ -39.192859699999929, -4.3074205 ], [ -39.192521399999976, -4.30763 ], [ -39.192377099999938, -4.30773129999996 ], [ -39.193283599999972, -4.309088599999961 ], [ -39.197508699999965, -4.306839 ], [ -39.197574399999951, -4.306691799999975 ], [ -39.196789199999955, -4.3065829 ], [ -39.196157699999958, -4.306651 ], [ -39.195838399999957, -4.306736399999968 ], [ -39.195700699999982, -4.306773199999929 ], [ -39.194911299999937, -4.3068355 ], [ -39.193996099999929, -4.307091 ], [ -39.19336409999994, -4.307312599999912 ], [ -39.192859699999929, -4.3074205 ] ] ] ] } }
]
}
