{
"type": "FeatureCollection",
"name": "2302305",
"crs": { "type": "name", "properties": { "name": "urn:ogc:def:crs:OGC:1.3:CRS84" } },
"features": [
{ "type": "Feature", "properties": { "CD_MUN": "2302305", "NM_MUN": "Bela Cruz" }, "geometry": { "type": "MultiPolygon", "coordinates": [ [ [ [ -40.1680454, -3.069154499999982 ], [ -40.168294699999933, -3.072670099999889 ], [ -40.171628499999947, -3.0729665 ], [ -40.171626899999978, -3.0727016 ], [ -40.171568199999967, -3.071909399999968 ], [ -40.171522799999941, -3.071262499999958 ], [ -40.171567699999969, -3.071031699999977 ], [ -40.171707399999946, -3.070984399999944 ], [ -40.171945799999946, -3.070940199999985 ], [ -40.172162399999934, -3.0708699 ], [ -40.173312599999974, -3.070851400000032 ], [ -40.17346, -3.070886500000011 ], [ -40.173556099999985, -3.070985 ], [ -40.173676299999954, -3.071235499999964 ], [ -40.173736199999951, -3.071265899999906 ], [ -40.173836299999948, -3.0712902 ], [ -40.175515699999949, -3.071264499999908 ], [ -40.175507799999934, -3.0708315 ], [ -40.174805599999956, -3.069707299999972 ], [ -40.173800099999944, -3.068184499999965 ], [ -40.177185799999968, -3.06835870000003 ], [ -40.177102899999959, -3.0671131 ], [ -40.176676799999939, -3.063149799999925 ], [ -40.176702699999957, -3.063055899999951 ], [ -40.175763099999983, -3.062692899999898 ], [ -40.174153299999944, -3.062092799999978 ], [ -40.174136899999951, -3.061919 ], [ -40.17400379999998, -3.061415399999974 ], [ -40.173909599999945, -3.060956099999987 ], [ -40.173682399999969, -3.0603861 ], [ -40.173879399999983, -3.060367299999943 ], [ -40.174414699999943, -3.060433399999956 ], [ -40.174883899999934, -3.060494 ], [ -40.175049399999985, -3.059430299999938 ], [ -40.175290199999949, -3.057922399999912 ], [ -40.175561799999969, -3.0564102 ], [ -40.176344699999952, -3.05645139999994 ], [ -40.176549299999976, -3.056468599999956 ], [ -40.17713719999994, -3.056507799999931 ], [ -40.178004899999962, -3.05654369999994 ], [ -40.17834419999997, -3.056573099999933 ], [ -40.179645799999946, -3.056586099999965 ], [ -40.180644099999938, -3.0566774 ], [ -40.181035099999974, -3.0567676 ], [ -40.181661899999931, -3.056912299999923 ], [ -40.182627499999967, -3.057264599999939 ], [ -40.183221199999942, -3.057558199999959 ], [ -40.183606199999922, -3.057780099999967 ], [ -40.183984599999981, -3.057988899999924 ], [ -40.185575399999941, -3.058730800000012 ], [ -40.18555479999997, -3.058936599999963 ], [ -40.186039799999946, -3.059098 ], [ -40.186463899999978, -3.059163299999933 ], [ -40.186646499999931, -3.056116299999947 ], [ -40.188035399999933, -3.055853499999962 ], [ -40.188394599999988, -3.05583889999993 ], [ -40.188387799999937, -3.055016499999906 ], [ -40.187945, -3.054940799999888 ], [ -40.187659499999938, -3.054841699999931 ], [ -40.187304, -3.0547951 ], [ -40.186826199999985, -3.05472519999998 ], [ -40.186173599999968, -3.0544863 ], [ -40.185719099999972, -3.054235699999914 ], [ -40.185229599999957, -3.05406669999993 ], [ -40.184979099999964, -3.053897799999905 ], [ -40.184556899999968, -3.053884399999923 ], [ -40.18410989999996, -3.053942399999921 ], [ -40.18387759999996, -3.053779899999939 ], [ -40.183720899999962, -3.053681200000012 ], [ -40.183569899999959, -3.053623099999875 ], [ -40.183337699999981, -3.053663699999962 ], [ -40.183326099999938, -3.05349540000003 ], [ -40.182937099999947, -3.05339089999993 ], [ -40.182658399999973, -3.053239899999956 ], [ -40.182414599999959, -3.053100599999921 ], [ -40.182147499999985, -3.052984499999934 ], [ -40.181857299999933, -3.0528684 ], [ -40.181625, -3.052578099999948 ], [ -40.181381199999976, -3.052264599999932 ], [ -40.181195399999979, -3.052078799999923 ], [ -40.180893499999968, -3.051776899999887 ], [ -40.180649699999947, -3.051649199999984 ], [ -40.180455099999961, -3.051550399999976 ], [ -40.18024319999995, -3.051585399999919 ], [ -40.180138799999952, -3.051602699999923 ], [ -40.179918199999982, -3.051463399999935 ], [ -40.179851699999972, -3.051244 ], [ -40.179678599999932, -3.051135799999943 ], [ -40.179548699999941, -3.050973499999963 ], [ -40.179235, -3.050897800000021 ], [ -40.178888799999982, -3.050768 ], [ -40.178369499999981, -3.0506814 ], [ -40.178001699999989, -3.050562399999985 ], [ -40.1777312, -3.050248699999949 ], [ -40.177558099999949, -3.0501946 ], [ -40.176779199999942, -3.05031359999994 ], [ -40.176195, -3.050237799999927 ], [ -40.176032699999958, -3.050043099999972 ], [ -40.175566199999935, -3.049711600000024 ], [ -40.175039399999946, -3.04943139999988 ], [ -40.174501899999939, -3.049210099999968 ], [ -40.174227599999938, -3.049153099999953 ], [ -40.173765599999975, -3.0490471 ], [ -40.173569499999985, -3.049006899999954 ], [ -40.173343699999982, -3.04889579999995 ], [ -40.172963099999954, -3.048740799999937 ], [ -40.172707, -3.048640700000024 ], [ -40.172462199999984, -3.048522799999943 ], [ -40.172171499999934, -3.048428199999986 ], [ -40.171809499999938, -3.048339799999962 ], [ -40.171437499999961, -3.048227 ], [ -40.171171899999933, -3.048087699999963 ], [ -40.170871499999983, -3.047989699999937 ], [ -40.17070359999996, -3.04783489999997 ], [ -40.170493099999931, -3.047710199999863 ], [ -40.1697066, -3.047705299999916 ], [ -40.168443899999936, -3.047710799999944 ], [ -40.167569799999974, -3.047369199999878 ], [ -40.166462699999954, -3.046817 ], [ -40.16578149999998, -3.046776899999903 ], [ -40.165566399999932, -3.046775099999883 ], [ -40.165517599999937, -3.048423399999971 ], [ -40.165432, -3.048606 ], [ -40.165456099999972, -3.049909300000013 ], [ -40.16548, -3.0506573 ], [ -40.16545519999994, -3.050647699999971 ], [ -40.16465629999994, -3.0503168 ], [ -40.164460899999938, -3.05041859999992 ], [ -40.164409899999946, -3.050859899999968 ], [ -40.164409899999953, -3.051148399999965 ], [ -40.164443899999988, -3.05141989999988 ], [ -40.164392899999939, -3.0517085 ], [ -40.164333399999968, -3.051895099999925 ], [ -40.163959499999983, -3.051818799999966 ], [ -40.163560099999984, -3.051878199999924 ], [ -40.16338159999998, -3.051963 ], [ -40.163312, -3.05211469999997 ], [ -40.163234, -3.052014499999952 ], [ -40.163089099999979, -3.051895799999927 ], [ -40.162964, -3.051841199999938 ], [ -40.162900499999978, -3.0518338 ], [ -40.16276959999994, -3.051867399999905 ], [ -40.162530499999946, -3.0519495 ], [ -40.162336099999941, -3.052027799999969 ], [ -40.162384699999961, -3.052214399999929 ], [ -40.162440799999956, -3.052337599999973 ], [ -40.162508, -3.05250929999989 ], [ -40.162545399999935, -3.052778 ], [ -40.162597699999935, -3.053061599999984 ], [ -40.162672499999985, -3.053319099999925 ], [ -40.162676799999922, -3.053514499999984 ], [ -40.162703, -3.053716 ], [ -40.162706699999944, -3.053977299999943 ], [ -40.162759499999936, -3.054153599999933 ], [ -40.162794199999951, -3.054426799999977 ], [ -40.162902799999983, -3.054773699999915 ], [ -40.162986499999938, -3.055090299999923 ], [ -40.162993199999967, -3.055237 ], [ -40.163103399999962, -3.055446899999917 ], [ -40.163123399999954, -3.05564359999994 ], [ -40.163163399999974, -3.05574359999991 ], [ -40.163186799999949, -3.055880199999974 ], [ -40.16323349999994, -3.056090199999968 ], [ -40.163400399999944, -3.056263499999976 ], [ -40.163483799999931, -3.056373499999975 ], [ -40.163540599999976, -3.056500099999879 ], [ -40.163624199999958, -3.056571699999927 ], [ -40.163143499999933, -3.056650099999904 ], [ -40.162804899999969, -3.056796499999977 ], [ -40.161688, -3.057891599999929 ], [ -40.16135289999994, -3.058277 ], [ -40.160700799999972, -3.059152899999908 ], [ -40.160666199999987, -3.059175899999947 ], [ -40.160325699999923, -3.0592364 ], [ -40.159788699999979, -3.059384199999918 ], [ -40.159739099999975, -3.059499099999881 ], [ -40.159652199999989, -3.059641899999954 ], [ -40.159382, -3.059978599999989 ], [ -40.159365499999979, -3.060014500000027 ], [ -40.159266799999955, -3.0602815 ], [ -40.15924019999995, -3.060532099999926 ], [ -40.15921359999993, -3.0606455 ], [ -40.159189199999965, -3.060660499999917 ], [ -40.15804959999997, -3.060969199999926 ], [ -40.157973599999934, -3.060997899999967 ], [ -40.157899599999944, -3.06104239999996 ], [ -40.157807, -3.061114200000023 ], [ -40.157746, -3.061195299999954 ], [ -40.15763979999997, -3.061504 ], [ -40.157748199999958, -3.061523399999953 ], [ -40.158035599999948, -3.061524800000034 ], [ -40.158134699999948, -3.061533499999935 ], [ -40.158243799999973, -3.061570800000031 ], [ -40.158528799999949, -3.061714399999953 ], [ -40.158914699999976, -3.061832099999979 ], [ -40.158978899999966, -3.061862899999924 ], [ -40.15902269999998, -3.0622341 ], [ -40.159285799999964, -3.062412099999908 ], [ -40.159857899999963, -3.062567199999895 ], [ -40.160120599999971, -3.062549199999963 ], [ -40.160689199999986, -3.06269129999994 ], [ -40.16099319999995, -3.062725399999933 ], [ -40.161159699999978, -3.062760599999873 ], [ -40.161437199999966, -3.062837399999935 ], [ -40.161437199999973, -3.063022599999949 ], [ -40.161319499999941, -3.063213599999925 ], [ -40.160997899999984, -3.063404499999934 ], [ -40.160885499999956, -3.063456199999923 ], [ -40.160806599999951, -3.0634706 ], [ -40.160533799999939, -3.063449 ], [ -40.160477799999981, -3.063460499999941 ], [ -40.160390199999931, -3.06351649999993 ], [ -40.160335599999947, -3.063582599999943 ], [ -40.160225099999934, -3.063622799999967 ], [ -40.159709699999958, -3.0637376 ], [ -40.159560399999975, -3.063825199999927 ], [ -40.159464899999932, -3.063909899999985 ], [ -40.159408899999967, -3.064030499999925 ], [ -40.159394499999955, -3.064154 ], [ -40.159329899999932, -3.06451859999998 ], [ -40.159565399999963, -3.065041199999939 ], [ -40.159819499999976, -3.065189099999901 ], [ -40.160398099999952, -3.065459 ], [ -40.160314799999981, -3.06605480000002 ], [ -40.160053499999954, -3.065930599999945 ], [ -40.159941499999952, -3.065900499999977 ], [ -40.159495799999952, -3.065897599999953 ], [ -40.158870499999985, -3.065771299999897 ], [ -40.15882959999994, -3.065991299999974 ], [ -40.158828199999967, -3.066918799999942 ], [ -40.158994699999937, -3.067541099999962 ], [ -40.159055699999961, -3.06760219999992 ], [ -40.159134699999981, -3.067623 ], [ -40.159212199999956, -3.067704100000018 ], [ -40.159327399999938, -3.068516299999967 ], [ -40.160767099999937, -3.068218699999877 ], [ -40.160769599999973, -3.068153300000011 ], [ -40.162103, -3.068155899999907 ], [ -40.162405199999974, -3.068271500000035 ], [ -40.162433599999922, -3.068218199999955 ], [ -40.162692199999988, -3.067732199999954 ], [ -40.163499699999939, -3.06808749999991 ], [ -40.165824299999947, -3.068140399999971 ], [ -40.16582539999996, -3.0678962 ], [ -40.167828499999985, -3.067759 ], [ -40.167950699999956, -3.068389700000015 ], [ -40.1680454, -3.069154499999982 ] ] ], [ [ [ -40.190119799999927, -3.05010049999993 ], [ -40.189476499999955, -3.050169699999972 ], [ -40.189372499999934, -3.050248799999916 ], [ -40.187991799999963, -3.050179599999971 ], [ -40.187838399999976, -3.051103699999926 ], [ -40.188729199999955, -3.051113599999933 ], [ -40.192693199999951, -3.051439799999989 ], [ -40.192777299999925, -3.050322899999966 ], [ -40.190119799999927, -3.05010049999993 ] ] ], [ [ [ -40.281186699999978, -2.944251 ], [ -40.280949, -2.943996299999939 ], [ -40.280932, -2.943232300000025 ], [ -40.281458299999947, -2.942739899999879 ], [ -40.282561899999962, -2.942502199999979 ], [ -40.282782699999984, -2.94229849999998 ], [ -40.282629899999968, -2.942145699999937 ], [ -40.282307299999964, -2.9420778 ], [ -40.28223939999998, -2.941806099999941 ], [ -40.282349199999935, -2.9414477 ], [ -40.276550099999945, -2.9409179 ], [ -40.276195, -2.943317199999973 ], [ -40.275685699999947, -2.945133900000025 ], [ -40.282629899999968, -2.946016799999879 ], [ -40.282375199999933, -2.945286699999949 ], [ -40.281882799999948, -2.945066 ], [ -40.281390399999964, -2.944166099999958 ], [ -40.281186699999978, -2.944251 ] ] ] ] } }
]
}
