{
"type": "FeatureCollection",
"name": "2305407",
"crs": { "type": "name", "properties": { "name": "urn:ogc:def:crs:OGC:1.3:CRS84" } },
"features": [
{ "type": "Feature", "properties": { "CD_MUN": "2305407", "NM_MUN": "Icó" }, "geometry": { "type": "MultiPolygon", "coordinates": [ [ [ [ -38.628988399999962, -6.492345499999922 ], [ -38.628649699999976, -6.492028399999988 ], [ -38.628308899999986, -6.491507199999945 ], [ -38.628088399999974, -6.491346799999969 ], [ -38.627908, -6.491006 ], [ -38.627667399999943, -6.490765499999956 ], [ -38.627466899999945, -6.490625199999955 ], [ -38.626685099999982, -6.489883399999962 ], [ -38.625783, -6.489302099999987 ], [ -38.625522399999966, -6.489041499999953 ], [ -38.62420359999993, -6.488390899999932 ], [ -38.624018899999953, -6.488299699999981 ], [ -38.623798399999949, -6.488139299999964 ], [ -38.62341749999996, -6.487918799999923 ], [ -38.622816099999966, -6.487277299999961 ], [ -38.622435199999984, -6.4868964 ], [ -38.621833799999933, -6.4865556 ], [ -38.621252399999946, -6.48631509999997 ], [ -38.621009299999976, -6.486711099999967 ], [ -38.62021, -6.487938899999945 ], [ -38.619542299999985, -6.489091199999939 ], [ -38.620859499999938, -6.492509499999913 ], [ -38.621352699999939, -6.492569699999931 ], [ -38.621499199999974, -6.492939299999907 ], [ -38.6223088, -6.493469 ], [ -38.622582499999965, -6.493645099999981 ], [ -38.622872399999949, -6.493889699999932 ], [ -38.623132399999974, -6.493635599999974 ], [ -38.623458199999966, -6.493778899999923 ], [ -38.623718099999969, -6.493908799999918 ], [ -38.627610899999986, -6.493922499999933 ], [ -38.628438799999977, -6.493914899999918 ], [ -38.628985299999961, -6.493944699999933 ], [ -38.629531399999969, -6.494080899999949 ], [ -38.629763799999985, -6.492664799999917 ], [ -38.628988399999962, -6.492345499999922 ] ] ], [ [ [ -38.905876399999954, -6.408913199999943 ], [ -38.906283599999945, -6.408132599999951 ], [ -38.903161299999965, -6.406141499999935 ], [ -38.902386299999932, -6.405377899999968 ], [ -38.90062149999995, -6.406039699999959 ], [ -38.899934199999969, -6.406227199999918 ], [ -38.896988, -6.403571199999914 ], [ -38.894374299999981, -6.403355699999957 ], [ -38.899297599999954, -6.407744299999959 ], [ -38.902069099999949, -6.410173599999925 ], [ -38.902074399999947, -6.410167699999915 ], [ -38.90292089999997, -6.411004799999925 ], [ -38.904143299999937, -6.4120756 ], [ -38.904403199999933, -6.411957299999944 ], [ -38.904444799999972, -6.41192919999995 ], [ -38.903823099999961, -6.411226699999923 ], [ -38.903930599999974, -6.4110909 ], [ -38.903811799999971, -6.41096079999996 ], [ -38.904535799999969, -6.409886099999961 ], [ -38.904660199999967, -6.409971 ], [ -38.904796, -6.410140699999923 ], [ -38.904875199999935, -6.410202899999926 ], [ -38.905655799999984, -6.408783099999936 ], [ -38.905876399999954, -6.408913199999943 ] ] ], [ [ [ -38.872143499999929, -6.415025099999974 ], [ -38.872061, -6.414616399999929 ], [ -38.870571, -6.411579199999971 ], [ -38.869792699999948, -6.4109966 ], [ -38.869503899999984, -6.410620599999942 ], [ -38.869038099999962, -6.409559799999974 ], [ -38.868542699999985, -6.407979499999974 ], [ -38.869093, -6.407988899999958 ], [ -38.870588199999929, -6.410321399999919 ], [ -38.872690399999954, -6.40851889999995 ], [ -38.874525099999978, -6.410855199999951 ], [ -38.874794199999947, -6.410548699999943 ], [ -38.875295199999982, -6.411222199999925 ], [ -38.87591869999995, -6.410998699999936 ], [ -38.877017599999931, -6.410695199999981 ], [ -38.877265799999982, -6.4106907 ], [ -38.877979099999955, -6.410858199999927 ], [ -38.878457499999968, -6.410752 ], [ -38.879344199999942, -6.409934099999914 ], [ -38.879810699999958, -6.410089599999953 ], [ -38.880509, -6.410545699999942 ], [ -38.881199799999941, -6.4103752 ], [ -38.88282949999995, -6.410186799999983 ], [ -38.88311959999993, -6.408198199999975 ], [ -38.883317, -6.407982899999985 ], [ -38.883542399999953, -6.407246599999957 ], [ -38.883986799999953, -6.407014 ], [ -38.887087, -6.40664159999995 ], [ -38.887084899999934, -6.4046814 ], [ -38.887695, -6.404735299999964 ], [ -38.887804799999977, -6.403166099999928 ], [ -38.87800249999998, -6.40466659999992 ], [ -38.877980099999945, -6.404524 ], [ -38.877417899999955, -6.400948399999918 ], [ -38.877191799999935, -6.400854799999937 ], [ -38.877031099999961, -6.400668299999928 ], [ -38.877004099999958, -6.400495399999953 ], [ -38.877017299999977, -6.400309399999981 ], [ -38.877057199999975, -6.400003899999923 ], [ -38.876976499999955, -6.399685299999912 ], [ -38.876641499999941, -6.3993801 ], [ -38.876360299999924, -6.399207499999927 ], [ -38.875985599999986, -6.399206899999955 ], [ -38.875717799999961, -6.399313099999976 ], [ -38.875075199999976, -6.400031499999941 ], [ -38.8746867, -6.400443499999963 ], [ -38.874231099999982, -6.400669299999938 ], [ -38.873453599999948, -6.400961499999961 ], [ -38.867770899999982, -6.401880399999921 ], [ -38.867703199999944, -6.401891399999973 ], [ -38.867553599999951, -6.402091299999931 ], [ -38.86717479999993, -6.402838599999928 ], [ -38.867061399999955, -6.404679 ], [ -38.867432899999983, -6.406346099999942 ], [ -38.867135699999956, -6.406370499999987 ], [ -38.866598399999937, -6.404514099999976 ], [ -38.8662892, -6.403508299999952 ], [ -38.866098599999937, -6.402859599999933 ], [ -38.865664599999953, -6.402156399999982 ], [ -38.865365, -6.401759199999942 ], [ -38.865333, -6.401297899999977 ], [ -38.865254499999935, -6.401035199999983 ], [ -38.864995, -6.400360899999938 ], [ -38.864661699999942, -6.40016609999996 ], [ -38.864717, -6.400113 ], [ -38.866368, -6.398527 ], [ -38.865457, -6.398109 ], [ -38.864082, -6.397838 ], [ -38.862364, -6.397654 ], [ -38.861248, -6.396813 ], [ -38.859313899999968, -6.39506219999992 ], [ -38.858251, -6.3941 ], [ -38.856250799999948, -6.390096499999943 ], [ -38.855416599999955, -6.387738 ], [ -38.855179699999944, -6.38790689999996 ], [ -38.854513599999954, -6.3881987 ], [ -38.85415729999994, -6.388269 ], [ -38.854164, -6.38863079999994 ], [ -38.853868399999953, -6.388888399999924 ], [ -38.853480699999977, -6.389226199999932 ], [ -38.852828299999942, -6.389797799999954 ], [ -38.851095599999951, -6.391525599999968 ], [ -38.851428599999963, -6.3917812 ], [ -38.852104099999963, -6.392311799999964 ], [ -38.852183299999986, -6.392425 ], [ -38.852313799999934, -6.392730299999936 ], [ -38.852359199999974, -6.393001399999937 ], [ -38.852385399999946, -6.39322789999997 ], [ -38.852219, -6.394417 ], [ -38.852158699999968, -6.394842 ], [ -38.85199449999994, -6.3961801 ], [ -38.85181, -6.397834 ], [ -38.851572599999947, -6.399380899999917 ], [ -38.851446, -6.400206 ], [ -38.851257, -6.401888 ], [ -38.851023899999973, -6.404045199999907 ], [ -38.849883299999938, -6.404579499999949 ], [ -38.849327399999943, -6.404771299999955 ], [ -38.849033299999974, -6.404724 ], [ -38.848754099999944, -6.404708399999951 ], [ -38.848400499999975, -6.40477869999993 ], [ -38.846425299999964, -6.404135599999968 ], [ -38.846171799999986, -6.403746099999984 ], [ -38.844298299999942, -6.40231229999992 ], [ -38.843755599999952, -6.401742099999963 ], [ -38.84322739999994, -6.400488299999947 ], [ -38.843006499999959, -6.400153499999936 ], [ -38.842708499999972, -6.399946599999937 ], [ -38.842175, -6.39933489999994 ], [ -38.84105059999996, -6.39822349999996 ], [ -38.840982, -6.398164 ], [ -38.840663199999938, -6.397758799999942 ], [ -38.839908, -6.396799 ], [ -38.838234, -6.396729 ], [ -38.83749, -6.397586 ], [ -38.836274899999985, -6.398822699999914 ], [ -38.835952099999936, -6.399010899999951 ], [ -38.835686199999948, -6.399232 ], [ -38.835393799999963, -6.399380699999925 ], [ -38.835048699999959, -6.39962339999993 ], [ -38.834861899999964, -6.399841 ], [ -38.834584699999944, -6.400071399999941 ], [ -38.844018599999977, -6.407133299999916 ], [ -38.844699099999957, -6.406387399999966 ], [ -38.845257, -6.405866 ], [ -38.84550049999995, -6.405546699999934 ], [ -38.845555899999972, -6.405325799999984 ], [ -38.849027899999953, -6.407721099999931 ], [ -38.849603299999963, -6.408136399999899 ], [ -38.850692799999933, -6.408906399999974 ], [ -38.85225109999994, -6.410014799999931 ], [ -38.854391899999939, -6.411503699999952 ], [ -38.855627, -6.412375899999948 ], [ -38.856372799999967, -6.412910499999941 ], [ -38.857383, -6.413587199999912 ], [ -38.857920399999962, -6.413947199999951 ], [ -38.85800519999998, -6.414015499999981 ], [ -38.8593178, -6.414937399999951 ], [ -38.860676099999985, -6.415892 ], [ -38.860842599999955, -6.416073599999927 ], [ -38.861288099999975, -6.416535699999951 ], [ -38.861336, -6.416604699999926 ], [ -38.861483199999959, -6.416859399999942 ], [ -38.861747, -6.417544 ], [ -38.861779, -6.417971 ], [ -38.861747, -6.418465 ], [ -38.861654899999962, -6.418899799999942 ], [ -38.861227299999946, -6.4195597 ], [ -38.869182599999938, -6.416246399999989 ], [ -38.872143499999929, -6.415025099999974 ] ] ], [ [ [ -38.954905099999962, -6.406882199999916 ], [ -38.954955099999957, -6.406621199999987 ], [ -38.955063199999977, -6.406056899999967 ], [ -38.955309, -6.40510859999995 ], [ -38.955484599999984, -6.404634499999952 ], [ -38.95576559999995, -6.404160399999988 ], [ -38.956029, -6.403914499999938 ], [ -38.9564855, -6.403563299999973 ], [ -38.956626, -6.403352599999916 ], [ -38.956085899999948, -6.401540699999924 ], [ -38.956464599999954, -6.4011422 ], [ -38.956775599999965, -6.40099179999992 ], [ -38.956818799999944, -6.400832099999976 ], [ -38.956938599999944, -6.400589099999968 ], [ -38.957088399999975, -6.40041939999998 ], [ -38.957055099999934, -6.400276299999987 ], [ -38.956867099999954, -6.400241399999953 ], [ -38.956323, -6.400243099999984 ], [ -38.955990199999974, -6.400367899999932 ], [ -38.956056799999942, -6.399976799999954 ], [ -38.956164899999976, -6.399763899999932 ], [ -38.955996899999946, -6.399660699999945 ], [ -38.955727299999985, -6.398600799999922 ], [ -38.952910499999973, -6.398618899999977 ], [ -38.952451, -6.397986599999935 ], [ -38.950774399999943, -6.397477099999949 ], [ -38.950763899999977, -6.3974848 ], [ -38.950417399999942, -6.397858199999987 ], [ -38.950143799999985, -6.398283799999963 ], [ -38.949067399999933, -6.409307799999953 ], [ -38.948628499999977, -6.4134167 ], [ -38.951131399999952, -6.412851899999972 ], [ -38.952611699999977, -6.411863199999953 ], [ -38.95272639999996, -6.411600499999984 ], [ -38.952727699999961, -6.411412699999985 ], [ -38.952675, -6.409779599999977 ], [ -38.952692499999955, -6.409094799999948 ], [ -38.952973499999985, -6.408638199999929 ], [ -38.953272, -6.408304599999947 ], [ -38.954290499999964, -6.407742599999955 ], [ -38.954712, -6.407373899999909 ], [ -38.954905099999962, -6.406882199999916 ] ] ], [ [ [ -38.58206389999998, -6.359437699999948 ], [ -38.586322599999967, -6.354152199999932 ], [ -38.592384599999953, -6.346884499999899 ], [ -38.592219099999973, -6.346606399999931 ], [ -38.587729299999978, -6.339081 ], [ -38.580126699999944, -6.349898699999918 ], [ -38.578519099999937, -6.353750299999933 ], [ -38.578920799999935, -6.354397099999961 ], [ -38.58206389999998, -6.359437699999948 ] ] ], [ [ [ -38.750883899999955, -6.265614099999905 ], [ -38.736777699999955, -6.268995799999971 ], [ -38.739552099999969, -6.284008299999943 ], [ -38.747912699999972, -6.28365509999996 ], [ -38.74915059999995, -6.282944 ], [ -38.7502985, -6.282073899999968 ], [ -38.749364499999956, -6.278340899999952 ], [ -38.748558799999962, -6.277488899999967 ], [ -38.749243899999961, -6.27583339999995 ], [ -38.749604899999952, -6.274753699999964 ], [ -38.749105299999947, -6.271109899999957 ], [ -38.749336099999937, -6.268592899999957 ], [ -38.750883899999955, -6.265614099999905 ] ] ], [ [ [ -38.671044399999985, -6.217674499999913 ], [ -38.670272499999953, -6.216354 ], [ -38.669992599999944, -6.216616799999927 ], [ -38.669810699999971, -6.216876599999977 ], [ -38.669667899999986, -6.217071399999959 ], [ -38.669408099999949, -6.217552 ], [ -38.669193299999954, -6.218123499999927 ], [ -38.669005499999976, -6.21847419999996 ], [ -38.668823599999939, -6.218902799999954 ], [ -38.668745699999931, -6.219253499999989 ], [ -38.66871969999994, -6.219526199999939 ], [ -38.668719699999947, -6.219863899999952 ], [ -38.668718699999943, -6.220344499999944 ], [ -38.668712199999952, -6.220617199999932 ], [ -38.668777199999965, -6.220916 ], [ -38.668848599999933, -6.221227699999929 ], [ -38.668888699999968, -6.221501399999966 ], [ -38.668905799999955, -6.221617299999946 ], [ -38.668840799999948, -6.221890099999967 ], [ -38.668917799999981, -6.222515099999981 ], [ -38.669208199999964, -6.222788299999915 ], [ -38.669432299999983, -6.223190099999957 ], [ -38.67356239999998, -6.224218599999979 ], [ -38.67259629999996, -6.220329499999927 ], [ -38.6720026, -6.219313799999946 ], [ -38.671044399999985, -6.217674499999913 ] ] ] ] } }
]
}
