{
"type": "FeatureCollection",
"name": "2305506",
"crs": { "type": "name", "properties": { "name": "urn:ogc:def:crs:OGC:1.3:CRS84" } },
"features": [
{ "type": "Feature", "properties": { "CD_MUN": "2305506", "NM_MUN": "Iguatu" }, "geometry": { "type": "MultiPolygon", "coordinates": [ [ [ [ -39.391617899999979, -6.450299899999951 ], [ -39.395145499999956, -6.452177399999907 ], [ -39.396308499999989, -6.449974599999989 ], [ -39.392921, -6.449822899999948 ], [ -39.392299399999963, -6.449676099999953 ], [ -39.392036799999971, -6.449600799999957 ], [ -39.391617899999979, -6.450299899999951 ] ] ], [ [ [ -39.377629099999979, -6.446037399999976 ], [ -39.378418899999929, -6.446073599999969 ], [ -39.378795699999962, -6.446117299999956 ], [ -39.379094699999946, -6.446203399999924 ], [ -39.379386899999936, -6.446319199999928 ], [ -39.37961219999994, -6.446429399999962 ], [ -39.380318399999972, -6.446820699999908 ], [ -39.380506399999952, -6.44689789999997 ], [ -39.380851599999971, -6.447009499999956 ], [ -39.381238799999949, -6.447075699999951 ], [ -39.38159289999993, -6.447101199999961 ], [ -39.381763299999932, -6.447093599999938 ], [ -39.381824399999971, -6.447084799999984 ], [ -39.38193559999997, -6.447030199999979 ], [ -39.381938299999938, -6.447176699999963 ], [ -39.381946, -6.4472069 ], [ -39.382270299999959, -6.447497899999982 ], [ -39.382307499999968, -6.447539099999943 ], [ -39.382143799999938, -6.447571799999915 ], [ -39.382143799999938, -6.447909099999953 ], [ -39.382143799999938, -6.448209 ], [ -39.382143799999952, -6.448229499999977 ], [ -39.382413699999972, -6.448476799999989 ], [ -39.3825437, -6.448496599999921 ], [ -39.382488699999953, -6.448586899999977 ], [ -39.382413599999957, -6.448681899999951 ], [ -39.382864099999949, -6.448898299999958 ], [ -39.382940699999949, -6.4488866 ], [ -39.383777499999951, -6.449423 ], [ -39.383966099999959, -6.449145899999968 ], [ -39.385219099999972, -6.449937499999967 ], [ -39.388915399999973, -6.45230569999996 ], [ -39.389003299999949, -6.4521447 ], [ -39.390652199999984, -6.449086 ], [ -39.38419029999995, -6.446582599999953 ], [ -39.3766945, -6.443745 ], [ -39.375465399999939, -6.446073599999964 ], [ -39.375729, -6.446036 ], [ -39.37619379999996, -6.446000599999927 ], [ -39.376406399999951, -6.446001599999905 ], [ -39.377629099999979, -6.446037399999976 ] ] ], [ [ [ -39.271310499999977, -6.425829 ], [ -39.272903299999932, -6.424348399999952 ], [ -39.271796599999966, -6.423099599999929 ], [ -39.271400599999943, -6.422672799999902 ], [ -39.271053299999956, -6.422298499999946 ], [ -39.270207499999977, -6.421447 ], [ -39.269198, -6.422314399999974 ], [ -39.2698, -6.423310799999978 ], [ -39.270118399999951, -6.423875 ], [ -39.270398199999939, -6.424370799999972 ], [ -39.271310499999977, -6.425829 ] ] ], [ [ [ -39.285525299999954, -6.412148599999978 ], [ -39.284926299999938, -6.412130099999939 ], [ -39.282885499999956, -6.415248299999977 ], [ -39.274308299999973, -6.425481799999919 ], [ -39.275169499999954, -6.426084299999955 ], [ -39.276648799999975, -6.426905399999971 ], [ -39.287060499999939, -6.418430499999968 ], [ -39.291935699999954, -6.414462199999975 ], [ -39.291048899999964, -6.413209199999909 ], [ -39.289845699999944, -6.4142039 ], [ -39.289043699999986, -6.413250799999935 ], [ -39.290188099999966, -6.412293199999969 ], [ -39.285525299999954, -6.412148599999978 ] ] ], [ [ [ -39.163119, -6.403264399999968 ], [ -39.163382399999939, -6.403298099999971 ], [ -39.163433099999963, -6.403273 ], [ -39.163824699999971, -6.40308739999996 ], [ -39.163878399999923, -6.403324899999974 ], [ -39.163897099999929, -6.403399 ], [ -39.168351099999938, -6.404408799999963 ], [ -39.168475699999938, -6.403831399999939 ], [ -39.170085599999936, -6.404286199999935 ], [ -39.170485799999938, -6.403551799999944 ], [ -39.171502799999985, -6.401600399999946 ], [ -39.171369099999936, -6.400162399999936 ], [ -39.171615699999968, -6.400091 ], [ -39.173314599999969, -6.399329699999986 ], [ -39.165887399999981, -6.397114799999925 ], [ -39.165723199999945, -6.397141499999979 ], [ -39.165660399999979, -6.39714149999998 ], [ -39.16548789999996, -6.397345499999943 ], [ -39.165346699999922, -6.397282699999943 ], [ -39.16526829999998, -6.397423899999982 ], [ -39.16509579999996, -6.397518 ], [ -39.164891799999964, -6.397565099999975 ], [ -39.164813399999964, -6.397580699999949 ], [ -39.164687899999933, -6.397784699999909 ], [ -39.164562399999966, -6.397988599999977 ], [ -39.164735, -6.3981297 ], [ -39.164797699999951, -6.398349299999969 ], [ -39.1646722, -6.398537599999929 ], [ -39.164342799999929, -6.398537599999938 ], [ -39.164060499999941, -6.3984278 ], [ -39.163903599999969, -6.398302299999929 ], [ -39.163652699999943, -6.398537599999941 ], [ -39.163448799999969, -6.398725799999983 ], [ -39.163323299999945, -6.398898299999919 ], [ -39.163180199999942, -6.3989741 ], [ -39.163056599999955, -6.399039499999944 ], [ -39.162805699999979, -6.399227699999901 ], [ -39.162539, -6.399368899999975 ], [ -39.162350799999963, -6.399165 ], [ -39.162225299999932, -6.398914 ], [ -39.162225299999932, -6.398718899999932 ], [ -39.162225299999932, -6.398710099999944 ], [ -39.162084099999952, -6.398568899999923 ], [ -39.162005699999952, -6.398600299999943 ], [ -39.161994299999947, -6.398657199999968 ], [ -39.161974299999954, -6.39875719999996 ], [ -39.161864499999979, -6.398867 ], [ -39.161801799999971, -6.399086599999985 ], [ -39.161669499999959, -6.399307099999946 ], [ -39.161660599999948, -6.39932179999992 ], [ -39.161544299999946, -6.3994769 ], [ -39.16153189999995, -6.399493499999935 ], [ -39.161511799999971, -6.399774 ], [ -39.16283679999998, -6.403202699999965 ], [ -39.162303499999943, -6.403603699999978 ], [ -39.16167279999997, -6.404268199999936 ], [ -39.162936799999954, -6.403530199999965 ], [ -39.163119, -6.403264399999968 ] ] ], [ [ [ -39.413384099999973, -6.405849199999968 ], [ -39.413446399999941, -6.405461899999955 ], [ -39.413669299999981, -6.404564899999984 ], [ -39.413401499999964, -6.403316099999895 ], [ -39.413608099999976, -6.402214199999931 ], [ -39.412781699999982, -6.399872699999938 ], [ -39.412093, -6.398082099999928 ], [ -39.410440199999989, -6.395534 ], [ -39.409751499999977, -6.39470759999993 ], [ -39.408305299999938, -6.391126499999919 ], [ -39.40864959999994, -6.389335899999927 ], [ -39.408098699999989, -6.387476399999958 ], [ -39.408029799999952, -6.386374599999939 ], [ -39.408167599999956, -6.382449099999971 ], [ -39.40847, -6.382096199999943 ], [ -39.408580799999982, -6.381967 ], [ -39.403622299999931, -6.381484899999987 ], [ -39.404173199999946, -6.383895299999964 ], [ -39.40376, -6.388234 ], [ -39.405275099999983, -6.389886799999938 ], [ -39.405206199999952, -6.3918151 ], [ -39.405550599999977, -6.39374349999996 ], [ -39.405963799999938, -6.3938123 ], [ -39.406514699999946, -6.3946387 ], [ -39.406308099999933, -6.395465199999916 ], [ -39.406721299999958, -6.396773699999913 ], [ -39.407272299999931, -6.397462299999967 ], [ -39.407892099999977, -6.398357599999922 ], [ -39.408167599999956, -6.399872699999953 ], [ -39.409407199999976, -6.401319 ], [ -39.410164699999939, -6.402627499999923 ], [ -39.409820399999944, -6.40469349999997 ], [ -39.410302499999943, -6.405933099999944 ], [ -39.410553699999973, -6.408955 ], [ -39.41086, -6.409021799999959 ], [ -39.411041799999971, -6.409040799999947 ], [ -39.411338599999965, -6.409117099999943 ], [ -39.411482099999944, -6.409097899999931 ], [ -39.411893599999985, -6.4091263 ], [ -39.412544499999974, -6.409221499999974 ], [ -39.412917699999987, -6.409144599999919 ], [ -39.413100799999938, -6.408909899999968 ], [ -39.413399, -6.407832699999988 ], [ -39.413143399999967, -6.406726 ], [ -39.413384099999973, -6.405849199999968 ] ] ], [ [ [ -39.324261799999931, -6.3734105 ], [ -39.323472299999935, -6.3729347 ], [ -39.322667099999933, -6.372449899999957 ], [ -39.321951799999958, -6.373671199999946 ], [ -39.322070099999969, -6.374181199999955 ], [ -39.3221804, -6.374723799999948 ], [ -39.322300299999931, -6.3753007 ], [ -39.323234599999971, -6.37509 ], [ -39.32336689999994, -6.375049099999945 ], [ -39.323495, -6.374878699999948 ], [ -39.324263, -6.375367299999952 ], [ -39.324359199999954, -6.3753634 ], [ -39.324416699999972, -6.375321699999943 ], [ -39.325152399999979, -6.37405269999994 ], [ -39.324650399999939, -6.373524099999954 ], [ -39.324445899999944, -6.373308699999912 ], [ -39.324261799999931, -6.3734105 ] ] ], [ [ [ -39.311283099999969, -6.376984899999981 ], [ -39.311311699999976, -6.375078899999957 ], [ -39.311687699999943, -6.3751323999999 ], [ -39.313625599999966, -6.375040899999952 ], [ -39.313537099999962, -6.372776499999931 ], [ -39.317626199999957, -6.3728224999999 ], [ -39.31789, -6.372725199999915 ], [ -39.318453, -6.372352199999951 ], [ -39.318767299999934, -6.372073099999973 ], [ -39.319886099999962, -6.371214699999933 ], [ -39.319965899999943, -6.3710948 ], [ -39.319456499999944, -6.370907799999964 ], [ -39.319398199999981, -6.370886099999964 ], [ -39.319165699999985, -6.370772199999958 ], [ -39.318163, -6.370281 ], [ -39.317463, -6.369575 ], [ -39.317362699999933, -6.369500099999944 ], [ -39.317175, -6.367151899999943 ], [ -39.316862699999945, -6.367019 ], [ -39.316612799999973, -6.366718799999934 ], [ -39.316680099999985, -6.366397399999927 ], [ -39.317114599999975, -6.366366899999931 ], [ -39.317418899999943, -6.366316 ], [ -39.317578699999963, -6.366307899999953 ], [ -39.317887, -6.366256 ], [ -39.318065, -6.366238699999922 ], [ -39.318424199999981, -6.366187799999985 ], [ -39.318782299999945, -6.3661509 ], [ -39.318907599999939, -6.366138 ], [ -39.31900829999995, -6.36614 ], [ -39.319152799999983, -6.366121699999975 ], [ -39.319234199999975, -6.366137 ], [ -39.319456099999968, -6.366153199999927 ], [ -39.319787799999965, -6.366131899999963 ], [ -39.31998949999997, -6.366154499999923 ], [ -39.320274899999966, -6.366282499999977 ], [ -39.320372099999929, -6.366347099999905 ], [ -39.320572099999936, -6.36645489999994 ], [ -39.320921099999971, -6.366612499999968 ], [ -39.321044099999952, -6.366635399999929 ], [ -39.321077799999962, -6.366641699999957 ], [ -39.321244699999959, -6.366617199999957 ], [ -39.321807699999965, -6.366499199999962 ], [ -39.322138799999948, -6.36644629999997 ], [ -39.322272399999974, -6.366446299999954 ], [ -39.322640099999944, -6.366510699999949 ], [ -39.322845, -6.366503599999954 ], [ -39.322884099999953, -6.366499099999968 ], [ -39.322996899999964, -6.366486 ], [ -39.323125799999957, -6.366462899999942 ], [ -39.323243199999986, -6.366422199999906 ], [ -39.323444, -6.366331299999946 ], [ -39.323526099999981, -6.3663028 ], [ -39.323598, -6.366298099999918 ], [ -39.323730199999943, -6.366314299999962 ], [ -39.323888299999965, -6.366374699999951 ], [ -39.324062699999956, -6.366499199999987 ], [ -39.324255, -6.366681299999929 ], [ -39.324356699999953, -6.366764799999911 ], [ -39.32442389999995, -6.36681359999992 ], [ -39.32454139999993, -6.366879 ], [ -39.324703499999941, -6.366966 ], [ -39.324932199999978, -6.367057499999924 ], [ -39.325050799999936, -6.367077499999916 ], [ -39.325178, -6.367083199999942 ], [ -39.325409599999944, -6.367074599999986 ], [ -39.325563899999963, -6.367077499999941 ], [ -39.325892699999947, -6.367004599999966 ], [ -39.326979, -6.36671009999996 ], [ -39.32722769999998, -6.366628699999964 ], [ -39.3277222, -6.366504299999942 ], [ -39.327998099999945, -6.366455699999958 ], [ -39.328821399999988, -6.366251299999933 ], [ -39.329361699999936, -6.366076899999923 ], [ -39.329814799999951, -6.366007599999945 ], [ -39.329928399999964, -6.365935399999974 ], [ -39.329999899999962, -6.365829 ], [ -39.330035599999981, -6.365741799999953 ], [ -39.330047799999939, -6.365669599999915 ], [ -39.32968, -6.363106199999926 ], [ -39.334049399999962, -6.36238869999994 ], [ -39.333163799999966, -6.3554035 ], [ -39.327157699999937, -6.356082799999971 ], [ -39.327127699999956, -6.356348799999981 ], [ -39.325313099999967, -6.356496199999974 ], [ -39.325248699999982, -6.356270799999971 ], [ -39.324735799999978, -6.356286899999938 ], [ -39.324658, -6.356180399999984 ], [ -39.323527, -6.358010899999979 ], [ -39.322195899999947, -6.360164499999916 ], [ -39.320939499999945, -6.362144799999972 ], [ -39.320381, -6.362931 ], [ -39.319911, -6.363497 ], [ -39.318862, -6.364143 ], [ -39.317907, -6.364681 ], [ -39.317046199999936, -6.364759899999989 ], [ -39.316838199999957, -6.364779 ], [ -39.316355699999981, -6.364834499999967 ], [ -39.316247, -6.364847 ], [ -39.315883, -6.364739 ], [ -39.314078, -6.364463 ], [ -39.31349, -6.364369 ], [ -39.312791, -6.364268 ], [ -39.312266, -6.3643 ], [ -39.311237, -6.364335 ], [ -39.308215799999971, -6.364354 ], [ -39.307705, -6.364376 ], [ -39.307361, -6.364394 ], [ -39.307045, -6.36441 ], [ -39.306536599999966, -6.364394899999957 ], [ -39.306538399999965, -6.364283599999939 ], [ -39.306552, -6.363476 ], [ -39.306568, -6.362798 ], [ -39.306798199999953, -6.36018689999995 ], [ -39.306864, -6.359484899999937 ], [ -39.306881199999971, -6.359301 ], [ -39.308209499999982, -6.359059599999955 ], [ -39.308729399999947, -6.358965199999937 ], [ -39.308942599999959, -6.358926399999975 ], [ -39.308980599999984, -6.358919499999947 ], [ -39.309039599999949, -6.359072399999969 ], [ -39.309133699999961, -6.360031299999918 ], [ -39.309785899999952, -6.360284099999919 ], [ -39.310126699999955, -6.360390399999953 ], [ -39.310784499999954, -6.360341499999971 ], [ -39.311301399999941, -6.360247799999983 ], [ -39.313316299999947, -6.359882199999935 ], [ -39.313341799999939, -6.359877599999923 ], [ -39.31382989999998, -6.359815499999952 ], [ -39.314351299999942, -6.359749099999912 ], [ -39.314877499999959, -6.35968359999993 ], [ -39.314978599999961, -6.359785199999985 ], [ -39.319987899999937, -6.358745499999929 ], [ -39.318419799999958, -6.354694899999973 ], [ -39.321547599999981, -6.354215 ], [ -39.32215489999993, -6.35412179999998 ], [ -39.326369099999972, -6.353411 ], [ -39.326836499999956, -6.352580399999983 ], [ -39.325905, -6.350996699999929 ], [ -39.324898399999945, -6.34930829999998 ], [ -39.323032799999964, -6.345977 ], [ -39.322885099999951, -6.345715299999935 ], [ -39.322129699999955, -6.33861 ], [ -39.322268199999947, -6.336684799999956 ], [ -39.322640099999944, -6.33620239999992 ], [ -39.324090199999937, -6.330405499999957 ], [ -39.324162799999961, -6.330356699999896 ], [ -39.324543399999989, -6.328004599999903 ], [ -39.324783399999944, -6.322182499999951 ], [ -39.324778, -6.322166399999953 ], [ -39.325934599999982, -6.322425399999939 ], [ -39.327109899999989, -6.322430299999956 ], [ -39.327889599999928, -6.322082199999965 ], [ -39.327903499999934, -6.321413899999935 ], [ -39.328335099999947, -6.320550599999954 ], [ -39.32854389999995, -6.320369599999961 ], [ -39.328947699999958, -6.320327899999908 ], [ -39.329249699999949, -6.320504499999973 ], [ -39.32871589999997, -6.3276802 ], [ -39.32856, -6.330442499999932 ], [ -39.333392299999964, -6.328214 ], [ -39.334599199999957, -6.327037299999946 ], [ -39.335222399999957, -6.326429599999929 ], [ -39.336595, -6.325102699999937 ], [ -39.336747499999944, -6.32430969999993 ], [ -39.337921899999976, -6.323394599999952 ], [ -39.339416499999963, -6.323669099999979 ], [ -39.341399099999933, -6.324549899999957 ], [ -39.34298519999993, -6.325159899999951 ], [ -39.344312099999968, -6.326410499999942 ], [ -39.345720399999948, -6.323978 ], [ -39.346184899999962, -6.323213399999935 ], [ -39.346078099999943, -6.322976099999948 ], [ -39.34604249999996, -6.322833699999951 ], [ -39.346054399999957, -6.322691399999923 ], [ -39.345627199999967, -6.32219309999996 ], [ -39.345484899999981, -6.322050699999959 ], [ -39.345081499999935, -6.321777799999952 ], [ -39.34469, -6.321647299999963 ], [ -39.344452699999977, -6.321635499999977 ], [ -39.34438149999994, -6.321552399999954 ], [ -39.344345899999951, -6.32141 ], [ -39.344061199999942, -6.321327 ], [ -39.343930699999937, -6.32141 ], [ -39.343800199999976, -6.321350699999949 ], [ -39.343669699999957, -6.321279499999918 ], [ -39.343598499999985, -6.321101599999972 ], [ -39.343420499999979, -6.321042299999937 ], [ -39.343301899999979, -6.321042299999901 ], [ -39.34324259999994, -6.321006699999952 ], [ -39.343230699999935, -6.320971099999945 ], [ -39.343100199999988, -6.320864299999941 ], [ -39.342874799999947, -6.320840599999949 ], [ -39.342708699999939, -6.320852399999967 ], [ -39.342518799999944, -6.320781199999948 ], [ -39.342352799999965, -6.320662599999919 ], [ -39.342186699999964, -6.320496499999932 ], [ -39.341961199999957, -6.3204016 ], [ -39.341747699999978, -6.320425299999954 ], [ -39.341451099999965, -6.320496499999939 ], [ -39.341190099999942, -6.320496499999914 ], [ -39.340940899999964, -6.320555799999956 ], [ -39.340763, -6.320627 ], [ -39.340715499999938, -6.320627 ], [ -39.340656199999955, -6.32068629999996 ], [ -39.340430799999986, -6.320698199999969 ], [ -39.340300299999974, -6.320650699999908 ], [ -39.340157899999951, -6.320555799999985 ], [ -39.340051099999982, -6.320472799999957 ], [ -39.339944299999956, -6.320425299999973 ], [ -39.339861299999939, -6.320366 ], [ -39.339778199999955, -6.320223599999974 ], [ -39.339695199999944, -6.320093099999928 ], [ -39.339517199999939, -6.319962599999929 ], [ -39.339410499999978, -6.31983209999993 ], [ -39.339279899999951, -6.319701599999976 ], [ -39.339078299999983, -6.319571099999939 ], [ -39.338947699999949, -6.31948809999996 ], [ -39.338923399999942, -6.319473799999961 ], [ -39.338746099999987, -6.319369399999979 ], [ -39.338556199999971, -6.319333799999947 ], [ -39.338342699999941, -6.319250799999948 ], [ -39.3379657, -6.318792599999925 ], [ -39.337721699999975, -6.318304499999946 ], [ -39.337416699999956, -6.317786 ], [ -39.337683599999934, -6.317137799999953 ], [ -39.338240199999973, -6.317237 ], [ -39.338560499999979, -6.317572499999921 ], [ -39.339086699999946, -6.317595399999949 ], [ -39.33965859999995, -6.317648699999936 ], [ -39.340032199999946, -6.317359 ], [ -39.340062699999983, -6.316893799999965 ], [ -39.339994099999949, -6.316375299999939 ], [ -39.339651, -6.316024499999981 ], [ -39.339208699999972, -6.315467799999941 ], [ -39.338682499999955, -6.315040799999974 ], [ -39.337981, -6.314789099999934 ], [ -39.333826499999937, -6.309586 ], [ -39.332798399999945, -6.31109279999993 ], [ -39.319995199999937, -6.317947 ], [ -39.319722599999977, -6.319650799999969 ], [ -39.319318799999969, -6.319845199999966 ], [ -39.314490399999954, -6.323047 ], [ -39.31460409999994, -6.323150899999955 ], [ -39.31491189999997, -6.323375399999986 ], [ -39.315263199999954, -6.323655199999934 ], [ -39.316123, -6.32470309999996 ], [ -39.316325599999971, -6.324902299999981 ], [ -39.3165901, -6.325124799999956 ], [ -39.316992199999966, -6.325391799999973 ], [ -39.317491899999943, -6.325652699999958 ], [ -39.318199299999954, -6.326074299999958 ], [ -39.318127799999964, -6.326323299999949 ], [ -39.317968899999983, -6.32701 ], [ -39.317738599999984, -6.327893099999909 ], [ -39.317447899999934, -6.329037699999941 ], [ -39.3172924, -6.32958369999994 ], [ -39.316416799999956, -6.332960299999989 ], [ -39.316007199999945, -6.334651 ], [ -39.31397039999996, -6.337535099999968 ], [ -39.313369099999939, -6.338386399999916 ], [ -39.311082399999982, -6.341664899999961 ], [ -39.31015009999993, -6.343009099999935 ], [ -39.309313199999963, -6.344215699999978 ], [ -39.306563, -6.348071 ], [ -39.303730199999961, -6.345946299999981 ], [ -39.303692499999954, -6.345917899999984 ], [ -39.300932, -6.343839799999965 ], [ -39.300832799999974, -6.341825199999952 ], [ -39.299293699999971, -6.343154399999937 ], [ -39.298754699999961, -6.34287 ], [ -39.299738499999933, -6.341786899999909 ], [ -39.300077, -6.3413844 ], [ -39.298918699999952, -6.340344699999942 ], [ -39.297783699999975, -6.341328899999945 ], [ -39.296964599999967, -6.342090499999948 ], [ -39.296924199999978, -6.342128 ], [ -39.296852699999938, -6.342052599999909 ], [ -39.296596, -6.341783 ], [ -39.295096699999931, -6.343546699999921 ], [ -39.295090899999927, -6.343560899999938 ], [ -39.294996499999961, -6.343793099999955 ], [ -39.293883199999989, -6.344779899999948 ], [ -39.292217199999982, -6.346095299999925 ], [ -39.290677, -6.346433 ], [ -39.290027, -6.347308 ], [ -39.29024, -6.347804 ], [ -39.289846099999984, -6.349312299999951 ], [ -39.289399799999963, -6.349712899999913 ], [ -39.289389599999936, -6.349699899999952 ], [ -39.289079, -6.349305 ], [ -39.288679, -6.348793 ], [ -39.288112, -6.348309 ], [ -39.2873623, -6.347512599999975 ], [ -39.285875299999937, -6.347803799999935 ], [ -39.284607099999967, -6.348006199999932 ], [ -39.283284599999945, -6.348277199999946 ], [ -39.282045299999936, -6.348504799999932 ], [ -39.280787899999957, -6.348772199999962 ], [ -39.27943659999994, -6.34908289999996 ], [ -39.277908199999956, -6.349437 ], [ -39.27421389999995, -6.350247199999933 ], [ -39.275478799999973, -6.35275709999996 ], [ -39.27678149999997, -6.354567199999955 ], [ -39.277258299999978, -6.355229699999957 ], [ -39.277282699999937, -6.355263699999977 ], [ -39.277568099999932, -6.355646399999969 ], [ -39.277824099999975, -6.355970499999977 ], [ -39.279217299999978, -6.357734099999955 ], [ -39.281520399999984, -6.359625599999952 ], [ -39.281743799999965, -6.359809 ], [ -39.282472399999961, -6.359985299999948 ], [ -39.283753599999955, -6.360257 ], [ -39.284692599999978, -6.360192899999969 ], [ -39.285297199999945, -6.359974499999969 ], [ -39.288454599999966, -6.3588339 ], [ -39.28876369999994, -6.358857199999947 ], [ -39.289148599999983, -6.358979699999963 ], [ -39.289743499999929, -6.359545499999984 ], [ -39.290676699999949, -6.359901199999979 ], [ -39.291359199999931, -6.360700299999984 ], [ -39.292006599999979, -6.361814299999927 ], [ -39.292485, -6.363345 ], [ -39.292507399999984, -6.363569299999918 ], [ -39.292637, -6.36458 ], [ -39.292531, -6.365194 ], [ -39.292697699999962, -6.3658556 ], [ -39.292561, -6.367067 ], [ -39.292572899999982, -6.367111099999953 ], [ -39.292741, -6.367736 ], [ -39.292922399999952, -6.367788099999917 ], [ -39.293249499999952, -6.368693099999966 ], [ -39.293635299999963, -6.369760399999938 ], [ -39.293579199999954, -6.37018479999994 ], [ -39.292196299999944, -6.370047099999959 ], [ -39.292153, -6.370043 ], [ -39.292082, -6.370043399999911 ], [ -39.292114399999946, -6.369674899999943 ], [ -39.290738799999936, -6.369693299999916 ], [ -39.289786699999979, -6.369705 ], [ -39.289795, -6.369581 ], [ -39.289785, -6.369478 ], [ -39.289701, -6.369057 ], [ -39.289495, -6.368591 ], [ -39.289581899999973, -6.367643799999944 ], [ -39.2896138, -6.36752679999994 ], [ -39.288963299999978, -6.367539399999935 ], [ -39.285295, -6.368336099999961 ], [ -39.280608299999983, -6.369394899999984 ], [ -39.280943899999954, -6.370995599999961 ], [ -39.281140699999973, -6.371953 ], [ -39.281155, -6.371953699999923 ], [ -39.281965199999952, -6.372011499999944 ], [ -39.282616199999943, -6.372047699999943 ], [ -39.283607299999979, -6.372092899999951 ], [ -39.284791799999944, -6.3721634 ], [ -39.284857099999961, -6.372166099999965 ], [ -39.285249, -6.372182199999911 ], [ -39.286450899999977, -6.372257199999957 ], [ -39.287501399999947, -6.372322699999931 ], [ -39.288856599999967, -6.372428699999966 ], [ -39.290137499999958, -6.3725067 ], [ -39.290196699999967, -6.372510299999949 ], [ -39.290871399999958, -6.3725287 ], [ -39.291803099999989, -6.372579399999921 ], [ -39.293022699999938, -6.372675199999924 ], [ -39.292796599999974, -6.374084299999934 ], [ -39.29268929999995, -6.374662599999963 ], [ -39.292601, -6.375156 ], [ -39.294575499999951, -6.3755639 ], [ -39.29453129999996, -6.376191599999969 ], [ -39.294771199999964, -6.376798899999913 ], [ -39.294972499999979, -6.377203299999944 ], [ -39.295828499999963, -6.378023199999967 ], [ -39.296506299999983, -6.3780217 ], [ -39.296975199999963, -6.377769299999983 ], [ -39.297329499999933, -6.377411199999921 ], [ -39.297592299999977, -6.377021299999959 ], [ -39.297756, -6.37678789999998 ], [ -39.297928, -6.376533699999944 ], [ -39.298593, -6.375422 ], [ -39.298877, -6.375319299999931 ], [ -39.299153, -6.375207 ], [ -39.299535, -6.374954 ], [ -39.299891, -6.374701 ], [ -39.300336, -6.374575 ], [ -39.300819, -6.3746 ], [ -39.301176, -6.374727 ], [ -39.301659, -6.375207 ], [ -39.301837, -6.376092 ], [ -39.302143, -6.376851 ], [ -39.30344, -6.377483 ], [ -39.304382, -6.377786 ], [ -39.305222, -6.378773 ], [ -39.305603, -6.379531 ], [ -39.306078, -6.380027 ], [ -39.307511799999936, -6.379640599999947 ], [ -39.307705, -6.380176 ], [ -39.307901, -6.380778 ], [ -39.30814, -6.381576 ], [ -39.308364799999936, -6.382144199999979 ], [ -39.308853799999952, -6.383380299999959 ], [ -39.308063799999957, -6.383689799999965 ], [ -39.306777, -6.384149 ], [ -39.306019, -6.38445 ], [ -39.305488099999941, -6.384725299999952 ], [ -39.305586799999958, -6.384996599999979 ], [ -39.306239199999943, -6.386790599999906 ], [ -39.306120899999939, -6.386848299999934 ], [ -39.306265099999962, -6.387573299999897 ], [ -39.306241099999966, -6.38772859999994 ], [ -39.306252899999947, -6.387822499999952 ], [ -39.306297399999956, -6.387935299999971 ], [ -39.308179, -6.387643899999963 ], [ -39.30821659999998, -6.388697399999972 ], [ -39.309261099999958, -6.388473 ], [ -39.310211299999935, -6.388726199999953 ], [ -39.308890199999951, -6.389158899999932 ], [ -39.309069699999952, -6.389679 ], [ -39.305485199999964, -6.3910352 ], [ -39.305058799999983, -6.390272199999973 ], [ -39.303105599999988, -6.390780699999935 ], [ -39.300351499999977, -6.391500499999957 ], [ -39.300447199999958, -6.389429399999904 ], [ -39.296709299999982, -6.38996 ], [ -39.296726399999955, -6.390079099999958 ], [ -39.295041199999957, -6.390412699999939 ], [ -39.293561899999929, -6.390745 ], [ -39.293028099999958, -6.390858599999927 ], [ -39.291086599999979, -6.391242199999979 ], [ -39.287549599999977, -6.392079 ], [ -39.281274, -6.393970699999977 ], [ -39.283838499999945, -6.396909 ], [ -39.283956399999973, -6.397092699999966 ], [ -39.28410139999994, -6.397042799999941 ], [ -39.289983699999944, -6.395016 ], [ -39.292596099999969, -6.394246899999946 ], [ -39.292594299999962, -6.394253699999968 ], [ -39.29301879999997, -6.394127399999946 ], [ -39.295271299999968, -6.393643399999977 ], [ -39.296710699999956, -6.39341259999996 ], [ -39.296786699999984, -6.394127799999969 ], [ -39.297044799999973, -6.395238899999987 ], [ -39.297045699999956, -6.395241399999989 ], [ -39.294982399999988, -6.395636699999955 ], [ -39.295318299999963, -6.397042 ], [ -39.294540199999979, -6.397534 ], [ -39.296012399999938, -6.399406299999939 ], [ -39.296278899999955, -6.399270199999937 ], [ -39.298513599999978, -6.402990199999989 ], [ -39.300253299999952, -6.402030599999936 ], [ -39.29962949999998, -6.400957599999952 ], [ -39.299263099999955, -6.400327399999957 ], [ -39.30165, -6.399046799999959 ], [ -39.301055, -6.397871699999928 ], [ -39.302403299999987, -6.397186 ], [ -39.303231, -6.396751599999975 ], [ -39.304071599999929, -6.396254099999944 ], [ -39.304171199999985, -6.396077899999955 ], [ -39.3042655, -6.395809699999971 ], [ -39.304295, -6.395476499999979 ], [ -39.304203099999945, -6.395141199999943 ], [ -39.304064199999971, -6.394596199999954 ], [ -39.304085199999975, -6.394497899999988 ], [ -39.305381099999977, -6.393958 ], [ -39.306595899999934, -6.393162199999948 ], [ -39.307563099999989, -6.392633 ], [ -39.307810699999948, -6.392506199999982 ], [ -39.308726099999944, -6.392072899999976 ], [ -39.314895, -6.389219099999921 ], [ -39.314621, -6.388987 ], [ -39.314166, -6.388715 ], [ -39.312071, -6.387977 ], [ -39.310889, -6.387596 ], [ -39.310693, -6.387488 ], [ -39.310257, -6.387044 ], [ -39.309655, -6.385546 ], [ -39.309603699999968, -6.385424299999978 ], [ -39.313046599999957, -6.384185799999959 ], [ -39.318780099999969, -6.382123199999966 ], [ -39.318938399999986, -6.380835099999953 ], [ -39.319601299999938, -6.375441699999948 ], [ -39.316701399999943, -6.376247799999929 ], [ -39.316696899999954, -6.376249199999973 ], [ -39.311283099999969, -6.376984899999981 ] ] ], [ [ [ -39.41285739999995, -6.31308779999996 ], [ -39.413105299999984, -6.313078099999909 ], [ -39.413537699999956, -6.311845899999986 ], [ -39.413603599999931, -6.310860799999938 ], [ -39.413710699999967, -6.310491799999968 ], [ -39.414645499999956, -6.309177199999963 ], [ -39.414393099999984, -6.308990799999929 ], [ -39.414220499999949, -6.308889699999934 ], [ -39.414173599999963, -6.308507599999935 ], [ -39.414168599999982, -6.3082391 ], [ -39.4141719, -6.308097399999983 ], [ -39.414224799999943, -6.30779549999996 ], [ -39.413670199999956, -6.308113299999974 ], [ -39.41379249999995, -6.3076718 ], [ -39.413754099999949, -6.307348899999965 ], [ -39.413490499999973, -6.307188599999929 ], [ -39.413433399999974, -6.306791099999939 ], [ -39.413156599999986, -6.3066 ], [ -39.412915, -6.306841599999938 ], [ -39.412527, -6.306885499999984 ], [ -39.412211199999952, -6.306837699999969 ], [ -39.412002499999971, -6.306996699999956 ], [ -39.411441899999943, -6.307664099999942 ], [ -39.410774599999975, -6.308318099999957 ], [ -39.410381699999967, -6.308560499999945 ], [ -39.409566599999948, -6.309178899999939 ], [ -39.408983099999944, -6.309491799999938 ], [ -39.408574499999929, -6.309698 ], [ -39.408117499999953, -6.309803799999957 ], [ -39.407558499999944, -6.309942 ], [ -39.406767099999968, -6.31025609999997 ], [ -39.406938499999974, -6.310639599999964 ], [ -39.40706739999996, -6.310884699999949 ], [ -39.407327099999982, -6.311130699999962 ], [ -39.408057299999946, -6.31130649999994 ], [ -39.408113899999933, -6.3115329 ], [ -39.408033899999971, -6.312064 ], [ -39.407987, -6.312129699999968 ], [ -39.408196699999955, -6.312608599999963 ], [ -39.408479599999964, -6.312337899999919 ], [ -39.4095574, -6.311316099999952 ], [ -39.409590699999974, -6.311238099999952 ], [ -39.409763899999973, -6.31149409999992 ], [ -39.409613199999974, -6.311848199999919 ], [ -39.409572, -6.312078899999936 ], [ -39.409511099999989, -6.31244129999992 ], [ -39.409474799999941, -6.312723 ], [ -39.409423799999963, -6.313019499999926 ], [ -39.410328799999945, -6.313105899999941 ], [ -39.412643, -6.312460099999978 ], [ -39.412727599999982, -6.312612699999939 ], [ -39.412760399999968, -6.312720199999949 ], [ -39.412809199999977, -6.312965499999955 ], [ -39.41285739999995, -6.31308779999996 ] ] ], [ [ [ -39.293303099999939, -6.213026299999964 ], [ -39.296065, -6.213815399999937 ], [ -39.300066899999933, -6.210940799999944 ], [ -39.300686899999967, -6.211955399999939 ], [ -39.300743299999965, -6.212321699999977 ], [ -39.302997899999973, -6.212857199999974 ], [ -39.303787, -6.212800799999974 ], [ -39.305731599999937, -6.212293599999963 ], [ -39.303787, -6.204853399999945 ], [ -39.296290499999948, -6.205670699999949 ], [ -39.294374, -6.207277099999953 ], [ -39.293303099999939, -6.213026299999964 ] ] ] ] } }
]
}
