{
"type": "FeatureCollection",
"name": "2306207",
"crs": { "type": "name", "properties": { "name": "urn:ogc:def:crs:OGC:1.3:CRS84" } },
"features": [
{ "type": "Feature", "properties": { "CD_MUN": "2306207", "NM_MUN": "Itaiçaba" }, "geometry": { "type": "MultiPolygon", "coordinates": [ [ [ [ -37.835752299999974, -4.697869699999944 ], [ -37.833092299999976, -4.697018299999979 ], [ -37.832261699999954, -4.697515699999946 ], [ -37.831481699999976, -4.697683599999978 ], [ -37.831008899999979, -4.697817299999967 ], [ -37.830471499999938, -4.697795799999952 ], [ -37.829863699999976, -4.698257799999953 ], [ -37.83085779999994, -4.699543199999965 ], [ -37.831206899999977, -4.700213399999941 ], [ -37.831241399999946, -4.700698599999972 ], [ -37.832488099999985, -4.701554799999931 ], [ -37.834027, -4.701146799999916 ], [ -37.836768899999981, -4.699664399999942 ], [ -37.835752299999974, -4.697869699999944 ] ] ], [ [ [ -37.827055599999937, -4.682871199999971 ], [ -37.827228699999978, -4.682519199999904 ], [ -37.827441399999948, -4.6824483 ], [ -37.827697299999954, -4.682160899999918 ], [ -37.828032, -4.68108579999994 ], [ -37.830946099999949, -4.682495599999959 ], [ -37.83176519999995, -4.680581799999979 ], [ -37.832088099999972, -4.678614799999934 ], [ -37.829722099999969, -4.677537399999938 ], [ -37.829732299999939, -4.677531700000016 ], [ -37.830045, -4.6770519 ], [ -37.830181, -4.676723899999935 ], [ -37.830162199999961, -4.676564399999951 ], [ -37.830111, -4.67647759999991 ], [ -37.829624599999931, -4.67621949999996 ], [ -37.829704799999952, -4.676087099999956 ], [ -37.829175, -4.675722499999981 ], [ -37.828106199999979, -4.676840299999967 ], [ -37.825363599999946, -4.675356899999954 ], [ -37.82496539999994, -4.675141499999905 ], [ -37.824914, -4.675126199999947 ], [ -37.821523799999973, -4.673183 ], [ -37.82111569999995, -4.673465799999967 ], [ -37.820319399999967, -4.673930599999924 ], [ -37.819726299999964, -4.674288799999982 ], [ -37.820127, -4.675200199999957 ], [ -37.820209099999943, -4.675397299999898 ], [ -37.820376499999952, -4.675587299999942 ], [ -37.820504799999981, -4.675671099999922 ], [ -37.81945579999995, -4.680683299999928 ], [ -37.819854199999952, -4.680776099999949 ], [ -37.819849099999949, -4.680868199999968 ], [ -37.821119099999969, -4.681455599999957 ], [ -37.821074199999934, -4.681652499999937 ], [ -37.82091, -4.682624799999956 ], [ -37.820705699999962, -4.684041199999966 ], [ -37.821914599999957, -4.684625099999911 ], [ -37.822135599999974, -4.684690799999943 ], [ -37.822057499999978, -4.685818499999937 ], [ -37.822077199999967, -4.686131899999958 ], [ -37.822134699999935, -4.686387499999971 ], [ -37.82221849999997, -4.686609799999967 ], [ -37.822355699999946, -4.686833099999935 ], [ -37.822511099999929, -4.6870825 ], [ -37.824429099999982, -4.689804499999964 ], [ -37.824963299999979, -4.690537299999946 ], [ -37.825037399999985, -4.690639199999963 ], [ -37.825016799999965, -4.690436199999937 ], [ -37.828132499999981, -4.685354 ], [ -37.829498899999983, -4.685992 ], [ -37.830191199999952, -4.684006399999961 ], [ -37.828800899999983, -4.683542299999935 ], [ -37.827055599999937, -4.682871199999971 ] ] ] ] } }
]
}
