{
"type": "FeatureCollection",
"name": "2307007",
"crs": { "type": "name", "properties": { "name": "urn:ogc:def:crs:OGC:1.3:CRS84" } },
"features": [
{ "type": "Feature", "properties": { "CD_MUN": "2307007", "NM_MUN": "Jaguaruana" }, "geometry": { "type": "MultiPolygon", "coordinates": [ [ [ [ -37.87786129999995, -4.8979393 ], [ -37.876960799999949, -4.897419199999908 ], [ -37.876259699999935, -4.897085699999939 ], [ -37.875633299999947, -4.896945699999976 ], [ -37.874453299999978, -4.896883499999918 ], [ -37.872838599999973, -4.897923799999984 ], [ -37.87356049999994, -4.899988799999964 ], [ -37.874189299999962, -4.901137699999929 ], [ -37.874841399999973, -4.901929499999933 ], [ -37.875431399999968, -4.902286599999935 ], [ -37.87585839999997, -4.902472899999957 ], [ -37.876347499999952, -4.902589399999981 ], [ -37.876611399999945, -4.902589399999935 ], [ -37.876859799999984, -4.902752399999912 ], [ -37.877085, -4.902915399999898 ], [ -37.877395499999977, -4.90294649999992 ], [ -37.877479, -4.902985399999989 ], [ -37.877594599999952, -4.903020899999967 ], [ -37.877701299999956, -4.903023899999946 ], [ -37.877846599999941, -4.903044599999918 ], [ -37.878012499999961, -4.903059499999938 ], [ -37.878303, -4.903053499999906 ], [ -37.878495599999951, -4.902991299999917 ], [ -37.878602299999962, -4.902834199999956 ], [ -37.878729799999981, -4.902552599999982 ], [ -37.878777299999967, -4.902472899999976 ], [ -37.879281899999974, -4.900454599999919 ], [ -37.87786129999995, -4.8979393 ] ] ], [ [ [ -37.790101, -4.864394799999967 ], [ -37.79032239999998, -4.864512599999976 ], [ -37.790629499999959, -4.864732 ], [ -37.79087339999996, -4.864883499999935 ], [ -37.791231899999964, -4.865005099999983 ], [ -37.791509099999985, -4.865091 ], [ -37.791625799999963, -4.865132399999919 ], [ -37.791825499999959, -4.865201799999935 ], [ -37.792014399999971, -4.865225199999969 ], [ -37.792825899999968, -4.865468299999946 ], [ -37.793159399999979, -4.86445739999992 ], [ -37.794441499999948, -4.860583599999949 ], [ -37.794770799999981, -4.859727399999938 ], [ -37.792868299999952, -4.858769499999914 ], [ -37.791186899999964, -4.857522699999961 ], [ -37.7911218, -4.857486199999903 ], [ -37.7896, -4.856634799999934 ], [ -37.788362599999978, -4.855879099999915 ], [ -37.787134699999967, -4.855040599999906 ], [ -37.78810859999993, -4.856037099999988 ], [ -37.788580299999978, -4.856574 ], [ -37.788924599999973, -4.857069599999949 ], [ -37.789315699999975, -4.857753599999969 ], [ -37.789688099999978, -4.858256599999963 ], [ -37.790282299999951, -4.859159099999945 ], [ -37.790427799999982, -4.859342299999968 ], [ -37.78874819999993, -4.86397569999997 ], [ -37.789243899999974, -4.864109099999913 ], [ -37.789455699999969, -4.8641694 ], [ -37.789609, -4.8641903 ], [ -37.789780699999945, -4.864243799999921 ], [ -37.789955499999962, -4.864326199999955 ], [ -37.790101, -4.864394799999967 ] ] ], [ [ [ -37.805952199999986, -4.852349299999981 ], [ -37.807918499999978, -4.8528444 ], [ -37.810653899999984, -4.8535439 ], [ -37.812068199999942, -4.853922399999947 ], [ -37.812423599999931, -4.854098300000013 ], [ -37.812621499999977, -4.8542328 ], [ -37.812946899999929, -4.85332 ], [ -37.809359499999978, -4.851487899999977 ], [ -37.809341, -4.851234299999916 ], [ -37.809648099999947, -4.8503443 ], [ -37.807082099999938, -4.848997899999966 ], [ -37.807373799999944, -4.848236299999936 ], [ -37.807495599999982, -4.848271099999972 ], [ -37.807692799999984, -4.848381299999942 ], [ -37.808087199999932, -4.848445099999964 ], [ -37.808354, -4.848479899999951 ], [ -37.808957199999945, -4.848503099999949 ], [ -37.809166, -4.848537899999923 ], [ -37.809357299999931, -4.848613299999927 ], [ -37.809728499999956, -4.84885689999993 ], [ -37.809960499999931, -4.849025099999946 ], [ -37.81009389999997, -4.849025099999966 ], [ -37.810204099999964, -4.848984499999966 ], [ -37.810337499999946, -4.848804699999974 ], [ -37.810600499999964, -4.848306399999942 ], [ -37.810596, -4.848305199999958 ], [ -37.809060199999976, -4.847193499999948 ], [ -37.808253399999955, -4.846478 ], [ -37.807129399999951, -4.84545289999993 ], [ -37.806361, -4.845068699999925 ], [ -37.805573699999968, -4.846343599999967 ], [ -37.804669199999985, -4.847422 ], [ -37.804267199999977, -4.848189899999989 ], [ -37.801504899999941, -4.846958099999969 ], [ -37.799388099999931, -4.846852499999937 ], [ -37.798638099999955, -4.849243199999949 ], [ -37.799409399999945, -4.850045499999973 ], [ -37.799992699999969, -4.850510499999924 ], [ -37.800333399999936, -4.850711299999962 ], [ -37.800932, -4.850993499999974 ], [ -37.801729599999931, -4.851273299999931 ], [ -37.798882399999975, -4.859271799999927 ], [ -37.799494299999942, -4.8592925 ], [ -37.800055399999962, -4.859338499999956 ], [ -37.800658099999957, -4.85942429999992 ], [ -37.803931, -4.851817599999916 ], [ -37.805728699999975, -4.852290499999987 ], [ -37.805952199999986, -4.852349299999981 ] ] ], [ [ [ -37.788611799999963, -4.847623599999962 ], [ -37.788176699999958, -4.8466759 ], [ -37.787788299999924, -4.846327499999983 ], [ -37.787301899999939, -4.84559139999994 ], [ -37.787104, -4.845074799999955 ], [ -37.786944199999944, -4.844614799999945 ], [ -37.786950099999963, -4.844431899999928 ], [ -37.790715299999938, -4.845672699999951 ], [ -37.79154489999997, -4.843865299999965 ], [ -37.792766699999959, -4.844571799999924 ], [ -37.793339699999933, -4.843146899999971 ], [ -37.794150499999951, -4.84090819999994 ], [ -37.795034599999951, -4.838682799999987 ], [ -37.788185799999951, -4.836649399999951 ], [ -37.788087, -4.836525599999973 ], [ -37.78788289999995, -4.836243399999941 ], [ -37.787651899999958, -4.836036199999985 ], [ -37.787434699999949, -4.835984699999905 ], [ -37.78693369999997, -4.835848 ], [ -37.786479299999939, -4.83545039999997 ], [ -37.785929899999985, -4.834858699999919 ], [ -37.785233399999974, -4.834141 ], [ -37.784785, -4.83354319999993 ], [ -37.784518, -4.833062099999945 ], [ -37.784201099999969, -4.831907 ], [ -37.784046199999977, -4.831505799999985 ], [ -37.783832599999975, -4.831250499999944 ], [ -37.783294499999947, -4.830940599999984 ], [ -37.7828, -4.830064799999952 ], [ -37.78246309999998, -4.829457 ], [ -37.782358699999975, -4.828850399999987 ], [ -37.781556, -4.828964799999915 ], [ -37.780930399999932, -4.829006299999955 ], [ -37.780916099999956, -4.828882 ], [ -37.780125899999973, -4.828852199999987 ], [ -37.775982499999948, -4.826708 ], [ -37.776201499999956, -4.824852699999985 ], [ -37.774535499999963, -4.82431 ], [ -37.774624299999971, -4.823322799999936 ], [ -37.771035599999948, -4.822239799999971 ], [ -37.770759199999929, -4.823219399999974 ], [ -37.769201099999982, -4.822735599999929 ], [ -37.769415399999957, -4.823439799999957 ], [ -37.769520199999931, -4.823577599999937 ], [ -37.76973449999997, -4.823702599999971 ], [ -37.769743499999947, -4.823991899999982 ], [ -37.769642499999975, -4.824457199999943 ], [ -37.769629499999951, -4.824932 ], [ -37.769576399999956, -4.825132899999949 ], [ -37.769485599999946, -4.825448399999966 ], [ -37.76924379999997, -4.826021499999971 ], [ -37.769377499999962, -4.826108599999953 ], [ -37.769646399999942, -4.826160299999976 ], [ -37.772364199999977, -4.825921 ], [ -37.774000899999976, -4.825801 ], [ -37.774072199999978, -4.825811599999989 ], [ -37.77415069999995, -4.827036 ], [ -37.774934499999972, -4.827455499999937 ], [ -37.776536699999959, -4.828354299999932 ], [ -37.776389499999937, -4.828627599999929 ], [ -37.776149, -4.829188099999952 ], [ -37.775939799999946, -4.829757799999917 ], [ -37.775912699999935, -4.829855099999986 ], [ -37.775874, -4.830581899999963 ], [ -37.77587489999997, -4.830788799999957 ], [ -37.775872599999957, -4.831259199999971 ], [ -37.775104899999981, -4.832332699999947 ], [ -37.775067299999932, -4.832408199999952 ], [ -37.775137899999955, -4.832506499999938 ], [ -37.776933099999958, -4.834285099999915 ], [ -37.777415399999938, -4.834805399999914 ], [ -37.777551399999943, -4.834901199999913 ], [ -37.777149799999961, -4.83503969999994 ], [ -37.776457299999947, -4.835314 ], [ -37.775828099999956, -4.8356388 ], [ -37.775499899999943, -4.835953699999934 ], [ -37.774995299999951, -4.836069699999967 ], [ -37.774917199999955, -4.835802499999973 ], [ -37.774549099999952, -4.835777399999902 ], [ -37.774172499999963, -4.835820299999973 ], [ -37.774086099999977, -4.8350978 ], [ -37.771370499999925, -4.835615399999929 ], [ -37.770698899999957, -4.835868199999962 ], [ -37.770787699999971, -4.836164599999989 ], [ -37.770853199999976, -4.836285299999953 ], [ -37.770963499999937, -4.836739899999976 ], [ -37.769455599999958, -4.837219299999965 ], [ -37.769514, -4.837649 ], [ -37.768984799999942, -4.837695599999977 ], [ -37.768970199999963, -4.83801379999996 ], [ -37.768900399999957, -4.83827049999996 ], [ -37.76851029999996, -4.838763899999934 ], [ -37.768361699999971, -4.839002299999959 ], [ -37.768406099999943, -4.839383 ], [ -37.768579, -4.840065599999934 ], [ -37.768826, -4.840471099999977 ], [ -37.769120199999975, -4.840833299999903 ], [ -37.769374499999962, -4.841238699999941 ], [ -37.76959979999998, -4.84177359999997 ], [ -37.769667899999952, -4.842263899999949 ], [ -37.769649299999969, -4.842633499999952 ], [ -37.769587499999943, -4.842929 ], [ -37.76936759999996, -4.843183199999933 ], [ -37.768460599999969, -4.843258799999975 ], [ -37.768142599999983, -4.843394199999979 ], [ -37.767897499999947, -4.843748299999986 ], [ -37.767802199999949, -4.844293 ], [ -37.767856599999959, -4.844824199999961 ], [ -37.767924699999988, -4.845314399999952 ], [ -37.767815799999937, -4.845940899999963 ], [ -37.767543399999965, -4.846499199999937 ], [ -37.767080399999948, -4.847003099999934 ], [ -37.766440299999942, -4.847615899999907 ], [ -37.76627689999998, -4.848187899999964 ], [ -37.76627689999998, -4.84865089999993 ], [ -37.766227499999964, -4.849051099999903 ], [ -37.76602139999995, -4.849216 ], [ -37.765637399999946, -4.849755599999963 ], [ -37.764956299999938, -4.850245 ], [ -37.764076899999964, -4.850792399999956 ], [ -37.763909, -4.850933399999959 ], [ -37.77271079999997, -4.854942299999983 ], [ -37.77533939999995, -4.856427299999973 ], [ -37.776711399999954, -4.857829299999907 ], [ -37.777102599999978, -4.857878 ], [ -37.777977, -4.857820299999967 ], [ -37.778622199999973, -4.85732369999993 ], [ -37.778942699999966, -4.856784399999944 ], [ -37.779681599999954, -4.855969299999952 ], [ -37.780378699999972, -4.855580199999955 ], [ -37.7809994, -4.855431 ], [ -37.781817799999942, -4.855370899999975 ], [ -37.782959599999977, -4.855426399999971 ], [ -37.784047, -4.855478499999931 ], [ -37.785469299999946, -4.855483 ], [ -37.786539799999964, -4.85528779999991 ], [ -37.787134699999967, -4.855040599999906 ], [ -37.787479599999983, -4.854202199999951 ], [ -37.787710799999957, -4.853196399999958 ], [ -37.788032, -4.852440799999918 ], [ -37.78917279999996, -4.850853299999954 ], [ -37.789250299999942, -4.850210799999958 ], [ -37.789235799999972, -4.849622499999986 ], [ -37.789135099999953, -4.849142499999942 ], [ -37.788830899999944, -4.848406499999948 ], [ -37.788611799999963, -4.847623599999962 ] ] ], [ [ [ -37.876118, -4.848167199999946 ], [ -37.876813899999945, -4.848405 ], [ -37.87787969999993, -4.848290499999949 ], [ -37.878911199999955, -4.848397099999915 ], [ -37.87967139999995, -4.848588499999961 ], [ -37.880771599999946, -4.848849899999985 ], [ -37.882435799999939, -4.848972799999928 ], [ -37.883368599999983, -4.849194399999892 ], [ -37.885188899999946, -4.849336099999936 ], [ -37.885833699999978, -4.849359099999956 ], [ -37.88609409999998, -4.849494099999967 ], [ -37.88640189999996, -4.849086199999911 ], [ -37.887427299999956, -4.848214199999972 ], [ -37.888561799999927, -4.847404799999923 ], [ -37.888565399999948, -4.84740489999997 ], [ -37.88890779999997, -4.847415 ], [ -37.889750399999969, -4.847380399999945 ], [ -37.893169299999954, -4.838893399999975 ], [ -37.892736899999932, -4.83852529999995 ], [ -37.891986599999939, -4.83783889999995 ], [ -37.891277799999955, -4.837099099999911 ], [ -37.890329099999974, -4.835907699999924 ], [ -37.889844399999959, -4.835380599999939 ], [ -37.885665299999971, -4.842486099999981 ], [ -37.885095099999937, -4.8419279 ], [ -37.883031199999955, -4.839084099999978 ], [ -37.877679899999976, -4.842452199999983 ], [ -37.877533499999977, -4.842536399999969 ], [ -37.8754211, -4.843749699999918 ], [ -37.874076499999944, -4.844596799999962 ], [ -37.874137, -4.844711099999895 ], [ -37.874385799999978, -4.845289199999986 ], [ -37.874607599999933, -4.845706 ], [ -37.874930299999967, -4.84618329999994 ], [ -37.875272399999972, -4.846643399999956 ], [ -37.875748099999953, -4.847541799999962 ], [ -37.876118, -4.848167199999946 ] ] ], [ [ [ -37.760203899999965, -4.827281599999968 ], [ -37.762139399999967, -4.826802299999919 ], [ -37.757178499999952, -4.816692599999969 ], [ -37.755098499999974, -4.817392199999984 ], [ -37.755022899999972, -4.8188671 ], [ -37.754909399999974, -4.8219303 ], [ -37.756686799999962, -4.825125899999926 ], [ -37.760203899999965, -4.827281599999968 ] ] ], [ [ [ -37.816630399999951, -4.820312 ], [ -37.8168338, -4.820385499999924 ], [ -37.816957299999963, -4.820377699999967 ], [ -37.81727479999995, -4.820291699999917 ], [ -37.81791759999993, -4.820105499999924 ], [ -37.818185, -4.820007 ], [ -37.81877309999993, -4.8197489 ], [ -37.819214099999954, -4.81955 ], [ -37.819395599999957, -4.819431499999941 ], [ -37.820024299999936, -4.8189513 ], [ -37.82037779999996, -4.818657299999928 ], [ -37.820473199999981, -4.818896599999926 ], [ -37.820579499999951, -4.8190921 ], [ -37.820704599999935, -4.819271899999964 ], [ -37.820950199999977, -4.819447099999938 ], [ -37.81952339999998, -4.810071 ], [ -37.814655399999943, -4.810091799999987 ], [ -37.814375499999976, -4.810287899999936 ], [ -37.814229699999942, -4.810322699999941 ], [ -37.814053, -4.810343099999987 ], [ -37.813926299999935, -4.810310199999978 ], [ -37.813602499999945, -4.81011 ], [ -37.813364799999938, -4.809939599999921 ], [ -37.812989499999965, -4.8099114 ], [ -37.812388899999974, -4.809844199999938 ], [ -37.811935299999959, -4.809728399999929 ], [ -37.811617799999965, -4.809551699999922 ], [ -37.811151799999941, -4.809328 ], [ -37.807797299999947, -4.80863789999991 ], [ -37.807804499999975, -4.808673699999949 ], [ -37.808297099999947, -4.8107709 ], [ -37.808408399999969, -4.811281399999956 ], [ -37.808863899999949, -4.812009499999902 ], [ -37.809229099999989, -4.813327 ], [ -37.809247199999959, -4.814674 ], [ -37.809120499999956, -4.814983 ], [ -37.80895339999995, -4.815254899999945 ], [ -37.808261499999958, -4.816973399999936 ], [ -37.808237199999951, -4.817025699999931 ], [ -37.810605599999974, -4.817102499999964 ], [ -37.813483699999949, -4.818521199999943 ], [ -37.813882499999984, -4.818396099999971 ], [ -37.81529479999994, -4.8193689 ], [ -37.815612299999948, -4.81958 ], [ -37.81620659999993, -4.820025799999917 ], [ -37.816411499999958, -4.8201462 ], [ -37.816630399999951, -4.820312 ] ] ], [ [ [ -37.745009699999962, -4.792410399999949 ], [ -37.746461699999941, -4.790589199999983 ], [ -37.749525699999928, -4.789358700000011 ], [ -37.749495799999977, -4.787402399999925 ], [ -37.743717599999968, -4.787672899999956 ], [ -37.740124499999979, -4.78722989999994 ], [ -37.739706099999985, -4.792311899999929 ], [ -37.745009699999962, -4.792410399999949 ] ] ], [ [ [ -37.832291399999974, -4.789067399999982 ], [ -37.831629099999923, -4.787819899999951 ], [ -37.830639299999973, -4.787657199999978 ], [ -37.830623799999955, -4.787654699999963 ], [ -37.829423299999981, -4.788383799999978 ], [ -37.829193799999985, -4.789771899999962 ], [ -37.8293877, -4.791118199999964 ], [ -37.829047799999955, -4.793043899999923 ], [ -37.829713799999979, -4.793244199999942 ], [ -37.831281599999954, -4.793886899999984 ], [ -37.831307799999934, -4.793878 ], [ -37.832077099999943, -4.793616499999941 ], [ -37.832291399999974, -4.789067399999982 ] ] ], [ [ [ -37.776298799999942, -4.774782199999986 ], [ -37.776671699999952, -4.774451 ], [ -37.779323499999975, -4.771374599999962 ], [ -37.7791582, -4.7706646 ], [ -37.779216399999939, -4.770229499999954 ], [ -37.779264799999972, -4.769988399999951 ], [ -37.779175, -4.768777499999921 ], [ -37.775131799999933, -4.767503899999943 ], [ -37.776066699999944, -4.774408899999959 ], [ -37.776298799999942, -4.774782199999986 ] ] ] ] } }
]
}
