{
"type": "FeatureCollection",
"name": "2312908",
"crs": { "type": "name", "properties": { "name": "urn:ogc:def:crs:OGC:1.3:CRS84" } },
"features": [
{ "type": "Feature", "properties": { "CD_MUN": "2312908", "NM_MUN": "Sobral" }, "geometry": { "type": "MultiPolygon", "coordinates": [ [ [ [ -40.666967199999931, -3.833585099999901 ], [ -40.666432899999961, -3.833661399999949 ], [ -40.665492099999938, -3.833972499999944 ], [ -40.663494699999944, -3.834451499999921 ], [ -40.663734199999972, -3.834564499999955 ], [ -40.664116199999974, -3.83474479999995 ], [ -40.664711499999946, -3.835025799999923 ], [ -40.665099399999981, -3.835208899999945 ], [ -40.666125299999976, -3.835693199999942 ], [ -40.66633859999996, -3.835793899999893 ], [ -40.66833209999993, -3.836678099999988 ], [ -40.671162699999961, -3.838000899999978 ], [ -40.671657, -3.836968899999917 ], [ -40.67004559999998, -3.836451599999959 ], [ -40.670855699999947, -3.834092099999988 ], [ -40.670437199999988, -3.833585499999924 ], [ -40.670673199999953, -3.832584400000014 ], [ -40.669943899999971, -3.832669199999938 ], [ -40.669358699999968, -3.832474199999967 ], [ -40.668876699999942, -3.832566099999957 ], [ -40.668493699999949, -3.83267769999996 ], [ -40.668228499999941, -3.832866399999901 ], [ -40.667569299999975, -3.833228899999943 ], [ -40.666967199999931, -3.833585099999901 ] ] ], [ [ [ -40.612196199999971, -3.7895161 ], [ -40.618593599999947, -3.790014099999904 ], [ -40.622426399999931, -3.786220699999948 ], [ -40.622220099999936, -3.7851309 ], [ -40.618352399999942, -3.782794599999928 ], [ -40.617691, -3.782676399999942 ], [ -40.612196199999971, -3.7895161 ] ] ], [ [ [ -40.499766799999975, -3.783539799999986 ], [ -40.499872399999965, -3.783327199999929 ], [ -40.500049299999951, -3.783182599999956 ], [ -40.50012959999998, -3.782969399999952 ], [ -40.500156, -3.782794 ], [ -40.500169799999973, -3.782554399999978 ], [ -40.500143299999934, -3.782382699999972 ], [ -40.500030799999934, -3.7820507 ], [ -40.499756899999959, -3.78161 ], [ -40.499445699999967, -3.781243399999975 ], [ -40.499171599999954, -3.78094819999996 ], [ -40.498773099999944, -3.78079109999997 ], [ -40.498591099999935, -3.780841699999952 ], [ -40.498411899999951, -3.780934899999937 ], [ -40.498305299999977, -3.781021599999948 ], [ -40.498163399999953, -3.7810876 ], [ -40.498039199999944, -3.7810876 ], [ -40.497920499999971, -3.781028099999938 ], [ -40.4978407, -3.780913599999982 ], [ -40.497677099999976, -3.780244299999959 ], [ -40.497819799999945, -3.780066399999963 ], [ -40.498150299999956, -3.779682299999924 ], [ -40.498498699999978, -3.779285800000021 ], [ -40.4988537, -3.778892599999918 ], [ -40.499107699999975, -3.779061699999932 ], [ -40.499534499999982, -3.779137699999969 ], [ -40.499637, -3.779053899999973 ], [ -40.499777699999989, -3.778967599999916 ], [ -40.500098299999934, -3.778939499999982 ], [ -40.500284399999941, -3.778928699999954 ], [ -40.500469, -3.778826199999979 ], [ -40.500555199999951, -3.778714 ], [ -40.50062939999998, -3.778558399999967 ], [ -40.500675499999943, -3.778413 ], [ -40.5007318, -3.778162899999897 ], [ -40.500809899999972, -3.777849499999989 ], [ -40.500896399999931, -3.777718 ], [ -40.500966799999958, -3.777649 ], [ -40.501009899999985, -3.777554199999969 ], [ -40.501029499999959, -3.777435399999915 ], [ -40.501041699999973, -3.7772651 ], [ -40.501032599999981, -3.777125899999933 ], [ -40.501003, -3.7770451 ], [ -40.501058199999939, -3.776906699999927 ], [ -40.501141399999938, -3.7769018 ], [ -40.50122219999998, -3.777007199999935 ], [ -40.501291399999964, -3.777075599999941 ], [ -40.501361399999951, -3.777144799999951 ], [ -40.501515499999982, -3.777255199999911 ], [ -40.501650199999972, -3.77735819999996 ], [ -40.50186389999994, -3.7773812 ], [ -40.502012199999974, -3.777193399999928 ], [ -40.50219929999998, -3.777027799999885 ], [ -40.502359099999978, -3.776959399999918 ], [ -40.50256839999998, -3.777086299999978 ], [ -40.502729099999961, -3.777152199999933 ], [ -40.502879799999967, -3.777175199999884 ], [ -40.502979499999988, -3.777101099999919 ], [ -40.503085799999951, -3.776984099999966 ], [ -40.503142599999933, -3.776704 ], [ -40.50319369999994, -3.776567199999892 ], [ -40.503241499999952, -3.776406599999984 ], [ -40.503269499999931, -3.776257399999984 ], [ -40.503333, -3.77613389999993 ], [ -40.503413699999953, -3.776036699999942 ], [ -40.503557099999959, -3.7759806 ], [ -40.503666699999947, -3.776026799999922 ], [ -40.503845399999925, -3.776136399999964 ], [ -40.504116499999952, -3.776205599999962 ], [ -40.504343899999981, -3.776385099999941 ], [ -40.504649599999937, -3.776414799999982 ], [ -40.504848899999956, -3.77635959999995 ], [ -40.504957199999978, -3.776304299999895 ], [ -40.505007399999954, -3.7761758 ], [ -40.505017, -3.776005400000012 ], [ -40.504966699999962, -3.775790299999881 ], [ -40.504836599999976, -3.775511 ], [ -40.504651, -3.775076699999973 ], [ -40.504704299999958, -3.774985199999942 ], [ -40.50490329999996, -3.7750727 ], [ -40.505192499999964, -3.77506939999992 ], [ -40.505569, -3.775047099999958 ], [ -40.505899399999983, -3.774954899999971 ], [ -40.506079799999945, -3.774800799999967 ], [ -40.506183599999936, -3.774619499999953 ], [ -40.506302299999959, -3.774400399999952 ], [ -40.506424199999969, -3.773994199999943 ], [ -40.50642749999998, -3.773626 ], [ -40.506289099999947, -3.773506499999932 ], [ -40.506093899999946, -3.773450499999931 ], [ -40.505881799999941, -3.773499299999946 ], [ -40.5057116, -3.773531399999927 ], [ -40.505499599999951, -3.773477899999938 ], [ -40.505411099999954, -3.773310199999956 ], [ -40.505391499999973, -3.773194799999988 ], [ -40.505486899999937, -3.772994699999978 ], [ -40.505496199999982, -3.77283569999997 ], [ -40.505490699999939, -3.772656699999938 ], [ -40.505482599999944, -3.772485699999968 ], [ -40.50548619999995, -3.772322599999969 ], [ -40.50546779999997, -3.772141199999936 ], [ -40.50558749999994, -3.772029599999964 ], [ -40.505790099999963, -3.771874899999959 ], [ -40.505839399999957, -3.771695199999941 ], [ -40.505711499999961, -3.771507 ], [ -40.505639899999949, -3.77141949999994 ], [ -40.505544499999978, -3.77134 ], [ -40.505306, -3.77122080000002 ], [ -40.505051599999945, -3.771125399999916 ], [ -40.504868799999947, -3.771109499999961 ], [ -40.504741599999939, -3.771173099999934 ], [ -40.504733599999952, -3.771355899999935 ], [ -40.504749499999946, -3.771491099999899 ], [ -40.504687199999978, -3.771759599999963 ], [ -40.504551599999957, -3.771885499999921 ], [ -40.504363699999949, -3.7718513 ], [ -40.503955599999983, -3.771609699999982 ], [ -40.503634599999941, -3.771385499999974 ], [ -40.503491699999984, -3.771075099999951 ], [ -40.503156699999977, -3.770890099999936 ], [ -40.502816299999949, -3.770847799999979 ], [ -40.502323699999977, -3.770671499999965 ], [ -40.501907599999981, -3.770416799999968 ], [ -40.50146239999998, -3.77014419999992 ], [ -40.501131799999946, -3.7697178 ], [ -40.500873499999955, -3.7695433 ], [ -40.500594299999939, -3.768901799999957 ], [ -40.500336, -3.768254599999986 ], [ -40.498230499999977, -3.765737699999887 ], [ -40.496850499999937, -3.769522799999919 ], [ -40.495302499999973, -3.7744285 ], [ -40.49583529999996, -3.774788 ], [ -40.495718599999975, -3.774862499999893 ], [ -40.495636299999951, -3.774978299999961 ], [ -40.495652599999971, -3.77510879999992 ], [ -40.495691799999967, -3.775226299999919 ], [ -40.495730899999955, -3.775317699999961 ], [ -40.495796199999972, -3.775422099999919 ], [ -40.495819099999956, -3.775480899999971 ], [ -40.495793, -3.77556569999998 ], [ -40.495773399999962, -3.7756408 ], [ -40.495704799999956, -3.775663599999973 ], [ -40.495633, -3.7757485 ], [ -40.495587299999954, -3.775846399999951 ], [ -40.495509, -3.7759639 ], [ -40.495440499999972, -3.7760226 ], [ -40.495343099999964, -3.776078 ], [ -40.495235399999956, -3.776185699999938 ], [ -40.495117899999975, -3.776322699999958 ], [ -40.494985799999931, -3.776489199999985 ], [ -40.494907399999931, -3.776621399999958 ], [ -40.494843799999956, -3.776729099999937 ], [ -40.494741, -3.776861199999957 ], [ -40.49465779999997, -3.77700809999994 ], [ -40.494603899999952, -3.777125599999979 ], [ -40.494556099999961, -3.7772646 ], [ -40.494496199999958, -3.777438899999894 ], [ -40.494501199999945, -3.7774413999999 ], [ -40.494829099999954, -3.777605299999954 ], [ -40.495137499999949, -3.777752199999911 ], [ -40.495387199999982, -3.777874599999933 ], [ -40.495602599999984, -3.77802639999992 ], [ -40.495857099999967, -3.778153599999976 ], [ -40.496033399999931, -3.778290699999916 ], [ -40.496351599999969, -3.778530599999959 ], [ -40.496679599999943, -3.778741099999962 ], [ -40.496792199999959, -3.778888 ], [ -40.496640399999926, -3.7792355 ], [ -40.496634799999988, -3.77959459999992 ], [ -40.496577699999939, -3.779787199999904 ], [ -40.496527099999973, -3.780020699999985 ], [ -40.496461, -3.7802146 ], [ -40.496481499999959, -3.780520199999918 ], [ -40.496527499999956, -3.780631800000018 ], [ -40.495064499999955, -3.782339599999962 ], [ -40.494864499999949, -3.7825053 ], [ -40.494465299999952, -3.782668899999979 ], [ -40.494261299999948, -3.7828445 ], [ -40.49418339999994, -3.7831998 ], [ -40.49481609999998, -3.784155699999925 ], [ -40.496407599999948, -3.785385099999948 ], [ -40.496038399999975, -3.785854099999984 ], [ -40.495351899999953, -3.786460699999983 ], [ -40.49492679999998, -3.786772099999987 ], [ -40.49843379999993, -3.7887766 ], [ -40.498425299999951, -3.788797099999978 ], [ -40.499846499999933, -3.790069799999957 ], [ -40.500443, -3.790240299999956 ], [ -40.500791199999981, -3.790029599999922 ], [ -40.500577199999952, -3.7895584 ], [ -40.500330899999938, -3.7891754 ], [ -40.500126199999954, -3.7888571 ], [ -40.49971769999997, -3.785267699999961 ], [ -40.499303299999958, -3.78410939999994 ], [ -40.499715099999939, -3.7837835 ], [ -40.499766799999975, -3.783539799999986 ] ] ], [ [ [ -40.397536, -3.773822799999942 ], [ -40.398568799999964, -3.773420699999939 ], [ -40.399167099999943, -3.773171499999945 ], [ -40.3996686, -3.772918099999933 ], [ -40.400039599999957, -3.772723700000018 ], [ -40.399405499999943, -3.771290899999916 ], [ -40.397054899999944, -3.77202939999998 ], [ -40.397081199999946, -3.77227589999996 ], [ -40.397105599999975, -3.772533699999978 ], [ -40.397139199999977, -3.772746799999893 ], [ -40.397536, -3.773822799999942 ] ] ], [ [ [ -40.561003299999989, -3.755870299999922 ], [ -40.561125299999958, -3.75569139999992 ], [ -40.562792899999984, -3.753360499999959 ], [ -40.5628311, -3.752837799999931 ], [ -40.55882569999995, -3.750602199999904 ], [ -40.558675199999989, -3.750518099999973 ], [ -40.557656, -3.749949299999971 ], [ -40.556005899999946, -3.74991269999992 ], [ -40.547289, -3.752191 ], [ -40.547382199999959, -3.752853599999932 ], [ -40.549299199999943, -3.756421499999922 ], [ -40.549532299999953, -3.758823299999989 ], [ -40.562142499999936, -3.758017199999913 ], [ -40.561867699999937, -3.757604299999922 ], [ -40.561630499999978, -3.757275 ], [ -40.561412299999972, -3.7568916 ], [ -40.561258, -3.75663259999992 ], [ -40.561101099999981, -3.756443400000017 ], [ -40.561053499999957, -3.756236499999961 ], [ -40.561003299999989, -3.755870299999922 ] ] ], [ [ [ -40.526430499999954, -3.710903399999936 ], [ -40.526816199999985, -3.71076759999993 ], [ -40.528347799999949, -3.697819799999965 ], [ -40.525152199999987, -3.6957489 ], [ -40.524793299999949, -3.695720499999947 ], [ -40.523228699999947, -3.697875099999971 ], [ -40.52158, -3.700584499999953 ], [ -40.522881199999972, -3.709302500000015 ], [ -40.52411879999994, -3.709785399999938 ], [ -40.526430499999954, -3.710903399999936 ] ] ], [ [ [ -40.590306299999952, -3.689809499999952 ], [ -40.590552699999932, -3.689469599999905 ], [ -40.590821799999965, -3.689024599999888 ], [ -40.587440799999968, -3.688344099999947 ], [ -40.5863629, -3.689785 ], [ -40.585044099999948, -3.691666699999902 ], [ -40.5872629, -3.693314299999934 ], [ -40.58748549999995, -3.693533299999946 ], [ -40.590306299999952, -3.689809499999952 ] ] ], [ [ [ -40.593172599999953, -3.684102599999912 ], [ -40.593306399999967, -3.684202899999902 ], [ -40.593452699999943, -3.68432 ], [ -40.593619899999965, -3.684445399999948 ], [ -40.593691, -3.684478799999922 ], [ -40.595022799999988, -3.684914699999977 ], [ -40.596853199999948, -3.6824277 ], [ -40.596505899999961, -3.681595099999921 ], [ -40.595845499999939, -3.6812356 ], [ -40.593438, -3.682237599999908 ], [ -40.592767199999969, -3.68251 ], [ -40.592416, -3.682836 ], [ -40.592165199999947, -3.683091 ], [ -40.592052399999943, -3.683224799999977 ], [ -40.59245779999997, -3.683513199999935 ], [ -40.592896699999983, -3.683856 ], [ -40.593172599999953, -3.684102599999912 ] ] ], [ [ [ -40.484115899999949, -3.668855799999923 ], [ -40.48491869999998, -3.669013199999915 ], [ -40.485472499999965, -3.669037900000014 ], [ -40.486495099999956, -3.6694628 ], [ -40.487534699999969, -3.669811299999958 ], [ -40.488639199999973, -3.669814099999976 ], [ -40.489643399999977, -3.669831099999924 ], [ -40.489638599999978, -3.669588799999934 ], [ -40.48941039999994, -3.66923 ], [ -40.48985719999996, -3.665763799999928 ], [ -40.488158499999948, -3.665625299999903 ], [ -40.48660289999998, -3.66548 ], [ -40.485563199999952, -3.665314099999973 ], [ -40.484998699999956, -3.665293299999956 ], [ -40.483682399999957, -3.665496199999947 ], [ -40.481901599999958, -3.6669878 ], [ -40.481791399999963, -3.667549199999987 ], [ -40.481718599999972, -3.667942799999917 ], [ -40.481723199999983, -3.668614399999936 ], [ -40.481723199999976, -3.669034199999984 ], [ -40.482001299999972, -3.6690604 ], [ -40.482190199999934, -3.669013199999913 ], [ -40.482452599999938, -3.6689345 ], [ -40.48267819999996, -3.668950199999925 ], [ -40.482846099999954, -3.669107699999948 ], [ -40.482882699999948, -3.669115 ], [ -40.483160899999973, -3.669170599999943 ], [ -40.483418, -3.668945 ], [ -40.483669899999946, -3.668782299999979 ], [ -40.483916499999964, -3.6688401 ], [ -40.484115899999949, -3.668855799999923 ] ] ], [ [ [ -40.360938099999949, -3.645631099999899 ], [ -40.361114299999947, -3.645268199999949 ], [ -40.361319899999955, -3.644714299999945 ], [ -40.361593499999977, -3.644091499999983 ], [ -40.36177749999996, -3.643369299999912 ], [ -40.362114499999969, -3.642576800000017 ], [ -40.361240399999936, -3.642121899999936 ], [ -40.36038439999993, -3.6415815 ], [ -40.359618199999943, -3.641238899999968 ], [ -40.358968799999957, -3.641109499999987 ], [ -40.35833539999993, -3.641078899999945 ], [ -40.3573914, -3.641176699999972 ], [ -40.353675399999929, -3.641720099999942 ], [ -40.35325279999995, -3.641792899999971 ], [ -40.352736699999987, -3.642024799999926 ], [ -40.353304099999946, -3.642484099999968 ], [ -40.353769399999983, -3.642875 ], [ -40.35461249999998, -3.643543499999934 ], [ -40.354868799999963, -3.643781199999951 ], [ -40.355532899999957, -3.644562099999929 ], [ -40.355776099999957, -3.644894500000017 ], [ -40.356375699999944, -3.6453296 ], [ -40.356899899999974, -3.645756199999924 ], [ -40.357250799999981, -3.645952299999952 ], [ -40.357900499999978, -3.645968 ], [ -40.359247599999954, -3.646138499999985 ], [ -40.360679399999974, -3.646377699999931 ], [ -40.360938099999949, -3.645631099999899 ] ] ], [ [ [ -39.962459699999961, -4.081477699999903 ], [ -39.964942, -4.080788099999928 ], [ -39.967527699999948, -4.07871959999993 ], [ -39.969148099999984, -4.076340699999897 ], [ -39.970423699999969, -4.075237499999922 ], [ -39.970846599999966, -4.075159799999946 ], [ -39.972113099999945, -4.074927199999959 ], [ -39.974097699999959, -4.07499059999997 ], [ -39.972584899999958, -4.071522899999928 ], [ -39.972152499999943, -4.070530499999983 ], [ -39.970013399999971, -4.065896899999924 ], [ -39.956630699999948, -4.070553 ], [ -39.9559273, -4.070797699999913 ], [ -39.954784, -4.071254 ], [ -39.947102699999967, -4.074606799999955 ], [ -39.942084899999948, -4.078552499999955 ], [ -39.938050599999933, -4.081719 ], [ -39.941060599999965, -4.085693399999972 ], [ -39.941601599999956, -4.086407799999958 ], [ -39.941607099999942, -4.086414499999949 ], [ -39.941904, -4.086782599999968 ], [ -39.945957099999937, -4.091834699999973 ], [ -39.951013099999955, -4.083193199999954 ], [ -39.951349599999958, -4.083338499999989 ], [ -39.954347499999983, -4.084539199999926 ], [ -39.957269799999949, -4.082965099999965 ], [ -39.958327899999979, -4.082229 ], [ -39.959386099999961, -4.081492899999979 ], [ -39.962459699999961, -4.081477699999903 ] ] ], [ [ [ -40.041753399999948, -4.011497 ], [ -40.042200399999956, -4.012450499999971 ], [ -40.046019099999974, -4.011757099999943 ], [ -40.045933599999962, -4.011150899999937 ], [ -40.045765199999948, -4.010998699999975 ], [ -40.043598499999973, -4.009188499999897 ], [ -40.041702399999963, -4.009476399999892 ], [ -40.041753399999948, -4.011497 ] ] ], [ [ [ -40.028219399999955, -3.883328799999972 ], [ -40.02860579999998, -3.879000199999967 ], [ -40.028751299999961, -3.877941 ], [ -40.028547699999933, -3.8779218 ], [ -40.028366499999947, -3.877861499999956 ], [ -40.027458599999932, -3.876079299999965 ], [ -40.024664099999946, -3.869341399999985 ], [ -40.024521499999942, -3.869996899999968 ], [ -40.024482399999954, -3.870246 ], [ -40.024407599999954, -3.870666099999974 ], [ -40.024322199999972, -3.871082599999942 ], [ -40.024261699999954, -3.87147769999996 ], [ -40.024240199999959, -3.871604799999951 ], [ -40.024176199999943, -3.871808700000011 ], [ -40.024072299999943, -3.8721113 ], [ -40.024006, -3.872271499999958 ], [ -40.02385, -3.872646 ], [ -40.023635099999979, -3.873195599999946 ], [ -40.023326899999965, -3.873874599999985 ], [ -40.022370099999932, -3.873441699999907 ], [ -40.021326099999953, -3.875698399999948 ], [ -40.020348299999966, -3.875441899999919 ], [ -40.02037329999996, -3.8759557 ], [ -40.020137599999941, -3.875972399999968 ], [ -40.018356699999977, -3.876680599999932 ], [ -40.018206899999946, -3.876909199999972 ], [ -40.018091799999979, -3.876860699999976 ], [ -40.017809399999983, -3.876749499999914 ], [ -40.017509399999945, -3.876629399999937 ], [ -40.017341699999982, -3.876571199999908 ], [ -40.017153899999983, -3.876510799999951 ], [ -40.0171539, -3.8765599 ], [ -40.017033399999953, -3.876949 ], [ -40.016951099999979, -3.877655799999951 ], [ -40.016822499999932, -3.8782335 ], [ -40.017353299999975, -3.878992699999973 ], [ -40.01736209999995, -3.879626099999954 ], [ -40.017358199999933, -3.880005399999956 ], [ -40.01718939999995, -3.880383699999873 ], [ -40.017072599999949, -3.880689 ], [ -40.017105699999952, -3.880990099999965 ], [ -40.017198899999983, -3.881297399999965 ], [ -40.017383499999937, -3.881614 ], [ -40.01756179999996, -3.881892199999915 ], [ -40.017628399999978, -3.882317799999909 ], [ -40.017710699999959, -3.882605899999908 ], [ -40.017498399999965, -3.882979099999973 ], [ -40.017412499999971, -3.883188099999938 ], [ -40.017042799999956, -3.884215299999977 ], [ -40.016848599999946, -3.8848202 ], [ -40.016381899999942, -3.886664299999988 ], [ -40.018903399999949, -3.886773199999921 ], [ -40.019865399999958, -3.886927 ], [ -40.019897499999956, -3.886357099999933 ], [ -40.019922, -3.886077699999903 ], [ -40.020200799999948, -3.8857442 ], [ -40.020518099999947, -3.8852707 ], [ -40.020610099999949, -3.88522279999993 ], [ -40.020770899999953, -3.885237099999905 ], [ -40.020878299999943, -3.885180599999987 ], [ -40.02103029999995, -3.885004099999939 ], [ -40.021097399999974, -3.884796900000018 ], [ -40.021077099999964, -3.884721499999936 ], [ -40.028219399999955, -3.883328799999972 ] ] ], [ [ [ -40.340346299999965, -3.775055199999951 ], [ -40.336706699999979, -3.778276499999951 ], [ -40.337752599999931, -3.780138099999919 ], [ -40.341141199999974, -3.7783183 ], [ -40.343525799999959, -3.778590299999939 ], [ -40.344778599999984, -3.780703399999951 ], [ -40.345876299999929, -3.780283199999943 ], [ -40.34703989999997, -3.779824399999923 ], [ -40.346098599999955, -3.7775444 ], [ -40.347207199999964, -3.776896 ], [ -40.347081699999933, -3.775348099999929 ], [ -40.350909499999943, -3.773946599999882 ], [ -40.350302899999974, -3.772043199999967 ], [ -40.343240099999946, -3.7740213 ], [ -40.340346299999965, -3.775055199999951 ] ] ], [ [ [ -40.03665, -3.756571699999965 ], [ -40.036626, -3.75634349999997 ], [ -40.033491699999963, -3.755178699999916 ], [ -40.033239499999979, -3.755202699999957 ], [ -40.031628199999943, -3.756674399999973 ], [ -40.03159039999997, -3.756823599999968 ], [ -40.030511, -3.761073 ], [ -40.031210499999936, -3.762445299999928 ], [ -40.031763499999954, -3.76259189999993 ], [ -40.036685899999952, -3.7612596 ], [ -40.03665, -3.756571699999965 ] ] ], [ [ [ -40.019326399999954, -3.719185799999945 ], [ -40.019621499999964, -3.719052299999915 ], [ -40.021605399999942, -3.717925399999946 ], [ -40.02070249999997, -3.710298 ], [ -40.016926199999943, -3.710930399999897 ], [ -40.01661009999998, -3.710954100000024 ], [ -40.015456899999947, -3.7105425 ], [ -40.014921499999964, -3.712091799999937 ], [ -40.014585, -3.7126498 ], [ -40.014361799999961, -3.714403699999889 ], [ -40.01479709999996, -3.715850599999898 ], [ -40.015125599999969, -3.7167178 ], [ -40.015388099999946, -3.717493399999982 ], [ -40.015662899999931, -3.718211 ], [ -40.01614, -3.718760899999964 ], [ -40.016343099999979, -3.719323099999973 ], [ -40.016844099999958, -3.719944799999972 ], [ -40.017035399999941, -3.720519 ], [ -40.018701099999923, -3.71953 ], [ -40.019326399999954, -3.719185799999945 ] ] ], [ [ [ -40.323166399999934, -3.69677369999989 ], [ -40.323029799999972, -3.696355699999951 ], [ -40.322778099999944, -3.69621559999994 ], [ -40.322402499999953, -3.696088299999893 ], [ -40.321578299999942, -3.695860799999912 ], [ -40.320705399999952, -3.695627499999963 ], [ -40.320029499999976, -3.69544939999996 ], [ -40.319409499999949, -3.695260599999881 ], [ -40.3187152, -3.6950244 ], [ -40.318017899999965, -3.694828099999948 ], [ -40.317793799999947, -3.694757 ], [ -40.317520299999956, -3.694696099999969 ], [ -40.317257499999982, -3.69460659999989 ], [ -40.316877899999952, -3.69448509999998 ], [ -40.316454699999952, -3.694222699999959 ], [ -40.315889599999934, -3.694027 ], [ -40.315001299999942, -3.693788299999913 ], [ -40.31394, -3.693460899999973 ], [ -40.313794799999982, -3.693448 ], [ -40.313363699999968, -3.693313099999938 ], [ -40.312967699999938, -3.693134299999948 ], [ -40.312764799999975, -3.6930351 ], [ -40.312619799999943, -3.692991799999923 ], [ -40.312410299999954, -3.693022499999957 ], [ -40.312200399999938, -3.693044199999951 ], [ -40.311976899999934, -3.693005099999942 ], [ -40.311772, -3.693005299999926 ], [ -40.311550699999941, -3.692912 ], [ -40.311402799999932, -3.692836499999945 ], [ -40.311209199999958, -3.692754099999914 ], [ -40.31103, -3.692693599999945 ], [ -40.310893799999974, -3.692719599999978 ], [ -40.310684499999979, -3.692645399999977 ], [ -40.310541799999953, -3.692594899999981 ], [ -40.310332899999942, -3.692600299999956 ], [ -40.310078099999949, -3.692504699999969 ], [ -40.309973199999945, -3.692465299999989 ], [ -40.309727199999941, -3.692382 ], [ -40.309302099999968, -3.69227319999992 ], [ -40.308844399999948, -3.692091499999924 ], [ -40.308651399999974, -3.692051499999907 ], [ -40.308347699999949, -3.691925499999966 ], [ -40.30812409999993, -3.691878 ], [ -40.307907599999965, -3.691859099999894 ], [ -40.307586299999976, -3.691758199999953 ], [ -40.30732739999997, -3.691631899999961 ], [ -40.307144799999953, -3.691592 ], [ -40.306556699999931, -3.691183099999925 ], [ -40.309619299999959, -3.697791899999983 ], [ -40.311029799999972, -3.697843899999972 ], [ -40.317290899999932, -3.697567399999965 ], [ -40.318267399999975, -3.69764150000001 ], [ -40.318702099999939, -3.697620199999927 ], [ -40.320408799999939, -3.697536399999907 ], [ -40.321458799999959, -3.697518099999949 ], [ -40.32188519999994, -3.697548799999948 ], [ -40.322394399999951, -3.697626499999973 ], [ -40.323296299999981, -3.697749199999955 ], [ -40.323262299999961, -3.697630099999983 ], [ -40.323276699999958, -3.697243899999911 ], [ -40.323166399999934, -3.69677369999989 ] ] ], [ [ [ -40.380352, -3.694859299999937 ], [ -40.379165099999973, -3.694241299999946 ], [ -40.378645, -3.69393729999994 ], [ -40.378020899999974, -3.693647199999886 ], [ -40.376612, -3.692946 ], [ -40.375934199999953, -3.69258749999993 ], [ -40.375442799999973, -3.692361299999954 ], [ -40.374998099999978, -3.692186499999895 ], [ -40.374408699999954, -3.6920178 ], [ -40.373206799999942, -3.691793199999944 ], [ -40.372837499999953, -3.691740399999987 ], [ -40.37209919999998, -3.691663199999931 ], [ -40.372301399999962, -3.6914406999999 ], [ -40.372427099999982, -3.691248399999911 ], [ -40.372389, -3.6909036 ], [ -40.3722011, -3.690539299999932 ], [ -40.37202469999994, -3.689920899999935 ], [ -40.371941499999934, -3.689694 ], [ -40.371672699999976, -3.6890018 ], [ -40.371407599999934, -3.6884469 ], [ -40.371031199999948, -3.687694 ], [ -40.370985199999957, -3.686991499999928 ], [ -40.370967599999972, -3.6866787 ], [ -40.370961, -3.685941699999918 ], [ -40.3709401, -3.685286099999889 ], [ -40.370994399999972, -3.685212599999954 ], [ -40.371065099999953, -3.685125699999952 ], [ -40.37124979999993, -3.6849604 ], [ -40.371572899999933, -3.684755099999983 ], [ -40.371852399999966, -3.684543399999899 ], [ -40.372239199999967, -3.684244299999936 ], [ -40.372496799999965, -3.683992199999983 ], [ -40.372823099999948, -3.6836369 ], [ -40.37313869999997, -3.683299799999935 ], [ -40.373727199999955, -3.682756099999953 ], [ -40.374060299999933, -3.682509299999924 ], [ -40.374453799999976, -3.68235859999993 ], [ -40.374813899999936, -3.682220699999961 ], [ -40.375018399999931, -3.682056099999936 ], [ -40.375297, -3.681739499999956 ], [ -40.37556439999998, -3.6814335 ], [ -40.376715, -3.680111599999962 ], [ -40.377775499999984, -3.678914 ], [ -40.378195699999942, -3.678449599999935 ], [ -40.379240899999964, -3.67892059999998 ], [ -40.381221099999948, -3.677959299999974 ], [ -40.379986099999947, -3.6761705 ], [ -40.38033779999995, -3.675861 ], [ -40.380395299999975, -3.675682899999976 ], [ -40.380445499999951, -3.675442599999899 ], [ -40.380369299999984, -3.675289599999916 ], [ -40.380309599999975, -3.675038399999954 ], [ -40.380285399999934, -3.674895599999968 ], [ -40.380398499999956, -3.674817599999904 ], [ -40.38040849999993, -3.674632799999887 ], [ -40.380391, -3.674481899999953 ], [ -40.380326, -3.674287399999931 ], [ -40.38030329999998, -3.673983199999969 ], [ -40.380228, -3.673778199999971 ], [ -40.380246099999958, -3.6736109 ], [ -40.380320599999955, -3.673434099999934 ], [ -40.380221799999958, -3.673237899999961 ], [ -40.380153599999979, -3.6729971 ], [ -40.38004049999995, -3.672928 ], [ -40.379910499999944, -3.67266829999991 ], [ -40.379959, -3.672446599999982 ], [ -40.380160799999935, -3.672462299999943 ], [ -40.380373199999951, -3.672453899999912 ], [ -40.380698699999989, -3.672358399999986 ], [ -40.38089169999995, -3.672331299999963 ], [ -40.380999299999985, -3.672201499999948 ], [ -40.380985499999952, -3.671938 ], [ -40.380772, -3.671441699999935 ], [ -40.380606, -3.671142699999926 ], [ -40.380361899999976, -3.670839299999917 ], [ -40.38017119999995, -3.670710900000011 ], [ -40.380141099999953, -3.670526599999931 ], [ -40.380248499999944, -3.670392699999956 ], [ -40.380398799999973, -3.670304599999938 ], [ -40.380644399999937, -3.670467 ], [ -40.380931299999929, -3.670646599999942 ], [ -40.381149199999989, -3.67080779999993 ], [ -40.381248599999935, -3.670855499999958 ], [ -40.381372499999948, -3.670807599999919 ], [ -40.381527599999977, -3.670806499999931 ], [ -40.381679099999985, -3.670724199999981 ], [ -40.381885099999977, -3.670652299999934 ], [ -40.382443199999955, -3.669716899999968 ], [ -40.380479599999944, -3.667168599999944 ], [ -40.379045499999961, -3.665371299999899 ], [ -40.38280919999994, -3.664233899999936 ], [ -40.390649499999938, -3.667804200000023 ], [ -40.390671399999981, -3.667608399999978 ], [ -40.39094589999997, -3.667334099999907 ], [ -40.391443099999954, -3.667039899999929 ], [ -40.391845299999943, -3.6669722 ], [ -40.392175899999984, -3.667129299999975 ], [ -40.392369, -3.6671197 ], [ -40.392605699999933, -3.666838 ], [ -40.392788699999976, -3.666481699999972 ], [ -40.393123299999964, -3.666199799999936 ], [ -40.393529299999955, -3.666028499999952 ], [ -40.393824599999959, -3.665925 ], [ -40.394193199999961, -3.665924699999976 ], [ -40.394388799999952, -3.665765 ], [ -40.394564599999967, -3.6657074 ], [ -40.39482049999998, -3.665639 ], [ -40.394957099999949, -3.665559899999931 ], [ -40.395038799999959, -3.665063399999957 ], [ -40.395117099999936, -3.664641899999954 ], [ -40.395081499999954, -3.664251599999972 ], [ -40.394939299999976, -3.664076199999949 ], [ -40.394722899999984, -3.663755499999929 ], [ -40.394567599999959, -3.663524199999924 ], [ -40.39441469999997, -3.663185799999922 ], [ -40.394397899999944, -3.662648 ], [ -40.394524699999977, -3.662332 ], [ -40.394844199999966, -3.662073599999891 ], [ -40.395350099999966, -3.661844699999921 ], [ -40.395803899999976, -3.66173589999996 ], [ -40.396585799999976, -3.661712 ], [ -40.396180699999938, -3.66076129999996 ], [ -40.395660599999985, -3.659926700000013 ], [ -40.39492459999996, -3.659240899999967 ], [ -40.394023899999972, -3.658758799999962 ], [ -40.392779399999931, -3.658178899999951 ], [ -40.391097, -3.6574115 ], [ -40.389208299999957, -3.656541799999983 ], [ -40.388550099999975, -3.65621659999997 ], [ -40.388631299999936, -3.655893 ], [ -40.38895679999996, -3.655457299999962 ], [ -40.388980899999979, -3.655331799999895 ], [ -40.389864899999971, -3.653430099999945 ], [ -40.390497699999969, -3.651973199999946 ], [ -40.390925099999947, -3.651297099999974 ], [ -40.391310499999975, -3.651344 ], [ -40.391715799999929, -3.651248599999949 ], [ -40.391965899999946, -3.6512395 ], [ -40.392374299999972, -3.651234 ], [ -40.392874699999936, -3.651168 ], [ -40.393229699999949, -3.651139299999932 ], [ -40.39363039999995, -3.651035799999939 ], [ -40.393770599999975, -3.650776099999984 ], [ -40.393848499999933, -3.649982300000011 ], [ -40.39394209999994, -3.649823899999956 ], [ -40.394245299999966, -3.649677399999926 ], [ -40.397487399999939, -3.645368 ], [ -40.392690399999928, -3.64349 ], [ -40.392593899999945, -3.643548699999955 ], [ -40.392284299999979, -3.643665799999914 ], [ -40.391815699999945, -3.6438473 ], [ -40.391205, -3.644096499999932 ], [ -40.39066, -3.644311399999987 ], [ -40.390416499999958, -3.644408599999948 ], [ -40.390315, -3.644463 ], [ -40.390154, -3.644584299999978 ], [ -40.390006299999989, -3.644748799999986 ], [ -40.389715099999933, -3.645259599999942 ], [ -40.389620599999944, -3.645454099999934 ], [ -40.389486199999965, -3.64558379999994 ], [ -40.389297, -3.645774499999972 ], [ -40.389142699999987, -3.6458825 ], [ -40.388942199999981, -3.645971299999968 ], [ -40.388726799999972, -3.646034499999975 ], [ -40.388445599999955, -3.646056499999951 ], [ -40.387843699999962, -3.646115499999936 ], [ -40.38685339999995, -3.646218899999933 ], [ -40.386506699999984, -3.646325299999905 ], [ -40.386117799999965, -3.646499399999921 ], [ -40.385638899999947, -3.646829899999914 ], [ -40.382803799999984, -3.648674699999973 ], [ -40.382230199999988, -3.649068299999927 ], [ -40.381394599999965, -3.649614499999965 ], [ -40.380581299999967, -3.650167399999928 ], [ -40.380063, -3.650545599999957 ], [ -40.379381799999976, -3.651747799999929 ], [ -40.378172099999979, -3.65447919999992 ], [ -40.378159899999964, -3.65450669999993 ], [ -40.37759669999997, -3.6557784 ], [ -40.376530799999962, -3.658116899999894 ], [ -40.375804299999977, -3.659564599999905 ], [ -40.374714599999947, -3.661049099999914 ], [ -40.373998599999936, -3.661938799999965 ], [ -40.372152899999946, -3.663822899999975 ], [ -40.3719622, -3.664082499999964 ], [ -40.370259299999937, -3.665749599999955 ], [ -40.370625699999955, -3.666445299999927 ], [ -40.371171, -3.666981299999978 ], [ -40.371906099999933, -3.667638499999935 ], [ -40.371537099999955, -3.668258899999952 ], [ -40.37159429999997, -3.6689238 ], [ -40.371062499999937, -3.669844399999907 ], [ -40.371240099999959, -3.669956299999968 ], [ -40.3713451, -3.671041799999919 ], [ -40.371114699999964, -3.671104499999912 ], [ -40.370778099999939, -3.671188499999949 ], [ -40.370347, -3.6713623 ], [ -40.370215, -3.671443 ], [ -40.369897299999934, -3.671676499999895 ], [ -40.369801799999941, -3.671771699999961 ], [ -40.36945349999997, -3.672320899999948 ], [ -40.36917009999997, -3.6727104 ], [ -40.368968399999972, -3.673042899999948 ], [ -40.368283399999946, -3.67448310000001 ], [ -40.367950399999984, -3.6748871 ], [ -40.365944499999955, -3.672956599999952 ], [ -40.36448809999996, -3.671499199999948 ], [ -40.363530199999964, -3.672482100000013 ], [ -40.362954499999944, -3.672950899999927 ], [ -40.362414299999955, -3.673465699999935 ], [ -40.36099669999993, -3.6749192 ], [ -40.36033, -3.6742268999999 ], [ -40.359816299999984, -3.673576300000013 ], [ -40.358498399999974, -3.673702 ], [ -40.357712499999934, -3.673646099999964 ], [ -40.357123799999961, -3.673139199999968 ], [ -40.356971499999936, -3.669805499999922 ], [ -40.356945, -3.668684899999922 ], [ -40.356936499999954, -3.6682632 ], [ -40.357252699999947, -3.668202 ], [ -40.35749549999997, -3.668043899999919 ], [ -40.359465499999942, -3.666860699999917 ], [ -40.359581699999985, -3.66674329999991 ], [ -40.359861599999938, -3.666252399999962 ], [ -40.359727299999975, -3.666126799999928 ], [ -40.358843, -3.665633699999919 ], [ -40.358986899999934, -3.6650268999999 ], [ -40.359042099999954, -3.6646805 ], [ -40.359094399999947, -3.664339399999985 ], [ -40.35908639999996, -3.663938 ], [ -40.360094399999987, -3.663879699999889 ], [ -40.360560299999975, -3.663325 ], [ -40.360673799999972, -3.66333969999997 ], [ -40.360811099999985, -3.6632918 ], [ -40.360791199999944, -3.663182499999942 ], [ -40.359692299999956, -3.661351099999903 ], [ -40.359472599999947, -3.661048700000015 ], [ -40.359329499999944, -3.6607840999999 ], [ -40.359262899999983, -3.6605317 ], [ -40.359229699999965, -3.659958799999981 ], [ -40.356645799999967, -3.660074799999967 ], [ -40.353735299999983, -3.660041399999966 ], [ -40.351425899999988, -3.660464 ], [ -40.35138939999996, -3.659877199999975 ], [ -40.351354299999976, -3.659536299999953 ], [ -40.351275099999953, -3.65898319999992 ], [ -40.351175399999931, -3.658255 ], [ -40.351162399999964, -3.657907299999922 ], [ -40.351164299999944, -3.657578699999978 ], [ -40.3515963, -3.655645400000017 ], [ -40.351654499999938, -3.655379 ], [ -40.351684599999949, -3.6543412 ], [ -40.351652799999954, -3.653212499999964 ], [ -40.351502499999988, -3.642371399999929 ], [ -40.349709299999972, -3.643306899999976 ], [ -40.347647299999949, -3.644528299999895 ], [ -40.344049299999938, -3.646505700000028 ], [ -40.340594199999941, -3.648466799999983 ], [ -40.33405989999995, -3.652084299999913 ], [ -40.332598599999976, -3.65290709999997 ], [ -40.331358799999975, -3.653675299999964 ], [ -40.32895579999996, -3.655336699999943 ], [ -40.328087299999943, -3.656073 ], [ -40.327554, -3.656364 ], [ -40.326597599999964, -3.656881499999936 ], [ -40.326731399999979, -3.656956399999917 ], [ -40.326841299999955, -3.656992699999905 ], [ -40.327231199999972, -3.657123299999957 ], [ -40.327602899999938, -3.6574362 ], [ -40.328183299999985, -3.658086599999895 ], [ -40.328878199999963, -3.658981499999914 ], [ -40.32923169999998, -3.65951959999994 ], [ -40.329428, -3.659775199999938 ], [ -40.329499299999959, -3.659919400000021 ], [ -40.329787, -3.660247299999943 ], [ -40.329867399999955, -3.660438599999938 ], [ -40.329904099999965, -3.660757199999973 ], [ -40.329989, -3.661239799999966 ], [ -40.330259, -3.661874099999956 ], [ -40.330437699999948, -3.662286499999949 ], [ -40.330608299999945, -3.662949699999964 ], [ -40.33079649999997, -3.663831299999987 ], [ -40.330869599999971, -3.664067499999929 ], [ -40.331514099999936, -3.664789399999927 ], [ -40.332053499999972, -3.665539899999931 ], [ -40.333273799999979, -3.667298199999967 ], [ -40.33390849999995, -3.668001099999969 ], [ -40.334147599999937, -3.6681932999999 ], [ -40.334441099999935, -3.6684132 ], [ -40.335144699999944, -3.668907299999986 ], [ -40.334951699999984, -3.669137599999983 ], [ -40.334825199999955, -3.669154499999968 ], [ -40.334531099999936, -3.669278299999988 ], [ -40.334240799999975, -3.669403799999911 ], [ -40.333974399999931, -3.669552399999922 ], [ -40.333696, -3.669688099999927 ], [ -40.333341699999949, -3.6698779 ], [ -40.33313, -3.669950399999967 ], [ -40.33283839999995, -3.670052699999966 ], [ -40.332541499999934, -3.670086599999922 ], [ -40.33233469999994, -3.6701338 ], [ -40.332213799999977, -3.670226399999974 ], [ -40.332141, -3.670392399999953 ], [ -40.332145599999933, -3.670577699999932 ], [ -40.331804, -3.670891299999949 ], [ -40.331591599999967, -3.671072700000011 ], [ -40.331323199999929, -3.671330299999956 ], [ -40.331060599999944, -3.67192559999991 ], [ -40.331008, -3.67210369999993 ], [ -40.330573399999942, -3.672223299999919 ], [ -40.330240099999976, -3.6724002 ], [ -40.330141, -3.6725849 ], [ -40.330202699999973, -3.672910099999927 ], [ -40.330208599999935, -3.673136 ], [ -40.330181099999947, -3.673684099999953 ], [ -40.330187499999973, -3.674239499999916 ], [ -40.329965899999941, -3.674682599999955 ], [ -40.329511799999977, -3.675301299999963 ], [ -40.329236099999946, -3.67553519999993 ], [ -40.328918599999959, -3.676015799999929 ], [ -40.328620299999947, -3.676697700000019 ], [ -40.326006099999972, -3.677596499999942 ], [ -40.325870399999985, -3.67772859999996 ], [ -40.325082099999975, -3.678026299999938 ], [ -40.322606299999961, -3.679064799999904 ], [ -40.319553099999951, -3.680473299999965 ], [ -40.316072, -3.682099499999905 ], [ -40.313023599999951, -3.683507599999932 ], [ -40.312032399999957, -3.683965599999986 ], [ -40.311826799999949, -3.684046599999886 ], [ -40.311791899999946, -3.684246399999951 ], [ -40.311868299999958, -3.684915399999988 ], [ -40.312039899999952, -3.685338 ], [ -40.312002299999961, -3.685455099999968 ], [ -40.311588899999947, -3.68686539999989 ], [ -40.311564, -3.687133099999927 ], [ -40.311559399999972, -3.687686 ], [ -40.311558499999933, -3.688514099999931 ], [ -40.311572499999954, -3.688756699999972 ], [ -40.314821799999947, -3.6872008 ], [ -40.315328899999948, -3.686973699999952 ], [ -40.31567639999998, -3.687671 ], [ -40.315699799999955, -3.687806199999974 ], [ -40.31567519999993, -3.687929199999944 ], [ -40.315445199999942, -3.688386899999912 ], [ -40.315409899999963, -3.688522599999911 ], [ -40.315426599999967, -3.688657199999936 ], [ -40.315928799999945, -3.689717199999957 ], [ -40.31629149999997, -3.690412399999957 ], [ -40.316404199999965, -3.690611399999937 ], [ -40.316520899999944, -3.6909133 ], [ -40.316677299999981, -3.691239499999925 ], [ -40.316806899999968, -3.6914838 ], [ -40.316930699999943, -3.691751299999947 ], [ -40.317011599999951, -3.691965 ], [ -40.317086899999943, -3.692207599999936 ], [ -40.317133199999944, -3.692520699999916 ], [ -40.317172599999935, -3.692720599999927 ], [ -40.317246, -3.692877599999965 ], [ -40.317313699999936, -3.693022299999974 ], [ -40.317620099999935, -3.6933354 ], [ -40.317837399999974, -3.693322699999974 ], [ -40.318017399999981, -3.693310899999984 ], [ -40.318372399999937, -3.693233299999964 ], [ -40.318770299999983, -3.693044799999977 ], [ -40.319448, -3.692704499999947 ], [ -40.319692399999958, -3.692578199999943 ], [ -40.320953299999985, -3.691960199999974 ], [ -40.32138249999997, -3.691725099999943 ], [ -40.322371599999933, -3.69120969999995 ], [ -40.32317089999998, -3.690833599999933 ], [ -40.323931899999941, -3.690440499999966 ], [ -40.325388599999947, -3.691075399999909 ], [ -40.325525499999976, -3.690661099999952 ], [ -40.326030099999969, -3.690058699999963 ], [ -40.326093699999944, -3.689898399999903 ], [ -40.32624849999997, -3.689733499999934 ], [ -40.32649, -3.689678199999954 ], [ -40.326867899999968, -3.689352799999954 ], [ -40.326916599999954, -3.689267599999929 ], [ -40.326954299999954, -3.6892017 ], [ -40.327104499999969, -3.6890642 ], [ -40.327250299999946, -3.6888233 ], [ -40.327309099999979, -3.6885121 ], [ -40.32729519999998, -3.688384 ], [ -40.327263099999989, -3.688219299999927 ], [ -40.327253699999979, -3.688045499999888 ], [ -40.327226199999977, -3.687940300000028 ], [ -40.3272032, -3.687789299999925 ], [ -40.327218499999951, -3.687601399999921 ], [ -40.32723649999997, -3.687539899999966 ], [ -40.32722739999997, -3.68748069999995 ], [ -40.327220499999953, -3.687448899999973 ], [ -40.327179799999954, -3.687363 ], [ -40.327320099999952, -3.687238599999909 ], [ -40.327313099999969, -3.68718019999997 ], [ -40.327247199999931, -3.687098299999972 ], [ -40.32717909999996, -3.68703 ], [ -40.327144899999958, -3.686931499999926 ], [ -40.327081299999982, -3.68685639999991 ], [ -40.32702, -3.686779199999977 ], [ -40.327006299999937, -3.686713199999959 ], [ -40.326958599999955, -3.686685899999898 ], [ -40.326892299999948, -3.686619599999969 ], [ -40.326858499999965, -3.686494899999938 ], [ -40.326813699999946, -3.686379499999961 ], [ -40.32679189999994, -3.686282799999918 ], [ -40.326763299999982, -3.686184 ], [ -40.326741899999945, -3.686008600000016 ], [ -40.326689499999929, -3.685819599999943 ], [ -40.326691, -3.685779699999935 ], [ -40.326696199999958, -3.685708299999891 ], [ -40.326698699999952, -3.685636899999936 ], [ -40.326677499999967, -3.685536499999911 ], [ -40.326670899999954, -3.685476099999959 ], [ -40.326671299999937, -3.685374499999941 ], [ -40.326645399999961, -3.685314699999963 ], [ -40.326552899999967, -3.685290299999959 ], [ -40.326504799999952, -3.68521319999992 ], [ -40.326464199999968, -3.684985299999927 ], [ -40.326478, -3.684956299999906 ], [ -40.326511499999981, -3.684892399999954 ], [ -40.326538299999989, -3.684853499999959 ], [ -40.326587, -3.684796099999945 ], [ -40.326655899999935, -3.684775699999955 ], [ -40.326793399999978, -3.6847414 ], [ -40.326986399999953, -3.6845509 ], [ -40.327042399999982, -3.684462299999965 ], [ -40.327080199999962, -3.684366299999938 ], [ -40.32711089999998, -3.68428329999991 ], [ -40.327150199999949, -3.684159199999939 ], [ -40.32716639999996, -3.6840991 ], [ -40.327173799999976, -3.684046 ], [ -40.327173799999969, -3.683979599999893 ], [ -40.327160799999938, -3.683809599999978 ], [ -40.32712, -3.683786499999944 ], [ -40.327064299999961, -3.683753499999928 ], [ -40.32707929999998, -3.683755399999901 ], [ -40.327077199999962, -3.683729099999982 ], [ -40.327093199999972, -3.68368639999998 ], [ -40.327081599999985, -3.683619699999963 ], [ -40.327032599999953, -3.683567399999912 ], [ -40.32691049999994, -3.6835083 ], [ -40.32696789999995, -3.683408499999977 ], [ -40.326976899999977, -3.683387499999983 ], [ -40.327031399999953, -3.6833644 ], [ -40.327030899999961, -3.683323399999932 ], [ -40.327031499999975, -3.683294399999955 ], [ -40.326979599999966, -3.683228499999886 ], [ -40.326981, -3.683111199999945 ], [ -40.327005399999955, -3.683052499999965 ], [ -40.327022399999983, -3.682997399999933 ], [ -40.327029499999988, -3.682954899999932 ], [ -40.327033899999954, -3.682908100000016 ], [ -40.327078699999959, -3.682723 ], [ -40.327099, -3.6826278 ], [ -40.327113299999958, -3.682560699999919 ], [ -40.327118399999961, -3.6825082 ], [ -40.327109599999979, -3.682438299999952 ], [ -40.327061499999957, -3.68232419999994 ], [ -40.327047199999981, -3.6822303 ], [ -40.327056899999938, -3.682076299999927 ], [ -40.327080699999961, -3.682044 ], [ -40.327095899999961, -3.681986 ], [ -40.327086, -3.681939099999966 ], [ -40.327061399999941, -3.681905899999906 ], [ -40.327030199999967, -3.681881599999977 ], [ -40.327, -3.681863299999987 ], [ -40.326939199999963, -3.681845799999944 ], [ -40.326890099999957, -3.68183949999997 ], [ -40.326875099999938, -3.68183479999988 ], [ -40.326849, -3.681814799999952 ], [ -40.326818099999969, -3.681791 ], [ -40.326794699999944, -3.681749199999949 ], [ -40.326746199999945, -3.681679 ], [ -40.326731399999964, -3.681653599999987 ], [ -40.326671499999968, -3.681579099999968 ], [ -40.326653599999929, -3.681493699999932 ], [ -40.326635299999957, -3.681384599999905 ], [ -40.326613799999961, -3.681293699999988 ], [ -40.326581399999959, -3.681224499999883 ], [ -40.326538, -3.68113149999993 ], [ -40.32651, -3.681074 ], [ -40.326441799999941, -3.681022499999905 ], [ -40.32637, -3.680988799999949 ], [ -40.32630039999998, -3.6810232 ], [ -40.326275199999941, -3.681095499999938 ], [ -40.32625459999997, -3.681162 ], [ -40.326196, -3.681185 ], [ -40.326151899999957, -3.681142199999934 ], [ -40.326100199999985, -3.681061199999904 ], [ -40.326083, -3.680984099999969 ], [ -40.326088099999929, -3.68090769999997 ], [ -40.326073599999972, -3.680762399999964 ], [ -40.326054899999974, -3.680705799999917 ], [ -40.32604489999995, -3.680611499999908 ], [ -40.326084299999934, -3.680566 ], [ -40.326148599999954, -3.680560899999946 ], [ -40.32621, -3.680578 ], [ -40.326288699999964, -3.68062929999996 ], [ -40.326341899999939, -3.680655699999896 ], [ -40.326387299999965, -3.680646899999947 ], [ -40.326442099999952, -3.6806094 ], [ -40.326472299999978, -3.680578299999959 ], [ -40.326500599999974, -3.680473 ], [ -40.326444299999935, -3.680373599999934 ], [ -40.326395499999933, -3.680285899999906 ], [ -40.326342699999941, -3.680170599999918 ], [ -40.326296, -3.680051399999932 ], [ -40.326245099999937, -3.679970599999961 ], [ -40.326184599999969, -3.679905 ], [ -40.326062199999967, -3.6798658 ], [ -40.32586009999995, -3.679839 ], [ -40.325763399999964, -3.6798277 ], [ -40.325688099999986, -3.679834899999978 ], [ -40.325660699999951, -3.6797657 ], [ -40.325648699999938, -3.679655899999927 ], [ -40.325821899999944, -3.679404699999989 ], [ -40.326477899999929, -3.679201799999918 ], [ -40.327226699999983, -3.678757299999971 ], [ -40.327529499999969, -3.678593399999971 ], [ -40.327829099999981, -3.67829669999993 ], [ -40.327944699999932, -3.677978499999916 ], [ -40.328134499999976, -3.67771729999995 ], [ -40.328249599999943, -3.67809 ], [ -40.328523299999979, -3.678377499999944 ], [ -40.32888719999994, -3.6785562 ], [ -40.329106499999966, -3.6787476 ], [ -40.329366799999946, -3.678815199999981 ], [ -40.329789599999977, -3.67901159999992 ], [ -40.330117799999989, -3.679571499999929 ], [ -40.330779399999983, -3.680150199999946 ], [ -40.331672399999952, -3.681352099999947 ], [ -40.332259199999953, -3.681457899999938 ], [ -40.33306169999998, -3.682282199999937 ], [ -40.33350489999998, -3.682958499999904 ], [ -40.333789699999954, -3.683524099999969 ], [ -40.333808599999941, -3.683963600000011 ], [ -40.333877099999931, -3.684218399999988 ], [ -40.333963199999978, -3.684435899999885 ], [ -40.33398109999996, -3.6845778 ], [ -40.333938199999977, -3.684872099999953 ], [ -40.3339673, -3.685549799999945 ], [ -40.334066699999937, -3.686027800000021 ], [ -40.334341799999955, -3.686398199999963 ], [ -40.334652699999936, -3.686550299999972 ], [ -40.335010699999934, -3.686600899999987 ], [ -40.335314199999978, -3.686728499999978 ], [ -40.335677199999957, -3.6870264 ], [ -40.336047899999983, -3.687355299999945 ], [ -40.336326899999968, -3.687649399999986 ], [ -40.336527899999965, -3.6878368 ], [ -40.337227199999973, -3.687716399999931 ], [ -40.337726099999941, -3.687953199999953 ], [ -40.338099299999961, -3.688130399999984 ], [ -40.338458799999962, -3.688219899999938 ], [ -40.338586799999966, -3.688354699999958 ], [ -40.338947399999938, -3.688673 ], [ -40.339269599999966, -3.68928009999994 ], [ -40.339435299999934, -3.68947639999997 ], [ -40.339732499999968, -3.689690299999919 ], [ -40.341663599999947, -3.690404799999986 ], [ -40.341335199999953, -3.692353 ], [ -40.341127899999947, -3.693156599999911 ], [ -40.340844299999965, -3.69474939999994 ], [ -40.34011739999994, -3.698451399999954 ], [ -40.340041499999984, -3.698841399999971 ], [ -40.339954499999976, -3.699119199999971 ], [ -40.339895699999936, -3.699242699999947 ], [ -40.339552199999957, -3.699738699999947 ], [ -40.339053, -3.700551299999975 ], [ -40.338550899999973, -3.701476399999937 ], [ -40.335869499999944, -3.7003933 ], [ -40.3358454, -3.700265299999955 ], [ -40.335621599999975, -3.700121099999896 ], [ -40.334914099999942, -3.699834699999929 ], [ -40.33435749999996, -3.699688199999984 ], [ -40.333992299999984, -3.6995054 ], [ -40.333857299999977, -3.699390700000023 ], [ -40.333512299999938, -3.698822699999947 ], [ -40.333445599999948, -3.698575399999928 ], [ -40.333461899999968, -3.698290399999973 ], [ -40.332483, -3.69868 ], [ -40.332097399999952, -3.698828699999983 ], [ -40.331447, -3.699052 ], [ -40.330968799999944, -3.699211299999941 ], [ -40.330707399999945, -3.699267599999962 ], [ -40.330463, -3.6992715 ], [ -40.330208499999969, -3.699227299999944 ], [ -40.330031099999985, -3.699180799999946 ], [ -40.327841299999939, -3.6984491 ], [ -40.326814399999932, -3.6981916 ], [ -40.325636599999946, -3.698043799999911 ], [ -40.326195899999959, -3.6988729 ], [ -40.325497199999973, -3.699294699999971 ], [ -40.326073699999938, -3.700282499999941 ], [ -40.326679399999939, -3.701122 ], [ -40.327292199999931, -3.702025499999954 ], [ -40.328196299999938, -3.7033878 ], [ -40.327128099999989, -3.703984299999957 ], [ -40.327429, -3.704429899999981 ], [ -40.327723499999941, -3.704809 ], [ -40.328152499999931, -3.705259699999903 ], [ -40.328203499999979, -3.705339199999934 ], [ -40.32765389999998, -3.705525299999954 ], [ -40.32763709999994, -3.705531 ], [ -40.326184, -3.70595689999993 ], [ -40.323631599999942, -3.706517799999957 ], [ -40.322819799999934, -3.706652499999962 ], [ -40.321704199999949, -3.70667939999991 ], [ -40.321360299999981, -3.706702799999976 ], [ -40.321034199999986, -3.7067953 ], [ -40.320479099999943, -3.706952199999916 ], [ -40.32018359999995, -3.7071415 ], [ -40.319921699999959, -3.707364199999957 ], [ -40.32440669999994, -3.710503899999913 ], [ -40.32448009999996, -3.711496 ], [ -40.325367799999981, -3.7229406 ], [ -40.325675399999966, -3.722750799999988 ], [ -40.327771299999945, -3.721776299999884 ], [ -40.330346599999984, -3.720565599999946 ], [ -40.330674399999957, -3.720388599999986 ], [ -40.331676299999963, -3.719455700000011 ], [ -40.33211069999993, -3.718966099999969 ], [ -40.333941899999957, -3.717233599999914 ], [ -40.334397899999949, -3.7169156 ], [ -40.335151, -3.716414399999969 ], [ -40.336333799999977, -3.715718599999942 ], [ -40.337715099999961, -3.715002599999936 ], [ -40.339085599999983, -3.714288699999955 ], [ -40.340478799999971, -3.71354259999993 ], [ -40.341528399999959, -3.713000699999945 ], [ -40.345389099999977, -3.716000299999961 ], [ -40.347084799999948, -3.715008199999909 ], [ -40.360333799999985, -3.711827099999922 ], [ -40.360071, -3.711583 ], [ -40.35987879999994, -3.711455 ], [ -40.359434899999947, -3.711418699999985 ], [ -40.359144299999976, -3.711210799999932 ], [ -40.358451399999979, -3.710611 ], [ -40.35823929999998, -3.7103824 ], [ -40.358080299999983, -3.710173099999967 ], [ -40.357850599999949, -3.70947739999998 ], [ -40.357827399999969, -3.709201699999929 ], [ -40.357957899999974, -3.707117199999976 ], [ -40.358209199999969, -3.703529599999972 ], [ -40.357259499999941, -3.700154699999942 ], [ -40.356700799999942, -3.699305299999972 ], [ -40.356549, -3.699187199999896 ], [ -40.356618399999945, -3.699137499999946 ], [ -40.356708, -3.699061899999933 ], [ -40.356808799999961, -3.699020799999948 ], [ -40.356892799999969, -3.699000299999927 ], [ -40.357059, -3.69899 ], [ -40.357276499999962, -3.69899 ], [ -40.357431399999939, -3.699023699999942 ], [ -40.357698399999947, -3.699146899999973 ], [ -40.358753499999978, -3.698914499999912 ], [ -40.362414799999961, -3.697916799999972 ], [ -40.362426599999942, -3.699705399999944 ], [ -40.362560499999972, -3.700718699999893 ], [ -40.362722699999949, -3.70103959999992 ], [ -40.363027299999942, -3.701465599999932 ], [ -40.363121899999953, -3.701659399999948 ], [ -40.363211699999965, -3.701874499999937 ], [ -40.36336869999996, -3.702671599999953 ], [ -40.36350159999995, -3.703205300000018 ], [ -40.3636, -3.703507199999913 ], [ -40.363685199999971, -3.7037043 ], [ -40.363835299999955, -3.703907899999913 ], [ -40.363972, -3.704083899999907 ], [ -40.364177299999938, -3.704241499999966 ], [ -40.364402799999937, -3.704345399999927 ], [ -40.364655099999936, -3.704467899999949 ], [ -40.364873399999965, -3.704674899999912 ], [ -40.3658, -3.704202 ], [ -40.366017599999964, -3.704065599999985 ], [ -40.366196599999974, -3.703900699999914 ], [ -40.366342, -3.703747300000011 ], [ -40.36647, -3.703614 ], [ -40.366621299999963, -3.703431899999975 ], [ -40.366856399999961, -3.703128400000018 ], [ -40.367084599999941, -3.702831400000025 ], [ -40.367257799999955, -3.70257989999994 ], [ -40.367548699999929, -3.702209099999988 ], [ -40.368284, -3.701194299999911 ], [ -40.369200699999958, -3.699984 ], [ -40.36946839999996, -3.699696299999976 ], [ -40.369685599999968, -3.6995047 ], [ -40.370202199999945, -3.699226 ], [ -40.371617499999964, -3.698715099999982 ], [ -40.37217389999995, -3.698533499999983 ], [ -40.372363899999982, -3.699201699999955 ], [ -40.375578699999949, -3.698248499999935 ], [ -40.375626599999975, -3.698191899999915 ], [ -40.375352599999985, -3.697456399999916 ], [ -40.376041, -3.697224099999932 ], [ -40.377274, -3.696814 ], [ -40.378286799999955, -3.69648319999997 ], [ -40.380055099999929, -3.695881099999976 ], [ -40.380448599999959, -3.695777599999911 ], [ -40.381511099999962, -3.695452899999953 ], [ -40.380752699999967, -3.695066599999969 ], [ -40.380352, -3.694859299999937 ] ] ], [ [ [ -40.234599199999934, -3.674697099999914 ], [ -40.234633499999973, -3.674785699999981 ], [ -40.234624899999972, -3.674957199999954 ], [ -40.234602, -3.6750572 ], [ -40.234522, -3.675217299999923 ], [ -40.234467699999982, -3.675277299999983 ], [ -40.234459099999981, -3.675368799999922 ], [ -40.234499099999937, -3.675471699999968 ], [ -40.23470489999994, -3.675751799999917 ], [ -40.234773499999953, -3.675823199999969 ], [ -40.234882199999959, -3.675969 ], [ -40.235065099999929, -3.676120499999925 ], [ -40.235556699999961, -3.67683219999995 ], [ -40.235885399999972, -3.677469599999941 ], [ -40.23630559999998, -3.678058399999933 ], [ -40.23650559999993, -3.678521399999982 ], [ -40.236617099999933, -3.678644299999935 ], [ -40.236894399999976, -3.678684299999976 ], [ -40.237223099999937, -3.678798699999942 ], [ -40.237429499999962, -3.67947689999996 ], [ -40.23738039999995, -3.6798309 ], [ -40.237540299999978, -3.680154 ], [ -40.237817199999945, -3.6801576 ], [ -40.238089899999977, -3.680147199999964 ], [ -40.238291699999934, -3.680140299999922 ], [ -40.238466499999959, -3.680262899999985 ], [ -40.238539599999974, -3.680451899999967 ], [ -40.238773, -3.680769099999969 ], [ -40.239126299999953, -3.680759300000014 ], [ -40.240347, -3.679714499999967 ], [ -40.240551099999948, -3.676002499999966 ], [ -40.235619099999958, -3.671137699999971 ], [ -40.235647699999959, -3.671482899999915 ], [ -40.235609099999976, -3.671834799999927 ], [ -40.235515199999959, -3.67211259999991 ], [ -40.235298499999949, -3.672425599999926 ], [ -40.235198799999971, -3.672612899999972 ], [ -40.235054499999926, -3.672701099999966 ], [ -40.234987, -3.672504399999979 ], [ -40.234828899999961, -3.672617100000017 ], [ -40.234664499999951, -3.67296149999992 ], [ -40.23459569999995, -3.673129299999955 ], [ -40.234584599999948, -3.673121899999979 ], [ -40.234556299999952, -3.673196499999938 ], [ -40.234284799999948, -3.673416599999946 ], [ -40.234293399999963, -3.6737024 ], [ -40.234390499999961, -3.673971099999946 ], [ -40.234447699999976, -3.674176899999941 ], [ -40.23459059999994, -3.674474099999958 ], [ -40.234599199999934, -3.674697099999914 ] ] ], [ [ [ -40.276090499999952, -3.593366400000033 ], [ -40.276074199999982, -3.593261900000013 ], [ -40.276064799999972, -3.5932147 ], [ -40.276038199999967, -3.593165899999989 ], [ -40.276039099999942, -3.593114499999955 ], [ -40.275785599999949, -3.59233279999992 ], [ -40.275550799999962, -3.592383199999983 ], [ -40.275151799999946, -3.592317799999932 ], [ -40.273053799999964, -3.591430199999881 ], [ -40.272613699999965, -3.591291 ], [ -40.271982599999951, -3.592298 ], [ -40.271669, -3.592054599999928 ], [ -40.271410099999969, -3.591895199999941 ], [ -40.271245599999922, -3.591809499999954 ], [ -40.27242659999996, -3.595208399999914 ], [ -40.272502799999984, -3.5954449 ], [ -40.272611899999958, -3.595725399999935 ], [ -40.275635399999942, -3.596043299999945 ], [ -40.276110199999948, -3.594133499999949 ], [ -40.276065599999981, -3.593873799999942 ], [ -40.276054499999923, -3.5937504 ], [ -40.276055399999962, -3.593634699999928 ], [ -40.27607339999998, -3.593583299999934 ], [ -40.276090499999952, -3.593366400000033 ] ] ] ] } }
]
}
