{
"type": "FeatureCollection",
"name": "2312007",
"crs": { "type": "name", "properties": { "name": "urn:ogc:def:crs:OGC:1.3:CRS84" } },
"features": [
{ "type": "Feature", "properties": { "CD_MUN": "2312007", "NM_MUN": "Santana do Acaraú" }, "geometry": { "type": "MultiPolygon", "coordinates": [ [ [ [ -40.24637469999994, -3.549496899999952 ], [ -40.248445099999977, -3.552742199999924 ], [ -40.249919399999953, -3.551950799999881 ], [ -40.250985, -3.550034699999962 ], [ -40.249910499999942, -3.5472985 ], [ -40.24637469999994, -3.549496899999952 ] ] ], [ [ [ -40.213408799999975, -3.470051299999986 ], [ -40.213286699999969, -3.468884699999913 ], [ -40.213941899999952, -3.4687974 ], [ -40.213821699999983, -3.467736 ], [ -40.214109599999972, -3.467310599999954 ], [ -40.215388399999938, -3.466631699999913 ], [ -40.215605599999954, -3.466548 ], [ -40.216227, -3.466302299999891 ], [ -40.216500399999973, -3.466144599999958 ], [ -40.216790199999934, -3.4657544 ], [ -40.218120299999953, -3.464804599999936 ], [ -40.218211199999985, -3.46366919999997 ], [ -40.21801279999994, -3.461520699999976 ], [ -40.218095499999947, -3.460198599999929 ], [ -40.218685099999959, -3.458811799999965 ], [ -40.218519799999974, -3.458381899999964 ], [ -40.217572299999972, -3.457323699999915 ], [ -40.217420199999935, -3.456867299999958 ], [ -40.216600099999937, -3.456457299999965 ], [ -40.216282599999943, -3.456206 ], [ -40.214708599999945, -3.4539308 ], [ -40.216110699999952, -3.453388499999921 ], [ -40.216653, -3.453295899999924 ], [ -40.216990299999964, -3.453044599999896 ], [ -40.216143799999934, -3.451457299999959 ], [ -40.215971799999984, -3.451536599999953 ], [ -40.215413199999944, -3.450271 ], [ -40.214906, -3.450792099999935 ], [ -40.214423799999963, -3.451267499999925 ], [ -40.214267599999971, -3.451425399999895 ], [ -40.214136399999973, -3.451598099999944 ], [ -40.214025, -3.451802599999976 ], [ -40.213957199999982, -3.452093299999925 ], [ -40.213872599999945, -3.4526964 ], [ -40.213825299999939, -3.4529617 ], [ -40.213659899999975, -3.4535635999999 ], [ -40.213546099999981, -3.453986599999961 ], [ -40.2135, -3.454240399999899 ], [ -40.213477599999976, -3.454851099999934 ], [ -40.213465, -3.454990399999947 ], [ -40.213427099999933, -3.455108 ], [ -40.213358599999928, -3.455218299999983 ], [ -40.213226799999973, -3.455315499999984 ], [ -40.212532099999976, -3.455723299999945 ], [ -40.211827899999946, -3.45464969999995 ], [ -40.210456399999934, -3.453488299999935 ], [ -40.210226199999966, -3.452624699999926 ], [ -40.208812799999976, -3.451338399999979 ], [ -40.207401, -3.450993599999924 ], [ -40.206726899999978, -3.450351299999951 ], [ -40.206426099999938, -3.44859179999997 ], [ -40.206389499999943, -3.447498899999959 ], [ -40.206990199999943, -3.447401799999919 ], [ -40.208050699999944, -3.447688899999894 ], [ -40.208582, -3.448355299999939 ], [ -40.209167499999971, -3.448682299999965 ], [ -40.21013279999994, -3.448768799999938 ], [ -40.211625699999964, -3.448125499999919 ], [ -40.212198399999984, -3.447602299999986 ], [ -40.21290369999997, -3.4468565 ], [ -40.213136599999984, -3.4465198 ], [ -40.213313599999935, -3.446021399999959 ], [ -40.2135469, -3.445317099999915 ], [ -40.213654399999939, -3.444213399999926 ], [ -40.213526199999933, -3.443698399999914 ], [ -40.202408199999972, -3.447080499999976 ], [ -40.202616299999931, -3.447464599999944 ], [ -40.202746, -3.447684200000012 ], [ -40.203058699999985, -3.448309599999944 ], [ -40.203381399999955, -3.448978299999962 ], [ -40.203471299999933, -3.449138 ], [ -40.203547799999967, -3.44968689999996 ], [ -40.203285, -3.450828 ], [ -40.203191799999956, -3.451227199999918 ], [ -40.20298889999998, -3.452092199999904 ], [ -40.202977299999937, -3.452124499999985 ], [ -40.202815, -3.452131 ], [ -40.202664899999945, -3.4521045 ], [ -40.202132499999955, -3.452205499999904 ], [ -40.201604099999933, -3.452306299999988 ], [ -40.201282399999975, -3.452388299999964 ], [ -40.20098239999993, -3.452487099999942 ], [ -40.200698899999963, -3.452613299999947 ], [ -40.200401499999941, -3.452781199999906 ], [ -40.19996029999993, -3.452995099999947 ], [ -40.199774499999933, -3.453126 ], [ -40.199778, -3.453217 ], [ -40.199982299999931, -3.45322649999996 ], [ -40.200189899999948, -3.453252800000025 ], [ -40.200418799999966, -3.453405599999894 ], [ -40.200587, -3.453507599999955 ], [ -40.200819599999932, -3.453634199999967 ], [ -40.201100199999985, -3.4537147 ], [ -40.201694299999929, -3.453723300000035 ], [ -40.201992899999937, -3.453675299999952 ], [ -40.202278799999931, -3.45354 ], [ -40.202456899999966, -3.453409099999911 ], [ -40.202685, -3.453327699999905 ], [ -40.203202299999937, -3.453268399999936 ], [ -40.20355109999997, -3.454617199999955 ], [ -40.203843799999959, -3.4557316 ], [ -40.203880399999946, -3.455788199999938 ], [ -40.204549099999952, -3.4566432 ], [ -40.205088099999948, -3.457252 ], [ -40.205109199999988, -3.457273599999916 ], [ -40.205477399999943, -3.457649899999972 ], [ -40.205146099999986, -3.457973799999981 ], [ -40.204609699999935, -3.458421799999905 ], [ -40.20436669999998, -3.458599799999987 ], [ -40.204235799999935, -3.4587 ], [ -40.203885799999966, -3.458755199999872 ], [ -40.203663799999958, -3.4588022999999 ], [ -40.201563499999963, -3.459187599999971 ], [ -40.200308499999956, -3.459417899999959 ], [ -40.199413099999958, -3.45962 ], [ -40.198534799999948, -3.459766699999937 ], [ -40.198104499999943, -3.459837899999958 ], [ -40.197647599999989, -3.459928199999974 ], [ -40.19774079999997, -3.460025799999939 ], [ -40.197923499999952, -3.460474500000013 ], [ -40.198043299999938, -3.460666199999977 ], [ -40.198188399999935, -3.4610028 ], [ -40.198274399999953, -3.461273 ], [ -40.198271299999931, -3.461285299999897 ], [ -40.198361899999959, -3.461689099999987 ], [ -40.19949889999998, -3.461614799999917 ], [ -40.199679699999933, -3.462874399999954 ], [ -40.199673699999948, -3.463440899999932 ], [ -40.199540299999974, -3.463685799999954 ], [ -40.199581699999953, -3.464073499999924 ], [ -40.199644699999965, -3.464253099999984 ], [ -40.199848499999973, -3.464543699999945 ], [ -40.199981499999986, -3.464888599999911 ], [ -40.200387699999958, -3.464699399999967 ], [ -40.200835699999978, -3.464493599999924 ], [ -40.201186799999952, -3.46421509999989 ], [ -40.201501599999972, -3.463960799999918 ], [ -40.201877, -3.463779199999945 ], [ -40.202070699999986, -3.463500699999988 ], [ -40.20234209999996, -3.463281 ], [ -40.202765299999953, -3.462936 ], [ -40.203088699999974, -3.4627593 ], [ -40.203425099999954, -3.4625756 ], [ -40.203680099999985, -3.462446299999972 ], [ -40.203728899999938, -3.4624213 ], [ -40.203860199999959, -3.462707099999883 ], [ -40.204210199999984, -3.4633598999999 ], [ -40.204452899999986, -3.46392549999994 ], [ -40.204683899999964, -3.4638595 ], [ -40.20501059999998, -3.464675499999979 ], [ -40.205312399999968, -3.46495 ], [ -40.204790699999933, -3.465459099999967 ], [ -40.204522799999957, -3.465734499999942 ], [ -40.205573499999957, -3.467578699999983 ], [ -40.207614699999972, -3.466639399999962 ], [ -40.207892099999974, -3.466979499999984 ], [ -40.208225899999952, -3.467388899999941 ], [ -40.208151099999952, -3.468300899999938 ], [ -40.207700799999941, -3.469154199999962 ], [ -40.206870799999933, -3.469920699999907 ], [ -40.208199399999948, -3.47327679999993 ], [ -40.212605299999943, -3.472815199999951 ], [ -40.212633799999935, -3.472997499999968 ], [ -40.212641399999939, -3.473052699999974 ], [ -40.213287899999962, -3.472842199999904 ], [ -40.213975199999943, -3.472655199999931 ], [ -40.214732499999975, -3.472017199999934 ], [ -40.214357799999966, -3.470890399999944 ], [ -40.21416, -3.47089779999993 ], [ -40.214112299999961, -3.470337099999946 ], [ -40.213789899999945, -3.470073299999959 ], [ -40.213408799999975, -3.470051299999986 ] ] ], [ [ [ -40.161220699999944, -3.381694799999931 ], [ -40.162494699999968, -3.381690599999924 ], [ -40.164197799999954, -3.381614099999976 ], [ -40.16272249999998, -3.3790355999999 ], [ -40.161824699999954, -3.3790554 ], [ -40.156497399999978, -3.381178399999921 ], [ -40.157690699999932, -3.383189300000023 ], [ -40.158443, -3.382971400000016 ], [ -40.15871989999993, -3.382444599999917 ], [ -40.15889889999994, -3.382222299999952 ], [ -40.159401099999968, -3.38203479999993 ], [ -40.160179, -3.381757799999929 ], [ -40.161220699999944, -3.381694799999931 ] ] ], [ [ [ -40.253427599999952, -3.3517039 ], [ -40.253397199999938, -3.352150099999918 ], [ -40.253345499999966, -3.3526405 ], [ -40.253384499999989, -3.353171799999942 ], [ -40.25345, -3.353627899999984 ], [ -40.253540599999951, -3.353969699999916 ], [ -40.253599799999954, -3.35429 ], [ -40.254850899999958, -3.3542523999999 ], [ -40.256108, -3.350786599999911 ], [ -40.25286159999996, -3.350793099999944 ], [ -40.25342349999994, -3.351179499999972 ], [ -40.253427599999952, -3.3517039 ] ] ], [ [ [ -40.169066899999962, -3.34501449999997 ], [ -40.169048099999948, -3.345512099999916 ], [ -40.169290599999954, -3.345664699999928 ], [ -40.169986599999966, -3.346358599999941 ], [ -40.170137599999975, -3.346640599999917 ], [ -40.170194899999956, -3.347509900000023 ], [ -40.169734, -3.347595399999952 ], [ -40.169396499999948, -3.347655299999939 ], [ -40.169026499999966, -3.347731499999955 ], [ -40.168686299999933, -3.347834899999981 ], [ -40.168540799999953, -3.34787749999989 ], [ -40.168496, -3.3481125 ], [ -40.168443199999956, -3.349046400000015 ], [ -40.168460799999934, -3.349574899999957 ], [ -40.168562099999967, -3.349864099999933 ], [ -40.172878399999952, -3.349899399999952 ], [ -40.172893399999964, -3.349459300000013 ], [ -40.172998299999961, -3.348822099999943 ], [ -40.174837199999956, -3.348679899999976 ], [ -40.17458309999995, -3.347818099999906 ], [ -40.17367279999997, -3.347925499999978 ], [ -40.17342919999993, -3.3471492 ], [ -40.173352499999957, -3.347103599999986 ], [ -40.1727906, -3.344951599999956 ], [ -40.173291199999937, -3.344374299999985 ], [ -40.171554199999953, -3.3439797 ], [ -40.169066899999962, -3.34501449999997 ] ] ], [ [ [ -40.142336899999975, -3.3181857 ], [ -40.142506599999933, -3.31759279999996 ], [ -40.142656299999942, -3.317031 ], [ -40.142762399999981, -3.317052399999984 ], [ -40.142928799999936, -3.317049599999928 ], [ -40.143121899999983, -3.317049599999935 ], [ -40.143325799999957, -3.317026499999912 ], [ -40.143559099999955, -3.316983199999902 ], [ -40.143730799999958, -3.316966599999941 ], [ -40.144236199999959, -3.316997699999931 ], [ -40.14468259999996, -3.316968799999957 ], [ -40.144911499999985, -3.316931899999915 ], [ -40.145307099999968, -3.316822 ], [ -40.145591399999944, -3.316812699999972 ], [ -40.145864399999937, -3.316869099999986 ], [ -40.146114, -3.316842399999915 ], [ -40.146440499999983, -3.3167561 ], [ -40.146635099999969, -3.316765099999909 ], [ -40.146668699999971, -3.316193199999953 ], [ -40.146887399999969, -3.315553899999965 ], [ -40.146971499999957, -3.314881 ], [ -40.147055599999938, -3.314603499999982 ], [ -40.147139799999934, -3.31432589999993 ], [ -40.147341599999955, -3.3138213 ], [ -40.147627599999964, -3.313417499999917 ], [ -40.147590099999945, -3.313059299999938 ], [ -40.147437699999955, -3.312788199999918 ], [ -40.147124899999937, -3.3124991 ], [ -40.145113199999969, -3.312673299999958 ], [ -40.14428559999994, -3.312760499999945 ], [ -40.143179699999962, -3.3128475 ], [ -40.141943799999979, -3.313043499999917 ], [ -40.139630599999983, -3.313495699999925 ], [ -40.138943699999977, -3.313968199999929 ], [ -40.138697399999955, -3.314677099999933 ], [ -40.138461399999983, -3.314846199999951 ], [ -40.138514199999982, -3.315066599999905 ], [ -40.137453499999943, -3.315586199999897 ], [ -40.141241499999971, -3.322331199999931 ], [ -40.141251699999934, -3.322285599999914 ], [ -40.141342499999951, -3.321942499999985 ], [ -40.141493899999951, -3.3213799 ], [ -40.14169069999997, -3.320640599999935 ], [ -40.141819299999952, -3.320131 ], [ -40.141975799999962, -3.319538099999892 ], [ -40.142197799999963, -3.318687799999977 ], [ -40.142336899999975, -3.3181857 ] ] ] ] } }
]
}
