{
"type": "FeatureCollection",
"name": "2402204",
"crs": { "type": "name", "properties": { "name": "urn:ogc:def:crs:OGC:1.3:CRS84" } },
"features": [
{ "type": "Feature", "properties": { "CD_MUN": "2402204", "NM_MUN": "Canguaretama" }, "geometry": { "type": "MultiPolygon", "coordinates": [ [ [ [ -35.182868799999937, -6.416687099999925 ], [ -35.183621799999976, -6.416608399999985 ], [ -35.184040099999955, -6.416586399999956 ], [ -35.184135499999975, -6.416301199999981 ], [ -35.184875, -6.415664799999941 ], [ -35.184864399999981, -6.415645699999966 ], [ -35.184855, -6.415551599999969 ], [ -35.184902, -6.415410399999947 ], [ -35.185278499999981, -6.415165599999984 ], [ -35.185608, -6.41492089999998 ], [ -35.185777399999957, -6.414770299999958 ], [ -35.185928099999963, -6.414506699999982 ], [ -35.185909199999969, -6.414167899999948 ], [ -35.18587, -6.4133816 ], [ -35.185899799999959, -6.411551 ], [ -35.186014699999937, -6.408592299999965 ], [ -35.185512599999988, -6.407305099999976 ], [ -35.184850599999955, -6.407388299999973 ], [ -35.184264799999937, -6.407481899999918 ], [ -35.1843411, -6.408136899999909 ], [ -35.184337, -6.408146299999955 ], [ -35.183159199999977, -6.408762099999913 ], [ -35.182179, -6.40859249999992 ], [ -35.181301, -6.408733599999927 ], [ -35.180643699999962, -6.408309499999985 ], [ -35.180063299999972, -6.409479299999922 ], [ -35.179906799999969, -6.40980469999995 ], [ -35.17924469999997, -6.409527199999955 ], [ -35.177625699999965, -6.412821799999964 ], [ -35.177623099999948, -6.412827099999983 ], [ -35.17748279999995, -6.413115399999966 ], [ -35.177456199999938, -6.413170099999966 ], [ -35.178039799999965, -6.413678399999971 ], [ -35.178674799999953, -6.414082899999942 ], [ -35.181147099999976, -6.415802 ], [ -35.181577799999964, -6.4160532 ], [ -35.1821346, -6.416426299999932 ], [ -35.182868799999937, -6.416687099999925 ] ] ], [ [ [ -35.138284599999963, -6.39619379999991 ], [ -35.138627299999939, -6.396426 ], [ -35.141446099999932, -6.398336 ], [ -35.141585, -6.398079199999939 ], [ -35.143325299999965, -6.394861799999957 ], [ -35.147729799999986, -6.3867185 ], [ -35.147776, -6.386633199999967 ], [ -35.148336899999954, -6.385608799999968 ], [ -35.15414949999996, -6.374793199999935 ], [ -35.157932199999948, -6.367856 ], [ -35.160841799999965, -6.362476599999975 ], [ -35.160866899999981, -6.362430299999939 ], [ -35.161447299999963, -6.362924599999942 ], [ -35.162049199999956, -6.362467099999914 ], [ -35.163526, -6.364168499999924 ], [ -35.163694499999963, -6.363967899999986 ], [ -35.164079699999945, -6.363638899999962 ], [ -35.164424799999956, -6.36330179999992 ], [ -35.164657599999941, -6.363205499999949 ], [ -35.165524299999966, -6.363125199999931 ], [ -35.162422, -6.359555199999931 ], [ -35.163094199999939, -6.3583123 ], [ -35.163169599999947, -6.358172899999939 ], [ -35.162130699999977, -6.357714599999957 ], [ -35.160977499999944, -6.3572058 ], [ -35.16062, -6.357048099999937 ], [ -35.160569, -6.357025599999949 ], [ -35.159981, -6.356940899999949 ], [ -35.158976099999968, -6.3567962 ], [ -35.152412599999934, -6.355850599999945 ], [ -35.155509499999944, -6.351976699999986 ], [ -35.156632499999944, -6.35228089999995 ], [ -35.157591699999962, -6.350222 ], [ -35.155263799999943, -6.348619399999958 ], [ -35.149480399999959, -6.355428199999951 ], [ -35.137379199999934, -6.3536849 ], [ -35.137349, -6.3536852 ], [ -35.136745699999956, -6.353691199999983 ], [ -35.135674699999981, -6.355101399999961 ], [ -35.135569799999985, -6.355217499999967 ], [ -35.134944799999978, -6.35563809999998 ], [ -35.134592899999973, -6.355872599999944 ], [ -35.134438299999935, -6.355956399999969 ], [ -35.134393099999954, -6.35689009999991 ], [ -35.13407779999995, -6.357962099999958 ], [ -35.133906699999962, -6.358917 ], [ -35.133938099999973, -6.359026 ], [ -35.1340982, -6.360042799999974 ], [ -35.134059799999932, -6.360628699999916 ], [ -35.134054399999968, -6.360723 ], [ -35.134052799999949, -6.360751 ], [ -35.134077799999943, -6.360989 ], [ -35.13410469999998, -6.361205699999989 ], [ -35.134154099999932, -6.36143169999994 ], [ -35.134235099999955, -6.361809599999957 ], [ -35.134332099999945, -6.362277699999962 ], [ -35.134447199999961, -6.362586299999987 ], [ -35.13449879999996, -6.36277279999998 ], [ -35.134501199999931, -6.362781699999961 ], [ -35.134530499999983, -6.362874099999935 ], [ -35.134649899999943, -6.363075099999937 ], [ -35.134723, -6.363242799999964 ], [ -35.134774499999935, -6.363448699999926 ], [ -35.129993599999985, -6.369619899999964 ], [ -35.12967169999996, -6.370034899999963 ], [ -35.125100599999939, -6.375928199999972 ], [ -35.125055899999957, -6.375985799999966 ], [ -35.124893199999967, -6.375735699999956 ], [ -35.124797399999984, -6.375542099999975 ], [ -35.124661899999978, -6.375188499999974 ], [ -35.124564, -6.374844099999982 ], [ -35.124364299999975, -6.3743 ], [ -35.124174799999928, -6.37393519999997 ], [ -35.124100899999974, -6.37386589999994 ], [ -35.123603, -6.374100799999922 ], [ -35.123111799999947, -6.374292399999931 ], [ -35.122596199999975, -6.374522699999962 ], [ -35.12269809999998, -6.37524 ], [ -35.122751099999967, -6.3754357 ], [ -35.1227593, -6.375708799999897 ], [ -35.122730799999943, -6.375928899999977 ], [ -35.122885599999961, -6.37641389999991 ], [ -35.122987499999965, -6.377066 ], [ -35.122918199999958, -6.377400199999955 ], [ -35.122677799999963, -6.3776978 ], [ -35.122567699999927, -6.377889299999962 ], [ -35.12237209999995, -6.378072799999938 ], [ -35.122701099999972, -6.379021699999961 ], [ -35.12270749999994, -6.379033099999948 ], [ -35.122969299999973, -6.379496399999943 ], [ -35.125611499999934, -6.384172099999923 ], [ -35.125837099999963, -6.384571199999905 ], [ -35.125862399999953, -6.384616099999976 ], [ -35.132891899999954, -6.396793099999972 ], [ -35.132902199999933, -6.396811 ], [ -35.138278299999968, -6.396189599999981 ], [ -35.138284599999963, -6.39619379999991 ] ] ], [ [ [ -35.047364499999958, -6.319686 ], [ -35.047555799999955, -6.319856699999923 ], [ -35.047945399999954, -6.320102299999967 ], [ -35.048233099999948, -6.320209099999951 ], [ -35.048688899999959, -6.320320699999974 ], [ -35.048993599999967, -6.32041129999994 ], [ -35.049332399999969, -6.320550699999954 ], [ -35.051035199999951, -6.321761899999975 ], [ -35.053016099999979, -6.319745499999953 ], [ -35.053369099999941, -6.320189899999976 ], [ -35.05420109999995, -6.31919719999997 ], [ -35.055522699999983, -6.317435699999972 ], [ -35.054631399999955, -6.31663619999995 ], [ -35.054000199999955, -6.316682099999988 ], [ -35.053946699999983, -6.316123599999986 ], [ -35.053457, -6.315282099999914 ], [ -35.052814399999932, -6.314402299999949 ], [ -35.052225299999975, -6.313614299999919 ], [ -35.052982699999973, -6.313476499999964 ], [ -35.053235199999968, -6.313216399999941 ], [ -35.055461499999986, -6.312826299999921 ], [ -35.056295399999954, -6.312321299999954 ], [ -35.055645099999936, -6.309926699999932 ], [ -35.053671299999969, -6.309521199999929 ], [ -35.052393599999952, -6.311120199999967 ], [ -35.051751, -6.312290699999966 ], [ -35.051314899999966, -6.313323499999946 ], [ -35.051396399999931, -6.313478899999967 ], [ -35.050424199999959, -6.313204599999918 ], [ -35.050243499999965, -6.313167299999962 ], [ -35.050143, -6.313330799999985 ], [ -35.048215099999943, -6.312602099999945 ], [ -35.047913899999969, -6.312533299999927 ], [ -35.047589699999939, -6.312513199999972 ], [ -35.046838, -6.312630799999943 ], [ -35.046813199999974, -6.312965799999968 ], [ -35.044821299999974, -6.31230009999995 ], [ -35.044530699999939, -6.312724699999943 ], [ -35.044291399999963, -6.313049599999936 ], [ -35.043865099999948, -6.313675499999906 ], [ -35.043797799999943, -6.313778 ], [ -35.043551, -6.314216699999972 ], [ -35.044014499999939, -6.314514299999939 ], [ -35.044372499999945, -6.314713299999935 ], [ -35.044580599999961, -6.314890099999972 ], [ -35.044669099999965, -6.314993199999964 ], [ -35.044817699999953, -6.315146099999923 ], [ -35.044904, -6.3152732 ], [ -35.045244199999956, -6.315598099999959 ], [ -35.045615599999969, -6.315907799999912 ], [ -35.046205099999959, -6.316626699999955 ], [ -35.046353199999942, -6.316834399999965 ], [ -35.046695699999937, -6.317667799999984 ], [ -35.046983299999972, -6.318216499999936 ], [ -35.047123899999974, -6.31850189999995 ], [ -35.047131499999978, -6.318569499999985 ], [ -35.046988599999963, -6.318855399999978 ], [ -35.046766299999952, -6.319079899999953 ], [ -35.04691569999995, -6.319315299999953 ], [ -35.047364499999958, -6.319686 ] ] ], [ [ [ -35.036565299999943, -6.303112799999946 ], [ -35.035145899999975, -6.296670699999937 ], [ -35.036055799999929, -6.293977499999901 ], [ -35.036237699999958, -6.291029399999958 ], [ -35.03717649999993, -6.28984349999995 ], [ -35.037258699999946, -6.289145299999976 ], [ -35.036511499999968, -6.288291299999947 ], [ -35.036710899999946, -6.286298 ], [ -35.034308799999963, -6.286370799999958 ], [ -35.033395, -6.286398499999947 ], [ -35.033362199999949, -6.286603499999948 ], [ -35.033333499999969, -6.287443299999941 ], [ -35.033368499999931, -6.288172099999942 ], [ -35.033393399999973, -6.288694 ], [ -35.03328, -6.28891629999994 ], [ -35.03340569999996, -6.289357499999916 ], [ -35.033479199999924, -6.290158699999945 ], [ -35.033464599999952, -6.290703399999928 ], [ -35.033398299999938, -6.29161849999996 ], [ -35.03330409999996, -6.29281769999994 ], [ -35.033203699999937, -6.293297799999958 ], [ -35.033192799999931, -6.293765 ], [ -35.033070799999962, -6.294622799999938 ], [ -35.032901599999953, -6.296083 ], [ -35.032804699999929, -6.297007299999953 ], [ -35.032596099999978, -6.298460099999966 ], [ -35.032445899999978, -6.299803699999957 ], [ -35.032267699999977, -6.300936 ], [ -35.032030299999974, -6.30199 ], [ -35.031610799999953, -6.303385699999955 ], [ -35.031294599999974, -6.304708599999945 ], [ -35.031064299999969, -6.305671599999945 ], [ -35.031237299999944, -6.306214899999934 ], [ -35.031322199999977, -6.30639969999991 ], [ -35.03156459999996, -6.306927299999917 ], [ -35.031644899999954, -6.307902199999923 ], [ -35.03164779999998, -6.307939199999939 ], [ -35.032307, -6.308572099999918 ], [ -35.034818299999984, -6.309336399999959 ], [ -35.03671089999996, -6.310246299999934 ], [ -35.037584399999965, -6.31071939999994 ], [ -35.037802699999929, -6.311447299999936 ], [ -35.039404099999956, -6.312975899999984 ], [ -35.04082359999996, -6.314286199999947 ], [ -35.04136079999995, -6.314781 ], [ -35.042021199999965, -6.31438 ], [ -35.04221629999995, -6.314243599999966 ], [ -35.042177, -6.314123399999947 ], [ -35.042262, -6.314030699999925 ], [ -35.042643499999947, -6.313741399999945 ], [ -35.042711499999939, -6.31378959999993 ], [ -35.043185699999981, -6.3133263 ], [ -35.043248299999959, -6.313352699999954 ], [ -35.043306499999964, -6.313431699999932 ], [ -35.043668599999933, -6.313046799999942 ], [ -35.043670199999958, -6.313047899999959 ], [ -35.043792499999938, -6.313132399999962 ], [ -35.044309799999958, -6.312364599999936 ], [ -35.044524899999942, -6.312060199999978 ], [ -35.04282529999994, -6.310501 ], [ -35.039258599999982, -6.308135299999959 ], [ -35.038831899999941, -6.307339699999945 ], [ -35.036565299999943, -6.303112799999946 ] ] ] ] } }
]
}
