{
"type": "FeatureCollection",
"name": "2501807",
"crs": { "type": "name", "properties": { "name": "urn:ogc:def:crs:OGC:1.3:CRS84" } },
"features": [
{ "type": "Feature", "properties": { "CD_MUN": "2501807", "NM_MUN": "Bayeux" }, "geometry": { "type": "Polygon", "coordinates": [ [ [ -34.935347399999962, -7.16524479999991 ], [ -34.936486299999956, -7.166248599999987 ], [ -34.941492599999947, -7.161089299999958 ], [ -34.954094499999933, -7.148445899999976 ], [ -34.954533899999952, -7.148437 ], [ -34.956722199999952, -7.148416699999943 ], [ -34.949965499999962, -7.138827499999962 ], [ -34.951669099999947, -7.137087899999946 ], [ -34.951350699999978, -7.136916799999961 ], [ -34.94719519999996, -7.134651099999922 ], [ -34.94693939999997, -7.134496199999939 ], [ -34.94496359999993, -7.133483699999952 ], [ -34.943228, -7.132489099999927 ], [ -34.943462099999977, -7.132198099999931 ], [ -34.943729899999944, -7.131958799999968 ], [ -34.943870799999956, -7.131759099999971 ], [ -34.943975499999965, -7.131474699999953 ], [ -34.944040899999941, -7.131328299999963 ], [ -34.944026299999962, -7.1311856 ], [ -34.944048499999958, -7.131030399999916 ], [ -34.944002899999937, -7.1310099 ], [ -34.943904399999944, -7.130997199999955 ], [ -34.943760399999974, -7.130831 ], [ -34.943782499999934, -7.130565 ], [ -34.943882299999977, -7.130210399999934 ], [ -34.943860099999945, -7.130033099999952 ], [ -34.943816, -7.129944099999921 ], [ -34.943738199999984, -7.129778199999979 ], [ -34.943727099999933, -7.129589799999949 ], [ -34.943583099999955, -7.129357099999961 ], [ -34.943505499999958, -7.129091199999967 ], [ -34.94351659999996, -7.128936 ], [ -34.943605199999979, -7.128847399999951 ], [ -34.943716099999961, -7.128780899999976 ], [ -34.943730799999976, -7.128662499999958 ], [ -34.943660599999937, -7.128348699999939 ], [ -34.943421599999979, -7.128133499999938 ], [ -34.943195199999934, -7.127927599999957 ], [ -34.943062299999951, -7.127916599999959 ], [ -34.942962499999972, -7.127739299999984 ], [ -34.942940399999941, -7.12741789999996 ], [ -34.942966399999925, -7.127396799999955 ], [ -34.943117699999959, -7.127273799999964 ], [ -34.943040099999969, -7.127096499999914 ], [ -34.942984699999961, -7.126874899999983 ], [ -34.942984699999954, -7.126719799999928 ], [ -34.943051199999957, -7.126586799999911 ], [ -34.943184099999932, -7.126542499999965 ], [ -34.943228499999968, -7.126464899999978 ], [ -34.943184099999947, -7.126365199999946 ], [ -34.943051199999964, -7.126221099999962 ], [ -34.942796299999955, -7.12601059999995 ], [ -34.942630099999981, -7.125777899999965 ], [ -34.942632799999963, -7.12574789999995 ], [ -34.942641199999969, -7.125656 ], [ -34.942596799999933, -7.125367899999952 ], [ -34.942486, -7.125190599999955 ], [ -34.942253299999948, -7.12476949999995 ], [ -34.942142499999939, -7.124680799999969 ], [ -34.942153599999983, -7.124503499999957 ], [ -34.94214309999996, -7.124458099999956 ], [ -34.942120299999942, -7.124359399999944 ], [ -34.941998399999939, -7.124237599999975 ], [ -34.941865499999949, -7.124137799999981 ], [ -34.941787899999959, -7.123905099999946 ], [ -34.941790399999952, -7.123879399999952 ], [ -34.941797699999945, -7.123804399999955 ], [ -34.941799, -7.123694599999985 ], [ -34.941821099999977, -7.123583799999947 ], [ -34.941787899999952, -7.12349509999994 ], [ -34.941699199999967, -7.123472899999981 ], [ -34.941577399999971, -7.123517299999972 ], [ -34.941556399999961, -7.123517299999964 ], [ -34.941400099999953, -7.12351729999993 ], [ -34.941300299999959, -7.123439699999973 ], [ -34.941249, -7.123359299999938 ], [ -34.941156299999939, -7.123173699999925 ], [ -34.941034399999978, -7.122830199999938 ], [ -34.940890299999985, -7.122808099999929 ], [ -34.940768399999968, -7.122741599999915 ], [ -34.940635399999962, -7.122608599999968 ], [ -34.940469199999946, -7.122553199999968 ], [ -34.940114599999959, -7.122641799999937 ], [ -34.939604899999949, -7.122664 ], [ -34.93940489999995, -7.122688 ], [ -34.939327799999944, -7.122697199999919 ], [ -34.938784899999973, -7.12269719999995 ], [ -34.93864259999998, -7.122763299999964 ], [ -34.93847459999995, -7.122841299999946 ], [ -34.938264, -7.12302969999997 ], [ -34.937942699999951, -7.12321809999997 ], [ -34.93781859999995, -7.123205 ], [ -34.937732099999948, -7.123195899999934 ], [ -34.937610199999945, -7.123074 ], [ -34.937521599999968, -7.123162699999964 ], [ -34.937510499999973, -7.123195899999923 ], [ -34.937399699999958, -7.123229199999965 ], [ -34.937133699999947, -7.123428599999961 ], [ -34.937078299999932, -7.1235948 ], [ -34.937067199999952, -7.123694599999967 ], [ -34.937067199999952, -7.123816499999951 ], [ -34.937067199999944, -7.123858399999949 ], [ -34.937067199999937, -7.123905099999952 ], [ -34.9370451, -7.123949399999946 ], [ -34.936923199999967, -7.123960499999952 ], [ -34.936915599999963, -7.123921699999935 ], [ -34.936908, -7.123883 ], [ -34.936866399999928, -7.123808199999945 ], [ -34.936827599999965, -7.12377209999992 ], [ -34.936766699999964, -7.123777699999932 ], [ -34.936672499999936, -7.123833099999953 ], [ -34.936606, -7.123880199999975 ], [ -34.936528399999929, -7.123927299999928 ], [ -34.936489599999973, -7.123993799999926 ], [ -34.936442499999941, -7.124101799999944 ], [ -34.936412399999938, -7.124107299999916 ], [ -34.936320599999938, -7.124124 ], [ -34.936291299999937, -7.124155799999951 ], [ -34.936187699999941, -7.124268 ], [ -34.935905099999964, -7.124284699999976 ], [ -34.935831699999937, -7.12427 ], [ -34.935711199999965, -7.124245899999942 ], [ -34.935517199999936, -7.124245899999966 ], [ -34.935334399999938, -7.124256899999961 ], [ -34.935090599999974, -7.124207099999955 ], [ -34.93494759999993, -7.12425269999996 ], [ -34.934712899999965, -7.124327699999962 ], [ -34.934564199999961, -7.124312399999959 ], [ -34.934403599999932, -7.1242182 ], [ -34.934265, -7.124074099999951 ], [ -34.934221, -7.124006 ], [ -34.934036499999934, -7.123902899999963 ], [ -34.933990499999929, -7.123842 ], [ -34.933985, -7.123834799999934 ], [ -34.933971299999946, -7.123816699999986 ], [ -34.933926, -7.123756799999987 ], [ -34.93370989999994, -7.123457799999908 ], [ -34.93363549999998, -7.123287099999962 ], [ -34.933582199999925, -7.123140499999963 ], [ -34.933488, -7.122990899999945 ], [ -34.93345469999997, -7.122819099999976 ], [ -34.933443599999976, -7.122564299999961 ], [ -34.933388199999968, -7.122409099999966 ], [ -34.933260799999964, -7.122198599999939 ], [ -34.933199899999977, -7.122037899999978 ], [ -34.933241399999936, -7.121963099999936 ], [ -34.933158299999945, -7.121735899999969 ], [ -34.932997599999972, -7.121420099999967 ], [ -34.932809199999959, -7.121320399999966 ], [ -34.932532199999969, -7.121248399999937 ], [ -34.93212769999996, -7.121314799999927 ], [ -34.931645699999926, -7.121181899999935 ], [ -34.931490599999968, -7.12102119999997 ], [ -34.931490599999961, -7.12084389999997 ], [ -34.931618, -7.120439399999936 ], [ -34.931739899999961, -7.120195599999921 ], [ -34.931778699999946, -7.120023899999967 ], [ -34.931678899999952, -7.119896399999959 ], [ -34.931568099999943, -7.119796699999924 ], [ -34.93141849999995, -7.119796699999924 ], [ -34.930964199999949, -7.1196194 ], [ -34.930889399999963, -7.119473199999971 ], [ -34.930675099999974, -7.119586899999947 ], [ -34.930453599999971, -7.119679899999939 ], [ -34.929858599999939, -7.119783199999965 ], [ -34.92965369999996, -7.119818699999935 ], [ -34.929454199999967, -7.119804799999939 ], [ -34.929254599999979, -7.119791 ], [ -34.927940799999938, -7.119262 ], [ -34.927175599999934, -7.1189429 ], [ -34.92621029999998, -7.11868119999998 ], [ -34.925316499999944, -7.118629699999937 ], [ -34.924582099999952, -7.118685199999955 ], [ -34.92383679999994, -7.118922 ], [ -34.923172, -7.119473599999921 ], [ -34.922997199999941, -7.119722599999942 ], [ -34.922857299999968, -7.120099499999974 ], [ -34.922797, -7.120502299999959 ], [ -34.922650499999975, -7.120959699999943 ], [ -34.922548699999936, -7.121142799999973 ], [ -34.922499699999946, -7.1212308 ], [ -34.922441199999987, -7.121425399999957 ], [ -34.922439299999958, -7.121445 ], [ -34.922365399999933, -7.121663899999928 ], [ -34.92236349999996, -7.121683499999977 ], [ -34.922149499999925, -7.121847199999954 ], [ -34.921781399999922, -7.121963499999917 ], [ -34.921494099999968, -7.1220663 ], [ -34.921176, -7.122251499999937 ], [ -34.920834899999939, -7.122353299999908 ], [ -34.920504699999981, -7.12227 ], [ -34.920050399999987, -7.121822499999925 ], [ -34.919964299999954, -7.121737599999957 ], [ -34.919568499999968, -7.121227199999963 ], [ -34.919276399999937, -7.120462599999954 ], [ -34.919250699999964, -7.120395299999953 ], [ -34.919249099999945, -7.120382699999944 ], [ -34.919147599999981, -7.119584499999957 ], [ -34.919270599999955, -7.118391499999979 ], [ -34.91950379999998, -7.117493199999974 ], [ -34.919501099999934, -7.116868 ], [ -34.919204399999963, -7.11626519999991 ], [ -34.918728, -7.115942199999966 ], [ -34.918084099999938, -7.115985499999973 ], [ -34.917593099999984, -7.116072499999976 ], [ -34.916964399999983, -7.116338099999961 ], [ -34.916355199999948, -7.11684939999996 ], [ -34.915938599999954, -7.117216899999958 ], [ -34.915712699999972, -7.117219699999989 ], [ -34.91559969999998, -7.117221 ], [ -34.915486699999974, -7.117222399999962 ], [ -34.915048399999939, -7.118129499999938 ], [ -34.914303, -7.119489 ], [ -34.913641599999956, -7.120524599999956 ], [ -34.912642099999978, -7.120836599999973 ], [ -34.911686199999963, -7.121005799999965 ], [ -34.911158499999942, -7.120904099999986 ], [ -34.910766099999933, -7.120698 ], [ -34.910542, -7.120494799999961 ], [ -34.9101654, -7.1203338 ], [ -34.909657299999935, -7.120138699999933 ], [ -34.909508499999959, -7.1199253 ], [ -34.909268499999946, -7.119795399999951 ], [ -34.909120899999948, -7.119657 ], [ -34.908511499999982, -7.119085699999959 ], [ -34.908502599999956, -7.119076499999961 ], [ -34.907842699999954, -7.118392 ], [ -34.907521199999977, -7.118189699999957 ], [ -34.907069499999984, -7.117853299999982 ], [ -34.906128799999969, -7.116482299999968 ], [ -34.905274399999939, -7.11497379999996 ], [ -34.904078299999981, -7.112450599999915 ], [ -34.902526299999984, -7.110729799999953 ], [ -34.901654199999946, -7.110475 ], [ -34.9010732, -7.11058 ], [ -34.900693, -7.110364099999941 ], [ -34.899717, -7.109564399999971 ], [ -34.89867739999994, -7.108768199999934 ], [ -34.898306899999966, -7.108423699999929 ], [ -34.896957299999947, -7.10801879999996 ], [ -34.896164599999963, -7.10772389999996 ], [ -34.895915799999955, -7.107083399999951 ], [ -34.895869099999963, -7.106705799999937 ], [ -34.895874399999975, -7.106519699999967 ], [ -34.895643699999937, -7.106168899999935 ], [ -34.895283399999983, -7.105893 ], [ -34.894293199999943, -7.107270599999916 ], [ -34.893744699999957, -7.107858199999946 ], [ -34.89260859999996, -7.10844589999993 ], [ -34.89143329999996, -7.109268599999954 ], [ -34.891198199999963, -7.109621199999921 ], [ -34.891183799999972, -7.109798 ], [ -34.890763799999938, -7.111753 ], [ -34.892255099999957, -7.113964299999959 ], [ -34.893940599999951, -7.116633799999909 ], [ -34.894019, -7.118083299999983 ], [ -34.893940599999951, -7.120003 ], [ -34.893968099999945, -7.120234299999908 ], [ -34.894015499999966, -7.120714399999944 ], [ -34.894097299999949, -7.121491699999959 ], [ -34.894097299999942, -7.121726699999947 ], [ -34.894528199999968, -7.122275199999951 ], [ -34.895742699999971, -7.122275199999923 ], [ -34.897349, -7.121374099999965 ], [ -34.898178, -7.120823 ], [ -34.899856299999961, -7.120551399999936 ], [ -34.900796499999949, -7.120943199999957 ], [ -34.901305799999925, -7.12157 ], [ -34.901603699999953, -7.122318699999921 ], [ -34.901753199999973, -7.122975799999959 ], [ -34.902128499999954, -7.124625799999962 ], [ -34.902670599999965, -7.12528969999993 ], [ -34.903068699999949, -7.125761899999933 ], [ -34.904424299999967, -7.126466499999923 ], [ -34.904792499999928, -7.126663 ], [ -34.904924099999967, -7.126678699999959 ], [ -34.906236399999955, -7.1268555 ], [ -34.906555399999945, -7.126898 ], [ -34.907613199999965, -7.127720699999948 ], [ -34.908161699999944, -7.12823 ], [ -34.909337, -7.1283084 ], [ -34.911128499999961, -7.12767519999994 ], [ -34.911249699999985, -7.127688899999955 ], [ -34.912125399999972, -7.127823699999946 ], [ -34.912443499999938, -7.128353899999982 ], [ -34.912941899999964, -7.128929899999946 ], [ -34.91339789999995, -7.129456799999978 ], [ -34.914684, -7.130197899999945 ], [ -34.915179499999972, -7.130411199999961 ], [ -34.915624899999955, -7.130496 ], [ -34.915998499999951, -7.130854199999931 ], [ -34.916409599999952, -7.131238299999976 ], [ -34.917364, -7.131895799999922 ], [ -34.917873099999959, -7.132489699999944 ], [ -34.917855399999951, -7.1327011 ], [ -34.917851899999967, -7.132744199999938 ], [ -34.917693699999973, -7.133060499999964 ], [ -34.917661, -7.133126 ], [ -34.917618599999969, -7.13338049999991 ], [ -34.918042699999944, -7.133444099999968 ], [ -34.918424499999965, -7.133571299999984 ], [ -34.918628699999942, -7.134034199999954 ], [ -34.918742599999966, -7.134292499999956 ], [ -34.918848699999963, -7.134610599999961 ], [ -34.919274599999945, -7.134795799999949 ], [ -34.919336499999936, -7.134822699999948 ], [ -34.919315299999937, -7.135119599999928 ], [ -34.919060799999954, -7.135289299999954 ], [ -34.91844569999995, -7.13550139999994 ], [ -34.91813209999998, -7.13569739999997 ], [ -34.918106399999949, -7.135713499999937 ], [ -34.918127599999941, -7.136031599999961 ], [ -34.918159799999955, -7.136106699999956 ], [ -34.91825479999995, -7.136328499999914 ], [ -34.918595799999935, -7.136964299999928 ], [ -34.918557399999948, -7.137130599999968 ], [ -34.918522399999979, -7.137310199999956 ], [ -34.918222299999975, -7.137401899999912 ], [ -34.91810559999994, -7.137560299999953 ], [ -34.918130599999984, -7.137685299999941 ], [ -34.918122299999936, -7.137810399999977 ], [ -34.918055499999987, -7.137863399999981 ], [ -34.917963899999968, -7.137977099999938 ], [ -34.917855499999973, -7.1381355 ], [ -34.9178472, -7.138285499999919 ], [ -34.917951899999935, -7.13846 ], [ -34.917972199999944, -7.138493899999988 ], [ -34.917988899999962, -7.138744 ], [ -34.917830499999972, -7.139235799999953 ], [ -34.917763799999932, -7.139294099999943 ], [ -34.917755499999949, -7.139385799999969 ], [ -34.917563799999982, -7.139610899999971 ], [ -34.917422, -7.139752599999956 ], [ -34.91740539999995, -7.139886 ], [ -34.917272, -7.139969299999986 ], [ -34.917211499999944, -7.140099699999968 ], [ -34.917163599999981, -7.140202699999967 ], [ -34.917162899999944, -7.140402299999952 ], [ -34.917163599999981, -7.140461099999932 ], [ -34.917247, -7.140669499999938 ], [ -34.917031699999946, -7.140809199999968 ], [ -34.916938599999973, -7.140869599999982 ], [ -34.916878499999939, -7.141215099999937 ], [ -34.91687189999994, -7.1412531 ], [ -34.91666349999997, -7.14146139999997 ], [ -34.916555099999982, -7.141619799999955 ], [ -34.916538499999952, -7.141769899999914 ], [ -34.916582399999989, -7.141884199999911 ], [ -34.916621799999973, -7.141986599999957 ], [ -34.916571799999936, -7.142145 ], [ -34.916296699999975, -7.142586799999934 ], [ -34.91628, -7.142711799999956 ], [ -34.916205, -7.142903499999934 ], [ -34.916071599999945, -7.143053599999957 ], [ -34.915988299999974, -7.143453699999978 ], [ -34.915913299999943, -7.143603799999965 ], [ -34.915854799999977, -7.143794 ], [ -34.915846599999952, -7.143820499999954 ], [ -34.915796599999958, -7.144037199999976 ], [ -34.915629799999977, -7.144270599999953 ], [ -34.915446499999973, -7.144370699999963 ], [ -34.915346399999976, -7.144520699999956 ], [ -34.915288099999941, -7.144820799999938 ], [ -34.915188, -7.145012499999938 ], [ -34.914979699999947, -7.145237599999979 ], [ -34.913587599999978, -7.146162899999974 ], [ -34.913137399999982, -7.146629699999951 ], [ -34.913141499999938, -7.146732599999946 ], [ -34.913145799999938, -7.146838099999974 ], [ -34.913195799999983, -7.146946399999921 ], [ -34.913337499999955, -7.14702979999993 ], [ -34.913312499999961, -7.147179799999935 ], [ -34.913129099999935, -7.147313199999948 ], [ -34.912870699999928, -7.147346499999983 ], [ -34.912718799999944, -7.147383499999928 ], [ -34.912562299999941, -7.147421599999954 ], [ -34.9122455, -7.147554899999948 ], [ -34.911962099999975, -7.147638299999937 ], [ -34.911687, -7.147846699999965 ], [ -34.911470299999969, -7.14808839999996 ], [ -34.911303499999981, -7.1483969 ], [ -34.91109519999997, -7.148722 ], [ -34.91099509999998, -7.149063699999965 ], [ -34.910870099999954, -7.149355499999937 ], [ -34.91077839999997, -7.149463799999971 ], [ -34.910595, -7.149663899999936 ], [ -34.910533499999936, -7.1497017 ], [ -34.910453299999972, -7.149747299999925 ], [ -34.910211599999961, -7.149830599999977 ], [ -34.91010319999998, -7.149997299999927 ], [ -34.909928099999945, -7.1504141 ], [ -34.909853099999964, -7.150522499999973 ], [ -34.909936299999977, -7.150629499999967 ], [ -34.909969799999956, -7.150672499999906 ], [ -34.909969799999956, -7.150730899999906 ], [ -34.909828099999977, -7.1507976 ], [ -34.909769799999935, -7.15084759999998 ], [ -34.909753099999939, -7.150964299999915 ], [ -34.909771099999944, -7.150988499999903 ], [ -34.910175499999987, -7.151298899999955 ], [ -34.910204, -7.151434799999945 ], [ -34.910288699999967, -7.151555699999976 ], [ -34.91045029999998, -7.15156669999992 ], [ -34.910541699999968, -7.151494499999957 ], [ -34.910554899999958, -7.151319699999936 ], [ -34.910578599999951, -7.151121899999974 ], [ -34.910724699999953, -7.150934199999938 ], [ -34.910928499999955, -7.150847099999985 ], [ -34.911101599999931, -7.15086369999996 ], [ -34.911306, -7.150941499999946 ], [ -34.911624099999983, -7.151032299999928 ], [ -34.91180379999998, -7.150998499999949 ], [ -34.911989799999958, -7.150934699999961 ], [ -34.912347, -7.150708799999951 ], [ -34.912543699999965, -7.150599599999945 ], [ -34.912777499999955, -7.150391399999955 ], [ -34.912962399999977, -7.150134 ], [ -34.913152899999943, -7.149800499999978 ], [ -34.913345299999946, -7.15094869999995 ], [ -34.913469699999951, -7.151242899999934 ], [ -34.913597299999942, -7.151501199999908 ], [ -34.913640799999939, -7.15154329999996 ], [ -34.91414709999998, -7.152119099999938 ], [ -34.914433699999961, -7.152395699999937 ], [ -34.914477, -7.152450299999929 ], [ -34.914663899999937, -7.15253 ], [ -34.914799799999969, -7.152814399999975 ], [ -34.91579849999993, -7.153957699999988 ], [ -34.916100299999982, -7.154126799999977 ], [ -34.916348399999954, -7.15418909999992 ], [ -34.916657699999973, -7.154180299999958 ], [ -34.916865599999944, -7.154159699999968 ], [ -34.916998599999943, -7.154158 ], [ -34.91740029999994, -7.154596199999978 ], [ -34.917516, -7.154612499999912 ], [ -34.917672699999976, -7.154951599999935 ], [ -34.918085799999972, -7.155486899999972 ], [ -34.918387499999938, -7.155767499999983 ], [ -34.918573199999976, -7.155940299999916 ], [ -34.918686099999945, -7.156143799999956 ], [ -34.9199407, -7.15626879999996 ], [ -34.921133399999981, -7.155245699999955 ], [ -34.921136699999977, -7.155325 ], [ -34.921313199999936, -7.156539199999939 ], [ -34.921572699999963, -7.158090099999971 ], [ -34.921766799999943, -7.15932 ], [ -34.921866099999939, -7.160340099999944 ], [ -34.922601799999939, -7.15979619999994 ], [ -34.9238339, -7.158792 ], [ -34.923776399999952, -7.158719799999955 ], [ -34.923117399999967, -7.159180099999929 ], [ -34.923018099999979, -7.158322599999968 ], [ -34.922896299999934, -7.157189699999953 ], [ -34.922863599999971, -7.156671199999952 ], [ -34.923180599999966, -7.156683699999962 ], [ -34.923952, -7.156732699999973 ], [ -34.924099799999972, -7.156746 ], [ -34.924270899999961, -7.157423399999968 ], [ -34.924430899999948, -7.158263199999982 ], [ -34.925819899999965, -7.157272099999944 ], [ -34.925847199999964, -7.157244399999969 ], [ -34.927071, -7.15863189999995 ], [ -34.927881, -7.159564 ], [ -34.928204199999982, -7.1592793 ], [ -34.928373099999931, -7.1594234 ], [ -34.92925409999998, -7.158680299999979 ], [ -34.929992299999981, -7.159552299999977 ], [ -34.932282399999963, -7.162088099999927 ], [ -34.934393, -7.164309799999963 ], [ -34.935024299999952, -7.164890099999979 ], [ -34.935347399999962, -7.16524479999991 ] ] ] } }
]
}
