{
"type": "FeatureCollection",
"name": "2503001",
"crs": { "type": "name", "properties": { "name": "urn:ogc:def:crs:OGC:1.3:CRS84" } },
"features": [
{ "type": "Feature", "properties": { "CD_MUN": "2503001", "NM_MUN": "Caaporã" }, "geometry": { "type": "MultiPolygon", "coordinates": [ [ [ [ -34.923303399999959, -7.521806399999944 ], [ -34.924186099999936, -7.521036699999947 ], [ -34.924532199999931, -7.520612099999919 ], [ -34.924713, -7.52025889999994 ], [ -34.925552099999948, -7.51940029999998 ], [ -34.926326699999954, -7.518444299999919 ], [ -34.924776299999962, -7.517452399999985 ], [ -34.923225299999963, -7.516289099999923 ], [ -34.922417599999967, -7.515609099999925 ], [ -34.922098699999935, -7.515149299999955 ], [ -34.925421599999943, -7.514596599999928 ], [ -34.927497099999989, -7.514444399999962 ], [ -34.9286385, -7.515047599999952 ], [ -34.929348399999988, -7.515376699999939 ], [ -34.930332399999948, -7.514673 ], [ -34.931740199999986, -7.514073 ], [ -34.933110799999952, -7.514224699999953 ], [ -34.933663299999978, -7.513125 ], [ -34.937059899999952, -7.512133599999963 ], [ -34.93696239999997, -7.510931 ], [ -34.937401899999941, -7.510408599999936 ], [ -34.937243299999977, -7.51042 ], [ -34.936719299999936, -7.51031789999996 ], [ -34.933933799999977, -7.509913299999948 ], [ -34.933054499999969, -7.509785599999948 ], [ -34.931601599999958, -7.509574599999953 ], [ -34.931555599999967, -7.509567899999969 ], [ -34.930578899999944, -7.509440899999989 ], [ -34.930304599999943, -7.509414199999965 ], [ -34.930300899999963, -7.509413699999937 ], [ -34.92965369999996, -7.509469699999934 ], [ -34.9285, -7.509700699999951 ], [ -34.928465499999952, -7.509707599999971 ], [ -34.92729989999998, -7.510051799999943 ], [ -34.924941799999942, -7.510748099999954 ], [ -34.924746699999965, -7.51080569999995 ], [ -34.923578399999947, -7.511150699999948 ], [ -34.922887099999969, -7.51135479999994 ], [ -34.922080299999955, -7.511593 ], [ -34.921285599999983, -7.5118277 ], [ -34.919994199999962, -7.51227219999991 ], [ -34.919572599999981, -7.510991299999937 ], [ -34.919310499999938, -7.510085 ], [ -34.91783779999998, -7.510767799999923 ], [ -34.916779299999973, -7.511188 ], [ -34.916838, -7.510931599999918 ], [ -34.917033899999986, -7.510175099999973 ], [ -34.917244399999966, -7.508763199999962 ], [ -34.917567499999969, -7.504904799999935 ], [ -34.912800699999941, -7.50450239999995 ], [ -34.913395299999934, -7.507143499999925 ], [ -34.913712, -7.508848199999921 ], [ -34.913799499999989, -7.508908799999986 ], [ -34.914271199999973, -7.510975599999921 ], [ -34.914265599999972, -7.5110668 ], [ -34.914366, -7.511919699999959 ], [ -34.913848899999948, -7.512127199999924 ], [ -34.913612099999973, -7.512299099999963 ], [ -34.913300699999979, -7.512574299999923 ], [ -34.91268139999994, -7.512948599999937 ], [ -34.911995299999944, -7.513130299999927 ], [ -34.912374899999968, -7.514575199999987 ], [ -34.910580899999957, -7.515102399999959 ], [ -34.907896299999948, -7.515854499999912 ], [ -34.904869299999987, -7.5166958 ], [ -34.903515499999962, -7.516696299999989 ], [ -34.901878499999953, -7.516355499999975 ], [ -34.899879799999951, -7.515879099999966 ], [ -34.901104599999933, -7.518126399999973 ], [ -34.904729299999929, -7.518372799999951 ], [ -34.904727799999925, -7.518382399999949 ], [ -34.904782399999938, -7.51839459999995 ], [ -34.904696, -7.518860399999952 ], [ -34.904632799999952, -7.519346299999937 ], [ -34.904614699999975, -7.519400499999962 ], [ -34.904538399999986, -7.519430699999938 ], [ -34.90445409999996, -7.519472799999955 ], [ -34.904353699999945, -7.519790099999967 ], [ -34.904264399999924, -7.520091199999984 ], [ -34.904254299999934, -7.520191599999987 ], [ -34.904103699999965, -7.52056109999994 ], [ -34.904010399999947, -7.520698599999927 ], [ -34.903954099999964, -7.520822099999958 ], [ -34.903913, -7.5208964 ], [ -34.903911099999959, -7.52090309999995 ], [ -34.903908699999931, -7.520912299999948 ], [ -34.9039107, -7.520912099999989 ], [ -34.903872, -7.520959199999934 ], [ -34.903872599999943, -7.520963799999936 ], [ -34.903857799999962, -7.520975199999942 ], [ -34.903865799999949, -7.521261299999933 ], [ -34.903867799999936, -7.5214862 ], [ -34.9038839, -7.521544399999924 ], [ -34.903931099999973, -7.521750199999928 ], [ -34.903969199999949, -7.52196 ], [ -34.90399529999997, -7.522124599999923 ], [ -34.904022399999974, -7.522286299999969 ], [ -34.904040299999963, -7.522286299999969 ], [ -34.904422799999963, -7.5253031 ], [ -34.907297699999951, -7.525150699999936 ], [ -34.908396, -7.524727799999914 ], [ -34.910159, -7.524102899999928 ], [ -34.910788299999972, -7.523854599999933 ], [ -34.912315699999972, -7.52331379999992 ], [ -34.914530699999943, -7.52304939999995 ], [ -34.915571299999954, -7.522975699999948 ], [ -34.92358239999993, -7.522247699999986 ], [ -34.923303399999959, -7.521806399999944 ] ] ], [ [ [ -34.929002199999964, -7.463480099999969 ], [ -34.927802499999984, -7.463365899999904 ], [ -34.927251399999939, -7.463337799999967 ], [ -34.926665499999956, -7.463305 ], [ -34.925362799999967, -7.463152799999956 ], [ -34.923660199999979, -7.463053799999961 ], [ -34.923747699999979, -7.461143799999927 ], [ -34.923700599999961, -7.461156299999973 ], [ -34.923637199999966, -7.46117309999994 ], [ -34.923604499999954, -7.461181899999916 ], [ -34.923577599999938, -7.461185599999978 ], [ -34.923534899999936, -7.461183099999972 ], [ -34.923508199999965, -7.461181599999972 ], [ -34.923491899999924, -7.461186 ], [ -34.9234436, -7.461188399999967 ], [ -34.923422299999977, -7.461187099999951 ], [ -34.923395299999989, -7.461190799999955 ], [ -34.923347, -7.461193199999967 ], [ -34.9233091, -7.461201599999985 ], [ -34.923286799999978, -7.461216299999942 ], [ -34.923237199999974, -7.46124 ], [ -34.923204299999959, -7.461254 ], [ -34.923171, -7.461273399999909 ], [ -34.923149099999932, -7.461282799999938 ], [ -34.923105699999951, -7.461290799999987 ], [ -34.92307359999996, -7.461288899999958 ], [ -34.923041499999954, -7.461286899999939 ], [ -34.923004099999964, -7.461284699999954 ], [ -34.922966, -7.461293099999971 ], [ -34.922949399999943, -7.461302799999961 ], [ -34.922922, -7.461311799999986 ], [ -34.9229, -7.461321199999949 ], [ -34.922883299999974, -7.46133089999993 ], [ -34.922855699999964, -7.461345299999934 ], [ -34.922833099999941, -7.461365299999971 ], [ -34.922810799999979, -7.461380099999954 ], [ -34.922776899999981, -7.461410199999928 ], [ -34.922743299999979, -7.461435199999928 ], [ -34.922721, -7.46145 ], [ -34.922687499999938, -7.461474899999927 ], [ -34.922649399999948, -7.461483599999931 ], [ -34.922622399999966, -7.461487399999944 ], [ -34.922600899999971, -7.461486299999914 ], [ -34.922573599999964, -7.461495499999966 ], [ -34.922562599999942, -7.461500199999917 ], [ -34.922534399999961, -7.461525399999961 ], [ -34.9225115, -7.461550799999918 ], [ -34.922489, -7.4615709 ], [ -34.922471699999953, -7.461591199999945 ], [ -34.922454199999947, -7.461616899999954 ], [ -34.922437, -7.461637299999956 ], [ -34.922425099999948, -7.4616579 ], [ -34.922402799999929, -7.461672699999965 ], [ -34.922385299999974, -7.461698299999941 ], [ -34.922362699999951, -7.461718399999938 ], [ -34.922345499999949, -7.461738799999971 ], [ -34.922333899999948, -7.461754099999932 ], [ -34.922311299999933, -7.4617742 ], [ -34.922282599999967, -7.46181 ], [ -34.922259799999949, -7.461835399999913 ], [ -34.922226899999941, -7.461849599999929 ], [ -34.922199, -7.461869399999955 ], [ -34.922182699999944, -7.461873899999938 ], [ -34.922144099999976, -7.461893099999942 ], [ -34.922117, -7.461896899999937 ], [ -34.922100599999958, -7.461901299999947 ], [ -34.922079, -7.461905499999957 ], [ -34.922030299999967, -7.461913499999969 ], [ -34.92199229999995, -7.461922099999985 ], [ -34.921959399999928, -7.461936399999945 ], [ -34.921932199999958, -7.46194559999998 ], [ -34.921904899999966, -7.461954699999962 ], [ -34.921883299999934, -7.461958899999972 ], [ -34.92184, -7.461967199999954 ], [ -34.921818099999946, -7.461976699999976 ], [ -34.921796399999948, -7.461980799999925 ], [ -34.92177479999998, -7.461985 ], [ -34.921742699999982, -7.461983199999968 ], [ -34.921695499999942, -7.461959299999922 ], [ -34.921674799999955, -7.461942199999944 ], [ -34.921632799999941, -7.461923899999932 ], [ -34.921601599999981, -7.461900799999976 ], [ -34.921570499999966, -7.461877699999963 ], [ -34.921544399999952, -7.46186019999996 ], [ -34.921518099999957, -7.461848099999957 ], [ -34.921486699999939, -7.461830399999958 ], [ -34.921476199999972, -7.461824399999959 ], [ -34.921460899999943, -7.461807499999979 ], [ -34.921424499999951, -7.46177879999992 ], [ -34.921403899999973, -7.461761699999978 ], [ -34.92137849999996, -7.461733599999921 ], [ -34.921362699999982, -7.4617274 ], [ -34.921331, -7.461715 ], [ -34.921298699999966, -7.461713199999985 ], [ -34.921259299999974, -7.461742899999948 ], [ -34.921230399999963, -7.461778599999952 ], [ -34.921213199999961, -7.461799 ], [ -34.921190499999966, -7.461824399999971 ], [ -34.921183799999945, -7.461850799999977 ], [ -34.921166899999946, -7.461865899999967 ], [ -34.921160599999936, -7.46188689999998 ], [ -34.921127499999955, -7.461901 ], [ -34.921111099999962, -7.461905499999919 ], [ -34.921089099999953, -7.46191489999993 ], [ -34.921061199999933, -7.461934699999956 ], [ -34.9210394, -7.461938799999938 ], [ -34.921012, -7.461948 ], [ -34.920984599999947, -7.461957099999931 ], [ -34.920946699999952, -7.461960399999975 ], [ -34.920908499999939, -7.461968899999935 ], [ -34.92087029999994, -7.461977499999957 ], [ -34.920837499999955, -7.461986299999968 ], [ -34.920804699999962, -7.461995199999953 ], [ -34.920771399999985, -7.462014699999939 ], [ -34.920743699999946, -7.462029199999979 ], [ -34.920710499999984, -7.462048699999957 ], [ -34.920672299999985, -7.462062599999975 ], [ -34.920645499999985, -7.462061199999933 ], [ -34.920602599999938, -7.4620588 ], [ -34.920597, -7.462063899999961 ], [ -34.920548799999949, -7.46206119999993 ], [ -34.920505899999959, -7.462058899999953 ], [ -34.920479099999973, -7.462057399999932 ], [ -34.920441799999935, -7.462050099999946 ], [ -34.920409699999936, -7.462048299999942 ], [ -34.920382899999943, -7.462046799999953 ], [ -34.92035629999998, -7.462040099999972 ], [ -34.920324099999959, -7.462038299999937 ], [ -34.920297199999936, -7.462036799999963 ], [ -34.920270399999943, -7.46203 ], [ -34.920243599999935, -7.462023199999951 ], [ -34.920217599999944, -7.462000399999961 ], [ -34.920201899999938, -7.461988799999954 ], [ -34.920186499999943, -7.461972 ], [ -34.920095099999983, -7.461923899999934 ], [ -34.920074299999946, -7.461912 ], [ -34.920048299999955, -7.461894499999969 ], [ -34.920016699999962, -7.461882 ], [ -34.919995899999954, -7.461870099999948 ], [ -34.919969299999941, -7.46186319999992 ], [ -34.919937699999934, -7.461850799999987 ], [ -34.919911199999945, -7.461843899999979 ], [ -34.919858099999935, -7.461830199999961 ], [ -34.919835699999972, -7.461844899999946 ], [ -34.919817499999965, -7.46188119999992 ], [ -34.919810099999943, -7.461918199999952 ], [ -34.919809499999936, -7.461928799999941 ], [ -34.919807499999941, -7.461966 ], [ -34.919805699999984, -7.461998 ], [ -34.919804199999923, -7.462024599999966 ], [ -34.919802199999943, -7.462061799999966 ], [ -34.919800099999975, -7.462099099999912 ], [ -34.919798599999979, -7.462125699999964 ], [ -34.919807299999945, -7.462163499999958 ], [ -34.919805799999949, -7.462190099999951 ], [ -34.91980429999996, -7.462216699999945 ], [ -34.919813899999951, -7.462238599999979 ], [ -34.919812399999962, -7.46226519999994 ], [ -34.919815399999948, -7.46230809999996 ], [ -34.919814299999985, -7.462329399999931 ], [ -34.919802299999965, -7.4623501 ], [ -34.919779699999928, -7.462370099999923 ], [ -34.919751699999956, -7.46238989999997 ], [ -34.919740599999955, -7.462394599999928 ], [ -34.919717399999968, -7.462425399999977 ], [ -34.91970009999995, -7.462445699999942 ], [ -34.919672, -7.462465499999976 ], [ -34.919649099999965, -7.462491 ], [ -34.919626199999982, -7.46251649999993 ], [ -34.919598699999938, -7.46252569999996 ], [ -34.919571, -7.4625402 ], [ -34.919554299999959, -7.46255 ], [ -34.919521199999963, -7.462564199999987 ], [ -34.91949939999995, -7.462568299999951 ], [ -34.919477699999959, -7.462572399999934 ], [ -34.919455399999947, -7.462587299999961 ], [ -34.919417499999952, -7.462590599999949 ], [ -34.919368099999936, -7.46260929999994 ], [ -34.919324699999947, -7.462617699999975 ], [ -34.919292299999945, -7.462621299999955 ], [ -34.919254799999976, -7.46261929999995 ], [ -34.919211899999937, -7.462617 ], [ -34.919174199999937, -7.462620299999966 ], [ -34.919120699999944, -7.462617399999917 ], [ -34.919077799999975, -7.462615199999981 ], [ -34.919023799999927, -7.462623 ], [ -34.918985899999939, -7.46263159999993 ], [ -34.918932399999967, -7.462628699999954 ], [ -34.91888929999994, -7.462631799999927 ], [ -34.918840699999976, -7.4626398 ], [ -34.918792099999962, -7.46263709999995 ], [ -34.918765199999939, -7.462635599999947 ], [ -34.918727099999955, -7.462638799999974 ], [ -34.918694699999953, -7.462637 ], [ -34.918646299999985, -7.462634299999912 ], [ -34.918592299999951, -7.46263669999996 ], [ -34.918549099999964, -7.462639699999954 ], [ -34.918505899999964, -7.462642699999946 ], [ -34.918468399999945, -7.462640599999914 ], [ -34.918425199999945, -7.4626436 ], [ -34.918349499999984, -7.462650099999957 ], [ -34.918267799999974, -7.462667 ], [ -34.91823, -7.462670299999969 ], [ -34.918208299999939, -7.462674499999946 ], [ -34.918159799999955, -7.462671799999948 ], [ -34.918116399999967, -7.462674699999977 ], [ -34.918051399999975, -7.462676499999906 ], [ -34.918002899999976, -7.462673799999942 ], [ -34.917992099999935, -7.462673199999919 ], [ -34.917938599999964, -7.462670399999964 ], [ -34.917906299999963, -7.462673899999979 ], [ -34.917863599999976, -7.462671699999941 ], [ -34.917820899999988, -7.4626694 ], [ -34.917793899999936, -7.462673199999907 ], [ -34.917761599999956, -7.462676799999959 ], [ -34.917691699999978, -7.462683699999955 ], [ -34.917648399999969, -7.462692099999953 ], [ -34.917610799999977, -7.462695399999969 ], [ -34.917562499999981, -7.462698099999939 ], [ -34.917524499999963, -7.462706699999976 ], [ -34.917476299999983, -7.462709499999949 ], [ -34.917417099999966, -7.462716899999966 ], [ -34.917373799999957, -7.462725299999932 ], [ -34.917330599999964, -7.462733599999977 ], [ -34.917293, -7.462736899999927 ], [ -34.917266299999937, -7.462740799999921 ], [ -34.917234299999969, -7.462744399999959 ], [ -34.917212499999948, -7.462753899999958 ], [ -34.917201299999945, -7.462763899999961 ], [ -34.917184099999922, -7.462784299999967 ], [ -34.917161, -7.462815 ], [ -34.917139, -7.46282979999993 ], [ -34.917084799999941, -7.462912299999988 ], [ -34.91705649999993, -7.462937399999946 ], [ -34.917027399999938, -7.4629783 ], [ -34.917009499999949, -7.463009099999972 ], [ -34.916980899999935, -7.4630395 ], [ -34.916962799999958, -7.463075699999933 ], [ -34.916939199999938, -7.463111599999922 ], [ -34.916915699999954, -7.463147499999938 ], [ -34.916904099999954, -7.463162899999911 ], [ -34.916891899999939, -7.46318889999998 ], [ -34.916879499999936, -7.463220199999966 ], [ -34.916872299999966, -7.463251799999958 ], [ -34.91684319999996, -7.463292899999961 ], [ -34.916837899999969, -7.463292599999933 ], [ -34.916814399999971, -7.463328699999971 ], [ -34.916796899999952, -7.463354299999937 ], [ -34.916779499999961, -7.463374599999962 ], [ -34.916761599999973, -7.463405499999953 ], [ -34.916738599999981, -7.463430799999963 ], [ -34.916721199999984, -7.463451099999905 ], [ -34.916697599999971, -7.463487 ], [ -34.916673299999964, -7.463533599999931 ], [ -34.916650299999958, -7.463558899999964 ], [ -34.916627199999937, -7.463584299999983 ], [ -34.916604199999938, -7.463609599999912 ], [ -34.91656519999998, -7.463634199999961 ], [ -34.916553799999967, -7.463644199999968 ], [ -34.916525199999974, -7.463674699999953 ], [ -34.916513799999962, -7.463684699999908 ], [ -34.916501499999974, -7.46371069999997 ], [ -34.916483899999946, -7.463736499999926 ], [ -34.91648269999996, -7.463757699999967 ], [ -34.916470199999935, -7.463789099999949 ], [ -34.916464, -7.463804799999923 ], [ -34.916451099999968, -7.4638414 ], [ -34.916438799999987, -7.463872799999932 ], [ -34.916426899999976, -7.463893499999925 ], [ -34.916420699999939, -7.463909199999939 ], [ -34.916397699999948, -7.46394 ], [ -34.916391199999964, -7.463961 ], [ -34.916368399999961, -7.463986399999936 ], [ -34.916345899999946, -7.464006499999932 ], [ -34.916328499999963, -7.464032199999987 ], [ -34.916300699999965, -7.464052 ], [ -34.916278199999965, -7.464072099999932 ], [ -34.916272599999949, -7.464077199999966 ], [ -34.916244299999967, -7.464107599999966 ], [ -34.91622209999997, -7.464122299999911 ], [ -34.916199799999958, -7.464137099999949 ], [ -34.9161721, -7.464151599999964 ], [ -34.91615, -7.464161 ], [ -34.916128, -7.464170499999985 ], [ -34.91610559999998, -7.464185299999964 ], [ -34.916078499999969, -7.464189099999951 ], [ -34.916061799999966, -7.464198899999944 ], [ -34.916023699999982, -7.464207499999924 ], [ -34.915984599999952, -7.464232 ], [ -34.915946199999951, -7.46424589999996 ], [ -34.915912699999978, -7.464265499999954 ], [ -34.915874199999955, -7.464279399999945 ], [ -34.915856799999965, -7.464299799999931 ], [ -34.915833699999958, -7.464325299999941 ], [ -34.91581629999996, -7.464345699999973 ], [ -34.915815, -7.464367 ], [ -34.915802399999961, -7.464398399999917 ], [ -34.915784, -7.464434799999928 ], [ -34.915765699999959, -7.464471199999932 ], [ -34.91575359999996, -7.464491899999904 ], [ -34.915718799999986, -7.4645328 ], [ -34.915678199999959, -7.464584 ], [ -34.915672199999953, -7.464594399999951 ], [ -34.915654, -7.464630799999964 ], [ -34.915647099999951, -7.464657099999932 ], [ -34.915646199999962, -7.4646731 ], [ -34.915645, -7.464694399999928 ], [ -34.91563839999997, -7.464715399999938 ], [ -34.915642399999967, -7.464742299999947 ], [ -34.915651599999933, -7.464769399999981 ], [ -34.91566069999994, -7.46480189999994 ], [ -34.915669899999955, -7.464829099999958 ], [ -34.91567919999995, -7.464856299999974 ], [ -34.915692699999965, -7.464905 ], [ -34.915692499999977, -7.46491039999995 ], [ -34.915706199999931, -7.464953799999943 ], [ -34.91571069999997, -7.46497 ], [ -34.915715, -7.464991599999975 ], [ -34.915723699999944, -7.465029299999943 ], [ -34.915733099999947, -7.465056499999935 ], [ -34.915737899999961, -7.465067399999953 ], [ -34.9157532, -7.4650842 ], [ -34.915768499999963, -7.465101 ], [ -34.915783499999975, -7.465123099999976 ], [ -34.915809699999954, -7.46513509999996 ], [ -34.915846199999983, -7.465158399999956 ], [ -34.915877799999983, -7.465170699999907 ], [ -34.915888599999967, -7.465171299999932 ], [ -34.915914599999951, -7.465188599999956 ], [ -34.915946, -7.4652063 ], [ -34.915966599999933, -7.465223299999953 ], [ -34.915982799999938, -7.465224199999935 ], [ -34.916019799999958, -7.465236699999958 ], [ -34.916040799999962, -7.465248499999965 ], [ -34.916061099999986, -7.465270799999918 ], [ -34.916076299999929, -7.465287599999958 ], [ -34.916091599999959, -7.4653044 ], [ -34.916101199999957, -7.465326199999917 ], [ -34.91611549999994, -7.465358899999966 ], [ -34.91612989999993, -7.465391699999949 ], [ -34.916128399999941, -7.46541819999995 ], [ -34.916123899999945, -7.465503 ], [ -34.916120899999946, -7.4655612 ], [ -34.916114099999966, -7.465587399999962 ], [ -34.916091, -7.465618 ], [ -34.916063399999985, -7.465632399999957 ], [ -34.915993299999968, -7.46569 ], [ -34.915893899999965, -7.465745099999919 ], [ -34.916142099999938, -7.466560299999985 ], [ -34.91550849999993, -7.466794799999933 ], [ -34.91558629999998, -7.46714889999993 ], [ -34.915746599999977, -7.467862099999925 ], [ -34.915709799999952, -7.467885299999965 ], [ -34.915784599999938, -7.468371 ], [ -34.915882199999942, -7.468995799999975 ], [ -34.915871699999975, -7.469663599999943 ], [ -34.916666199999952, -7.468924399999959 ], [ -34.916800299999977, -7.468719199999962 ], [ -34.917049099999929, -7.468493 ], [ -34.917368499999959, -7.468201099999914 ], [ -34.917610099999933, -7.467975699999951 ], [ -34.917715799999939, -7.467812499999964 ], [ -34.917899899999959, -7.467595399999953 ], [ -34.918180099999965, -7.467491499999939 ], [ -34.918444099999931, -7.467399199999954 ], [ -34.918937299999989, -7.467408099999925 ], [ -34.919284699999942, -7.467537599999946 ], [ -34.921143799999989, -7.468896799999932 ], [ -34.921613899999947, -7.469240499999962 ], [ -34.922341899999935, -7.468891599999949 ], [ -34.924377799999945, -7.467876899999951 ], [ -34.928836299999944, -7.465452899999924 ], [ -34.928612299999948, -7.465228 ], [ -34.929002199999964, -7.463480099999969 ] ] ] ] } }
]
}
