{
"type": "FeatureCollection",
"name": "2503209",
"crs": { "type": "name", "properties": { "name": "urn:ogc:def:crs:OGC:1.3:CRS84" } },
"features": [
{ "type": "Feature", "properties": { "CD_MUN": "2503209", "NM_MUN": "Cabedelo" }, "geometry": { "type": "Polygon", "coordinates": [ [ [ -34.848561899999929, -7.099940399999989 ], [ -34.848845699999977, -7.099939299999979 ], [ -34.849143699999949, -7.099685 ], [ -34.849734099999985, -7.09892089999994 ], [ -34.849864499999967, -7.098705099999937 ], [ -34.849942699999936, -7.098396799999943 ], [ -34.849964199999938, -7.098289599999923 ], [ -34.850024699999949, -7.098198199999967 ], [ -34.850105599999949, -7.098157399999946 ], [ -34.850217099999959, -7.098167099999962 ], [ -34.850359199999957, -7.098207 ], [ -34.850754599999959, -7.098225699999945 ], [ -34.850947099999985, -7.098224899999916 ], [ -34.851149, -7.098001299999984 ], [ -34.851290399999982, -7.097899499999934 ], [ -34.851350799999977, -7.097787899999986 ], [ -34.851390699999968, -7.09763589999994 ], [ -34.851662799999929, -7.097229799999977 ], [ -34.851722899999963, -7.097057399999918 ], [ -34.851742799999954, -7.096966199999915 ], [ -34.851823399999944, -7.096834299999978 ], [ -34.851985499999955, -7.096823499999974 ], [ -34.852137699999957, -7.096863399999967 ], [ -34.852472199999966, -7.096862099999985 ], [ -34.852664899999979, -7.096891699999959 ], [ -34.852938599999959, -7.096900699999915 ], [ -34.853191799999941, -7.096849099999922 ], [ -34.853830299999977, -7.096645599999914 ], [ -34.854100899999928, -7.0965593 ], [ -34.854454699999955, -7.096460799999938 ], [ -34.854588799999938, -7.096418299999925 ], [ -34.854760699999922, -7.0963366 ], [ -34.854861799999973, -7.096255199999979 ], [ -34.854922199999983, -7.096163799999935 ], [ -34.854942, -7.096042199999958 ], [ -34.854931299999976, -7.095900499999973 ], [ -34.855062599999933, -7.095778499999958 ], [ -34.855294399999941, -7.095443499999907 ], [ -34.855354599999941, -7.095291399999957 ], [ -34.855455599999971, -7.09521 ], [ -34.85565, -7.095149 ], [ -34.85588069999995, -7.095076599999985 ], [ -34.85617479999997, -7.095095699999961 ], [ -34.856418, -7.095084599999956 ], [ -34.856715299999962, -7.095102499999923 ], [ -34.857107299999939, -7.095122299999985 ], [ -34.857161, -7.095136299999958 ], [ -34.857442599999956, -7.095202499999965 ], [ -34.857761, -7.095296399999918 ], [ -34.858081499999969, -7.095401899999946 ], [ -34.858446699999945, -7.095481499999976 ], [ -34.858791399999973, -7.095500399999935 ], [ -34.858993899999987, -7.095459 ], [ -34.859155599999958, -7.095336899999938 ], [ -34.859296599999936, -7.095113599999944 ], [ -34.859395199999938, -7.094368799999923 ], [ -34.859414699999952, -7.094222099999956 ], [ -34.859451, -7.094142099999954 ], [ -34.859515, -7.093978699999988 ], [ -34.859574699999946, -7.093695 ], [ -34.859512099999961, -7.093249799999986 ], [ -34.859507299999962, -7.093242099999957 ], [ -34.859410099999927, -7.093088199999976 ], [ -34.859145499999954, -7.092826 ], [ -34.858583099999976, -7.09217469999992 ], [ -34.858106499999963, -7.091534199999939 ], [ -34.857718599999941, -7.090847299999968 ], [ -34.85759, -7.090517299999928 ], [ -34.857513799999936, -7.0903216 ], [ -34.857430199999953, -7.089694199999967 ], [ -34.85748909999996, -7.089208 ], [ -34.857608799999987, -7.088741699999945 ], [ -34.857890899999965, -7.088315399999953 ], [ -34.858437299999942, -7.088090399999934 ], [ -34.85898409999993, -7.08796679999996 ], [ -34.85947079999994, -7.088005299999985 ], [ -34.860281699999973, -7.0880223 ], [ -34.861194299999966, -7.08811989999997 ], [ -34.861863699999965, -7.088238699999989 ], [ -34.862390599999976, -7.088196099999938 ], [ -34.862774699999925, -7.087931299999981 ], [ -34.863356599999968, -7.086450799999947 ], [ -34.863434099999957, -7.085559499999952 ], [ -34.863410299999948, -7.084688899999948 ], [ -34.863412, -7.084674399999921 ], [ -34.863469099999968, -7.084182399999987 ], [ -34.863750699999976, -7.08363449999997 ], [ -34.864073399999938, -7.083248499999981 ], [ -34.86457889999997, -7.082922499999952 ], [ -34.865205099999976, -7.082373199999949 ], [ -34.865749, -7.081520599999964 ], [ -34.86584749999998, -7.080811399999967 ], [ -34.865884799999947, -7.080021599999975 ], [ -34.865596499999981, -7.078888699999917 ], [ -34.864780199999984, -7.077515099999967 ], [ -34.86417, -7.07701130000001 ], [ -34.863418599999932, -7.076649799999926 ], [ -34.862424599999947, -7.076471499999984 ], [ -34.861573199999953, -7.076454699999939 ], [ -34.860842799999936, -7.076295599999967 ], [ -34.859969599999935, -7.075894099999957 ], [ -34.859461699999947, -7.075612599999913 ], [ -34.859216699999934, -7.075188399999965 ], [ -34.859031899999934, -7.07458159999992 ], [ -34.859089299999937, -7.073730899999932 ], [ -34.859308899999974, -7.072879599999951 ], [ -34.859422, -7.072136299999936 ], [ -34.859563599999944, -7.070691599999955 ], [ -34.859540599999946, -7.070003199999976 ], [ -34.859422, -7.069491899999939 ], [ -34.859245899999969, -7.068931799999945 ], [ -34.859027299999987, -7.068365 ], [ -34.858090699999934, -7.067050799999936 ], [ -34.857396899999976, -7.066164299999945 ], [ -34.857110199999973, -7.0654365 ], [ -34.857029099999977, -7.0650277 ], [ -34.857044599999945, -7.064242 ], [ -34.857466099999961, -7.063187399999937 ], [ -34.85809109999996, -7.062354699999953 ], [ -34.858698199999935, -7.062109199999928 ], [ -34.860989699999948, -7.061531299999953 ], [ -34.861371299999981, -7.061470799999955 ], [ -34.86338539999997, -7.060774299999924 ], [ -34.863323699999967, -7.058317299999965 ], [ -34.861387199999967, -7.05887159999997 ], [ -34.861270399999967, -7.058902499999934 ], [ -34.859850599999959, -7.056219599999968 ], [ -34.857551299999962, -7.051685699999976 ], [ -34.85703319999994, -7.050341799999944 ], [ -34.856757899999941, -7.048844 ], [ -34.85610109999994, -7.045564099999964 ], [ -34.855730199999989, -7.043817399999948 ], [ -34.855291499999964, -7.038144 ], [ -34.85532789999997, -7.034154699999934 ], [ -34.855357599999934, -7.033269599999939 ], [ -34.859911899999929, -7.032969099999968 ], [ -34.858955199999976, -7.0296655 ], [ -34.857098699999931, -7.029642099999948 ], [ -34.855006, -7.028846299999931 ], [ -34.85434749999996, -7.02817559999994 ], [ -34.85341439999997, -7.02722519999998 ], [ -34.852618599999978, -7.025928299999984 ], [ -34.850738599999943, -7.024349099999931 ], [ -34.850408, -7.024071499999955 ], [ -34.847224799999942, -7.020239799999941 ], [ -34.844778499999968, -7.017970299999963 ], [ -34.843933899999968, -7.017304199999943 ], [ -34.84268579999997, -7.016319799999975 ], [ -34.840121499999952, -7.013843899999937 ], [ -34.839115899999967, -7.01273 ], [ -34.838968099999938, -7.012566299999937 ], [ -34.838205699999946, -7.011721799999964 ], [ -34.837263199999946, -7.01028329999997 ], [ -34.837085699999932, -7.010012299999979 ], [ -34.836348799999953, -7.008302799999948 ], [ -34.835621699999933, -7.0065721 ], [ -34.834939199999951, -7.004947399999955 ], [ -34.835199399999958, -7.003085899999981 ], [ -34.83533539999997, -7.002172699999953 ], [ -34.83540569999996, -7.001700599999953 ], [ -34.835906699999953, -7.000285799999971 ], [ -34.835733199999936, -6.999773599999982 ], [ -34.835527199999952, -6.9991654 ], [ -34.835287799999954, -6.998458399999923 ], [ -34.834991799999955, -6.997409599999966 ], [ -34.834256199999977, -6.994803599999966 ], [ -34.834020399999929, -6.993580399999948 ], [ -34.833976199999938, -6.992578299999935 ], [ -34.833975399999929, -6.99249789999992 ], [ -34.833975, -6.992460099999949 ], [ -34.833961399999964, -6.991119399999951 ], [ -34.83418249999994, -6.987626699999988 ], [ -34.834347799999932, -6.986678199999957 ], [ -34.834364299999955, -6.986583499999965 ], [ -34.834462499999972, -6.986020299999959 ], [ -34.834685799999932, -6.984787299999955 ], [ -34.834801499999969, -6.984148699999943 ], [ -34.835214099999973, -6.982792899999922 ], [ -34.8353696, -6.982397 ], [ -34.835700399999943, -6.981555 ], [ -34.835654899999959, -6.980918 ], [ -34.835576299999964, -6.979816699999939 ], [ -34.835567799999978, -6.97969809999997 ], [ -34.835626699999978, -6.9790202 ], [ -34.835650499999936, -6.978860399999969 ], [ -34.835708599999982, -6.978470599999988 ], [ -34.83572989999994, -6.978327599999933 ], [ -34.835950899999943, -6.9775023 ], [ -34.836157299999975, -6.977104399999964 ], [ -34.836555199999971, -6.9765002 ], [ -34.837019499999933, -6.975708099999983 ], [ -34.837056199999942, -6.975645399999951 ], [ -34.837527799999982, -6.975940199999953 ], [ -34.840784699999965, -6.970399 ], [ -34.840763699999968, -6.970324299999946 ], [ -34.84065209999995, -6.969927399999946 ], [ -34.840711, -6.969706399999966 ], [ -34.842494199999969, -6.966788399999936 ], [ -34.8430542, -6.96525579999996 ], [ -34.843079, -6.96427969999998 ], [ -34.843095499999954, -6.963627599999956 ], [ -34.843127899999956, -6.962352599999988 ], [ -34.842464199999938, -6.962464399999963 ], [ -34.842379799999961, -6.962505599999916 ], [ -34.841860899999979, -6.962599599999986 ], [ -34.84179079999997, -6.962613 ], [ -34.8417348, -6.962612699999971 ], [ -34.841678599999966, -6.962640099999957 ], [ -34.84120189999993, -6.962734299999964 ], [ -34.840795299999968, -6.962801199999948 ], [ -34.840767299999982, -6.962814899999975 ], [ -34.840327099999961, -6.962911499999943 ], [ -34.839807, -6.96317239999996 ], [ -34.838725799999963, -6.96352719999993 ], [ -34.837799099999984, -6.963827199999987 ], [ -34.837544399999956, -6.963921399999932 ], [ -34.83668949999997, -6.964237499999967 ], [ -34.835326599999973, -6.9646468 ], [ -34.835298599999938, -6.964646599999967 ], [ -34.834787299999959, -6.964712799999968 ], [ -34.833463299999949, -6.964884299999955 ], [ -34.832790699999968, -6.964907799999928 ], [ -34.831598, -6.96522 ], [ -34.83083819999996, -6.965647099999964 ], [ -34.83053979999994, -6.965870299999946 ], [ -34.830064299999947, -6.96622589999992 ], [ -34.829697099999983, -6.966814499999928 ], [ -34.829398899999951, -6.967292599999958 ], [ -34.828829099999957, -6.968817199999938 ], [ -34.82861459999998, -6.969538 ], [ -34.828602499999938, -6.969624199999954 ], [ -34.828438, -6.970791099999945 ], [ -34.828421099999957, -6.970882099999933 ], [ -34.828278, -6.971651299999975 ], [ -34.828092099999928, -6.972357399999949 ], [ -34.827961499999965, -6.973243899999924 ], [ -34.827935099999934, -6.9736685 ], [ -34.827883, -6.974506899999956 ], [ -34.827772399999958, -6.976168399999964 ], [ -34.827592399999958, -6.978873899999916 ], [ -34.827461099999937, -6.980847199999988 ], [ -34.827365799999939, -6.98280829999992 ], [ -34.82727449999993, -6.984686399999934 ], [ -34.82720879999993, -6.986039599999958 ], [ -34.826995099999984, -6.988843399999956 ], [ -34.827007099999953, -6.98886779999996 ], [ -34.827006699999963, -6.988928599999948 ], [ -34.827038899999934, -6.989620899999963 ], [ -34.82693729999994, -6.990237899999936 ], [ -34.826242799999932, -6.995045199999932 ], [ -34.826034799999945, -6.996485099999978 ], [ -34.825758299999961, -6.998119799999899 ], [ -34.825653199999969, -6.998741399999986 ], [ -34.825580199999933, -6.999172599999972 ], [ -34.825300799999987, -7.000591599999938 ], [ -34.825227799999936, -7.001048099999922 ], [ -34.825211599999932, -7.001149199999914 ], [ -34.825211399999944, -7.0011734 ], [ -34.82516829999998, -7.002204499999938 ], [ -34.825168099999985, -7.002228799999962 ], [ -34.8252, -7.003017899999958 ], [ -34.825199599999962, -7.003090799999924 ], [ -34.825187, -7.003163599999945 ], [ -34.825231299999984, -7.003928899999946 ], [ -34.825231099999939, -7.003953099999923 ], [ -34.825264899999979, -7.004210299999943 ], [ -34.825335299999956, -7.004746899999957 ], [ -34.825369699999953, -7.005100099999959 ], [ -34.825381799999946, -7.005124599999956 ], [ -34.825387399999954, -7.005159099999966 ], [ -34.825393599999984, -7.005197699999952 ], [ -34.825392299999983, -7.005387099999974 ], [ -34.825391599999932, -7.005487399999962 ], [ -34.825391499999967, -7.005511599999975 ], [ -34.825395399999934, -7.005528199999958 ], [ -34.825462899999934, -7.00581509999995 ], [ -34.825595399999941, -7.006119499999969 ], [ -34.825595199999952, -7.006143699999945 ], [ -34.825763399999971, -7.006594499999953 ], [ -34.825931699999963, -7.006998 ], [ -34.826207399999937, -7.007894899999933 ], [ -34.82621939999995, -7.007919199999944 ], [ -34.826219099999946, -7.007979799999958 ], [ -34.82654349999995, -7.009016 ], [ -34.826603199999965, -7.009206899999979 ], [ -34.826873699999972, -7.010428199999965 ], [ -34.826873599999942, -7.010440299999959 ], [ -34.826898399999948, -7.01064079999997 ], [ -34.826920199999961, -7.010817099999958 ], [ -34.827218099999989, -7.012057399999928 ], [ -34.827453399999968, -7.012944199999922 ], [ -34.827576299999983, -7.013407099999963 ], [ -34.828007199999952, -7.014828599999921 ], [ -34.828126799999964, -7.015300099999918 ], [ -34.828186099999982, -7.0155339 ], [ -34.828569799999968, -7.016652399999955 ], [ -34.828804399999967, -7.017294099999943 ], [ -34.829014299999983, -7.017868299999985 ], [ -34.82912169999998, -7.018219899999948 ], [ -34.829181, -7.018523799999989 ], [ -34.829180799999953, -7.01856029999996 ], [ -34.829179599999982, -7.01882829999995 ], [ -34.829179499999945, -7.018852699999975 ], [ -34.829179299999964, -7.018901399999975 ], [ -34.829164799999951, -7.0192532 ], [ -34.8292666, -7.020109 ], [ -34.829316699999936, -7.020869499999941 ], [ -34.829435199999971, -7.022669 ], [ -34.829478299999955, -7.023323799999944 ], [ -34.829511, -7.023930599999984 ], [ -34.829592799999936, -7.024501399999982 ], [ -34.829592699999978, -7.024513499999958 ], [ -34.829602699999946, -7.024671599999976 ], [ -34.829637, -7.025217199999922 ], [ -34.829615399999973, -7.025733199999944 ], [ -34.829509299999984, -7.028274399999947 ], [ -34.829476499999949, -7.029522099999938 ], [ -34.829600699999965, -7.030671299999919 ], [ -34.82978, -7.031217899999955 ], [ -34.829982799999975, -7.031637599999951 ], [ -34.830020299999944, -7.031715299999989 ], [ -34.830021, -7.031716799999988 ], [ -34.83031219999998, -7.032094899999938 ], [ -34.830567099999932, -7.032400099999974 ], [ -34.830615799999968, -7.032436799999963 ], [ -34.830944699999975, -7.032681899999955 ], [ -34.831479399999985, -7.033112 ], [ -34.831492399999945, -7.033122399999955 ], [ -34.832016299999957, -7.033490099999931 ], [ -34.832368699999968, -7.033764499999971 ], [ -34.832771199999968, -7.03407769999994 ], [ -34.833483, -7.034717199999951 ], [ -34.833914, -7.035104399999962 ], [ -34.834820499999985, -7.036130299999981 ], [ -34.835815499999967, -7.037263699999929 ], [ -34.835959399999986, -7.037474 ], [ -34.836700199999939, -7.038556199999987 ], [ -34.837293799999934, -7.039370599999917 ], [ -34.837802799999956, -7.040069099999947 ], [ -34.837928199999965, -7.040260099999945 ], [ -34.838226499999955, -7.040714599999953 ], [ -34.840267, -7.0447715 ], [ -34.840628399999964, -7.045634299999946 ], [ -34.84062839999995, -7.045646399999965 ], [ -34.840687599999967, -7.045808899999945 ], [ -34.841576899999943, -7.04825049999995 ], [ -34.841697, -7.048675299999979 ], [ -34.841887, -7.049858 ], [ -34.842214399999932, -7.051895399999974 ], [ -34.842271099999941, -7.052261899999944 ], [ -34.842342699999953, -7.052724499999937 ], [ -34.842394599999977, -7.053941299999957 ], [ -34.842407399999964, -7.055654799999943 ], [ -34.842409199999963, -7.055892199999941 ], [ -34.842401799999955, -7.055978599999944 ], [ -34.8432792, -7.056034799999963 ], [ -34.843730499999936, -7.056103899999938 ], [ -34.843857499999956, -7.056189399999947 ], [ -34.843944, -7.056221099999977 ], [ -34.844035099999928, -7.056254499999964 ], [ -34.844258099999934, -7.056263799999958 ], [ -34.844460799999979, -7.0562528 ], [ -34.844583199999931, -7.056238099999985 ], [ -34.844678599999945, -7.056226699999973 ], [ -34.844891599999983, -7.056276499999979 ], [ -34.845150699999976, -7.056447599999969 ], [ -34.845450099999944, -7.056547599999933 ], [ -34.846017, -7.056772499999986 ], [ -34.846069299999954, -7.056793199999963 ], [ -34.846368299999945, -7.056787 ], [ -34.846523299999944, -7.056849799999947 ], [ -34.846566199999984, -7.056867199999948 ], [ -34.846744399999984, -7.057084199999943 ], [ -34.846821299999938, -7.057291399999936 ], [ -34.846836899999971, -7.057392599999954 ], [ -34.846787199999945, -7.057640899999986 ], [ -34.846919899999932, -7.057898499999952 ], [ -34.847387599999934, -7.05826119999996 ], [ -34.847494599999941, -7.058402499999922 ], [ -34.8476783, -7.058735899999926 ], [ -34.847912599999972, -7.05903369999993 ], [ -34.848040199999957, -7.059255899999928 ], [ -34.84822349999996, -7.059472799999964 ], [ -34.848518299999967, -7.05969439999997 ], [ -34.848787099999981, -7.0597744 ], [ -34.84896, -7.059910399999977 ], [ -34.849011099999984, -7.060026599999958 ], [ -34.84896119999997, -7.060229299999934 ], [ -34.848961299999935, -7.060233199999945 ], [ -34.848962499999978, -7.060543199999946 ], [ -34.8490341, -7.0607201 ], [ -34.849256099999934, -7.060978 ], [ -34.849329399999931, -7.061063099999953 ], [ -34.849396, -7.061250199999956 ], [ -34.849431799999927, -7.061315799999917 ], [ -34.849468, -7.061513099999945 ], [ -34.849428, -7.061634799999982 ], [ -34.849337, -7.061701 ], [ -34.849256099999941, -7.06175189999995 ], [ -34.849183299999936, -7.061775899999911 ], [ -34.849192899999935, -7.061825699999916 ], [ -34.849267299999951, -7.062208199999918 ], [ -34.849304, -7.062644099999932 ], [ -34.849281899999937, -7.063205299999915 ], [ -34.849034, -7.064295499999933 ], [ -34.849030899999953, -7.0647008 ], [ -34.848910799999949, -7.064977299999962 ], [ -34.848835599999965, -7.065329799999962 ], [ -34.848648499999967, -7.065897699999913 ], [ -34.848585899999939, -7.066239699999957 ], [ -34.848557799999988, -7.066557799999952 ], [ -34.848493099999985, -7.066822299999973 ], [ -34.848453899999988, -7.06696819999995 ], [ -34.848408899999988, -7.067268199999949 ], [ -34.848317199999954, -7.067773099999937 ], [ -34.848335299999981, -7.067981 ], [ -34.848293499999961, -7.068174899999969 ], [ -34.848172899999952, -7.068438599999969 ], [ -34.848046899999922, -7.068657 ], [ -34.847913699999935, -7.068765899999941 ], [ -34.847856199999974, -7.068906799999965 ], [ -34.847755199999931, -7.069154 ], [ -34.847728, -7.069221099999925 ], [ -34.84762969999997, -7.069463399999941 ], [ -34.847443299999952, -7.069727299999955 ], [ -34.847328499999954, -7.070178299999941 ], [ -34.847159299999923, -7.070948499999927 ], [ -34.847099199999946, -7.071151199999951 ], [ -34.847029899999939, -7.071567399999906 ], [ -34.84698039999995, -7.071845299999969 ], [ -34.847011399999936, -7.072002099999962 ], [ -34.847093699999959, -7.072134899999978 ], [ -34.847108299999945, -7.072158599999982 ], [ -34.847099, -7.07237129999993 ], [ -34.847058899999986, -7.07246759999995 ], [ -34.846887199999983, -7.072620199999952 ], [ -34.846887799999934, -7.072782199999953 ], [ -34.846923199999935, -7.072966799999985 ], [ -34.846934399999952, -7.073025 ], [ -34.84693319999996, -7.0733691 ], [ -34.846916299999982, -7.0735769 ], [ -34.8468928, -7.073648599999943 ], [ -34.846806599999987, -7.074022799999958 ], [ -34.846817499999929, -7.074225199999926 ], [ -34.846853599999974, -7.074377 ], [ -34.846965799999964, -7.074558799999972 ], [ -34.846986499999957, -7.07467009999994 ], [ -34.846992099999966, -7.074801699999989 ], [ -34.84705839999998, -7.074897599999941 ], [ -34.847078, -7.075302299999971 ], [ -34.847084199999983, -7.075429799999912 ], [ -34.847147399999976, -7.075626199999941 ], [ -34.847143199999941, -7.07583379999994 ], [ -34.847047599999946, -7.076016399999943 ], [ -34.846947299999954, -7.076264899999955 ], [ -34.846938099999932, -7.07658769999995 ], [ -34.846931699999971, -7.076923599999914 ], [ -34.846833299999957, -7.077207799999957 ], [ -34.846807499999954, -7.07754 ], [ -34.846775699999966, -7.07773369999997 ], [ -34.846765699999942, -7.078325499999926 ], [ -34.846762299999959, -7.078730399999909 ], [ -34.846756599999935, -7.078843399999908 ], [ -34.846746899999971, -7.07940439999991 ], [ -34.846825199999955, -7.079981199999958 ], [ -34.846974699999969, -7.080614599999968 ], [ -34.847135, -7.081422699999954 ], [ -34.84726969999997, -7.082161299999927 ], [ -34.847297499999968, -7.082676799999921 ], [ -34.847317199999964, -7.08339729999996 ], [ -34.847306499999945, -7.083766 ], [ -34.847374699999932, -7.08434279999995 ], [ -34.847393499999953, -7.084666799999976 ], [ -34.847418499999954, -7.085152599999963 ], [ -34.847410199999963, -7.085623499999941 ], [ -34.847338699999966, -7.086757699999982 ], [ -34.847189499999963, -7.0887276 ], [ -34.847247799999934, -7.089370299999938 ], [ -34.846873899999942, -7.09228739999996 ], [ -34.846859899999977, -7.092505499999942 ], [ -34.846912599999939, -7.093021599999926 ], [ -34.846923499999946, -7.093208899999953 ], [ -34.846262399999951, -7.095170699999912 ], [ -34.846139, -7.095991299999985 ], [ -34.845784, -7.097202599999926 ], [ -34.845553199999983, -7.0978009 ], [ -34.845550399999986, -7.097953799999976 ], [ -34.845524, -7.099360199999972 ], [ -34.84564469999998, -7.099335 ], [ -34.846011599999947, -7.099300599999911 ], [ -34.846253499999939, -7.099301599999956 ], [ -34.846628699999954, -7.099340599999948 ], [ -34.84690789999997, -7.099461 ], [ -34.847475499999973, -7.099614699999949 ], [ -34.847685399999939, -7.099675599999943 ], [ -34.848191499999984, -7.099815299999935 ], [ -34.84835389999995, -7.099885599999934 ], [ -34.848561899999929, -7.099940399999989 ] ] ] } }
]
}
