{
"type": "FeatureCollection",
"name": "2504801",
"crs": { "type": "name", "properties": { "name": "urn:ogc:def:crs:OGC:1.3:CRS84" } },
"features": [
{ "type": "Feature", "properties": { "CD_MUN": "2504801", "NM_MUN": "Coremas" }, "geometry": { "type": "Polygon", "coordinates": [ [ [ -37.94815129999995, -7.023603199999986 ], [ -37.953410499999968, -7.023819599999973 ], [ -37.953495299999936, -7.023690099999952 ], [ -37.953877399999961, -7.023341099999938 ], [ -37.953936, -7.023295199999962 ], [ -37.953976399999931, -7.023272699999948 ], [ -37.954015099999936, -7.023251099999925 ], [ -37.95412129999994, -7.02319189999998 ], [ -37.954221799999971, -7.0231358 ], [ -37.95439539999996, -7.02305 ], [ -37.954731799999927, -7.022884 ], [ -37.955877499999929, -7.0224588 ], [ -37.957184899999959, -7.022085299999934 ], [ -37.957377299999962, -7.022156499999965 ], [ -37.957831, -7.022102799999972 ], [ -37.958823299999956, -7.021631 ], [ -37.959130399999943, -7.021450399999955 ], [ -37.959771099999948, -7.021396899999963 ], [ -37.960112199999969, -7.021475699999945 ], [ -37.960415199999936, -7.021485899999943 ], [ -37.960658899999935, -7.021521099999983 ], [ -37.960952899999945, -7.021449099999898 ], [ -37.961543699999943, -7.021629799999975 ], [ -37.96189889999993, -7.021722899999916 ], [ -37.962689399999931, -7.021868599999933 ], [ -37.963196799999928, -7.02185689999992 ], [ -37.963701199999953, -7.022003899999973 ], [ -37.964049799999941, -7.021871199999961 ], [ -37.964190899999949, -7.021765699999965 ], [ -37.965240699999981, -7.022555199999952 ], [ -37.965273399999944, -7.02257069999995 ], [ -37.965478399999945, -7.022627199999906 ], [ -37.965653599999939, -7.022698899999954 ], [ -37.966039499999965, -7.022741 ], [ -37.966299699999972, -7.0227437 ], [ -37.966588399999985, -7.022673799999938 ], [ -37.966841699999982, -7.022699899999967 ], [ -37.967155499999933, -7.022689399999946 ], [ -37.967246699999976, -7.022619599999939 ], [ -37.96719109999998, -7.02245129999994 ], [ -37.967028199999966, -7.02227409999992 ], [ -37.967015199999942, -7.022056799999953 ], [ -37.967095099999945, -7.021950299999953 ], [ -37.967394899999938, -7.02201019999994 ], [ -37.96752249999998, -7.022091899999965 ], [ -37.967572899999944, -7.0220859 ], [ -37.967933499999965, -7.022019899999953 ], [ -37.967739799999954, -7.021213299999954 ], [ -37.967691199999926, -7.020178599999959 ], [ -37.967379599999965, -7.019711399999942 ], [ -37.967182399999956, -7.018712 ], [ -37.966995, -7.018241599999959 ], [ -37.966253299999941, -7.017713299999962 ], [ -37.966112799999969, -7.01731 ], [ -37.966262699999966, -7.016953299999953 ], [ -37.966249699999928, -7.016688099999968 ], [ -37.966390099999956, -7.016450099999911 ], [ -37.96652679999994, -7.016201499999972 ], [ -37.966502699999978, -7.015947199999979 ], [ -37.965501099999983, -7.0157374 ], [ -37.963673899999947, -7.015666699999959 ], [ -37.9626641, -7.015586799999924 ], [ -37.962689499999954, -7.014044499999954 ], [ -37.963424799999984, -7.013471199999955 ], [ -37.963482599999971, -7.012643 ], [ -37.96364379999995, -7.012055699999934 ], [ -37.964009699999963, -7.011668 ], [ -37.964401699999947, -7.0115509 ], [ -37.964627299999968, -7.010797699999952 ], [ -37.964641799999981, -7.010749099999936 ], [ -37.963529299999955, -7.010751599999939 ], [ -37.963115699999953, -7.010806499999942 ], [ -37.962544399999956, -7.010992899999955 ], [ -37.962227199999965, -7.011348799999957 ], [ -37.962036, -7.011479599999959 ], [ -37.961056799999938, -7.012252899999987 ], [ -37.959499899999969, -7.012563899999983 ], [ -37.959568099999956, -7.012195099999944 ], [ -37.959246199999946, -7.010689 ], [ -37.959134099999964, -7.010479399999968 ], [ -37.958822499999947, -7.010270499999912 ], [ -37.958541099999934, -7.009955199999977 ], [ -37.958414599999969, -7.009534599999919 ], [ -37.95846, -7.009250799999955 ], [ -37.958578, -7.008802299999966 ], [ -37.958167399999972, -7.008783899999982 ], [ -37.95702679999993, -7.00835819999998 ], [ -37.956065199999962, -7.008134099999925 ], [ -37.955240799999956, -7.008126499999914 ], [ -37.9546041, -7.008290699999974 ], [ -37.95389769999997, -7.008141399999936 ], [ -37.953756699999929, -7.008093199999951 ], [ -37.953407099999936, -7.008128799999954 ], [ -37.953092699999949, -7.008052899999925 ], [ -37.952735599999976, -7.00810709999995 ], [ -37.951554499999936, -7.008696699999939 ], [ -37.951355299999939, -7.008845799999953 ], [ -37.951163699999938, -7.009056499999947 ], [ -37.950562099999964, -7.009970299999944 ], [ -37.949684, -7.009835499999928 ], [ -37.94888659999998, -7.009642599999935 ], [ -37.948718099999951, -7.009736699999957 ], [ -37.948454, -7.010614199999935 ], [ -37.94840679999993, -7.010749099999947 ], [ -37.945874099999969, -7.01084569999997 ], [ -37.945935099999936, -7.012154799999958 ], [ -37.945466499999952, -7.012152499999933 ], [ -37.945179099999962, -7.012096899999952 ], [ -37.944602099999948, -7.011662099999972 ], [ -37.944165399999982, -7.011649099999913 ], [ -37.943757299999959, -7.011692599999935 ], [ -37.943624, -7.011918899999956 ], [ -37.943097099999932, -7.012183199999972 ], [ -37.94251259999993, -7.012121299999937 ], [ -37.942324199999973, -7.01207029999995 ], [ -37.941948499999974, -7.011754499999914 ], [ -37.941744899999954, -7.011508199999984 ], [ -37.941571199999942, -7.0114091 ], [ -37.941234099999974, -7.011388 ], [ -37.940384299999948, -7.011527799999934 ], [ -37.939764799999985, -7.011847 ], [ -37.938608, -7.011853599999933 ], [ -37.937502, -7.01162449999994 ], [ -37.937115, -7.0116323 ], [ -37.936268099999957, -7.011422199999974 ], [ -37.935652399999988, -7.011137499999953 ], [ -37.935041899999931, -7.010926199999981 ], [ -37.934675499999969, -7.010862199999972 ], [ -37.934650899999951, -7.011040299999912 ], [ -37.934622499999939, -7.011143599999948 ], [ -37.93465, -7.011408299999988 ], [ -37.934724099999983, -7.011787599999957 ], [ -37.934815799999967, -7.011916399999947 ], [ -37.934813399999932, -7.012011199999951 ], [ -37.934639899999979, -7.01259779999997 ], [ -37.934500799999967, -7.012707899999941 ], [ -37.934448399999951, -7.012858099999947 ], [ -37.934633, -7.013281199999935 ], [ -37.934705299999962, -7.013389299999966 ], [ -37.934665, -7.013627699999981 ], [ -37.936107799999952, -7.013872 ], [ -37.936197199999988, -7.015262 ], [ -37.936268699999978, -7.016375099999937 ], [ -37.936101799999967, -7.016253099999957 ], [ -37.936045, -7.016211499999957 ], [ -37.935821199999964, -7.01604789999994 ], [ -37.935657499999934, -7.016005499999966 ], [ -37.935464399999951, -7.016055699999975 ], [ -37.935385499999938, -7.016170499999915 ], [ -37.935234199999975, -7.016193 ], [ -37.935011899999957, -7.015884899999954 ], [ -37.934919599999944, -7.01551379999996 ], [ -37.934735699999969, -7.015434699999973 ], [ -37.934357199999965, -7.01542359999997 ], [ -37.93402489999994, -7.015582199999906 ], [ -37.933770099999947, -7.015915899999922 ], [ -37.933829899999978, -7.016241799999944 ], [ -37.933623399999938, -7.016413299999979 ], [ -37.933370199999963, -7.016812 ], [ -37.933347499999968, -7.017198499999962 ], [ -37.933195899999937, -7.017885899999949 ], [ -37.933503799999983, -7.018993499999952 ], [ -37.933565, -7.01983209999996 ], [ -37.934224799999981, -7.021001699999962 ], [ -37.931611699999962, -7.021075199999937 ], [ -37.927322799999949, -7.021207299999978 ], [ -37.924560199999974, -7.021266699999955 ], [ -37.92235509999994, -7.0213242 ], [ -37.92031719999995, -7.021385699999935 ], [ -37.917784599999948, -7.021452799999943 ], [ -37.915397599999956, -7.021521199999937 ], [ -37.914334099999969, -7.021542099999984 ], [ -37.914504, -7.022242099999953 ], [ -37.916004, -7.022406 ], [ -37.915491399999944, -7.023645 ], [ -37.91523849999993, -7.024130399999951 ], [ -37.915425499999969, -7.024206499999948 ], [ -37.917260599999956, -7.024188899999983 ], [ -37.918564299999957, -7.023808099999925 ], [ -37.920127899999954, -7.023889699999938 ], [ -37.921009, -7.023852 ], [ -37.922289199999966, -7.024155099999966 ], [ -37.922893099999953, -7.024444399999917 ], [ -37.923070599999967, -7.0245285 ], [ -37.924440199999935, -7.024771399999945 ], [ -37.925590399999976, -7.024903299999949 ], [ -37.926581799999958, -7.024957499999974 ], [ -37.927801799999934, -7.024989399999986 ], [ -37.92931509999994, -7.024285199999947 ], [ -37.930095799999947, -7.024073299999948 ], [ -37.930948899999976, -7.023853699999985 ], [ -37.931480099999931, -7.023815799999946 ], [ -37.932104599999953, -7.023778299999939 ], [ -37.932780199999968, -7.023920699999964 ], [ -37.932824799999935, -7.023999599999968 ], [ -37.934038599999958, -7.024209899999947 ], [ -37.935233399999952, -7.024504099999925 ], [ -37.935738699999945, -7.024529 ], [ -37.936342499999959, -7.024654199999932 ], [ -37.937258199999981, -7.0247687 ], [ -37.937551299999946, -7.025067099999956 ], [ -37.938287899999978, -7.025330399999986 ], [ -37.938742799999936, -7.0256108 ], [ -37.939398899999958, -7.0256783 ], [ -37.940296499999931, -7.025652799999936 ], [ -37.9408562, -7.025546499999954 ], [ -37.94096889999998, -7.025415099999976 ], [ -37.941234199999947, -7.025400599999935 ], [ -37.941859, -7.025413899999957 ], [ -37.942162, -7.025564599999957 ], [ -37.942190499999988, -7.025744399999966 ], [ -37.942902499999938, -7.025830199999981 ], [ -37.943152, -7.025461 ], [ -37.9436937, -7.025223 ], [ -37.943911, -7.024645299999964 ], [ -37.943988699999977, -7.02396909999995 ], [ -37.944463299999946, -7.0234139 ], [ -37.94815129999995, -7.023603199999986 ] ] ] } }
]
}
