{
"type": "FeatureCollection",
"name": "2504009",
"crs": { "type": "name", "properties": { "name": "urn:ogc:def:crs:OGC:1.3:CRS84" } },
"features": [
{ "type": "Feature", "properties": { "CD_MUN": "2504009", "NM_MUN": "Campina Grande" }, "geometry": { "type": "MultiPolygon", "coordinates": [ [ [ [ -35.776058599999949, -7.317060699999932 ], [ -35.776219, -7.317136799999952 ], [ -35.779879099999953, -7.313827899999977 ], [ -35.779919299999953, -7.314064199999978 ], [ -35.780153499999983, -7.314426099999912 ], [ -35.780462199999938, -7.314692299999948 ], [ -35.781388299999946, -7.314596499999939 ], [ -35.782271899999955, -7.314000299999959 ], [ -35.782804099999964, -7.313744799999954 ], [ -35.783421599999947, -7.313159399999951 ], [ -35.783985799999989, -7.312478099999955 ], [ -35.784454199999963, -7.311988399999964 ], [ -35.784954499999976, -7.311839299999964 ], [ -35.785130099999947, -7.31148269999994 ], [ -35.785736899999968, -7.311025 ], [ -35.786205299999949, -7.310822699999941 ], [ -35.786498, -7.310687 ], [ -35.786833399999978, -7.310660399999952 ], [ -35.789402499999937, -7.310036 ], [ -35.79759619999993, -7.30960049999995 ], [ -35.79759319999993, -7.309308499999939 ], [ -35.797684199999935, -7.309069899999938 ], [ -35.797875, -7.308696899999971 ], [ -35.798071, -7.308362099999954 ], [ -35.798302399999955, -7.308046099999978 ], [ -35.798449599999962, -7.307906599999964 ], [ -35.798494299999966, -7.307838199999936 ], [ -35.798499099999958, -7.307746 ], [ -35.798596099999941, -7.307529799999939 ], [ -35.798654, -7.307276799999964 ], [ -35.798504599999951, -7.307093599999972 ], [ -35.798223899999989, -7.30694269999997 ], [ -35.798223699999937, -7.304921199999987 ], [ -35.798389299999947, -7.301212899999947 ], [ -35.793364399999973, -7.300871499999988 ], [ -35.7848183, -7.300627499999949 ], [ -35.777767399999952, -7.300348599999955 ], [ -35.777053799999983, -7.300351499999961 ], [ -35.777137099999948, -7.300510399999934 ], [ -35.777213399999937, -7.300643499999977 ], [ -35.777253599999938, -7.300734 ], [ -35.777391499999965, -7.3010232 ], [ -35.777458599999939, -7.301180899999975 ], [ -35.777489099999968, -7.301302099999925 ], [ -35.777519299999931, -7.301452099999937 ], [ -35.777524899999946, -7.3015647 ], [ -35.777561899999959, -7.301837 ], [ -35.777590099999941, -7.302025899999951 ], [ -35.772361599999961, -7.302095399999933 ], [ -35.768489599999945, -7.302240299999968 ], [ -35.766948199999952, -7.302362399999935 ], [ -35.766629499999972, -7.303933299999938 ], [ -35.766629599999931, -7.306119499999953 ], [ -35.766630699999958, -7.313860299999951 ], [ -35.767886699999963, -7.313786 ], [ -35.769368899999961, -7.313716499999958 ], [ -35.769828699999955, -7.313793299999906 ], [ -35.770002299999923, -7.314782299999916 ], [ -35.770077499999964, -7.314881199999956 ], [ -35.770118599999932, -7.314901599999928 ], [ -35.772910799999977, -7.31628539999995 ], [ -35.77346069999993, -7.316411799999983 ], [ -35.773715199999977, -7.31645919999993 ], [ -35.774130399999933, -7.316555899999982 ], [ -35.774595499999975, -7.316707 ], [ -35.774976199999962, -7.316815299999985 ], [ -35.775433, -7.316913299999936 ], [ -35.775742199999968, -7.316980799999932 ], [ -35.776058599999949, -7.317060699999932 ] ] ], [ [ [ -35.968725899999981, -7.277810899999976 ], [ -35.968858799999964, -7.277178099999937 ], [ -35.972256799999961, -7.277772899999928 ], [ -35.972839, -7.277494499999935 ], [ -35.973471699999948, -7.270736399999989 ], [ -35.961233799999953, -7.269951799999952 ], [ -35.960689699999939, -7.269825199999973 ], [ -35.957804199999941, -7.269534099999909 ], [ -35.956102, -7.269464499999967 ], [ -35.955494599999959, -7.26978089999993 ], [ -35.955380699999978, -7.269401299999953 ], [ -35.952352899999944, -7.269178199999945 ], [ -35.952252899999962, -7.269658199999977 ], [ -35.952172899999937, -7.269908199999978 ], [ -35.95215289999993, -7.270038199999937 ], [ -35.952052899999956, -7.270298199999934 ], [ -35.951852899999956, -7.27056819999994 ], [ -35.95181289999995, -7.270648199999928 ], [ -35.951782899999962, -7.27081819999994 ], [ -35.951722899999936, -7.270938199999945 ], [ -35.951642899999968, -7.27104819999995 ], [ -35.951602899999962, -7.27115819999993 ], [ -35.951442899999961, -7.272308199999958 ], [ -35.95141289999998, -7.27241819999997 ], [ -35.951352899999961, -7.272528199999945 ], [ -35.951262899999968, -7.272618199999962 ], [ -35.95117289999996, -7.272688199999942 ], [ -35.951102899999967, -7.272778199999967 ], [ -35.951012899999967, -7.272988199999942 ], [ -35.950882899999961, -7.273208199999967 ], [ -35.950652899999973, -7.273508199999974 ], [ -35.95061289999996, -7.273578199999968 ], [ -35.95061289999996, -7.273678199999954 ], [ -35.950602899999986, -7.273788199999959 ], [ -35.950612899999953, -7.273918199999968 ], [ -35.950682899999947, -7.274068199999918 ], [ -35.950712899999985, -7.274158199999922 ], [ -35.950812899999967, -7.274348199999971 ], [ -35.950902899999967, -7.274528199999985 ], [ -35.950972899999954, -7.27471819999995 ], [ -35.951022899999941, -7.274778199999973 ], [ -35.951202899999942, -7.274918199999924 ], [ -35.951312899999948, -7.27505819999991 ], [ -35.951402899999955, -7.275308199999942 ], [ -35.951452899999936, -7.27550819999991 ], [ -35.951462899999974, -7.275678199999944 ], [ -35.951442899999961, -7.275808199999971 ], [ -35.951372899999974, -7.275888199999938 ], [ -35.951292899999942, -7.275898199999978 ], [ -35.951212899999966, -7.275858199999958 ], [ -35.95108289999996, -7.275768199999965 ], [ -35.950832899999966, -7.275658199999982 ], [ -35.950772899999954, -7.275728199999955 ], [ -35.950732899999934, -7.275758199999939 ], [ -35.950682899999947, -7.275768199999941 ], [ -35.950592899999947, -7.275828199999977 ], [ -35.95052289999996, -7.275848199999902 ], [ -35.950402899999972, -7.275828199999977 ], [ -35.95016289999996, -7.275778199999914 ], [ -35.950052899999946, -7.275718199999974 ], [ -35.949962899999939, -7.275648199999968 ], [ -35.949802899999952, -7.275478199999929 ], [ -35.949702899999977, -7.275408199999938 ], [ -35.949522899999984, -7.275378199999964 ], [ -35.94956289999994, -7.2754682 ], [ -35.949572899999957, -7.275528199999931 ], [ -35.949562899999933, -7.275588199999987 ], [ -35.94950289999997, -7.275688199999932 ], [ -35.9493629, -7.275818199999947 ], [ -35.949252899999976, -7.275928199999944 ], [ -35.94919289999995, -7.275968199999953 ], [ -35.948972899999937, -7.275978199999963 ], [ -35.948912899999982, -7.276008199999987 ], [ -35.948832899999957, -7.276078199999953 ], [ -35.948752899999931, -7.276228199999924 ], [ -35.948672899999963, -7.276298199999926 ], [ -35.948582899999963, -7.276318199999947 ], [ -35.94845289999995, -7.276288199999975 ], [ -35.948372899999981, -7.276288199999943 ], [ -35.948352899999989, -7.276318199999931 ], [ -35.948352899999968, -7.276378199999958 ], [ -35.948342899999943, -7.276468199999947 ], [ -35.948342899999943, -7.276528199999984 ], [ -35.948382899999956, -7.276578199999982 ], [ -35.948582899999963, -7.276648199999967 ], [ -35.948662899999938, -7.276698199999927 ], [ -35.948722899999943, -7.276758199999978 ], [ -35.948772899999945, -7.276838199999917 ], [ -35.948852899999963, -7.27702819999995 ], [ -35.948963, -7.277358499999929 ], [ -35.950388099999948, -7.27764 ], [ -35.950457699999959, -7.27771279999996 ], [ -35.959607599999977, -7.279962299999949 ], [ -35.965055799999959, -7.281885899999986 ], [ -35.964600199999957, -7.280253399999965 ], [ -35.964657199999969, -7.280114199999968 ], [ -35.964574899999953, -7.279785099999961 ], [ -35.965112799999929, -7.279582599999955 ], [ -35.965435499999955, -7.27782349999995 ], [ -35.968150099999946, -7.278013299999923 ], [ -35.968232299999954, -7.277772899999946 ], [ -35.968725899999981, -7.277810899999976 ] ] ], [ [ [ -36.100703299999971, -7.268993499999962 ], [ -36.100203199999953, -7.268929199999949 ], [ -36.099522, -7.268890799999948 ], [ -36.098990199999946, -7.268885199999952 ], [ -36.09838, -7.269026099999968 ], [ -36.098074799999949, -7.269280299999923 ], [ -36.0978, -7.269407599999978 ], [ -36.097533699999929, -7.269373499999967 ], [ -36.097332599999959, -7.269156699999924 ], [ -36.093146499999932, -7.271069899999904 ], [ -36.093291699999952, -7.27214439999996 ], [ -36.093625299999935, -7.272752299999957 ], [ -36.098076399999968, -7.27424409999995 ], [ -36.0987909, -7.274169199999961 ], [ -36.101671599999975, -7.273860799999968 ], [ -36.104841799999974, -7.271740599999934 ], [ -36.104786, -7.270830599999967 ], [ -36.104655499999978, -7.268764199999958 ], [ -36.101826799999969, -7.269048599999974 ], [ -36.101692399999934, -7.269375699999967 ], [ -36.101583, -7.269605799999966 ], [ -36.101386899999959, -7.269379 ], [ -36.101144499999982, -7.269186499999944 ], [ -36.100703299999971, -7.268993499999962 ] ] ], [ [ [ -35.83225689999994, -7.25351349999995 ], [ -35.831857699999944, -7.253584599999964 ], [ -35.829953599999953, -7.254122799999969 ], [ -35.8295841, -7.254210199999921 ], [ -35.829682099999957, -7.256302399999959 ], [ -35.835650199999975, -7.256100099999985 ], [ -35.835499499999976, -7.255645099999972 ], [ -35.835670099999959, -7.254872 ], [ -35.835688499999947, -7.254564 ], [ -35.83566629999995, -7.254081299999943 ], [ -35.835607, -7.25377419999994 ], [ -35.835491699999984, -7.253423499999919 ], [ -35.835342599999933, -7.2532409 ], [ -35.835122899999938, -7.25288639999995 ], [ -35.835065799999931, -7.252726899999983 ], [ -35.83225689999994, -7.25351349999995 ] ] ], [ [ [ -35.836733799999934, -7.251771799999965 ], [ -35.836718399999938, -7.251783299999968 ], [ -35.836013, -7.252335499999975 ], [ -35.835952299999981, -7.252487799999903 ], [ -35.835834599999949, -7.252518499999935 ], [ -35.835874499999932, -7.25277159999997 ], [ -35.836496199999957, -7.254880099999977 ], [ -35.838342699999941, -7.255003499999917 ], [ -35.838833799999982, -7.254595299999959 ], [ -35.839069099999953, -7.254321099999987 ], [ -35.839337399999977, -7.2539247 ], [ -35.83967, -7.253527399999937 ], [ -35.839817099999948, -7.253098899999928 ], [ -35.84006519999997, -7.252770699999943 ], [ -35.841276199999989, -7.25227429999994 ], [ -35.841639699999973, -7.250215199999936 ], [ -35.841120499999924, -7.250484899999958 ], [ -35.841040599999936, -7.250401899999929 ], [ -35.841005299999956, -7.250331799999974 ], [ -35.840887499999944, -7.250255799999926 ], [ -35.840706399999931, -7.250276299999965 ], [ -35.840450299999937, -7.250325899999917 ], [ -35.839720099999973, -7.250496699999942 ], [ -35.839381399999986, -7.250571299999941 ], [ -35.838948599999988, -7.250688099999931 ], [ -35.838751299999963, -7.250749499999914 ], [ -35.838250799999983, -7.250892599999905 ], [ -35.838115299999977, -7.250956799999916 ], [ -35.837841499999975, -7.251129199999983 ], [ -35.83764089999994, -7.25124419999996 ], [ -35.837570599999943, -7.251284 ], [ -35.83727319999997, -7.251412499999975 ], [ -35.837183299999921, -7.251456399999952 ], [ -35.837037699999939, -7.251529299999938 ], [ -35.836733799999934, -7.251771799999965 ] ] ], [ [ [ -35.979105, -7.250891599999915 ], [ -35.978913, -7.250623699999958 ], [ -35.978685199999973, -7.250412799999955 ], [ -35.978503799999949, -7.250341099999957 ], [ -35.978233799999941, -7.250379 ], [ -35.977892099999956, -7.2504592 ], [ -35.977774, -7.250450699999949 ], [ -35.977394299999958, -7.250556199999934 ], [ -35.976951399999962, -7.250611 ], [ -35.976487399999947, -7.251037099999945 ], [ -35.97588409999998, -7.251425199999962 ], [ -35.975234499999949, -7.250585699999939 ], [ -35.975061499999988, -7.250632099999966 ], [ -35.97412079999998, -7.249767299999951 ], [ -35.972988099999952, -7.248685299999954 ], [ -35.972393299999965, -7.249948699999941 ], [ -35.969237899999946, -7.248835 ], [ -35.969512099999982, -7.246303899999925 ], [ -35.965683699999943, -7.245818799999935 ], [ -35.965776299999959, -7.246274299999935 ], [ -35.965945099999949, -7.2470853 ], [ -35.966151299999979, -7.248072 ], [ -35.96635839999994, -7.248850499999926 ], [ -35.96655549999997, -7.2496518 ], [ -35.966716299999973, -7.250250599999957 ], [ -35.96683459999997, -7.250700499999939 ], [ -35.962610599999955, -7.2513577 ], [ -35.961650899999931, -7.2486747 ], [ -35.961404099999974, -7.2480399 ], [ -35.96088519999995, -7.246595 ], [ -35.960659499999963, -7.246044499999942 ], [ -35.959889699999962, -7.243842399999949 ], [ -35.958463799999954, -7.244380299999949 ], [ -35.95837309999996, -7.24440559999995 ], [ -35.958368899999982, -7.244350799999971 ], [ -35.958058799999947, -7.244407699999952 ], [ -35.958086199999961, -7.244644 ], [ -35.957348, -7.244637599999958 ], [ -35.957314299999958, -7.244371899999972 ], [ -35.957031599999937, -7.244405599999926 ], [ -35.956010699999979, -7.244409799999952 ], [ -35.95609509999997, -7.244700899999932 ], [ -35.956090899999943, -7.244819 ], [ -35.956006499999944, -7.244949799999965 ], [ -35.955939, -7.245076399999974 ], [ -35.95591369999994, -7.245143899999959 ], [ -35.956038199999966, -7.245895799999967 ], [ -35.956515899999943, -7.248594599999929 ], [ -35.956737399999959, -7.250318899999988 ], [ -35.957120199999956, -7.252951299999975 ], [ -35.956351399999953, -7.25275829999995 ], [ -35.955753399999928, -7.252739299999959 ], [ -35.954927599999969, -7.252799399999964 ], [ -35.95469669999995, -7.252913299999935 ], [ -35.952032699999968, -7.253201199999971 ], [ -35.952058, -7.253690899999953 ], [ -35.967841499999977, -7.254518199999963 ], [ -35.972842399999934, -7.255024199999982 ], [ -35.983380799999964, -7.255998 ], [ -35.983442499999974, -7.255957099999955 ], [ -35.983533299999976, -7.2559047 ], [ -35.983721399999972, -7.255817899999953 ], [ -35.983951399999974, -7.255680099999945 ], [ -35.983967299999961, -7.255509499999971 ], [ -35.984003, -7.2552853 ], [ -35.984076499999958, -7.255037199999937 ], [ -35.984094399999954, -7.254705099999974 ], [ -35.984164, -7.254175699999955 ], [ -35.984086, -7.254129299999956 ], [ -35.983906699999984, -7.254074399999952 ], [ -35.983801199999959, -7.254019599999918 ], [ -35.983617699999961, -7.253848699999931 ], [ -35.983491099999988, -7.253707399999939 ], [ -35.983398299999969, -7.253654699999952 ], [ -35.983276, -7.253652599999962 ], [ -35.9828816, -7.253692699999909 ], [ -35.981492599999974, -7.251115199999952 ], [ -35.979105, -7.250891599999915 ] ] ], [ [ [ -35.929109, -7.27872529999994 ], [ -35.929264, -7.278827699999987 ], [ -35.929390099999971, -7.278859299999938 ], [ -35.930020599999985, -7.278783099999941 ], [ -35.93109369999997, -7.278423199999952 ], [ -35.931344499999966, -7.278374599999927 ], [ -35.931414099999984, -7.278385099999976 ], [ -35.931474599999952, -7.278427099999938 ], [ -35.931500799999988, -7.278492799999987 ], [ -35.931498199999972, -7.278599199999975 ], [ -35.93131829999993, -7.279076 ], [ -35.931150099999968, -7.27935969999993 ], [ -35.930947899999978, -7.279643399999922 ], [ -35.930926899999967, -7.279798399999954 ], [ -35.931021399999963, -7.279945499999923 ], [ -35.9311029, -7.28001119999993 ], [ -35.931281499999955, -7.28003479999996 ], [ -35.931478499999976, -7.280024299999974 ], [ -35.93172019999998, -7.279945499999931 ], [ -35.931864699999942, -7.279840399999962 ], [ -35.932017, -7.279674899999969 ], [ -35.932208799999955, -7.279535699999931 ], [ -35.93240579999997, -7.279414899999975 ], [ -35.932552899999969, -7.279364899999957 ], [ -35.93280249999998, -7.2793728 ], [ -35.933167599999933, -7.279401699999943 ], [ -35.933561699999984, -7.279312399999972 ], [ -35.933882099999956, -7.279191599999948 ], [ -35.934238099999959, -7.27811719999996 ], [ -35.933811499999941, -7.277546 ], [ -35.93467069999997, -7.276609299999953 ], [ -35.934668799999933, -7.275955 ], [ -35.934817899999985, -7.275457799999962 ], [ -35.935281599999932, -7.275761799999939 ], [ -35.935871399999947, -7.276171899999967 ], [ -35.936151499999951, -7.27638139999993 ], [ -35.93647, -7.276494199999943 ], [ -35.937016899999939, -7.275022799999945 ], [ -35.937619099999949, -7.272823399999943 ], [ -35.938056299999971, -7.2714013 ], [ -35.938601699999943, -7.269643 ], [ -35.93907679999996, -7.268267399999945 ], [ -35.939788099999937, -7.2662008 ], [ -35.941660599999977, -7.260601 ], [ -35.945252299999943, -7.260333299999934 ], [ -35.945301599999937, -7.259988599999931 ], [ -35.945523199999968, -7.259077599999962 ], [ -35.945892499999957, -7.2576496 ], [ -35.946335699999963, -7.256123 ], [ -35.946475399999947, -7.255362499999912 ], [ -35.946572599999968, -7.25521669999996 ], [ -35.946634099999983, -7.2548715 ], [ -35.946671899999963, -7.254559299999905 ], [ -35.946610399999948, -7.254095899999949 ], [ -35.946585899999945, -7.253949 ], [ -35.946884099999984, -7.253932699999925 ], [ -35.949436699999978, -7.253700099999928 ], [ -35.949427699999937, -7.25319129999997 ], [ -35.949752899999964, -7.252568 ], [ -35.94983289999994, -7.252398 ], [ -35.949852899999932, -7.252148 ], [ -35.949852899999946, -7.251758 ], [ -35.949782899999946, -7.251368 ], [ -35.949772899999971, -7.251158 ], [ -35.949782899999946, -7.250958 ], [ -35.949852899999939, -7.250818 ], [ -35.950032899999947, -7.250358 ], [ -35.950022899999972, -7.250208 ], [ -35.949892899999952, -7.249798 ], [ -35.950052899999946, -7.249728 ], [ -35.95012289999994, -7.249538 ], [ -35.950072899999952, -7.249308 ], [ -35.949962899999939, -7.248988 ], [ -35.949862899999978, -7.248888 ], [ -35.949872899999946, -7.248528 ], [ -35.949782899999946, -7.248418 ], [ -35.949492899999946, -7.248368 ], [ -35.949272899999983, -7.248298 ], [ -35.949232899999977, -7.248258 ], [ -35.949292899999932, -7.248148 ], [ -35.949312899999939, -7.248008 ], [ -35.948982899999976, -7.246978 ], [ -35.948792899999937, -7.246798 ], [ -35.948722899999943, -7.246698 ], [ -35.948682899999937, -7.246588 ], [ -35.948712899999983, -7.246358 ], [ -35.948732899999989, -7.246038 ], [ -35.948782899999976, -7.245928 ], [ -35.948932899999917, -7.245738 ], [ -35.948982899999976, -7.245568 ], [ -35.949022899999932, -7.245308 ], [ -35.949082899999951, -7.245218 ], [ -35.949182899999983, -7.245148 ], [ -35.949382899999932, -7.245098 ], [ -35.949582899999946, -7.244978 ], [ -35.949792899999977, -7.244818 ], [ -35.949922899999933, -7.244578 ], [ -35.950032899999947, -7.244358 ], [ -35.950122899999947, -7.244208 ], [ -35.950162899999953, -7.243988 ], [ -35.9504429, -7.243728 ], [ -35.950602899999986, -7.243578 ], [ -35.950682899999954, -7.243358 ], [ -35.950862899999947, -7.243188 ], [ -35.95099289999996, -7.242958 ], [ -35.951022899999941, -7.242778 ], [ -35.950982899999921, -7.242508 ], [ -35.95099289999996, -7.242268 ], [ -35.951082899999946, -7.242028 ], [ -35.95112289999998, -7.241838 ], [ -35.95108289999996, -7.241678 ], [ -35.951012899999952, -7.241578 ], [ -35.951012899999967, -7.241468 ], [ -35.951062899999954, -7.241368 ], [ -35.951052899999986, -7.241158 ], [ -35.951092899999935, -7.240878 ], [ -35.951292899999942, -7.240648 ], [ -35.95130289999998, -7.240528 ], [ -35.951342899999922, -7.240137899999988 ], [ -35.951292899999942, -7.239947899999963 ], [ -35.951382899999942, -7.23962789999996 ], [ -35.951422899999955, -7.239437899999933 ], [ -35.951392899999981, -7.239077899999938 ], [ -35.951312899999941, -7.238887899999961 ], [ -35.951112899999941, -7.238617899999944 ], [ -35.951002899999935, -7.23852789999995 ], [ -35.950912899999942, -7.2384279 ], [ -35.95081289999996, -7.238227899999989 ], [ -35.950802899999935, -7.238097899999963 ], [ -35.950682899999947, -7.237947899999935 ], [ -35.950632899999952, -7.237867899999944 ], [ -35.95063289999996, -7.237547899999966 ], [ -35.950652899999966, -7.237367899999962 ], [ -35.950732899999927, -7.237087899999949 ], [ -35.950742899999966, -7.236907899999974 ], [ -35.950692899999979, -7.236657899999968 ], [ -35.950592899999954, -7.236427899999984 ], [ -35.950532899999985, -7.236207899999954 ], [ -35.95048289999994, -7.235827899999967 ], [ -35.950452899999952, -7.235607899999959 ], [ -35.950362899999966, -7.235347899999958 ], [ -35.950322899999946, -7.235127899999939 ], [ -35.950412899999954, -7.234857899999948 ], [ -35.950592899999947, -7.2346679 ], [ -35.950694899999981, -7.23460779999993 ], [ -35.950982899999936, -7.234437899999949 ], [ -35.951312899999948, -7.234347899999906 ], [ -35.952318, -7.232780599999939 ], [ -35.953152899999964, -7.231417899999916 ], [ -35.95316749999995, -7.231235699999959 ], [ -35.952716499999958, -7.23135049999996 ], [ -35.952612899999963, -7.231373399999947 ], [ -35.952521, -7.2313134 ], [ -35.952507499999967, -7.231176799999955 ], [ -35.952482899999943, -7.2309979 ], [ -35.952430399999969, -7.230777599999981 ], [ -35.95240859999997, -7.23069579999998 ], [ -35.95239289999995, -7.230607899999921 ], [ -35.952366499999982, -7.230519499999966 ], [ -35.952352099999985, -7.230462899999938 ], [ -35.952314299999962, -7.230226799999962 ], [ -35.952372899999943, -7.23013789999995 ], [ -35.952452899999976, -7.230107899999962 ], [ -35.952482899999943, -7.230037899999976 ], [ -35.952462899999936, -7.229967899999972 ], [ -35.952382899999975, -7.229867899999924 ], [ -35.952282899999936, -7.229787899999958 ], [ -35.95226, -7.229332799999967 ], [ -35.952172899999944, -7.22760279999997 ], [ -35.952134799999961, -7.226846699999959 ], [ -35.952134699999924, -7.22684459999994 ], [ -35.95206289999993, -7.225417799999966 ], [ -35.951941199999965, -7.225131099999933 ], [ -35.951612899999937, -7.224357799999952 ], [ -35.951632899999936, -7.224267799999935 ], [ -35.951632899999929, -7.224107799999973 ], [ -35.951582899999956, -7.2237178 ], [ -35.951482899999974, -7.223027799999939 ], [ -35.951422899999962, -7.222587799999914 ], [ -35.951382899999942, -7.222427799999918 ], [ -35.951372899999974, -7.222147799999972 ], [ -35.951382899999949, -7.222017799999928 ], [ -35.951442899999961, -7.22177779999994 ], [ -35.95146289999996, -7.221637799999954 ], [ -35.95150289999998, -7.221377799999971 ], [ -35.951542899999936, -7.221287799999982 ], [ -35.951602899999955, -7.221207799999946 ], [ -35.951672899999956, -7.221177799999968 ], [ -35.951712899999968, -7.221177799999975 ], [ -35.951762899999942, -7.221157799999985 ], [ -35.951802899999961, -7.221107799999972 ], [ -35.951842899999974, -7.220967799999919 ], [ -35.951862899999973, -7.220747799999967 ], [ -35.951862899999981, -7.220557799999904 ], [ -35.951832899999935, -7.220367799999981 ], [ -35.95179289999993, -7.220207799999956 ], [ -35.95179289999993, -7.2201378 ], [ -35.951832899999943, -7.220017799999941 ], [ -35.95192289999995, -7.219887799999969 ], [ -35.952012899999936, -7.219807799999954 ], [ -35.952197499999954, -7.219752399999953 ], [ -35.95221289999995, -7.219747799999961 ], [ -35.952362899999969, -7.21973779999996 ], [ -35.952622899999938, -7.219597799999956 ], [ -35.952932899999951, -7.219487799999948 ], [ -35.953148699999936, -7.219384599999941 ], [ -35.953162899999938, -7.219377799999939 ], [ -35.953512899999964, -7.219177799999962 ], [ -35.953812899999946, -7.218977799999934 ], [ -35.953892899999971, -7.218797799999972 ], [ -35.953912899999978, -7.218557799999918 ], [ -35.953862899999933, -7.218287799999899 ], [ -35.953762899999958, -7.218057799999959 ], [ -35.953762899999958, -7.217877799999942 ], [ -35.953962899999972, -7.217417799999953 ], [ -35.954082899999939, -7.217237799999955 ], [ -35.954292899999984, -7.217047799999931 ], [ -35.954492899999934, -7.216947799999947 ], [ -35.954752899999967, -7.216847799999947 ], [ -35.954942899999942, -7.216717799999971 ], [ -35.955112899999968, -7.216507799999914 ], [ -35.95526289999998, -7.216347799999918 ], [ -35.955372899999922, -7.216157799999976 ], [ -35.955402899999974, -7.216087799999949 ], [ -35.955432899999948, -7.216057799999908 ], [ -35.955472899999968, -7.21604779999993 ], [ -35.955512899999974, -7.216057799999919 ], [ -35.955562899999968, -7.216057799999914 ], [ -35.955632899999948, -7.2160378 ], [ -35.955692899999981, -7.215987799999962 ], [ -35.955722899999962, -7.21590779999998 ], [ -35.955722899999962, -7.215837799999973 ], [ -35.95571289999998, -7.2152677 ], [ -35.955662899999936, -7.214377699999947 ], [ -35.955612899999949, -7.213847699999962 ], [ -35.955582899999968, -7.21371769999997 ], [ -35.95555289999993, -7.21363769999993 ], [ -35.95555289999993, -7.213387699999965 ], [ -35.955562899999961, -7.213167699999917 ], [ -35.955592899999942, -7.213137699999959 ], [ -35.955622899999973, -7.213137699999947 ], [ -35.955752899999943, -7.213127699999982 ], [ -35.95586289999995, -7.213117699999928 ], [ -35.955932899999929, -7.213077699999926 ], [ -35.955957899999923, -7.21304769999993 ], [ -35.955982899999988, -7.213017699999972 ], [ -35.956002899999937, -7.212937699999916 ], [ -35.955982899999988, -7.212827699999927 ], [ -35.955902899999963, -7.212487699999921 ], [ -35.955827699999929, -7.212227699999954 ], [ -35.955792899999949, -7.212107699999951 ], [ -35.955602899999974, -7.21157769999995 ], [ -35.955582899999968, -7.211547699999919 ], [ -35.955542899999962, -7.211497699999942 ], [ -35.955492899999967, -7.211377699999971 ], [ -35.955382899999968, -7.211217699999944 ], [ -35.955182899999969, -7.211007699999908 ], [ -35.955022899999953, -7.210877699999988 ], [ -35.954782899999941, -7.2107377 ], [ -35.954532899999947, -7.2106477 ], [ -35.954362899999985, -7.210617699999925 ], [ -35.954342899999972, -7.210577699999924 ], [ -35.954512899999948, -7.210257699999938 ], [ -35.954552899999953, -7.210167699999952 ], [ -35.954582899999934, -7.210017699999976 ], [ -35.954582899999934, -7.209947699999918 ], [ -35.954582899999934, -7.209877699999918 ], [ -35.954532899999954, -7.209727699999974 ], [ -35.954259, -7.209342899999981 ], [ -35.954112899999984, -7.209137699999911 ], [ -35.954052899999972, -7.20904769999995 ], [ -35.954039699999953, -7.208850299999939 ], [ -35.954032899999959, -7.208747699999927 ], [ -35.954012899999945, -7.2081777 ], [ -35.954042899999941, -7.207617699999957 ], [ -35.954112899999984, -7.207067699999909 ], [ -35.954212899999959, -7.206577699999973 ], [ -35.954312899999934, -7.206177699999932 ], [ -35.954382899999985, -7.206157699999947 ], [ -35.954872899999948, -7.206267699999978 ], [ -35.95497289999998, -7.206227699999948 ], [ -35.955022899999953, -7.206157699999954 ], [ -35.955072899999948, -7.206087699999969 ], [ -35.954826799999985, -7.205586299999934 ], [ -35.954897499999959, -7.204809199999954 ], [ -35.955129399999983, -7.202260399999935 ], [ -35.956457699999937, -7.201637399999988 ], [ -35.956895899999957, -7.201466199999974 ], [ -35.957299, -7.201308699999944 ], [ -35.957587199999978, -7.201204499999962 ], [ -35.957809099999949, -7.201088 ], [ -35.958056699999929, -7.200883599999924 ], [ -35.958576799999946, -7.200454 ], [ -35.958746, -7.200391499999955 ], [ -35.959045199999935, -7.200322799999962 ], [ -35.959343199999978, -7.200224699999987 ], [ -35.959671899999925, -7.200099599999952 ], [ -35.960023799999924, -7.199990499999985 ], [ -35.960245799999946, -7.199865399999937 ], [ -35.960411299999969, -7.199728 ], [ -35.960575699999943, -7.199552699999954 ], [ -35.960708099999984, -7.199468099999905 ], [ -35.960868699999935, -7.199398199999989 ], [ -35.958028199999937, -7.195568299999966 ], [ -35.957157099999954, -7.196066499999953 ], [ -35.956852699999956, -7.1962834 ], [ -35.956041899999938, -7.197006899999947 ], [ -35.955630799999945, -7.197284799999959 ], [ -35.955254799999985, -7.1968788 ], [ -35.954989299999966, -7.196544499999946 ], [ -35.954837399999974, -7.19636369999998 ], [ -35.954365499999938, -7.195818199999958 ], [ -35.95429989999996, -7.195799899999951 ], [ -35.954164, -7.195871399999944 ], [ -35.952016, -7.197085499999957 ], [ -35.949106299999983, -7.197527899999947 ], [ -35.947932599999938, -7.20072359999997 ], [ -35.94652149999996, -7.203916199999965 ], [ -35.946159199999954, -7.203795299999979 ], [ -35.945416, -7.203547399999911 ], [ -35.94483, -7.2033519 ], [ -35.938792799999931, -7.201337599999929 ], [ -35.938660299999981, -7.201462499999936 ], [ -35.938517799999943, -7.201575499999939 ], [ -35.938339199999973, -7.20160759999994 ], [ -35.938158599999944, -7.201612199999966 ], [ -35.938017699999932, -7.201644499999932 ], [ -35.937901199999942, -7.201723799999968 ], [ -35.937741699999947, -7.201788099999955 ], [ -35.937655699999937, -7.201790499999956 ], [ -35.937417899999957, -7.201760199999952 ], [ -35.937250399999989, -7.201770099999944 ], [ -35.937108, -7.201787499999977 ], [ -35.93691629999995, -7.201881899999925 ], [ -35.936741, -7.201877199999958 ], [ -35.936566499999962, -7.2018591 ], [ -35.936549, -7.201993599999966 ], [ -35.93664769999998, -7.202163799999961 ], [ -35.93668219999995, -7.202354099999958 ], [ -35.936682499999961, -7.2023963 ], [ -35.936700799999976, -7.202608 ], [ -35.93668519999995, -7.202811199999909 ], [ -35.936618499999952, -7.20307649999996 ], [ -35.936504199999945, -7.203352499999946 ], [ -35.936375399999967, -7.203536199999978 ], [ -35.93635909999994, -7.203579799999964 ], [ -35.936394599999971, -7.203867299999954 ], [ -35.93643469999995, -7.204103 ], [ -35.936443099999963, -7.204376699999972 ], [ -35.936611, -7.204545799999956 ], [ -35.936653, -7.204635599999953 ], [ -35.936654899999958, -7.204916299999963 ], [ -35.936549199999952, -7.205077499999936 ], [ -35.93653409999996, -7.205183 ], [ -35.936479899999931, -7.205361899999986 ], [ -35.93636719999995, -7.205461799999935 ], [ -35.936199799999955, -7.205506899999919 ], [ -35.936050799999975, -7.205465199999964 ], [ -35.935907199999974, -7.205326 ], [ -35.93588, -7.205232399999952 ], [ -35.935729199999969, -7.2051423 ], [ -35.935580799999975, -7.205009799999964 ], [ -35.935433099999955, -7.204875499999961 ], [ -35.935237799999982, -7.204805 ], [ -35.935218599999985, -7.204806699999972 ], [ -35.935046199999938, -7.204720299999942 ], [ -35.934761199999969, -7.204713499999971 ], [ -35.934647499999983, -7.204766299999942 ], [ -35.934480599999972, -7.204814599999976 ], [ -35.934181599999931, -7.204846499999978 ], [ -35.934064199999966, -7.204811399999925 ], [ -35.933998599999946, -7.204773099999952 ], [ -35.933704399999954, -7.204711799999916 ], [ -35.933561299999944, -7.204633 ], [ -35.93353749999995, -7.204750799999943 ], [ -35.933441299999977, -7.204811299999952 ], [ -35.933305199999957, -7.204830199999925 ], [ -35.933118599999943, -7.2048996 ], [ -35.933153599999976, -7.205108699999935 ], [ -35.933083599999975, -7.205251599999936 ], [ -35.933062699999944, -7.205507699999933 ], [ -35.933050699999967, -7.20559989999998 ], [ -35.933056099999938, -7.2056282 ], [ -35.933091499999939, -7.205679499999957 ], [ -35.933129799999953, -7.205708399999929 ], [ -35.933208399999963, -7.205725899999956 ], [ -35.933300399999951, -7.2058163 ], [ -35.933315499999935, -7.205947399999968 ], [ -35.933228299999946, -7.20614559999997 ], [ -35.93292729999996, -7.206346299999947 ], [ -35.932848299999939, -7.2063702 ], [ -35.932700799999971, -7.206355 ], [ -35.93256149999997, -7.206297099999974 ], [ -35.932378899999946, -7.206189399999951 ], [ -35.932060899999954, -7.205975099999915 ], [ -35.931944499999929, -7.205886199999951 ], [ -35.931801599999979, -7.205804199999911 ], [ -35.931739599999965, -7.205781699999949 ], [ -35.931567799999989, -7.205649599999981 ], [ -35.930980299999931, -7.205259799999982 ], [ -35.930999399999962, -7.205095499999972 ], [ -35.930993399999984, -7.204953899999959 ], [ -35.930987399999943, -7.20477 ], [ -35.930969299999958, -7.20461629999993 ], [ -35.930939099999932, -7.204453599999965 ], [ -35.930933099999947, -7.204278799999943 ], [ -35.930918, -7.204031699999964 ], [ -35.930887899999959, -7.20379659999998 ], [ -35.930767399999972, -7.203368699999944 ], [ -35.930731199999961, -7.203049299999978 ], [ -35.93072589999997, -7.202677799999971 ], [ -35.93070929999994, -7.20257839999993 ], [ -35.93064, -7.202468399999926 ], [ -35.9305677, -7.202353899999917 ], [ -35.930643099999948, -7.20233129999997 ], [ -35.930914299999984, -7.202210699999963 ], [ -35.931049699999967, -7.202129499999973 ], [ -35.931161399999958, -7.202063599999978 ], [ -35.931318099999942, -7.201981199999971 ], [ -35.931434599999932, -7.201971099999984 ], [ -35.931502899999941, -7.201987199999961 ], [ -35.931619499999961, -7.202049499999954 ], [ -35.931736, -7.202093699999955 ], [ -35.931828399999972, -7.202091699999923 ], [ -35.931924799999933, -7.201985199999958 ], [ -35.932003199999947, -7.201854599999921 ], [ -35.932005199999935, -7.201762199999952 ], [ -35.931988099999955, -7.201697899999933 ], [ -35.931959, -7.2016427 ], [ -35.931919799999939, -7.201575399999986 ], [ -35.931898699999977, -7.201466899999949 ], [ -35.931900699999971, -7.201351299999918 ], [ -35.931926799999928, -7.201278 ], [ -35.931959, -7.201163499999971 ], [ -35.931969, -7.201008799999968 ], [ -35.931948899999952, -7.200854099999975 ], [ -35.931874599999972, -7.200613 ], [ -35.931754099999978, -7.20030359999993 ], [ -35.931717899999967, -7.200217199999957 ], [ -35.93163149999998, -7.200140899999956 ], [ -35.931472799999931, -7.200062499999931 ], [ -35.931340199999966, -7.199984199999939 ], [ -35.931030799999974, -7.19979729999995 ], [ -35.930856, -7.199704899999989 ], [ -35.930771599999964, -7.1996607 ], [ -35.930651099999977, -7.199580299999984 ], [ -35.930518499999948, -7.199417599999921 ], [ -35.930260299999929, -7.199045899999946 ], [ -35.930161899999966, -7.19885509999995 ], [ -35.929977, -7.198523599999946 ], [ -35.92975, -7.198077599999965 ], [ -35.92959129999997, -7.197760099999945 ], [ -35.929261799999956, -7.197107199999934 ], [ -35.929149299999949, -7.196886199999925 ], [ -35.92893429999998, -7.196532599999947 ], [ -35.9288721, -7.196430099999919 ], [ -35.92882579999997, -7.196392 ], [ -35.928775599999945, -7.196385899999952 ], [ -35.928697299999961, -7.196385899999933 ], [ -35.928566699999969, -7.196349799999954 ], [ -35.92843849999997, -7.196283699999965 ], [ -35.928347899999949, -7.196267099999959 ], [ -35.92811219999993, -7.196181299999956 ], [ -35.927867899999967, -7.196014199999961 ], [ -35.927589299999966, -7.195842699999977 ], [ -35.927443599999954, -7.195662699999963 ], [ -35.9273664, -7.1954656 ], [ -35.927293599999985, -7.195418399999947 ], [ -35.927116099999978, -7.195471799999944 ], [ -35.926774599999931, -7.195568199999952 ], [ -35.926356699999928, -7.195706899999931 ], [ -35.926135699999975, -7.195763099999965 ], [ -35.926085499999942, -7.195694799999945 ], [ -35.925962899999945, -7.195293 ], [ -35.925864499999939, -7.195186499999983 ], [ -35.925669199999959, -7.195204099999944 ], [ -35.925309199999965, -7.195354099999972 ], [ -35.925193399999955, -7.195358399999949 ], [ -35.925060599999938, -7.195217 ], [ -35.924889099999973, -7.19504979999994 ], [ -35.924803699999984, -7.194989599999932 ], [ -35.924700499999972, -7.19498549999997 ], [ -35.924510399999974, -7.194973499999964 ], [ -35.924365699999953, -7.194905199999955 ], [ -35.924263899999971, -7.19478839999993 ], [ -35.92417469999998, -7.194844299999958 ], [ -35.923932699999959, -7.194978799999962 ], [ -35.923646799999972, -7.195078799999957 ], [ -35.923117199999972, -7.195312799999979 ], [ -35.922379799999923, -7.195473 ], [ -35.921776199999954, -7.195576699999968 ], [ -35.92103439999994, -7.195773099999936 ], [ -35.92059839999996, -7.195938 ], [ -35.920031599999959, -7.1962273 ], [ -35.919441499999955, -7.196564699999955 ], [ -35.91867479999997, -7.1970254 ], [ -35.917163699999954, -7.197914599999902 ], [ -35.916006299999928, -7.198588399999945 ], [ -35.91565669999995, -7.198836699999942 ], [ -35.915430599999986, -7.198942099999963 ], [ -35.914863299999972, -7.199238099999948 ], [ -35.914339299999945, -7.199685399999986 ], [ -35.914079399999935, -7.199937799999946 ], [ -35.913869, -7.200237199999928 ], [ -35.913642799999934, -7.20062809999995 ], [ -35.913566399999972, -7.200804899999964 ], [ -35.913427399999932, -7.201089299999987 ], [ -35.913302199999976, -7.2013454 ], [ -35.913210499999941, -7.201581799999921 ], [ -35.913082299999935, -7.201993 ], [ -35.912809699999976, -7.201881799999983 ], [ -35.912522099999947, -7.202202899999959 ], [ -35.911640899999959, -7.201165699999938 ], [ -35.911556, -7.200939299999938 ], [ -35.911499399999968, -7.20071269999993 ], [ -35.911361799999952, -7.200436099999936 ], [ -35.911239499999958, -7.200090799999957 ], [ -35.911113399999984, -7.199809199999923 ], [ -35.911030299999936, -7.199521699999916 ], [ -35.91101059999994, -7.199454899999981 ], [ -35.911012099999944, -7.199284699999947 ], [ -35.910893499999922, -7.198849199999938 ], [ -35.910769899999934, -7.198403599999968 ], [ -35.910736699999973, -7.198283799999978 ], [ -35.910639599999975, -7.19796779999993 ], [ -35.910614899999985, -7.197852399999948 ], [ -35.910529599999961, -7.197621 ], [ -35.910477399999934, -7.19744029999991 ], [ -35.910374899999965, -7.197297199999976 ], [ -35.910246099999945, -7.197185799999952 ], [ -35.910151399999961, -7.197069199999911 ], [ -35.910068, -7.197023199999935 ], [ -35.909847899999932, -7.196852899999971 ], [ -35.909797799999978, -7.196810199999955 ], [ -35.909745799999946, -7.196750799999947 ], [ -35.909872, -7.196675099999925 ], [ -35.910344199999933, -7.196436099999961 ], [ -35.91079469999994, -7.196201799999949 ], [ -35.912292499999985, -7.19516759999992 ], [ -35.912120199999954, -7.195112099999945 ], [ -35.911818399999966, -7.195020899999975 ], [ -35.911782499999966, -7.195023499999919 ], [ -35.91159289999996, -7.194919899999957 ], [ -35.911544, -7.194771599999986 ], [ -35.911578399999939, -7.194691699999982 ], [ -35.911572499999977, -7.194577599999958 ], [ -35.911498399999978, -7.194485699999955 ], [ -35.911408599999959, -7.194335499999948 ], [ -35.911366299999933, -7.194187099999963 ], [ -35.911360899999984, -7.194010299999962 ], [ -35.911177599999981, -7.193800099999963 ], [ -35.911006, -7.193503799999959 ], [ -35.91092249999997, -7.193207599999933 ], [ -35.910917899999959, -7.193140699999942 ], [ -35.910912499999938, -7.193067599999955 ], [ -35.910938, -7.192844399999965 ], [ -35.910936799999952, -7.192824399999944 ], [ -35.910962499999982, -7.192657599999987 ], [ -35.910968599999933, -7.192595 ], [ -35.910965099999942, -7.192531799999943 ], [ -35.910902499999963, -7.192427599999962 ], [ -35.910936499999934, -7.1923113 ], [ -35.910960899999971, -7.192177399999922 ], [ -35.910884599999967, -7.191962599999965 ], [ -35.910848899999962, -7.1917741 ], [ -35.910810599999941, -7.191403499999961 ], [ -35.910787599999935, -7.191057 ], [ -35.910713799999932, -7.190928199999941 ], [ -35.910608099999934, -7.190796599999929 ], [ -35.91055689999996, -7.190688199999943 ], [ -35.910570299999961, -7.190509299999944 ], [ -35.910606199999975, -7.1899357 ], [ -35.910595899999976, -7.189820699999936 ], [ -35.910630599999934, -7.1896887 ], [ -35.910623899999955, -7.189544799999942 ], [ -35.910594499999938, -7.189394 ], [ -35.910525599999971, -7.189195 ], [ -35.910497, -7.188960499999928 ], [ -35.910491399999955, -7.188807199999917 ], [ -35.910532799999942, -7.188718299999961 ], [ -35.910501899999929, -7.1885445 ], [ -35.910405799999971, -7.188396399999954 ], [ -35.910332499999981, -7.1883776 ], [ -35.910216899999959, -7.188344 ], [ -35.910182499999969, -7.18828759999995 ], [ -35.910135599999933, -7.188196499999945 ], [ -35.91011959999998, -7.188106099999949 ], [ -35.910127499999938, -7.188096299999922 ], [ -35.910141399999929, -7.188022299999961 ], [ -35.910143799999958, -7.187968599999968 ], [ -35.910044599999928, -7.187885599999973 ], [ -35.909899199999984, -7.187817699999942 ], [ -35.90980159999998, -7.18787219999994 ], [ -35.90963289999997, -7.187710399999988 ], [ -35.9095928, -7.187464899999932 ], [ -35.909477, -7.18726189999995 ], [ -35.909460699999954, -7.1870863 ], [ -35.909382499999928, -7.1867776 ], [ -35.909347399999945, -7.186699199999985 ], [ -35.90930909999998, -7.186625499999918 ], [ -35.909247799999946, -7.1864252 ], [ -35.908996399999978, -7.185722699999943 ], [ -35.908925299999957, -7.185640699999967 ], [ -35.908899199999951, -7.185576 ], [ -35.908873, -7.185536599999972 ], [ -35.908742599999982, -7.1854898 ], [ -35.908643799999929, -7.185492699999963 ], [ -35.908374299999927, -7.185242799999971 ], [ -35.907968599999954, -7.184787099999954 ], [ -35.907671399999977, -7.184420799999957 ], [ -35.906628, -7.183134699999942 ], [ -35.907559599999956, -7.18199589999993 ], [ -35.907378799999954, -7.1819457 ], [ -35.906841, -7.181689199999964 ], [ -35.906519799999955, -7.181535699999952 ], [ -35.906080499999973, -7.181298899999955 ], [ -35.905855499999973, -7.181541 ], [ -35.905602699999982, -7.181705599999925 ], [ -35.90537479999994, -7.181805599999939 ], [ -35.905024799999978, -7.181893099999972 ], [ -35.904948299999944, -7.181919199999952 ], [ -35.904700299999945, -7.182049299999957 ], [ -35.904570199999966, -7.182124699999958 ], [ -35.904392199999961, -7.18225 ], [ -35.90406459999997, -7.182591799999971 ], [ -35.903743899999938, -7.18290429999995 ], [ -35.903254799999964, -7.18328919999993 ], [ -35.902935299999974, -7.183615399999955 ], [ -35.902795299999987, -7.183778099999913 ], [ -35.902462299999961, -7.184141399999931 ], [ -35.90230709999998, -7.1843231 ], [ -35.901996799999964, -7.184659899999905 ], [ -35.901909799999942, -7.184773399999935 ], [ -35.901739499999962, -7.185057299999925 ], [ -35.901633499999946, -7.185227599999948 ], [ -35.901519299999961, -7.18543779999994 ], [ -35.900993199999959, -7.185164899999979 ], [ -35.899828399999926, -7.184521899999925 ], [ -35.899129499999965, -7.184247 ], [ -35.8982769, -7.184121199999934 ], [ -35.898556399999961, -7.186096799999972 ], [ -35.898679899999934, -7.1862156 ], [ -35.898540099999934, -7.186341399999944 ], [ -35.898405, -7.186555699999915 ], [ -35.898078899999973, -7.1870216 ], [ -35.897384699999975, -7.188088599999981 ], [ -35.896788299999969, -7.189178799999981 ], [ -35.896070799999968, -7.1890903 ], [ -35.895297299999982, -7.190511399999936 ], [ -35.894330499999967, -7.191329099999979 ], [ -35.893135399999956, -7.191440899999987 ], [ -35.893053099999982, -7.191612699999968 ], [ -35.893051899999939, -7.191610899999968 ], [ -35.890117099999948, -7.190630499999927 ], [ -35.88210719999995, -7.187984399999941 ], [ -35.881529199999925, -7.187383299999987 ], [ -35.881383, -7.187321499999944 ], [ -35.881156099999949, -7.187244699999954 ], [ -35.880798299999988, -7.187101099999929 ], [ -35.880119699999973, -7.186822299999976 ], [ -35.879469799999988, -7.186531299999958 ], [ -35.879223299999985, -7.186429899999936 ], [ -35.878951199999953, -7.186333399999961 ], [ -35.878720799999932, -7.186234 ], [ -35.87803, -7.185938499999982 ], [ -35.877884299999948, -7.185882799999951 ], [ -35.877717, -7.18583639999998 ], [ -35.877569399999977, -7.185763099999987 ], [ -35.877499299999954, -7.185721099999972 ], [ -35.877353199999966, -7.185627199999921 ], [ -35.877185799999957, -7.185408799999974 ], [ -35.876974899999944, -7.185169899999952 ], [ -35.876644099999965, -7.184785799999943 ], [ -35.876497199999967, -7.184632299999959 ], [ -35.876404899999955, -7.184536199999973 ], [ -35.876346, -7.184503 ], [ -35.876294799999982, -7.184649699999945 ], [ -35.876241599999965, -7.184770399999931 ], [ -35.876169399999988, -7.18485329999992 ], [ -35.875994599999956, -7.185290599999968 ], [ -35.875727899999966, -7.185488199999975 ], [ -35.875679199999979, -7.185524299999946 ], [ -35.875580799999966, -7.18554229999995 ], [ -35.87539049999998, -7.185577099999924 ], [ -35.875006699999979, -7.185497899999962 ], [ -35.874699, -7.18562229999998 ], [ -35.874501399999936, -7.185784399999916 ], [ -35.874364599999986, -7.18590879999993 ], [ -35.874246799999987, -7.185980399999949 ], [ -35.873984699999944, -7.186214199999952 ], [ -35.873939099999966, -7.186331 ], [ -35.873870699999941, -7.186417699999914 ], [ -35.873749199999963, -7.186523199999939 ], [ -35.873608499999939, -7.186598699999936 ], [ -35.873448899999971, -7.186794699999957 ], [ -35.873293099999955, -7.187043499999944 ], [ -35.872977799999944, -7.187492099999939 ], [ -35.872993, -7.187740899999929 ], [ -35.872977799999944, -7.187823799999928 ], [ -35.872913199999978, -7.188008499999967 ], [ -35.872757399999962, -7.188212099999939 ], [ -35.872628199999951, -7.188340299999931 ], [ -35.872514199999955, -7.188385499999983 ], [ -35.872358499999955, -7.188355299999969 ], [ -35.872221699999962, -7.188370399999923 ], [ -35.872168799999947, -7.18844929999995 ], [ -35.872134299999971, -7.188506099999899 ], [ -35.872107699999958, -7.188739799999929 ], [ -35.872122899999972, -7.188928299999936 ], [ -35.872160899999983, -7.189082899999947 ], [ -35.872267299999983, -7.189275099999949 ], [ -35.872628199999951, -7.18958049999998 ], [ -35.872747299999958, -7.189632399999943 ], [ -35.873034799999978, -7.189757599999934 ], [ -35.873407099999952, -7.190021499999964 ], [ -35.873471699999989, -7.190145899999952 ], [ -35.873540099999964, -7.19034569999997 ], [ -35.873447399999975, -7.190586199999926 ], [ -35.873441299999975, -7.190602 ], [ -35.873460299999977, -7.190688699999964 ], [ -35.873437499999966, -7.190783 ], [ -35.873475499999984, -7.190933799999944 ], [ -35.873513, -7.191047799999987 ], [ -35.873528699999959, -7.191095899999927 ], [ -35.873524599999946, -7.191133 ], [ -35.873513499999945, -7.191231599999964 ], [ -35.873540099999971, -7.19136729999998 ], [ -35.873551499999962, -7.191593499999958 ], [ -35.87348819999994, -7.191752299999928 ], [ -35.873486899999932, -7.191755599999942 ], [ -35.873429899999969, -7.191815899999956 ], [ -35.873372899999943, -7.191868599999936 ], [ -35.873334899999975, -7.191921399999933 ], [ -35.873331099999973, -7.192106099999928 ], [ -35.87329519999998, -7.192260799999933 ], [ -35.873285499999945, -7.192302099999965 ], [ -35.873190599999923, -7.192543399999962 ], [ -35.873160699999971, -7.19260269999996 ], [ -35.873103199999946, -7.192716799999981 ], [ -35.872974, -7.192777099999954 ], [ -35.872972599999969, -7.192777599999954 ], [ -35.872837199999935, -7.192826099999914 ], [ -35.872730799999943, -7.192878899999943 ], [ -35.872628199999951, -7.192946799999944 ], [ -35.872381299999979, -7.19298819999994 ], [ -35.872311399999937, -7.193015 ], [ -35.872255, -7.19303659999997 ], [ -35.872164699999985, -7.193071099999954 ], [ -35.872069699999948, -7.193210599999915 ], [ -35.872047599999973, -7.193265099999944 ], [ -35.872046, -7.19326909999997 ], [ -35.872035499999988, -7.193336899999978 ], [ -35.872035499999988, -7.193384 ], [ -35.872046899999937, -7.193420799999966 ], [ -35.872059199999967, -7.193488599999956 ], [ -35.872044099999982, -7.193538599999979 ], [ -35.872013699999968, -7.193601699999947 ], [ -35.871953799999972, -7.193597 ], [ -35.871947199999966, -7.193621499999976 ], [ -35.87197279999998, -7.193649799999947 ], [ -35.871968099999947, -7.193683699999966 ], [ -35.871930099999929, -7.193702599999948 ], [ -35.87183129999994, -7.193704399999925 ], [ -35.871784699999978, -7.193709199999954 ], [ -35.871668799999952, -7.193745899999941 ], [ -35.871583399999956, -7.193785499999922 ], [ -35.871589099999937, -7.193847699999915 ], [ -35.871598599999977, -7.19389859999994 ], [ -35.871619499999952, -7.194004099999986 ], [ -35.871648, -7.194060699999984 ], [ -35.871670699999989, -7.194121 ], [ -35.871653699999975, -7.194219 ], [ -35.871632799999929, -7.194266099999949 ], [ -35.871668799999952, -7.194334 ], [ -35.871733399999982, -7.194437599999977 ], [ -35.871839799999975, -7.194545099999954 ], [ -35.871894899999972, -7.194588399999904 ], [ -35.871944299999939, -7.194635499999962 ], [ -35.871947899999952, -7.19476009999995 ], [ -35.87194809999994, -7.194769399999941 ], [ -35.871943099999953, -7.194781799999918 ], [ -35.871915799999954, -7.194850399999954 ], [ -35.871874, -7.194948399999931 ], [ -35.871811299999933, -7.19500309999993 ], [ -35.871798, -7.19502759999992 ], [ -35.871801799999965, -7.195067199999899 ], [ -35.871805599999959, -7.195142599999945 ], [ -35.871716299999939, -7.195332899999914 ], [ -35.87165559999994, -7.195491199999917 ], [ -35.871591, -7.195681599999949 ], [ -35.871554899999985, -7.195774 ], [ -35.871515, -7.195813499999919 ], [ -35.871501699999961, -7.195853099999955 ], [ -35.871497899999952, -7.195887 ], [ -35.871501699999953, -7.1959492 ], [ -35.871499799999988, -7.196005799999963 ], [ -35.871486499999946, -7.196073599999961 ], [ -35.871418099999978, -7.196154699999963 ], [ -35.871370599999977, -7.1961886 ], [ -35.871355399999963, -7.196258399999954 ], [ -35.871370599999977, -7.196301699999952 ], [ -35.871414299999969, -7.196328099999955 ], [ -35.87144329999996, -7.196355899999939 ], [ -35.871471299999939, -7.196382699999969 ], [ -35.871477, -7.196458099999985 ], [ -35.871440899999982, -7.196495799999958 ], [ -35.871393399999938, -7.196507099999953 ], [ -35.871290399999964, -7.196518699999934 ], [ -35.871275599999933, -7.196520299999941 ], [ -35.87119579999996, -7.196554299999971 ], [ -35.871180799999934, -7.196568199999934 ], [ -35.871167299999975, -7.1965807 ], [ -35.871076099999989, -7.196631499999954 ], [ -35.870974399999966, -7.196622399999953 ], [ -35.87095069999998, -7.196620199999914 ], [ -35.870863399999962, -7.196565599999923 ], [ -35.870814, -7.196539199999967 ], [ -35.870768399999982, -7.196526 ], [ -35.87061829999994, -7.196495799999973 ], [ -35.870491, -7.196541099999947 ], [ -35.870392199999969, -7.19662209999994 ], [ -35.870316199999941, -7.196714499999904 ], [ -35.87025349999994, -7.196810599999933 ], [ -35.870196499999956, -7.196895399999942 ], [ -35.870112899999981, -7.196965099999952 ], [ -35.870104399999953, -7.196978 ], [ -35.870050299999946, -7.19705939999995 ], [ -35.869987599999945, -7.197082 ], [ -35.869942, -7.197076399999968 ], [ -35.869885, -7.197082 ], [ -35.869769099999985, -7.197059399999931 ], [ -35.869691199999977, -7.197040499999958 ], [ -35.86957909999996, -7.197002799999931 ], [ -35.869516399999952, -7.196972699999945 ], [ -35.869421399999972, -7.196933099999964 ], [ -35.869385299999976, -7.196912399999973 ], [ -35.869351099999953, -7.196878399999937 ], [ -35.869209599999984, -7.196799 ], [ -35.869206799999972, -7.196797399999981 ], [ -35.869064299999941, -7.196859599999912 ], [ -35.869043399999953, -7.196916099999982 ], [ -35.869037699999978, -7.197036799999957 ], [ -35.869045299999989, -7.19705 ], [ -35.869108, -7.197095199999987 ], [ -35.869119399999938, -7.197176199999936 ], [ -35.869132699999966, -7.197234699999977 ], [ -35.869199199999969, -7.1972648 ], [ -35.8692296, -7.197313799999954 ], [ -35.869225799999981, -7.197421299999976 ], [ -35.869235299999957, -7.197492899999931 ], [ -35.869193499999945, -7.19755889999995 ], [ -35.869187799999956, -7.197626699999956 ], [ -35.869144099999978, -7.197726599999967 ], [ -35.869100399999979, -7.197732299999935 ], [ -35.869071499999961, -7.19771239999992 ], [ -35.869051, -7.197698299999952 ], [ -35.86897689999995, -7.197668199999979 ], [ -35.868904699999973, -7.19762859999996 ], [ -35.868833199999983, -7.197595299999947 ], [ -35.868811599999965, -7.197585199999915 ], [ -35.868769799999946, -7.197573899999962 ], [ -35.868653899999963, -7.197568299999966 ], [ -35.868631099999959, -7.197613499999936 ], [ -35.868570299999931, -7.197662499999967 ], [ -35.868545599999941, -7.197736 ], [ -35.86853229999997, -7.197817099999979 ], [ -35.868477299999938, -7.197960299999978 ], [ -35.868456399999957, -7.198043199999982 ], [ -35.868429799999952, -7.198077199999937 ], [ -35.868435499999983, -7.198160099999957 ], [ -35.868481, -7.198216699999921 ], [ -35.86850759999993, -7.198278799999986 ], [ -35.868547499999977, -7.19835049999996 ], [ -35.868566499999936, -7.198424 ], [ -35.868577899999934, -7.1985352 ], [ -35.868549399999949, -7.19864449999994 ], [ -35.868426, -7.198759499999944 ], [ -35.868384199999987, -7.198823599999966 ], [ -35.868308199999952, -7.198838599999952 ], [ -35.868196099999984, -7.19888389999997 ], [ -35.868141, -7.198914 ], [ -35.868028899999963, -7.198942299999947 ], [ -35.867945299999981, -7.199095 ], [ -35.867924399999943, -7.199187299999926 ], [ -35.867926299999965, -7.199279699999983 ], [ -35.86791489999996, -7.199336199999953 ], [ -35.867888299999947, -7.199372 ], [ -35.867875, -7.199455 ], [ -35.867865499999937, -7.199520899999936 ], [ -35.867844599999955, -7.1995775 ], [ -35.867859799999962, -7.199645299999923 ], [ -35.86785789999994, -7.199716899999924 ], [ -35.867793299999967, -7.199741399999925 ], [ -35.867717299999981, -7.199754599999974 ], [ -35.867675599999984, -7.199739599999939 ], [ -35.867609099999989, -7.19972259999997 ], [ -35.867521699999934, -7.199732 ], [ -35.86741909999995, -7.199781 ], [ -35.867276599999975, -7.1999092 ], [ -35.867181599999981, -7.200014699999928 ], [ -35.867075199999938, -7.200159899999941 ], [ -35.867035299999948, -7.200271099999965 ], [ -35.866970699999975, -7.200386 ], [ -35.866927, -7.200450099999949 ], [ -35.866894699999925, -7.200480299999984 ], [ -35.866778899999936, -7.200548099999923 ], [ -35.86662309999997, -7.200651799999954 ], [ -35.866579399999985, -7.200747899999968 ], [ -35.866569899999945, -7.200825199999933 ], [ -35.866524299999988, -7.200962799999941 ], [ -35.86647489999995, -7.201049499999926 ], [ -35.866417899999931, -7.201141799999942 ], [ -35.866383699999979, -7.2012493 ], [ -35.866336199999978, -7.201351 ], [ -35.866237399999932, -7.201447199999976 ], [ -35.866169, -7.201499899999941 ], [ -35.866117699999961, -7.201526299999966 ], [ -35.866068399999968, -7.201554599999943 ], [ -35.866017099999965, -7.201590399999929 ], [ -35.865920199999941, -7.201647 ], [ -35.865806199999959, -7.201761899999958 ], [ -35.865764399999939, -7.2018222 ], [ -35.865635199999929, -7.20197679999998 ], [ -35.865585799999963, -7.202063499999957 ], [ -35.865513599999936, -7.202135099999954 ], [ -35.865475599999975, -7.202289699999951 ], [ -35.865487, -7.202470599999987 ], [ -35.865418599999941, -7.202576099999948 ], [ -35.865426199999938, -7.202726899999957 ], [ -35.865384399999989, -7.202855099999961 ], [ -35.865354, -7.203013399999986 ], [ -35.86536539999998, -7.203168 ], [ -35.86543, -7.203284799999957 ], [ -35.865563, -7.203382799999912 ], [ -35.865612399999975, -7.203514799999948 ], [ -35.865650399999936, -7.203725899999944 ], [ -35.865673199999954, -7.203880399999949 ], [ -35.865692199999955, -7.204004799999941 ], [ -35.865688399999947, -7.204148 ], [ -35.865627599999982, -7.204234699999955 ], [ -35.865601, -7.204325199999978 ], [ -35.865536399999939, -7.204430799999956 ], [ -35.865525, -7.204543799999953 ], [ -35.865350199999966, -7.204683299999944 ], [ -35.865357799999963, -7.204826599999952 ], [ -35.865376799999979, -7.204852899999916 ], [ -35.865426199999945, -7.20510549999995 ], [ -35.865350199999966, -7.205256299999957 ], [ -35.865285699999966, -7.205327899999911 ], [ -35.865251499999943, -7.205546499999959 ], [ -35.865293299999962, -7.205784 ], [ -35.865403399999934, -7.205998899999919 ], [ -35.86547939999997, -7.206112 ], [ -35.865593399999966, -7.2061836 ], [ -35.865768199999934, -7.206262699999985 ], [ -35.865870799999982, -7.206262699999974 ], [ -35.866011399999941, -7.206236399999962 ], [ -35.866220299999952, -7.206206199999927 ], [ -35.86633809999995, -7.206198699999963 ], [ -35.866566099999936, -7.206274 ], [ -35.866778899999929, -7.206379599999942 ], [ -35.86690039999997, -7.206492699999951 ], [ -35.866930799999977, -7.206707499999919 ], [ -35.866976399999949, -7.2068131 ], [ -35.86697259999994, -7.206948799999977 ], [ -35.866889, -7.207092 ], [ -35.866797899999945, -7.207216399999934 ], [ -35.866683899999941, -7.207303099999936 ], [ -35.866588899999961, -7.207408699999987 ], [ -35.866486299999963, -7.207582099999956 ], [ -35.866410299999984, -7.207687599999935 ], [ -35.866362899999956, -7.207779099999944 ], [ -35.86633809999995, -7.207827099999983 ], [ -35.866235499999959, -7.207853499999933 ], [ -35.866155499999934, -7.207824599999974 ], [ -35.86615189999997, -7.20782329999996 ], [ -35.866057, -7.207796899999941 ], [ -35.866, -7.20784219999996 ], [ -35.866014699999944, -7.20787139999994 ], [ -35.86603039999995, -7.207902499999949 ], [ -35.866083599999968, -7.207981599999906 ], [ -35.866110099999965, -7.208053299999967 ], [ -35.866110099999965, -7.208158799999986 ], [ -35.866015199999943, -7.208204 ], [ -35.865886, -7.208106 ], [ -35.865863199999986, -7.208049499999968 ], [ -35.865783399999948, -7.208087199999981 ], [ -35.865703599999961, -7.208057 ], [ -35.865661799999948, -7.208106 ], [ -35.865627599999982, -7.208124899999983 ], [ -35.865426199999945, -7.208064599999945 ], [ -35.865323599999954, -7.20803059999998 ], [ -35.86526, -7.20805249999994 ], [ -35.86522489999993, -7.208064599999932 ], [ -35.865171699999962, -7.207959 ], [ -35.864989299999934, -7.207977899999928 ], [ -35.864825899999971, -7.208049499999936 ], [ -35.864746099999941, -7.208045699999966 ], [ -35.864651099999946, -7.207992899999971 ], [ -35.864567499999964, -7.2079439 ], [ -35.864377599999948, -7.207849699999958 ], [ -35.864206599999932, -7.207665 ], [ -35.864119199999955, -7.207589599999936 ], [ -35.863963399999932, -7.20752929999998 ], [ -35.86386459999995, -7.2075255 ], [ -35.86382279999998, -7.207529299999975 ], [ -35.863663299999985, -7.207548099999938 ], [ -35.863556899999942, -7.207604699999905 ], [ -35.863427699999932, -7.207661199999979 ], [ -35.863260499999974, -7.20773659999996 ], [ -35.863154099999974, -7.207830899999986 ], [ -35.863085799999965, -7.207943799999962 ], [ -35.863074299999944, -7.207962799999952 ], [ -35.862967899999944, -7.2080382 ], [ -35.862846399999981, -7.208196499999905 ], [ -35.862728599999976, -7.208245499999977 ], [ -35.86261079999997, -7.208260599999975 ], [ -35.862531, -7.20824929999996 ], [ -35.86248919999997, -7.208204 ], [ -35.862480499999947, -7.208188799999965 ], [ -35.862470399999957, -7.2081709 ], [ -35.862371399999972, -7.2079967 ], [ -35.862371399999972, -7.207932599999952 ], [ -35.862344799999953, -7.207778099999945 ], [ -35.862257399999983, -7.207619799999981 ], [ -35.862162399999931, -7.207506699999974 ], [ -35.862044699999956, -7.207404899999964 ], [ -35.861961099999974, -7.207355899999932 ], [ -35.861839499999967, -7.207303099999925 ], [ -35.861748299999931, -7.207257899999938 ], [ -35.861660899999954, -7.207171199999959 ], [ -35.861607699999986, -7.207073199999988 ], [ -35.861535499999945, -7.207009099999921 ], [ -35.861356899999983, -7.206907299999955 ], [ -35.861208799999929, -7.206790499999965 ], [ -35.86118259999995, -7.206792799999957 ], [ -35.861079599999989, -7.206801799999925 ], [ -35.860897199999961, -7.206888499999922 ], [ -35.860851599999933, -7.207043 ], [ -35.860798399999965, -7.207201299999975 ], [ -35.860737599999943, -7.207288 ], [ -35.860689699999966, -7.207329299999979 ], [ -35.86056659999997, -7.20743509999994 ], [ -35.860384299999971, -7.207502899999971 ], [ -35.86023229999995, -7.207480299999924 ], [ -35.860143899999969, -7.207409 ], [ -35.860110699999957, -7.207382299999944 ], [ -35.860076499999927, -7.207325699999967 ], [ -35.859943499999929, -7.207137299999943 ], [ -35.859825699999931, -7.207039299999984 ], [ -35.85967, -7.20695259999998 ], [ -35.859542199999972, -7.206896599999946 ], [ -35.859506599999968, -7.206880899999923 ], [ -35.859381199999973, -7.206771599999956 ], [ -35.859248199999968, -7.206673599999941 ], [ -35.859271, -7.206504 ], [ -35.859345699999956, -7.20643909999996 ], [ -35.859362199999964, -7.206424799999986 ], [ -35.859362199999964, -7.206345699999952 ], [ -35.859271, -7.206259 ], [ -35.859206399999955, -7.206202399999921 ], [ -35.859157, -7.206179799999955 ], [ -35.859005, -7.2060969 ], [ -35.858849299999974, -7.206021499999941 ], [ -35.858727699999974, -7.20605159999996 ], [ -35.85853769999995, -7.206123299999962 ], [ -35.858362899999975, -7.20621 ], [ -35.858260299999984, -7.206308 ], [ -35.858532399999952, -7.20646249999992 ], [ -35.858687299999929, -7.206582899999959 ], [ -35.858769199999983, -7.206715499999977 ], [ -35.858792199999982, -7.206859399999935 ], [ -35.858775, -7.207092399999956 ], [ -35.858768599999962, -7.207391299999934 ], [ -35.858855399999989, -7.207531399999952 ], [ -35.859073499999973, -7.207848099999979 ], [ -35.859309399999979, -7.208275499999945 ], [ -35.856307699999945, -7.209578799999966 ], [ -35.85571479999993, -7.20991769999996 ], [ -35.855477699999945, -7.210050799999961 ], [ -35.855243399999956, -7.210165599999897 ], [ -35.85497979999996, -7.210314599999935 ], [ -35.854536399999972, -7.210555699999946 ], [ -35.854274, -7.210700899999949 ], [ -35.853985399999942, -7.210850499999941 ], [ -35.853744199999937, -7.2110006 ], [ -35.853510399999948, -7.211180299999989 ], [ -35.853453399999978, -7.211100599999974 ], [ -35.853097799999951, -7.211285399999936 ], [ -35.852783399999971, -7.211456699999951 ], [ -35.852452299999975, -7.211613099999952 ], [ -35.85226549999993, -7.211779499999952 ], [ -35.852145899999982, -7.211867099999931 ], [ -35.852295699999971, -7.212069599999975 ], [ -35.851748699999973, -7.212400499999935 ], [ -35.851181899999972, -7.212733 ], [ -35.850897099999941, -7.212821899999936 ], [ -35.851217, -7.213764 ], [ -35.851790899999983, -7.21400419999996 ], [ -35.852104299999951, -7.214137799999958 ], [ -35.852726399999938, -7.21443829999991 ], [ -35.853394899999948, -7.214759199999937 ], [ -35.854006799999979, -7.215024099999935 ], [ -35.854187, -7.215132099999948 ], [ -35.854212699999955, -7.215253899999911 ], [ -35.854210399999943, -7.215716699999984 ], [ -35.854172199999937, -7.216085499999965 ], [ -35.854177399999976, -7.216461 ], [ -35.854160399999962, -7.21673539999996 ], [ -35.854171699999945, -7.217041399999951 ], [ -35.854147599999983, -7.217201499999918 ], [ -35.854144399999946, -7.217522399999941 ], [ -35.854178499999939, -7.218132599999913 ], [ -35.854197599999964, -7.218403 ], [ -35.854203699999971, -7.218489599999955 ], [ -35.854209899999951, -7.218611599999988 ], [ -35.85425349999997, -7.218695599999952 ], [ -35.85426979999994, -7.218844399999946 ], [ -35.854256, -7.219035499999953 ], [ -35.854247599999958, -7.219221 ], [ -35.854277399999951, -7.219407399999958 ], [ -35.854336599999954, -7.220075 ], [ -35.854830299999939, -7.220048499999947 ], [ -35.855749399999986, -7.219958799999959 ], [ -35.856240799999959, -7.219820899999966 ], [ -35.85675619999995, -7.219811599999966 ], [ -35.857039799999939, -7.219789899999951 ], [ -35.857272599999931, -7.219738199999918 ], [ -35.857332899999953, -7.219713 ], [ -35.857434699999949, -7.219678699999951 ], [ -35.857562799999982, -7.219624899999929 ], [ -35.857642799999944, -7.219621199999946 ], [ -35.857701199999958, -7.219633899999949 ], [ -35.857811599999941, -7.219679099999959 ], [ -35.857888699999933, -7.219708899999952 ], [ -35.858072299999947, -7.219795799999946 ], [ -35.85824649999995, -7.219853299999957 ], [ -35.858524099999961, -7.219924 ], [ -35.858594799999935, -7.21993579999997 ], [ -35.858727699999974, -7.219977599999915 ], [ -35.858909699999977, -7.22002489999996 ], [ -35.859062699999974, -7.220087499999988 ], [ -35.859154299999943, -7.22012469999992 ], [ -35.859341, -7.220183199999926 ], [ -35.859641899999929, -7.220265799999952 ], [ -35.859819799999968, -7.220333799999942 ], [ -35.860047, -7.220450299999948 ], [ -35.860156399999944, -7.220512799999931 ], [ -35.860457599999961, -7.2206586 ], [ -35.860743099999979, -7.22078249999992 ], [ -35.861028599999941, -7.220951899999934 ], [ -35.8614123, -7.221263 ], [ -35.861731499999962, -7.221727199999979 ], [ -35.861958499999965, -7.222033399999905 ], [ -35.862240299999939, -7.222301599999984 ], [ -35.862306899999972, -7.222742399999941 ], [ -35.862321099999974, -7.222878199999959 ], [ -35.862379799999935, -7.2230898 ], [ -35.862409599999978, -7.223306699999978 ], [ -35.862425499999979, -7.223646499999959 ], [ -35.862432599999984, -7.2239337 ], [ -35.86247, -7.224094 ], [ -35.862068, -7.225822799999934 ], [ -35.861129099999964, -7.229655 ], [ -35.860722399999929, -7.228938599999939 ], [ -35.860596599999958, -7.228779699999971 ], [ -35.860392499999932, -7.2285661 ], [ -35.860186199999923, -7.228371599999963 ], [ -35.859800799999967, -7.228094299999926 ], [ -35.859880099999948, -7.226199799999938 ], [ -35.859769399999948, -7.226252099999964 ], [ -35.859574299999963, -7.226283199999955 ], [ -35.859428, -7.226207799999953 ], [ -35.859259599999966, -7.226061499999971 ], [ -35.85915319999998, -7.22592409999994 ], [ -35.859073399999936, -7.225870899999974 ], [ -35.858998, -7.225897499999975 ], [ -35.858936, -7.226008299999949 ], [ -35.8589803, -7.226132399999923 ], [ -35.858953699999965, -7.226283199999944 ], [ -35.858869499999976, -7.226398399999941 ], [ -35.858838399999975, -7.226549099999945 ], [ -35.858804199999952, -7.226613599999952 ], [ -35.858763099999976, -7.226691 ], [ -35.8586567, -7.226784099999966 ], [ -35.858514799999966, -7.22680179999996 ], [ -35.858262099999941, -7.226611199999973 ], [ -35.858053699999971, -7.226442699999945 ], [ -35.8578055, -7.226296499999952 ], [ -35.857721299999987, -7.226269899999947 ], [ -35.857526199999938, -7.226292 ], [ -35.857207, -7.226172299999957 ], [ -35.857007499999959, -7.225977299999953 ], [ -35.856714899999936, -7.225826499999918 ], [ -35.856347, -7.225675799999957 ], [ -35.855934699999985, -7.225556099999939 ], [ -35.855584399999948, -7.225498499999963 ], [ -35.855305199999975, -7.225458599999962 ], [ -35.854968199999981, -7.225378799999926 ], [ -35.854693399999981, -7.225267899999967 ], [ -35.854524899999937, -7.225108399999963 ], [ -35.854400799999951, -7.224935499999965 ], [ -35.854276599999935, -7.224837899999962 ], [ -35.854143699999952, -7.224793599999926 ], [ -35.854028399999947, -7.224846799999984 ], [ -35.854055, -7.224975399999932 ], [ -35.854152499999941, -7.225135 ], [ -35.854188, -7.225312299999906 ], [ -35.854125899999929, -7.225352199999979 ], [ -35.853926399999978, -7.225334399999962 ], [ -35.853726899999977, -7.225267899999949 ], [ -35.853536299999973, -7.225259099999967 ], [ -35.85330579999993, -7.225174899999965 ], [ -35.852915699999983, -7.225006399999913 ], [ -35.85252109999994, -7.224846799999979 ], [ -35.852197499999932, -7.224678299999954 ], [ -35.851758599999982, -7.224465499999959 ], [ -35.851514799999961, -7.224297099999972 ], [ -35.851248799999951, -7.224235 ], [ -35.851018199999949, -7.224172899999902 ], [ -35.850703499999952, -7.224385699999962 ], [ -35.850654699999957, -7.224478799999948 ], [ -35.850747799999965, -7.224549799999968 ], [ -35.850778799999951, -7.224634 ], [ -35.850690199999974, -7.224753699999956 ], [ -35.850597099999966, -7.224780299999979 ], [ -35.850224699999963, -7.224775899999932 ], [ -35.849834599999951, -7.224647299999987 ], [ -35.849386799999941, -7.224620699999964 ], [ -35.849058799999966, -7.22461179999991 ], [ -35.848925799999954, -7.224638399999957 ], [ -35.848914499999978, -7.224767499999942 ], [ -35.849148699999944, -7.2321891 ], [ -35.848833399999933, -7.232297799999944 ], [ -35.848509499999977, -7.239613799999984 ], [ -35.848492499999963, -7.240082099999929 ], [ -35.848534799999982, -7.2405128 ], [ -35.84857, -7.241549099999922 ], [ -35.84858689999993, -7.242190199999932 ], [ -35.847811899999961, -7.242389199999939 ], [ -35.844669699999947, -7.242490199999961 ], [ -35.844149, -7.242506899999954 ], [ -35.844147199999952, -7.242640299999936 ], [ -35.844159499999932, -7.24286 ], [ -35.844155899999976, -7.243018 ], [ -35.84417179999997, -7.243198699999962 ], [ -35.84414959999998, -7.243463499999985 ], [ -35.844127899999933, -7.243631399999965 ], [ -35.844120799999985, -7.243869 ], [ -35.844150899999939, -7.244202599999929 ], [ -35.844187499999975, -7.244424599999953 ], [ -35.844203299999954, -7.24451819999994 ], [ -35.844200299999947, -7.24466089999992 ], [ -35.844210899999958, -7.244889899999984 ], [ -35.844207399999966, -7.245192299999908 ], [ -35.844183, -7.245368 ], [ -35.844162, -7.245799599999915 ], [ -35.844141399999963, -7.246008 ], [ -35.844132299999956, -7.246215699999927 ], [ -35.844130899999982, -7.246357499999908 ], [ -35.844144699999958, -7.246496199999977 ], [ -35.844170899999952, -7.246692899999955 ], [ -35.844231599999951, -7.246919499999908 ], [ -35.84427, -7.247031699999988 ], [ -35.844319799999937, -7.2472195 ], [ -35.844390799999935, -7.24745709999997 ], [ -35.844466899999929, -7.247701399999939 ], [ -35.844520299999949, -7.247851299999979 ], [ -35.844577399999935, -7.2480277 ], [ -35.844627, -7.248159799999948 ], [ -35.844667499999964, -7.248290799999941 ], [ -35.844719499999933, -7.2484163 ], [ -35.84484649999996, -7.248578499999967 ], [ -35.846972199999975, -7.247537299999966 ], [ -35.847658399999951, -7.249632299999959 ], [ -35.847993399999964, -7.250662299999918 ], [ -35.848276699999921, -7.251157199999977 ], [ -35.851399599999979, -7.249674199999942 ], [ -35.852249599999936, -7.248641699999967 ], [ -35.853659499999935, -7.247749 ], [ -35.854740899999975, -7.247346399999973 ], [ -35.856351699999941, -7.246726899999949 ], [ -35.857514699999967, -7.246688499999949 ], [ -35.858223899999984, -7.244721499999987 ], [ -35.857819299999967, -7.242058499999917 ], [ -35.858355499999966, -7.241766899999961 ], [ -35.860092099999974, -7.240908 ], [ -35.860202099999988, -7.241168 ], [ -35.860582099999931, -7.241928 ], [ -35.861715599999968, -7.243141 ], [ -35.862301899999977, -7.243768499999926 ], [ -35.86214949999993, -7.2441904 ], [ -35.862335499999972, -7.244613699999936 ], [ -35.862489099999948, -7.24490809999995 ], [ -35.862595899999974, -7.245168699999965 ], [ -35.862558699999965, -7.245631599999967 ], [ -35.862640899999974, -7.246005699999933 ], [ -35.862806699999972, -7.24651709999995 ], [ -35.862560499999972, -7.247334899999941 ], [ -35.865175099999931, -7.24929909999996 ], [ -35.867382699999943, -7.249714899999957 ], [ -35.868040599999979, -7.251669599999955 ], [ -35.865872599999932, -7.252395099999966 ], [ -35.866640299999972, -7.252651 ], [ -35.867053899999974, -7.253182 ], [ -35.867827399999953, -7.253727299999973 ], [ -35.867819299999951, -7.254474699999951 ], [ -35.868099699999959, -7.255203199999905 ], [ -35.867739199999967, -7.255658899999956 ], [ -35.867410799999952, -7.260407399999951 ], [ -35.875062299999968, -7.261897099999946 ], [ -35.887519099999963, -7.277596 ], [ -35.888492, -7.278849899999959 ], [ -35.888607499999985, -7.278998399999958 ], [ -35.888945399999955, -7.279432899999943 ], [ -35.889113099999982, -7.280982299999946 ], [ -35.889251399999978, -7.282263599999987 ], [ -35.889483099999957, -7.284578699999951 ], [ -35.889586699999938, -7.2856346 ], [ -35.887869799999976, -7.28571229999994 ], [ -35.887394799999988, -7.282796799999971 ], [ -35.887259299999975, -7.282587099999938 ], [ -35.887171099999925, -7.282383099999943 ], [ -35.887091799999951, -7.282009699999941 ], [ -35.88698, -7.28192409999995 ], [ -35.886044899999938, -7.282064099999979 ], [ -35.883374599999975, -7.284102799999961 ], [ -35.8842504, -7.285819799999969 ], [ -35.884993799999961, -7.2872773 ], [ -35.884189199999973, -7.287893599999983 ], [ -35.883037099999967, -7.288840099999963 ], [ -35.882306499999977, -7.289541099999977 ], [ -35.882163699999985, -7.289678099999952 ], [ -35.882041899999926, -7.289795 ], [ -35.880637899999961, -7.291106399999932 ], [ -35.880093399999957, -7.291516699999917 ], [ -35.879393, -7.291961 ], [ -35.879019, -7.292108099999968 ], [ -35.878560099999959, -7.292226299999911 ], [ -35.877661099999955, -7.292403799999942 ], [ -35.876813599999934, -7.292439499999968 ], [ -35.876189199999949, -7.292431599999951 ], [ -35.87551829999996, -7.292423 ], [ -35.874852099999941, -7.292462899999964 ], [ -35.873845399999951, -7.292487699999969 ], [ -35.873069099999945, -7.292401299999924 ], [ -35.872366399999983, -7.29224569999997 ], [ -35.87138659999993, -7.292023099999918 ], [ -35.870593, -7.291814699999988 ], [ -35.8684651, -7.291336 ], [ -35.868869, -7.299389799999981 ], [ -35.869690799999937, -7.299225899999948 ], [ -35.870195, -7.299110699999965 ], [ -35.870904899999978, -7.29898479999997 ], [ -35.870978799999925, -7.298844199999966 ], [ -35.871268399999963, -7.29879569999996 ], [ -35.872379599999931, -7.298555199999958 ], [ -35.87277209999997, -7.298515399999944 ], [ -35.873268399999972, -7.29863359999997 ], [ -35.873699499999944, -7.298780199999938 ], [ -35.874730199999938, -7.299100499999945 ], [ -35.875048699999979, -7.299201099999964 ], [ -35.875592199999971, -7.299375099999943 ], [ -35.875724099999957, -7.29952359999993 ], [ -35.875874099999976, -7.299597399999947 ], [ -35.876117399999949, -7.299614499999953 ], [ -35.876509399999975, -7.299499899999926 ], [ -35.877069699999943, -7.299384299999914 ], [ -35.877582699999948, -7.299185 ], [ -35.878178499999933, -7.298770399999952 ], [ -35.878374199999939, -7.298657099999939 ], [ -35.879222699999957, -7.298287499999952 ], [ -35.879847599999948, -7.298031499999973 ], [ -35.880090099999961, -7.297936599999955 ], [ -35.880266799999958, -7.297776699999925 ], [ -35.880509599999982, -7.297728499999976 ], [ -35.880517899999973, -7.297560399999953 ], [ -35.8809, -7.297361899999955 ], [ -35.881543199999953, -7.297059 ], [ -35.882065299999958, -7.296817599999949 ], [ -35.882427, -7.296640599999917 ], [ -35.882587399999977, -7.296562099999988 ], [ -35.883580399999971, -7.296117 ], [ -35.884228399999984, -7.295823399999946 ], [ -35.885067399999961, -7.29542119999996 ], [ -35.885654899999963, -7.295179399999959 ], [ -35.885985899999987, -7.295023199999938 ], [ -35.886652699999956, -7.294748199999945 ], [ -35.887085799999966, -7.294484 ], [ -35.887401799999964, -7.294183199999966 ], [ -35.887647899999934, -7.293924899999978 ], [ -35.887809899999979, -7.293662399999961 ], [ -35.887906299999941, -7.293381699999933 ], [ -35.887942699999932, -7.293227399999962 ], [ -35.887996099999953, -7.292811599999941 ], [ -35.888107299999945, -7.291919299999946 ], [ -35.888157, -7.291648199999952 ], [ -35.888246399999957, -7.291008099999955 ], [ -35.88829039999996, -7.290578299999944 ], [ -35.888349699999928, -7.2903492 ], [ -35.888422899999966, -7.290110599999907 ], [ -35.888462, -7.2896436 ], [ -35.888455499999971, -7.289354199999912 ], [ -35.888423799999941, -7.289127299999986 ], [ -35.888372199999935, -7.288757199999977 ], [ -35.888304299999952, -7.288374799999926 ], [ -35.88815829999993, -7.287479399999952 ], [ -35.88803489999998, -7.286807899999927 ], [ -35.888138899999944, -7.2868056 ], [ -35.889694399999939, -7.28669439999995 ], [ -35.892504599999931, -7.286431 ], [ -35.893980599999971, -7.286292599999951 ], [ -35.896693699999943, -7.286038299999981 ], [ -35.898343599999968, -7.285750699999954 ], [ -35.898865699999931, -7.286990599999957 ], [ -35.89925, -7.287777799999978 ], [ -35.901258599999949, -7.2869967 ], [ -35.904976499999975, -7.285550799999953 ], [ -35.90525, -7.285444399999969 ], [ -35.905431, -7.285544299999962 ], [ -35.905543099999925, -7.285764599999947 ], [ -35.9056, -7.2860037 ], [ -35.905583, -7.286234 ], [ -35.905620899999974, -7.286390399999936 ], [ -35.905743499999971, -7.286813199999952 ], [ -35.905800799999945, -7.28711679999998 ], [ -35.90602279999996, -7.287216699999941 ], [ -35.906033299999933, -7.28741 ], [ -35.90596979999998, -7.287567 ], [ -35.905888699999934, -7.287617199999922 ], [ -35.905804399999973, -7.287669399999959 ], [ -35.905759799999949, -7.2879091 ], [ -35.905853099999945, -7.28806509999991 ], [ -35.905936499999939, -7.288129 ], [ -35.905919099999956, -7.288294899999943 ], [ -35.905920099999946, -7.288442299999927 ], [ -35.905967299999929, -7.288617 ], [ -35.906097399999972, -7.288772699999978 ], [ -35.906163, -7.288919599999931 ], [ -35.906071899999972, -7.289104399999925 ], [ -35.906025299999953, -7.289184399999928 ], [ -35.905953299999965, -7.289307799999967 ], [ -35.905853, -7.28948339999994 ], [ -35.905747499999968, -7.2895665 ], [ -35.90568779999996, -7.289613399999944 ], [ -35.905609099999943, -7.289718699999955 ], [ -35.905445399999969, -7.28993749999998 ], [ -35.905431699999951, -7.289955899999958 ], [ -35.90516649999995, -7.290307499999927 ], [ -35.904903499999939, -7.291009199999936 ], [ -35.904830799999957, -7.291437099999926 ], [ -35.904823599999943, -7.291479399999942 ], [ -35.904917799999971, -7.291782799999955 ], [ -35.905094399999946, -7.291993399999964 ], [ -35.905087, -7.2922882 ], [ -35.904943099999976, -7.292850899999943 ], [ -35.904742799999951, -7.29326669999996 ], [ -35.904569699999968, -7.293590199999935 ], [ -35.904522399999969, -7.293620899999959 ], [ -35.904441099999936, -7.293673899999943 ], [ -35.904294899999968, -7.293895799999982 ], [ -35.904222099999977, -7.29404369999996 ], [ -35.90421479999997, -7.294347699999945 ], [ -35.903949099999977, -7.294616499999941 ], [ -35.903757799999944, -7.294995299999937 ], [ -35.903630599999929, -7.295208499999928 ], [ -35.903520499999971, -7.295392899999943 ], [ -35.903485899999964, -7.295733799999947 ], [ -35.903666699999974, -7.296277799999946 ], [ -35.90975, -7.296361099999938 ], [ -35.909682199999963, -7.286600799999961 ], [ -35.909666699999953, -7.284361099999952 ], [ -35.922918, -7.282942699999965 ], [ -35.922524399999936, -7.28201789999997 ], [ -35.922107299999944, -7.281213899999948 ], [ -35.921889599999929, -7.2807956 ], [ -35.921526199999967, -7.279454599999958 ], [ -35.921455299999934, -7.279341799999946 ], [ -35.921281699999952, -7.278977499999939 ], [ -35.921262899999938, -7.278930299999942 ], [ -35.921498099999944, -7.278867099999949 ], [ -35.923303899999958, -7.277532799999948 ], [ -35.923443, -7.277662499999979 ], [ -35.9235255, -7.277719 ], [ -35.923725899999972, -7.277785 ], [ -35.923888599999948, -7.277773299999975 ], [ -35.923975799999944, -7.277733199999956 ], [ -35.924013499999944, -7.277697799999956 ], [ -35.924067699999966, -7.27769309999996 ], [ -35.924103099999968, -7.2777002 ], [ -35.924117199999955, -7.277733199999968 ], [ -35.924156099999941, -7.277745 ], [ -35.924525099999983, -7.27765889999993 ], [ -35.925217, -7.278037299999953 ], [ -35.926129299999957, -7.278620399999949 ], [ -35.926111799999944, -7.278821499999948 ], [ -35.926105699999937, -7.278946899999953 ], [ -35.926105, -7.279106699999939 ], [ -35.926128, -7.279336199999952 ], [ -35.926157599999954, -7.279482199999979 ], [ -35.926195799999959, -7.279614599999932 ], [ -35.926287699999939, -7.279861699999977 ], [ -35.926341599999951, -7.279853099999972 ], [ -35.926400899999976, -7.279843599999933 ], [ -35.926434599999936, -7.279816699999975 ], [ -35.926511, -7.279712 ], [ -35.926603899999968, -7.279555 ], [ -35.926742899999979, -7.279425 ], [ -35.926863099999927, -7.27936 ], [ -35.92715, -7.279268 ], [ -35.927336199999964, -7.27911 ], [ -35.927438499999937, -7.278875 ], [ -35.927463899999978, -7.278886899999961 ], [ -35.927517799999976, -7.278889499999927 ], [ -35.927926899999925, -7.278735799999914 ], [ -35.928071399999965, -7.278664899999945 ], [ -35.928286799999974, -7.278504599999964 ], [ -35.928407599999964, -7.278428499999968 ], [ -35.928539, -7.278417899999967 ], [ -35.928686099999943, -7.278428499999943 ], [ -35.928793799999944, -7.27846259999994 ], [ -35.928888399999948, -7.278517799999986 ], [ -35.928990799999951, -7.2785939 ], [ -35.929109, -7.27872529999994 ] ] ], [ [ [ -36.0013163, -7.179573899999968 ], [ -36.001363799999979, -7.179490299999934 ], [ -36.001532299999958, -7.179276499999978 ], [ -36.00167219999998, -7.179063699999944 ], [ -36.001724299999978, -7.178981499999976 ], [ -36.001737299999938, -7.178913599999929 ], [ -36.001712399999974, -7.178802199999925 ], [ -36.001662899999936, -7.178529599999933 ], [ -36.001634599999932, -7.17842929999997 ], [ -36.001609699999975, -7.178349799999961 ], [ -36.001583599999947, -7.178245799999934 ], [ -36.001437599999967, -7.177749799999956 ], [ -36.0011727, -7.17687909999997 ], [ -36.001471399999957, -7.176766799999923 ], [ -36.002012899999961, -7.176631599999967 ], [ -36.002885399999975, -7.176390399999946 ], [ -36.003005, -7.176358 ], [ -36.003100099999983, -7.176342899999958 ], [ -36.003216899999984, -7.176319 ], [ -36.003296, -7.176283399999941 ], [ -36.003324599999985, -7.176255599999933 ], [ -36.003353099999977, -7.176227799999922 ], [ -36.003370199999949, -7.176142099999955 ], [ -36.003372, -7.176095899999964 ], [ -36.003373699999948, -7.17604969999997 ], [ -36.003362899999964, -7.175943799999971 ], [ -36.003311, -7.175748599999975 ], [ -36.003203499999984, -7.175220499999939 ], [ -36.003093399999955, -7.174594699999933 ], [ -36.003098899999941, -7.174385199999946 ], [ -36.002773799999943, -7.174391399999945 ], [ -36.001954599999976, -7.174427499999982 ], [ -36.001568899999945, -7.174443199999936 ], [ -36.001566899999951, -7.174286499999925 ], [ -36.001732699999941, -7.173603699999967 ], [ -36.001849399999976, -7.173115299999953 ], [ -36.001902, -7.172928199999933 ], [ -36.001934899999981, -7.172829799999907 ], [ -36.001930399999935, -7.172783799999913 ], [ -36.001815399999941, -7.172743799999966 ], [ -36.001500399999941, -7.172684699999918 ], [ -36.001276799999964, -7.17263 ], [ -36.001114099999938, -7.17254319999996 ], [ -36.001027099999938, -7.172477 ], [ -36.000878799999953, -7.172384699999983 ], [ -36.000802699999952, -7.172344799999949 ], [ -36.000708399999951, -7.172254599999958 ], [ -36.000582599999973, -7.172133499999964 ], [ -36.000506199999961, -7.172060399999941 ], [ -36.000353299999972, -7.171913799999957 ], [ -36.000164599999948, -7.171734699999956 ], [ -36.000096699999972, -7.171671099999974 ], [ -35.999939899999966, -7.17149959999993 ], [ -35.999778399999968, -7.1713478 ], [ -35.999476099999981, -7.17106519999992 ], [ -35.999209199999932, -7.170807799999966 ], [ -35.999061899999958, -7.170676099999985 ], [ -35.99889729999996, -7.170533399999943 ], [ -35.998790799999945, -7.170426299999977 ], [ -35.998645099999969, -7.170275899999967 ], [ -35.9985291, -7.170165099999966 ], [ -35.9984, -7.170045299999967 ], [ -35.998358499999945, -7.170009699999988 ], [ -35.998330799999962, -7.169985799999955 ], [ -35.998300599999943, -7.16996 ], [ -35.998196699999937, -7.169850499999964 ], [ -35.998086299999954, -7.169754199999949 ], [ -35.997883599999959, -7.169629499999927 ], [ -35.997707199999979, -7.169520199999967 ], [ -35.997532699999965, -7.1694517 ], [ -35.997390499999938, -7.169399799999958 ], [ -35.997256499999928, -7.16938 ], [ -35.997063699999956, -7.169362599999952 ], [ -35.996859899999954, -7.169344199999963 ], [ -35.996680799999972, -7.16932359999993 ], [ -35.996542699999964, -7.1693132 ], [ -35.996428499999979, -7.169287799999944 ], [ -35.996263099999965, -7.169273299999903 ], [ -35.996086099999957, -7.1692634 ], [ -35.995956099999951, -7.169258499999952 ], [ -35.995752899999957, -7.169203499999968 ], [ -35.995587899999975, -7.169142599999935 ], [ -35.99550069999998, -7.169109499999959 ], [ -35.995235799999932, -7.169047 ], [ -35.994995199999948, -7.168987099999968 ], [ -35.994738499999983, -7.168936399999964 ], [ -35.994579599999952, -7.16892909999995 ], [ -35.99447639999994, -7.168923 ], [ -35.99434569999994, -7.16892949999995 ], [ -35.994187, -7.168931599999948 ], [ -35.993910899999946, -7.168928299999966 ], [ -35.9937973, -7.168923299999943 ], [ -35.9936034, -7.168890199999974 ], [ -35.993285, -7.168775499999979 ], [ -35.993068799999953, -7.16869890000001 ], [ -35.992847099999942, -7.168602499999937 ], [ -35.992763199999956, -7.168567499999956 ], [ -35.992647599999948, -7.168542299999958 ], [ -35.992532, -7.1685118 ], [ -35.99245429999997, -7.168478199999975 ], [ -35.992317599999978, -7.168402499999942 ], [ -35.99220389999995, -7.168324299999921 ], [ -35.992108899999955, -7.168243599999936 ], [ -35.99202169999996, -7.168173299999984 ], [ -35.991875099999959, -7.167996599999967 ], [ -35.991691899999985, -7.167795099999989 ], [ -35.991569599999927, -7.167730799999973 ], [ -35.991432799999984, -7.167658099999911 ], [ -35.991315899999968, -7.16763329999997 ], [ -35.991188299999969, -7.167743 ], [ -35.991102599999984, -7.167865699999909 ], [ -35.991001699999977, -7.168042599999959 ], [ -35.990912699999967, -7.16819739999994 ], [ -35.990829799999965, -7.168302099999956 ], [ -35.990685199999966, -7.168498199999929 ], [ -35.990529599999952, -7.168669899999949 ], [ -35.990430099999969, -7.1688589 ], [ -35.990347299999939, -7.169202299999923 ], [ -35.990266, -7.16948 ], [ -35.990181199999938, -7.169694199999967 ], [ -35.990092699999941, -7.1699159 ], [ -35.990047199999943, -7.170038599999915 ], [ -35.990016099999941, -7.170127199999944 ], [ -35.98999629999998, -7.170231699999932 ], [ -35.9899784, -7.170356399999934 ], [ -35.989958099999974, -7.170517099999925 ], [ -35.989948799999979, -7.1706341 ], [ -35.989919399999962, -7.170750099999949 ], [ -35.98988, -7.170933499999923 ], [ -35.98984379999996, -7.171038299999982 ], [ -35.989789699999967, -7.171165299999946 ], [ -35.989702, -7.171305699999963 ], [ -35.989509099999964, -7.171522199999988 ], [ -35.989322, -7.171700499999926 ], [ -35.989219799999937, -7.171778699999956 ], [ -35.98907109999994, -7.171881499999933 ], [ -35.988985, -7.17194209999997 ], [ -35.988887399999953, -7.171995499999964 ], [ -35.988805, -7.172042199999978 ], [ -35.988684099999951, -7.172064199999961 ], [ -35.988527499999975, -7.172078 ], [ -35.988307799999973, -7.172094399999962 ], [ -35.988079799999987, -7.172113699999954 ], [ -35.987868199999987, -7.1721411 ], [ -35.987684199999933, -7.172154899999945 ], [ -35.987310599999937, -7.172190599999963 ], [ -35.987311899999959, -7.172123299999973 ], [ -35.987167699999922, -7.170732299999953 ], [ -35.986938799999969, -7.170730499999923 ], [ -35.986933299999976, -7.170712199999989 ], [ -35.986907699999954, -7.170532699999982 ], [ -35.986917, -7.17026379999993 ], [ -35.984009299999968, -7.170321799999956 ], [ -35.983182899999981, -7.170961599999928 ], [ -35.983071399999965, -7.170852599999928 ], [ -35.983033199999966, -7.17081529999993 ], [ -35.982825, -7.170610699999936 ], [ -35.982688199999984, -7.170436399999969 ], [ -35.982527599999969, -7.170290199999954 ], [ -35.982343, -7.170168799999924 ], [ -35.982062799999945, -7.169985899999989 ], [ -35.9818079, -7.169839399999934 ], [ -35.981503499999967, -7.1697124 ], [ -35.981191699999947, -7.16954949999996 ], [ -35.980864499999939, -7.169382899999982 ], [ -35.980777299999943, -7.169331199999915 ], [ -35.980704499999952, -7.169287899999972 ], [ -35.980625099999941, -7.169408 ], [ -35.980472799999973, -7.169579199999916 ], [ -35.980090299999972, -7.170151799999946 ], [ -35.980004099999974, -7.170430399999921 ], [ -35.97994209999996, -7.170510199999987 ], [ -35.979803699999934, -7.170621699999983 ], [ -35.979608199999973, -7.170702399999914 ], [ -35.979322299999986, -7.17084889999993 ], [ -35.979110499999948, -7.171034699999949 ], [ -35.979014799999952, -7.171160099999963 ], [ -35.978924899999974, -7.171308199999943 ], [ -35.978776399999958, -7.171621199999935 ], [ -35.978681399999978, -7.1718658 ], [ -35.978552199999974, -7.1723077 ], [ -35.978496199999945, -7.172428599999933 ], [ -35.978457599999963, -7.1726118 ], [ -35.978463, -7.172787699999938 ], [ -35.978448, -7.172884199999947 ], [ -35.978448, -7.172986099999953 ], [ -35.978343, -7.173069899999983 ], [ -35.978300799999943, -7.173114499999948 ], [ -35.978113199999939, -7.173313 ], [ -35.977912, -7.173513899999913 ], [ -35.977695099999963, -7.173717499999976 ], [ -35.977418299999954, -7.174018699999978 ], [ -35.977222199999964, -7.174193299999963 ], [ -35.97712, -7.174249099999928 ], [ -35.97705719999994, -7.174286299999936 ], [ -35.976947499999937, -7.174405199999957 ], [ -35.976720099999959, -7.174616699999937 ], [ -35.976435099999946, -7.174868099999989 ], [ -35.976199799999961, -7.175074499999939 ], [ -35.975935599999957, -7.17528629999992 ], [ -35.975762699999962, -7.175387199999933 ], [ -35.975639699999931, -7.175474599999981 ], [ -35.975605899999941, -7.1755353 ], [ -35.975427099999933, -7.175533799999923 ], [ -35.975316799999973, -7.175558199999968 ], [ -35.975141099999981, -7.175622299999917 ], [ -35.974508399999934, -7.17579189999996 ], [ -35.974506299999973, -7.17586809999993 ], [ -35.974512899999979, -7.176075499999945 ], [ -35.97454579999993, -7.176277499999955 ], [ -35.97445479999994, -7.176440899999959 ], [ -35.974273399999959, -7.176851799999973 ], [ -35.974208899999958, -7.177036 ], [ -35.974165199999952, -7.1771965 ], [ -35.97408779999995, -7.177428099999928 ], [ -35.974031399999951, -7.177643799999926 ], [ -35.973909599999963, -7.177920399999948 ], [ -35.973789399999937, -7.178044599999947 ], [ -35.973661199999981, -7.178142599999967 ], [ -35.973577599999942, -7.178219299999969 ], [ -35.97346749999997, -7.178277799999927 ], [ -35.973360199999945, -7.178357299999954 ], [ -35.973305099999948, -7.178368099999936 ], [ -35.973173699999961, -7.178387399999981 ], [ -35.973050399999977, -7.178419699999946 ], [ -35.972976699999947, -7.178420199999947 ], [ -35.972900299999935, -7.17838649999995 ], [ -35.972783, -7.178342599999964 ], [ -35.972742099999948, -7.178333699999947 ], [ -35.972643499999947, -7.178330399999937 ], [ -35.972577899999983, -7.178355799999984 ], [ -35.972567099999935, -7.178365 ], [ -35.972503399999944, -7.178419299999965 ], [ -35.972169799999968, -7.178883699999969 ], [ -35.972081699999933, -7.179078599999971 ], [ -35.971973199999972, -7.179383899999922 ], [ -35.971963699999947, -7.179413899999935 ], [ -35.971930399999962, -7.179518699999967 ], [ -35.971906199999985, -7.179594499999949 ], [ -35.971880899999974, -7.179741699999966 ], [ -35.971876299999963, -7.179903 ], [ -35.97187229999998, -7.180041099999903 ], [ -35.971852299999973, -7.180198799999951 ], [ -35.971796599999948, -7.18053009999992 ], [ -35.971735199999962, -7.180782599999908 ], [ -35.971637099999946, -7.181077399999953 ], [ -35.971538399999929, -7.181256599999946 ], [ -35.971497199999924, -7.181398699999932 ], [ -35.971458899999959, -7.181568699999959 ], [ -35.971430799999951, -7.181693299999947 ], [ -35.97143149999993, -7.181712699999951 ], [ -35.971437099999939, -7.18185609999995 ], [ -35.971406399999978, -7.181992799999905 ], [ -35.971365899999959, -7.182229499999935 ], [ -35.971300899999967, -7.18274989999996 ], [ -35.971207699999972, -7.1829658 ], [ -35.971197299999979, -7.182997399999978 ], [ -35.9711607, -7.183222599999967 ], [ -35.971139899999969, -7.183478599999958 ], [ -35.971145699999973, -7.183667 ], [ -35.971137, -7.183711899999915 ], [ -35.971071099999961, -7.183950199999974 ], [ -35.971040599999981, -7.184089499999985 ], [ -35.970984, -7.184372599999946 ], [ -35.970954299999967, -7.184646499999911 ], [ -35.970943299999945, -7.1850325 ], [ -35.970990499999978, -7.185377799999961 ], [ -35.970902899999942, -7.185719399999911 ], [ -35.970814699999956, -7.185980199999949 ], [ -35.970933199999934, -7.186230799999961 ], [ -35.97096839999994, -7.186386 ], [ -35.97105959999994, -7.186361199999974 ], [ -35.971354799999972, -7.186299399999948 ], [ -35.973015, -7.18597489999998 ], [ -35.973123899999962, -7.18595359999996 ], [ -35.975455799999963, -7.185467199999953 ], [ -35.976620399999945, -7.185248599999976 ], [ -35.9776409, -7.185029099999953 ], [ -35.978627, -7.184833599999947 ], [ -35.979245699999979, -7.184722099999935 ], [ -35.979963399999974, -7.184574599999949 ], [ -35.980143399999974, -7.184539399999942 ], [ -35.980323399999982, -7.184504199999932 ], [ -35.980394199999978, -7.184471399999964 ], [ -35.9808126, -7.184357899999938 ], [ -35.980841199999929, -7.184350199999905 ], [ -35.981194, -7.184178699999935 ], [ -35.981375399999926, -7.184078899999954 ], [ -35.981583899999976, -7.183952299999948 ], [ -35.981584799999951, -7.183959699999949 ], [ -35.981588, -7.184083 ], [ -35.984569099999931, -7.18897909999991 ], [ -35.984596, -7.189001199999951 ], [ -35.991260399999931, -7.190940499999977 ], [ -35.999819299999956, -7.190905799999946 ], [ -36.001428599999947, -7.189072 ], [ -36.001451899999957, -7.188914899999915 ], [ -36.002584799999958, -7.180301799999944 ], [ -36.002807799999978, -7.17979889999998 ], [ -36.00130309999998, -7.179844099999952 ], [ -36.001299199999941, -7.17972449999997 ], [ -36.001291899999956, -7.179632199999978 ], [ -36.0013163, -7.179573899999968 ] ] ] ] } }
]
}
