{
"type": "FeatureCollection",
"name": "2510808",
"crs": { "type": "name", "properties": { "name": "urn:ogc:def:crs:OGC:1.3:CRS84" } },
"features": [
{ "type": "Feature", "properties": { "CD_MUN": "2510808", "NM_MUN": "Patos" }, "geometry": { "type": "MultiPolygon", "coordinates": [ [ [ [ -37.322387799999944, -7.04505789999998 ], [ -37.322567199999973, -7.045784299999986 ], [ -37.323159, -7.046501699999956 ], [ -37.323679199999958, -7.046743799999933 ], [ -37.324297899999969, -7.047353599999935 ], [ -37.325006399999943, -7.047793099999986 ], [ -37.325526499999974, -7.048053099999928 ], [ -37.32571479999995, -7.043264399999969 ], [ -37.327158599999962, -7.043318199999942 ], [ -37.32754419999997, -7.043659 ], [ -37.328198799999939, -7.044017699999911 ], [ -37.328961099999958, -7.044125299999944 ], [ -37.332045899999969, -7.044376399999965 ], [ -37.332063899999987, -7.043963899999945 ], [ -37.331666, -7.04167309999997 ], [ -37.328699099999938, -7.04143319999995 ], [ -37.32698, -7.040998799999979 ], [ -37.325427099999949, -7.040170099999942 ], [ -37.325051199999962, -7.040636899999982 ], [ -37.323831599999949, -7.041560599999974 ], [ -37.322629899999981, -7.041748899999948 ], [ -37.322343, -7.041883399999977 ], [ -37.322082899999941, -7.044448099999949 ], [ -37.322387799999944, -7.04505789999998 ] ] ], [ [ [ -37.306943799999949, -7.04999319999996 ], [ -37.3069182, -7.050863899999975 ], [ -37.308429199999985, -7.050940699999944 ], [ -37.308787699999989, -7.047048 ], [ -37.309133899999956, -7.045331799999937 ], [ -37.310305699999958, -7.04533889999991 ], [ -37.312480499999943, -7.045757299999956 ], [ -37.312431199999935, -7.04477449999996 ], [ -37.313208799999984, -7.0436506 ], [ -37.312936499999971, -7.042451099999965 ], [ -37.312923699999942, -7.039019299999928 ], [ -37.313013299999966, -7.038776 ], [ -37.31341029999993, -7.0388273 ], [ -37.315228599999955, -7.040235799999947 ], [ -37.315663899999947, -7.040389499999938 ], [ -37.31592, -7.040389499999964 ], [ -37.316355399999964, -7.039992499999925 ], [ -37.316803599999957, -7.040120599999957 ], [ -37.317149299999983, -7.040069299999955 ], [ -37.316918799999939, -7.03946749999995 ], [ -37.316022499999981, -7.038622399999966 ], [ -37.315868799999976, -7.038084599999934 ], [ -37.316048099999932, -7.037726 ], [ -37.316585899999943, -7.037521199999965 ], [ -37.316674399999961, -7.036929299999941 ], [ -37.318873799999956, -7.037317199999982 ], [ -37.320564699999984, -7.037634299999977 ], [ -37.321472499999963, -7.037912899999981 ], [ -37.321645899999957, -7.037184099999961 ], [ -37.321659699999941, -7.036913099999952 ], [ -37.321498899999945, -7.036403199999911 ], [ -37.321287599999948, -7.036123 ], [ -37.321087799999937, -7.035831199999953 ], [ -37.32078, -7.03550279999998 ], [ -37.320169, -7.034914799999937 ], [ -37.319755599999951, -7.034574799999978 ], [ -37.319622299999928, -7.034342799999942 ], [ -37.31957639999996, -7.0340672 ], [ -37.319390299999952, -7.033235699999974 ], [ -37.319103199999965, -7.0326431 ], [ -37.318549699999949, -7.031632399999979 ], [ -37.318393499999949, -7.0314395 ], [ -37.31815, -7.031196 ], [ -37.317731899999956, -7.03068149999995 ], [ -37.317757699999966, -7.030524799999942 ], [ -37.317498799999953, -7.03048159999995 ], [ -37.317287799999981, -7.030365599999945 ], [ -37.317110399999933, -7.030368299999942 ], [ -37.316962099999948, -7.030340699999967 ], [ -37.316743699999961, -7.030344699999921 ], [ -37.316533299999946, -7.030387199999938 ], [ -37.315988499999953, -7.030338699999946 ], [ -37.315526899999959, -7.0303921 ], [ -37.31504909999996, -7.030520699999975 ], [ -37.31476889999994, -7.030612599999925 ], [ -37.314541599999984, -7.030685199999954 ], [ -37.313798599999984, -7.030751299999981 ], [ -37.313377899999985, -7.030767499999982 ], [ -37.312965299999966, -7.030851099999929 ], [ -37.312701599999976, -7.030966299999949 ], [ -37.312653099999984, -7.031093299999947 ], [ -37.311283799999963, -7.02756939999994 ], [ -37.314490899999953, -7.011504199999909 ], [ -37.30117549999995, -7.013530199999915 ], [ -37.301717199999977, -7.006709299999936 ], [ -37.302268899999937, -7.006393499999972 ], [ -37.303118499999982, -7.005906199999963 ], [ -37.303542599999965, -7.005320499999922 ], [ -37.302506, -7.003815899999928 ], [ -37.300994899999978, -7.004817399999988 ], [ -37.299377, -7.003629499999954 ], [ -37.29716029999998, -7.004207699999918 ], [ -37.297135299999979, -7.004001 ], [ -37.297106299999939, -7.003761 ], [ -37.296953699999968, -7.00308219999992 ], [ -37.296686199999961, -7.002628299999966 ], [ -37.296236499999964, -7.001865099999978 ], [ -37.29568409999996, -7.001045 ], [ -37.296097, -7.000434899999934 ], [ -37.296628499999933, -6.999807799999909 ], [ -37.296965099999966, -6.999446299999939 ], [ -37.296979299999975, -6.999169899999959 ], [ -37.297021799999982, -6.998528599999932 ], [ -37.296997, -6.997908499999939 ], [ -37.297000499999967, -6.997270699999952 ], [ -37.296989899999978, -6.996643499999959 ], [ -37.297032399999978, -6.995998599999941 ], [ -37.297108399999956, -6.995388499999956 ], [ -37.29714579999996, -6.99473 ], [ -37.297188299999959, -6.994106399999962 ], [ -37.29725209999998, -6.9934757 ], [ -37.297315899999944, -6.992837799999973 ], [ -37.297379699999972, -6.992214199999989 ], [ -37.29747889999993, -6.991587 ], [ -37.297542699999951, -6.991037799999957 ], [ -37.297517899999946, -6.990945699999954 ], [ -37.297323, -6.990307799999893 ], [ -37.297131699999959, -6.989673599999936 ], [ -37.296950899999949, -6.989049899999923 ], [ -37.29667459999996, -6.98841209999996 ], [ -37.296362699999982, -6.987784899999964 ], [ -37.295498099999975, -6.98776369999996 ], [ -37.295262, -6.987746099999954 ], [ -37.29507689999997, -6.98804849999995 ], [ -37.294823799999953, -6.988258399999936 ], [ -37.294364199999968, -6.988479399999973 ], [ -37.292874199999979, -6.988736299999951 ], [ -37.292340899999942, -6.98900029999992 ], [ -37.292009599999979, -6.9892058 ], [ -37.289219199999941, -6.990396399999936 ], [ -37.287787699999974, -6.990743699999949 ], [ -37.287731, -6.991098 ], [ -37.287624699999974, -6.991735799999941 ], [ -37.28756089999996, -6.992387799999984 ], [ -37.28749, -6.993004399999939 ], [ -37.28744039999998, -6.993642199999958 ], [ -37.287366299999981, -6.994276 ], [ -37.287344699999949, -6.995424499999952 ], [ -37.287957699999929, -6.995924199999914 ], [ -37.288751499999933, -6.996562 ], [ -37.290225499999956, -6.997224599999952 ], [ -37.290962599999943, -6.997547099999974 ], [ -37.291639399999951, -6.997834099999989 ], [ -37.292348, -6.998202599999928 ], [ -37.292752, -6.998975099999949 ], [ -37.292776799999949, -6.999115 ], [ -37.292755, -7.000506399999949 ], [ -37.290783499999982, -7.000956399999931 ], [ -37.28589889999995, -7.002071199999905 ], [ -37.285254799999969, -7.001887499999961 ], [ -37.284868699999954, -7.0016065 ], [ -37.284283499999965, -7.00163029999992 ], [ -37.283789499999962, -7.001731399999921 ], [ -37.283519399999939, -7.001549499999964 ], [ -37.283196699999962, -7.001547799999948 ], [ -37.283175199999967, -7.001835 ], [ -37.283139499999955, -7.002102099999945 ], [ -37.282875, -7.002263799999962 ], [ -37.282560899999964, -7.002211499999923 ], [ -37.282235299999968, -7.001987199999977 ], [ -37.281632799999954, -7.001960199999925 ], [ -37.281227899999976, -7.001822199999922 ], [ -37.280837199999958, -7.001785599999952 ], [ -37.280416299999956, -7.001807299999965 ], [ -37.279886499999968, -7.001743899999934 ], [ -37.279567, -7.001703099999921 ], [ -37.279050099999949, -7.001569899999916 ], [ -37.278675599999929, -7.0015501 ], [ -37.278092799999961, -7.001466499999925 ], [ -37.277201499999933, -7.001947799999911 ], [ -37.276595899999961, -7.002028499999915 ], [ -37.270892399999987, -7.002298099999979 ], [ -37.272762, -7.005355699999921 ], [ -37.271011399999963, -7.005941799999944 ], [ -37.27103, -7.006561299999923 ], [ -37.270973499999968, -7.006989499999984 ], [ -37.271137599999967, -7.007502699999981 ], [ -37.271074799999951, -7.008028 ], [ -37.270901499999972, -7.008391199999957 ], [ -37.270563399999965, -7.008569099999914 ], [ -37.269729699999978, -7.007755799999929 ], [ -37.266298, -7.007610599999981 ], [ -37.258704499999965, -7.0070484 ], [ -37.2572512, -7.006929499999955 ], [ -37.256907699999942, -7.00688989999998 ], [ -37.256511, -7.009730799999942 ], [ -37.254240299999935, -7.009900799999971 ], [ -37.254237599999961, -7.009901 ], [ -37.254554399999968, -7.0103076 ], [ -37.254439899999966, -7.010318699999975 ], [ -37.253066499999939, -7.010286 ], [ -37.252053399999966, -7.010329599999966 ], [ -37.250116099999957, -7.010187699999946 ], [ -37.249645, -7.010267799999947 ], [ -37.248204399999963, -7.011235499999966 ], [ -37.24757869999997, -7.011411899999943 ], [ -37.244282699999928, -7.011266399999947 ], [ -37.243949799999946, -7.012514199999963 ], [ -37.243254899999954, -7.015633799999961 ], [ -37.243233099999941, -7.01737269999997 ], [ -37.243415, -7.018253099999962 ], [ -37.243229499999984, -7.018937099999977 ], [ -37.243675899999971, -7.019927299999964 ], [ -37.243665699999958, -7.020183899999946 ], [ -37.243825799999968, -7.0219294 ], [ -37.243825799999968, -7.024353399999932 ], [ -37.243368399999952, -7.026396199999951 ], [ -37.243519, -7.026832599999983 ], [ -37.243549399999957, -7.027229 ], [ -37.243644699999948, -7.027865499999956 ], [ -37.24363139999997, -7.028317099999982 ], [ -37.243770499999982, -7.029237499999944 ], [ -37.243900099999969, -7.029794 ], [ -37.243961099999979, -7.03157769999997 ], [ -37.244098299999962, -7.033239399999935 ], [ -37.244057799999958, -7.035064599999945 ], [ -37.243965099999976, -7.035697499999946 ], [ -37.24390219999998, -7.036126899999923 ], [ -37.245089599999979, -7.036402599999981 ], [ -37.24651989999996, -7.036744 ], [ -37.247893, -7.036930099999937 ], [ -37.248877, -7.037063499999943 ], [ -37.249503899999979, -7.037148499999954 ], [ -37.250767, -7.037319699999953 ], [ -37.251769799999984, -7.037455699999966 ], [ -37.257864899999952, -7.036114399999963 ], [ -37.259345799999949, -7.035826299999928 ], [ -37.261527599999965, -7.035401799999925 ], [ -37.261946499999958, -7.035318299999987 ], [ -37.262914299999977, -7.035125399999961 ], [ -37.263018699999975, -7.034785299999967 ], [ -37.263298399999947, -7.033874199999963 ], [ -37.265422599999965, -7.026938799999899 ], [ -37.26550629999997, -7.026638299999967 ], [ -37.266803, -7.026562199999936 ], [ -37.267120899999952, -7.026359799999946 ], [ -37.267502699999966, -7.025772499999976 ], [ -37.26838639999994, -7.027411199999964 ], [ -37.268518, -7.0278231 ], [ -37.268727299999966, -7.027936099999962 ], [ -37.26888409999998, -7.028087299999972 ], [ -37.269088699999941, -7.028511799999912 ], [ -37.269198699999947, -7.0286371 ], [ -37.269412799999934, -7.028672699999962 ], [ -37.269552899999958, -7.028812199999936 ], [ -37.269826899999948, -7.028853199999952 ], [ -37.269947099999968, -7.028808099999944 ], [ -37.270082499999944, -7.028918899999962 ], [ -37.270191499999953, -7.028964899999927 ], [ -37.27037219999994, -7.028966899999923 ], [ -37.270453599999946, -7.029235899999942 ], [ -37.27090039999996, -7.02939849999994 ], [ -37.272673299999951, -7.030904499999941 ], [ -37.273836099999983, -7.032959099999986 ], [ -37.273732199999984, -7.033533199999961 ], [ -37.274168899999957, -7.034412699999938 ], [ -37.274680099999962, -7.0348835 ], [ -37.274056, -7.035394399999965 ], [ -37.273883499999961, -7.036466 ], [ -37.273542099999929, -7.036867099999911 ], [ -37.272707, -7.037062399999944 ], [ -37.271456899999983, -7.0375306 ], [ -37.270837599999936, -7.038000599999969 ], [ -37.270569099999939, -7.0383199 ], [ -37.270497599999949, -7.038419 ], [ -37.269573299999941, -7.038583399999927 ], [ -37.268617, -7.038658099999977 ], [ -37.265493499999941, -7.037244399999945 ], [ -37.265564799999943, -7.038402299999985 ], [ -37.265427599999953, -7.038952599999972 ], [ -37.264832299999966, -7.0413412 ], [ -37.264229, -7.0439843 ], [ -37.264993099999977, -7.04417169999993 ], [ -37.265918599999964, -7.044398599999951 ], [ -37.26809129999998, -7.042072299999976 ], [ -37.269359899999984, -7.040678 ], [ -37.270801899999988, -7.041298599999963 ], [ -37.270493499999937, -7.041921499999923 ], [ -37.27027789999994, -7.042464799999967 ], [ -37.270065799999948, -7.042999499999946 ], [ -37.270059899999985, -7.043014199999949 ], [ -37.269827199999945, -7.043607899999925 ], [ -37.269134399999977, -7.045589899999933 ], [ -37.269897799999967, -7.045896699999982 ], [ -37.269363299999938, -7.047220099999977 ], [ -37.269095199999981, -7.047770199999928 ], [ -37.270118, -7.048201699999936 ], [ -37.269556199999954, -7.049695 ], [ -37.269335199999936, -7.050346699999978 ], [ -37.26931559999997, -7.050547399999971 ], [ -37.270295099999942, -7.051561699999979 ], [ -37.271086699999962, -7.052106199999946 ], [ -37.270892699999941, -7.053934899999931 ], [ -37.27086159999994, -7.05439619999991 ], [ -37.271459199999988, -7.054806 ], [ -37.271459199999988, -7.056180499999922 ], [ -37.272592599999939, -7.056296599999916 ], [ -37.272339, -7.05809879999993 ], [ -37.272845399999945, -7.057994799999974 ], [ -37.2729576, -7.059116099999918 ], [ -37.272965799999959, -7.059928299999954 ], [ -37.272996099999943, -7.060901599999941 ], [ -37.273644799999943, -7.060772499999941 ], [ -37.274444499999959, -7.060694799999969 ], [ -37.274860499999932, -7.060661 ], [ -37.274878799999946, -7.061133899999965 ], [ -37.275480099999982, -7.061755299999948 ], [ -37.277691499999953, -7.061091099999921 ], [ -37.277107399999977, -7.061665599999952 ], [ -37.277177699999982, -7.061949 ], [ -37.277368699999954, -7.062142 ], [ -37.277692299999948, -7.062347 ], [ -37.27792339999997, -7.062556 ], [ -37.27789729999995, -7.062773099999951 ], [ -37.277634, -7.062897699999959 ], [ -37.277553599999976, -7.063159 ], [ -37.277260199999944, -7.063460499999985 ], [ -37.276725499999948, -7.0638706 ], [ -37.276785799999971, -7.064196199999987 ], [ -37.277529499999964, -7.064200199999985 ], [ -37.278015899999964, -7.064413299999953 ], [ -37.278164599999961, -7.064779099999953 ], [ -37.277497299999936, -7.064779099999924 ], [ -37.277465199999938, -7.065205199999963 ], [ -37.276938599999937, -7.065128799999965 ], [ -37.276500399999975, -7.065977 ], [ -37.27668529999994, -7.066431299999988 ], [ -37.276351599999941, -7.066660399999929 ], [ -37.275897399999963, -7.066511699999965 ], [ -37.27562, -7.066021199999948 ], [ -37.27552349999997, -7.065498599999964 ], [ -37.275177799999938, -7.065293599999952 ], [ -37.274546699999981, -7.06551869999994 ], [ -37.274225099999967, -7.065357899999967 ], [ -37.27395579999996, -7.065442399999926 ], [ -37.274426099999978, -7.06643529999994 ], [ -37.274478299999949, -7.06669659999995 ], [ -37.274253199999976, -7.067323699999959 ], [ -37.273835199999951, -7.067347799999945 ], [ -37.273710499999936, -7.067552799999913 ], [ -37.273807, -7.067958899999974 ], [ -37.275322499999959, -7.068111599999972 ], [ -37.275969699999969, -7.068557799999956 ], [ -37.275993899999946, -7.068803 ], [ -37.275402899999968, -7.069249299999972 ], [ -37.274466299999979, -7.069506499999903 ], [ -37.273879399999942, -7.069510599999917 ], [ -37.27331659999993, -7.069755799999967 ], [ -37.272528699999953, -7.069703499999938 ], [ -37.27199, -7.070374899999933 ], [ -37.2722553, -7.071038099999964 ], [ -37.272689499999956, -7.071472299999943 ], [ -37.273340699999956, -7.071440099999949 ], [ -37.273839199999941, -7.071022099999952 ], [ -37.27386329999996, -7.070691399999943 ], [ -37.274865299999931, -7.070174899999944 ], [ -37.275641099999973, -7.070150699999933 ], [ -37.27578989999995, -7.069837199999933 ], [ -37.276646099999937, -7.069230199999916 ], [ -37.277044099999955, -7.068777899999903 ], [ -37.277200899999968, -7.068657299999954 ], [ -37.277560599999958, -7.068685499999969 ], [ -37.277373699999934, -7.068987 ], [ -37.277307399999977, -7.069322599999976 ], [ -37.277651099999957, -7.069692499999981 ], [ -37.277383799999946, -7.071907499999971 ], [ -37.277930499999968, -7.072003899999951 ], [ -37.278517399999949, -7.071441099999959 ], [ -37.279104299999972, -7.072204899999969 ], [ -37.27925909999994, -7.072377799999947 ], [ -37.279992699999987, -7.072600899999947 ], [ -37.280219799999941, -7.072775799999898 ], [ -37.279152499999952, -7.072906399999965 ], [ -37.278601799999933, -7.073302399999947 ], [ -37.278211899999974, -7.073654099999927 ], [ -37.278067199999946, -7.07397169999996 ], [ -37.278191799999938, -7.07432949999997 ], [ -37.278143499999949, -7.07490839999997 ], [ -37.277905399999959, -7.076045 ], [ -37.277982699999939, -7.076269099999948 ], [ -37.278013899999962, -7.076745499999947 ], [ -37.278202799999981, -7.076998699999927 ], [ -37.278259099999964, -7.077477099999935 ], [ -37.278777699999978, -7.077440899999955 ], [ -37.279561599999965, -7.077014799999961 ], [ -37.2799596, -7.076773599999981 ], [ -37.280454, -7.077324299999926 ], [ -37.280960499999935, -7.077786599999949 ], [ -37.280510299999946, -7.079354399999913 ], [ -37.280245, -7.080335299999952 ], [ -37.280815799999971, -7.080592599999941 ], [ -37.281820799999934, -7.08098649999992 ], [ -37.281867499999983, -7.081021499999955 ], [ -37.286922799999957, -7.077016699999958 ], [ -37.287360399999962, -7.076833299999961 ], [ -37.286790699999983, -7.076837699999929 ], [ -37.287766899999944, -7.075606099999969 ], [ -37.286919299999973, -7.072811499999938 ], [ -37.287877899999955, -7.072699599999974 ], [ -37.283024699999942, -7.064917699999971 ], [ -37.283229799999965, -7.063253599999922 ], [ -37.283319099999979, -7.0625297 ], [ -37.283527499999934, -7.062363199999941 ], [ -37.283726899999984, -7.06204359999998 ], [ -37.283869, -7.061912 ], [ -37.284227799999954, -7.061738799999951 ], [ -37.283429499999961, -7.060711399999964 ], [ -37.282892199999942, -7.059728 ], [ -37.282790399999953, -7.059566399999953 ], [ -37.282780799999955, -7.059498 ], [ -37.282772099999924, -7.059286 ], [ -37.282739399999969, -7.058956099999941 ], [ -37.282660899999946, -7.058702899999939 ], [ -37.282561599999944, -7.058448 ], [ -37.282525699999951, -7.0582626 ], [ -37.282516799999939, -7.058216799999957 ], [ -37.282532399999972, -7.057972299999979 ], [ -37.28253459999997, -7.057807699999929 ], [ -37.282378599999959, -7.05767459999992 ], [ -37.282082, -7.0574511 ], [ -37.281769599999969, -7.057277899999979 ], [ -37.281502399999965, -7.057113799999983 ], [ -37.281373399999957, -7.056878299999917 ], [ -37.281408099999965, -7.056488499999948 ], [ -37.281450799999966, -7.05619929999996 ], [ -37.28136729999995, -7.055957399999977 ], [ -37.281285, -7.055893099999937 ], [ -37.281320299999955, -7.055772299999931 ], [ -37.281315399999983, -7.055549499999913 ], [ -37.281312299999975, -7.055270699999918 ], [ -37.281310499999968, -7.055117199999945 ], [ -37.281344899999979, -7.055032 ], [ -37.281405599999978, -7.054989299999928 ], [ -37.281640699999969, -7.054926899999918 ], [ -37.281683399999963, -7.0548717 ], [ -37.281704599999969, -7.054757599999947 ], [ -37.281693299999972, -7.054610099999938 ], [ -37.281648, -7.054271299999935 ], [ -37.281645499999961, -7.054199599999966 ], [ -37.281644, -7.054155599999972 ], [ -37.281656199999929, -7.053940199999937 ], [ -37.281613199999981, -7.053633499999917 ], [ -37.281554699999965, -7.053378599999964 ], [ -37.281394399999961, -7.053088199999936 ], [ -37.281266399999929, -7.0528798 ], [ -37.281161, -7.052777499999923 ], [ -37.281085199999957, -7.052646599999954 ], [ -37.281006099999964, -7.052413699999945 ], [ -37.281028199999987, -7.052243699999956 ], [ -37.281032299999936, -7.052071 ], [ -37.280845799999952, -7.051651199999987 ], [ -37.280865199999937, -7.051163 ], [ -37.28099659999998, -7.0508149 ], [ -37.281247399999984, -7.050379199999963 ], [ -37.281152099999929, -7.0494947 ], [ -37.280988099999945, -7.048957299999909 ], [ -37.280682099999979, -7.0486377 ], [ -37.280392499999955, -7.048451899999986 ], [ -37.28016939999997, -7.047744 ], [ -37.279510399999936, -7.047025 ], [ -37.279172, -7.046149399999956 ], [ -37.278975599999967, -7.045412699999948 ], [ -37.279010799999988, -7.0451108 ], [ -37.279580599999974, -7.044708799999939 ], [ -37.279767299999946, -7.0439302 ], [ -37.279420499999958, -7.043494 ], [ -37.279765199999929, -7.042761699999983 ], [ -37.279661599999947, -7.042165199999933 ], [ -37.279561899999983, -7.041722199999978 ], [ -37.27950739999995, -7.041453299999957 ], [ -37.277826299999965, -7.040887099999949 ], [ -37.277927799999937, -7.040651899999922 ], [ -37.278014299999938, -7.040445699999958 ], [ -37.27809289999994, -7.04014089999993 ], [ -37.27826529999993, -7.0385846 ], [ -37.278838099999966, -7.038882899999959 ], [ -37.27942719999993, -7.039755799999976 ], [ -37.279999199999963, -7.040473399999932 ], [ -37.281030199999968, -7.04030159999997 ], [ -37.281965699999944, -7.040346 ], [ -37.282496599999952, -7.040438699999981 ], [ -37.28237109999997, -7.04056229999997 ], [ -37.282448, -7.040972099999985 ], [ -37.282819299999971, -7.041855599999975 ], [ -37.283293099999987, -7.042739199999945 ], [ -37.284023, -7.043994 ], [ -37.284330299999958, -7.0446727 ], [ -37.284932099999942, -7.046247699999946 ], [ -37.285713199999975, -7.047835499999972 ], [ -37.294625499999931, -7.048642199999982 ], [ -37.294727899999955, -7.04902 ], [ -37.297698599999926, -7.049045599999959 ], [ -37.302462099999957, -7.049378499999944 ], [ -37.305765699999938, -7.04989069999996 ], [ -37.306943799999949, -7.04999319999996 ] ] ], [ [ [ -37.399958099999935, -6.949272399999918 ], [ -37.399454, -6.948151199999902 ], [ -37.39939089999995, -6.947634799999924 ], [ -37.397147, -6.947753899999968 ], [ -37.394459299999937, -6.947946799999951 ], [ -37.394213499999985, -6.9470947 ], [ -37.393946899999953, -6.946714399999958 ], [ -37.392500199999965, -6.946870399999952 ], [ -37.391420299999936, -6.947032499999959 ], [ -37.390271799999937, -6.947163399999973 ], [ -37.389309899999944, -6.947290299999954 ], [ -37.389371099999948, -6.949416199999965 ], [ -37.38946169999997, -6.950192 ], [ -37.38951069999996, -6.950601 ], [ -37.390748899999956, -6.950838699999957 ], [ -37.39157529999995, -6.950832 ], [ -37.393317699999962, -6.950820399999921 ], [ -37.394198399999944, -6.951080199999976 ], [ -37.394691499999958, -6.951521 ], [ -37.397345599999937, -6.951213 ], [ -37.39759719999995, -6.950444199999926 ], [ -37.398726899999929, -6.949933699999975 ], [ -37.399958099999935, -6.949272399999918 ] ] ] ] } }
]
}
