{
"type": "FeatureCollection",
"name": "2513901",
"crs": { "type": "name", "properties": { "name": "urn:ogc:def:crs:OGC:1.3:CRS84" } },
"features": [
{ "type": "Feature", "properties": { "CD_MUN": "2513901", "NM_MUN": "São Bento" }, "geometry": { "type": "Polygon", "coordinates": [ [ [ -37.458007499999958, -6.510220299999963 ], [ -37.457955699999957, -6.509771 ], [ -37.459204499999949, -6.509678699999945 ], [ -37.459759, -6.5089914 ], [ -37.462837199999967, -6.505183499999935 ], [ -37.461828699999963, -6.504820799999938 ], [ -37.461558899999943, -6.504738799999938 ], [ -37.461255899999976, -6.50457129999993 ], [ -37.461009399999966, -6.504445199999989 ], [ -37.460071, -6.503931399999948 ], [ -37.460618499999953, -6.50304149999995 ], [ -37.460717699999975, -6.502576599999934 ], [ -37.460697499999981, -6.502080299999946 ], [ -37.460724399999954, -6.501573499999925 ], [ -37.460987799999941, -6.5007691 ], [ -37.461215299999942, -6.500081799999958 ], [ -37.461455399999977, -6.499671299999914 ], [ -37.46226, -6.497416 ], [ -37.462596499999968, -6.497488799999935 ], [ -37.462864899999943, -6.497218899999964 ], [ -37.463260299999945, -6.496916299999979 ], [ -37.463486199999977, -6.496790099999957 ], [ -37.464185599999944, -6.496485299999969 ], [ -37.464465, -6.49636349999996 ], [ -37.464632, -6.496303299999941 ], [ -37.463263, -6.495157399999941 ], [ -37.461479099999963, -6.493664199999969 ], [ -37.460434099999929, -6.492789499999978 ], [ -37.46026279999996, -6.492646099999956 ], [ -37.460407, -6.492518499999938 ], [ -37.460351, -6.492311199999978 ], [ -37.460426199999979, -6.492174199999949 ], [ -37.460378899999974, -6.491992 ], [ -37.4604078, -6.491832 ], [ -37.46039479999996, -6.491780499999924 ], [ -37.46032729999996, -6.491740399999948 ], [ -37.460250699999953, -6.491577 ], [ -37.460331199999978, -6.491442899999969 ], [ -37.46005009999994, -6.491123399999952 ], [ -37.460000399999949, -6.490943299999977 ], [ -37.459992899999975, -6.4907466 ], [ -37.459827799999971, -6.490385299999949 ], [ -37.459824899999944, -6.490339799999958 ], [ -37.459819199999977, -6.490249599999958 ], [ -37.459807499999961, -6.490207499999946 ], [ -37.459792399999969, -6.490188 ], [ -37.459452499999948, -6.489530299999959 ], [ -37.458952699999941, -6.488943499999976 ], [ -37.458273699999957, -6.488509899999929 ], [ -37.457764199999929, -6.488248799999936 ], [ -37.457403499999948, -6.487649899999941 ], [ -37.4575483, -6.487333099999915 ], [ -37.458009699999941, -6.486581299999925 ], [ -37.457983799999973, -6.486501299999914 ], [ -37.457887299999982, -6.48557 ], [ -37.457753, -6.485088099999947 ], [ -37.457497899999957, -6.48475419999996 ], [ -37.456778799999938, -6.484355899999962 ], [ -37.456415899999968, -6.484105699999913 ], [ -37.456033299999945, -6.483795399999941 ], [ -37.45500449999998, -6.482961199999962 ], [ -37.454495299999969, -6.482788599999937 ], [ -37.454022499999958, -6.482627099999917 ], [ -37.452501199999972, -6.482746399999933 ], [ -37.451271, -6.482480899999934 ], [ -37.451072899999936, -6.4823656 ], [ -37.450388, -6.481971399999982 ], [ -37.450154599999969, -6.481708 ], [ -37.449899499999958, -6.481411899999962 ], [ -37.449809099999989, -6.481350199999947 ], [ -37.449453099999971, -6.480557199999981 ], [ -37.449392399999965, -6.480136599999954 ], [ -37.449555199999963, -6.47916819999995 ], [ -37.450220799999954, -6.478915899999942 ], [ -37.451489299999942, -6.478369899999975 ], [ -37.451701199999945, -6.478637199999954 ], [ -37.452075699999966, -6.478773099999952 ], [ -37.45240229999996, -6.478813399999989 ], [ -37.452597, -6.478429299999963 ], [ -37.452748499999984, -6.478130399999974 ], [ -37.452863099999945, -6.477291399999962 ], [ -37.4526317, -6.476671799999989 ], [ -37.452063199999941, -6.476472899999954 ], [ -37.451512499999986, -6.476539599999975 ], [ -37.45136239999993, -6.476443499999953 ], [ -37.451330899999959, -6.476176599999959 ], [ -37.451418199999978, -6.475831499999966 ], [ -37.451698199999953, -6.475256099999969 ], [ -37.451978399999973, -6.474901299999942 ], [ -37.452436, -6.474798599999934 ], [ -37.452805, -6.474770899999942 ], [ -37.45318709999998, -6.474576699999965 ], [ -37.453477699999951, -6.474267699999907 ], [ -37.453902699999965, -6.473596699999973 ], [ -37.454147099999943, -6.473293 ], [ -37.454496799999959, -6.473101099999953 ], [ -37.454762, -6.472819399999922 ], [ -37.455354299999954, -6.472535399999974 ], [ -37.455419499999941, -6.472470599999928 ], [ -37.45625439999997, -6.471926399999953 ], [ -37.45646069999998, -6.47169629999998 ], [ -37.456660499999941, -6.471331599999922 ], [ -37.456443299999926, -6.47074359999995 ], [ -37.456388599999975, -6.470724099999952 ], [ -37.456145099999958, -6.470550199999912 ], [ -37.455988199999979, -6.470397599999934 ], [ -37.45581279999994, -6.470278399999927 ], [ -37.455687599999976, -6.4702402 ], [ -37.4556214, -6.469954599999946 ], [ -37.455836, -6.469271399999942 ], [ -37.455862499999967, -6.469243399999949 ], [ -37.455853499999932, -6.469185899999965 ], [ -37.455911599999979, -6.469046099999976 ], [ -37.455902499999979, -6.46893639999997 ], [ -37.455810599999957, -6.468845299999972 ], [ -37.455821799999974, -6.468718 ], [ -37.455804199999939, -6.4686692 ], [ -37.455767, -6.468627399999956 ], [ -37.455696299999943, -6.468603399999976 ], [ -37.45567519999998, -6.468572199999896 ], [ -37.455684199999943, -6.468490199999935 ], [ -37.455673299999944, -6.468381299999968 ], [ -37.455786, -6.46807909999996 ], [ -37.455759, -6.467952299999977 ], [ -37.455737799999945, -6.467933399999969 ], [ -37.455655, -6.467897599999946 ], [ -37.455647899999974, -6.467854499999922 ], [ -37.455631699999977, -6.467611899999968 ], [ -37.455659599999933, -6.467537699999969 ], [ -37.455654299999942, -6.467511799999925 ], [ -37.455614199999957, -6.467494599999929 ], [ -37.455725199999961, -6.4671696 ], [ -37.455727699999962, -6.467140799999958 ], [ -37.45574, -6.467001899999984 ], [ -37.455810799999945, -6.466873 ], [ -37.455890699999955, -6.466813199999925 ], [ -37.456305, -6.4667957 ], [ -37.456500699999935, -6.466605299999961 ], [ -37.456565, -6.466479799999952 ], [ -37.456556399999961, -6.46645249999992 ], [ -37.456746599999974, -6.466178599999949 ], [ -37.45672859999997, -6.4660585 ], [ -37.456680099999971, -6.465941 ], [ -37.456491599999929, -6.465706399999933 ], [ -37.456278699999984, -6.465569699999937 ], [ -37.456130899999955, -6.465323899999905 ], [ -37.456120599999963, -6.465183199999948 ], [ -37.456214, -6.464929499999931 ], [ -37.456226499999964, -6.464790799999927 ], [ -37.457640499999975, -6.464220399999934 ], [ -37.458058899999969, -6.463768699999914 ], [ -37.458085199999978, -6.463689099999971 ], [ -37.458111599999945, -6.463609599999931 ], [ -37.458108499999987, -6.463607199999948 ], [ -37.457806599999977, -6.463373899999972 ], [ -37.457551499999958, -6.46322 ], [ -37.457297199999978, -6.462923699999959 ], [ -37.45714119999996, -6.462628899999964 ], [ -37.457114899999965, -6.46226329999997 ], [ -37.457048399999969, -6.461798299999949 ], [ -37.457150899999931, -6.461530399999989 ], [ -37.457961099999984, -6.460970199999975 ], [ -37.458182299999976, -6.460616 ], [ -37.457996199999968, -6.460074299999984 ], [ -37.457946099999965, -6.459631 ], [ -37.457521599999957, -6.459204899999976 ], [ -37.457100299999986, -6.458942899999953 ], [ -37.45685229999998, -6.458836899999961 ], [ -37.456302599999958, -6.458528499999924 ], [ -37.45594269999998, -6.458287899999964 ], [ -37.455916099999968, -6.458204299999966 ], [ -37.45669769999995, -6.457927299999967 ], [ -37.455821099999987, -6.456363299999949 ], [ -37.4555329, -6.456453 ], [ -37.455197299999952, -6.45640929999998 ], [ -37.455109, -6.45694809999998 ], [ -37.45497289999998, -6.457314399999953 ], [ -37.454713599999934, -6.457355799999968 ], [ -37.45443169999993, -6.457208199999972 ], [ -37.454215199999972, -6.456987499999986 ], [ -37.454075599999953, -6.4567762 ], [ -37.45327779999996, -6.456522 ], [ -37.452794199999971, -6.450499499999969 ], [ -37.452752699999962, -6.449983199999937 ], [ -37.452364199999977, -6.45014319999996 ], [ -37.452225099999964, -6.450076 ], [ -37.451870799999945, -6.449817499999944 ], [ -37.451637499999947, -6.449675 ], [ -37.451459099999965, -6.44959969999996 ], [ -37.450946599999945, -6.449324799999943 ], [ -37.450670199999934, -6.449268499999977 ], [ -37.45024959999995, -6.449141099999963 ], [ -37.449670899999958, -6.449058099999938 ], [ -37.448203299999932, -6.456496399999947 ], [ -37.447903799999949, -6.45661 ], [ -37.447510499999964, -6.456727799999927 ], [ -37.44703949999996, -6.4568644 ], [ -37.446224099999938, -6.457023299999961 ], [ -37.445397199999945, -6.457154099999979 ], [ -37.443023899999964, -6.457399199999926 ], [ -37.440946, -6.459070599999979 ], [ -37.437138399999988, -6.459090499999955 ], [ -37.436283199999934, -6.460217199999938 ], [ -37.435873499999957, -6.460774299999951 ], [ -37.43558349999995, -6.46117619999996 ], [ -37.435384, -6.461477499999975 ], [ -37.433510499999947, -6.464309299999949 ], [ -37.433309799999961, -6.464606399999951 ], [ -37.432728, -6.465438 ], [ -37.432229099999972, -6.466320299999929 ], [ -37.43103259999998, -6.467543399999938 ], [ -37.430817899999965, -6.467335599999944 ], [ -37.430141, -6.46791729999998 ], [ -37.428767799999939, -6.468947799999961 ], [ -37.427729299999946, -6.46948 ], [ -37.427069899999942, -6.469974499999983 ], [ -37.426722199999979, -6.470267499999978 ], [ -37.426926399999957, -6.470592899999946 ], [ -37.427573699999982, -6.471179399999893 ], [ -37.42808, -6.471473199999909 ], [ -37.42891579999997, -6.472212 ], [ -37.429564099999936, -6.472649599999947 ], [ -37.430171499999979, -6.472800199999941 ], [ -37.430613199999989, -6.472981299999945 ], [ -37.430897799999968, -6.473291599999927 ], [ -37.431145899999933, -6.473834199999951 ], [ -37.432138, -6.475215299999926 ], [ -37.432167299999946, -6.4753 ], [ -37.431767699999966, -6.475384799999989 ], [ -37.431423699999975, -6.4755661 ], [ -37.431478399999953, -6.47566909999993 ], [ -37.431533099999967, -6.475772 ], [ -37.431508499999957, -6.475864699999936 ], [ -37.431100399999941, -6.476239899999919 ], [ -37.429933399999982, -6.477713099999978 ], [ -37.429202299999936, -6.479368799999969 ], [ -37.430208499999935, -6.480561199999959 ], [ -37.429538799999939, -6.484565199999981 ], [ -37.429240499999935, -6.484870899999972 ], [ -37.428621599999929, -6.485514099999905 ], [ -37.428248099999969, -6.486088399999978 ], [ -37.427631799999972, -6.486429 ], [ -37.426874899999973, -6.486819699999957 ], [ -37.42585, -6.487517199999977 ], [ -37.425652199999945, -6.487772 ], [ -37.425529599999955, -6.488082599999921 ], [ -37.426730599999978, -6.488274199999987 ], [ -37.428718199999935, -6.488973199999971 ], [ -37.430279, -6.489511499999963 ], [ -37.43166, -6.489980699999922 ], [ -37.434251199999949, -6.490857199999918 ], [ -37.435951699999983, -6.491432299999937 ], [ -37.436932499999955, -6.491609899999935 ], [ -37.438137599999948, -6.492261 ], [ -37.43921349999993, -6.492934799999963 ], [ -37.439791599999971, -6.493097299999946 ], [ -37.439169499999934, -6.493989099999984 ], [ -37.439502399999981, -6.494543 ], [ -37.439492799999982, -6.4947817 ], [ -37.439487399999962, -6.49491379999995 ], [ -37.43937909999994, -6.495254099999939 ], [ -37.439319899999937, -6.495431099999971 ], [ -37.438893, -6.495723099999941 ], [ -37.438714199999936, -6.49569629999995 ], [ -37.438571499999973, -6.496788399999932 ], [ -37.438687, -6.497598 ], [ -37.4387407, -6.4979423 ], [ -37.43912279999995, -6.499088099999951 ], [ -37.438935099999988, -6.499919099999928 ], [ -37.438785499999938, -6.500393199999945 ], [ -37.43868949999996, -6.500707299999942 ], [ -37.438624599999976, -6.501154499999938 ], [ -37.438690099999974, -6.501706899999932 ], [ -37.438744899999961, -6.502533899999963 ], [ -37.438849199999936, -6.503070399999958 ], [ -37.438913199999945, -6.503693199999928 ], [ -37.43898449999994, -6.50438839999992 ], [ -37.439166799999953, -6.505085299999979 ], [ -37.439372499999934, -6.505458899999953 ], [ -37.439506799999954, -6.505665299999982 ], [ -37.439509699999974, -6.505704299999906 ], [ -37.439553399999966, -6.505845899999921 ], [ -37.439558499999976, -6.505862799999923 ], [ -37.439558, -6.505875799999961 ], [ -37.439495899999947, -6.5073 ], [ -37.439636599999965, -6.508013199999946 ], [ -37.439408, -6.508678499999962 ], [ -37.439192199999979, -6.509209299999974 ], [ -37.439144299999953, -6.509580899999951 ], [ -37.439285399999967, -6.509909499999927 ], [ -37.439384199999949, -6.510257699999976 ], [ -37.4392132, -6.511284299999931 ], [ -37.439168299999949, -6.511553899999984 ], [ -37.439222199999961, -6.51209659999996 ], [ -37.439349, -6.512515 ], [ -37.439592199999936, -6.513023299999951 ], [ -37.440048299999951, -6.513316899999939 ], [ -37.440241199999946, -6.513524099999919 ], [ -37.440210699999959, -6.513542399999969 ], [ -37.440406799999948, -6.513885299999953 ], [ -37.440437199999963, -6.513913899999983 ], [ -37.440714799999967, -6.514174799999958 ], [ -37.440976099999936, -6.514467 ], [ -37.441456599999981, -6.515307599999965 ], [ -37.441799599999975, -6.515563199999979 ], [ -37.441935, -6.515994599999957 ], [ -37.44197459999998, -6.516523399999941 ], [ -37.442025799999954, -6.51653589999998 ], [ -37.442294, -6.516796 ], [ -37.442500099999961, -6.516907 ], [ -37.442665399999953, -6.516950099999985 ], [ -37.442766699999943, -6.516659099999984 ], [ -37.442822399999955, -6.516314799999988 ], [ -37.443003299999944, -6.51509789999994 ], [ -37.443144599999975, -6.514527499999945 ], [ -37.443273699999956, -6.514253299999964 ], [ -37.443474399999964, -6.514030899999955 ], [ -37.44463779999996, -6.513403899999983 ], [ -37.44517029999998, -6.513033799999974 ], [ -37.44614949999994, -6.512199899999911 ], [ -37.446307899999965, -6.511863799999965 ], [ -37.446499599999989, -6.5112071 ], [ -37.446538199999971, -6.510852799999949 ], [ -37.446539099999939, -6.510093399999956 ], [ -37.446498, -6.509580499999978 ], [ -37.446477799999975, -6.509020099999932 ], [ -37.448813, -6.509292399999934 ], [ -37.453143599999983, -6.509685299999979 ], [ -37.456515199999956, -6.51008519999993 ], [ -37.458007499999958, -6.510220299999963 ] ] ] } }
]
}
