{
"type": "FeatureCollection",
"name": "2600054",
"crs": { "type": "name", "properties": { "name": "urn:ogc:def:crs:OGC:1.3:CRS84" } },
"features": [
{ "type": "Feature", "properties": { "CD_MUN": "2600054", "NM_MUN": "Abreu e Lima" }, "geometry": { "type": "MultiPolygon", "coordinates": [ [ [ [ -34.977008699999949, -7.9144891 ], [ -34.976549499999976, -7.914728699999966 ], [ -34.975791, -7.915028099999968 ], [ -34.974992499999985, -7.915447299999915 ], [ -34.974533399999977, -7.915706799999968 ], [ -34.974174, -7.915906399999931 ], [ -34.973655, -7.916325599999944 ], [ -34.972756699999941, -7.916864599999922 ], [ -34.971638899999959, -7.917463499999966 ], [ -34.970636799999966, -7.917543499999942 ], [ -34.97216729999996, -7.917841399999923 ], [ -34.980683599999963, -7.919499399999938 ], [ -34.985596499999929, -7.920197 ], [ -34.98654, -7.920154599999927 ], [ -34.988214899999953, -7.920079399999942 ], [ -34.997447799999989, -7.918991799999962 ], [ -35.007820299999935, -7.916597599999942 ], [ -35.011565799999978, -7.9163096 ], [ -35.010372299999979, -7.916318199999977 ], [ -35.009741499999969, -7.915342499999954 ], [ -35.009052799999949, -7.914234599999931 ], [ -35.008394, -7.913765499999952 ], [ -35.008084599999968, -7.914025 ], [ -35.007605499999954, -7.914244599999961 ], [ -35.007286099999931, -7.914334399999981 ], [ -35.007106499999956, -7.914344399999946 ], [ -35.007026599999953, -7.9139451 ], [ -35.007076499999975, -7.913755499999978 ], [ -35.007126399999947, -7.913565899999985 ], [ -35.007096499999939, -7.913506 ], [ -35.006996699999938, -7.913506 ], [ -35.006857, -7.913645699999957 ], [ -35.006707199999937, -7.9137555 ], [ -35.006517599999938, -7.913795399999953 ], [ -35.006318, -7.913775499999941 ], [ -35.006158299999981, -7.913645699999938 ], [ -35.005948699999969, -7.913486 ], [ -35.005729099999947, -7.913376199999968 ], [ -35.005439699999954, -7.913266399999949 ], [ -35.005339799999945, -7.913196599999946 ], [ -35.005080299999975, -7.913026899999958 ], [ -35.004721, -7.91299689999992 ], [ -35.004491499999972, -7.913026899999968 ], [ -35.004301799999951, -7.913036899999975 ], [ -35.003942499999937, -7.912917099999987 ], [ -35.003812699999969, -7.912717499999942 ], [ -35.003703, -7.912487899999963 ], [ -35.003573199999948, -7.912388099999907 ], [ -35.003423499999947, -7.912338199999976 ], [ -35.003183899999954, -7.912398099999982 ], [ -35.003054199999951, -7.91246789999997 ], [ -35.00286449999993, -7.912637599999936 ], [ -35.002664899999964, -7.912827299999942 ], [ -35.002295599999961, -7.913046799999975 ], [ -35.001996199999958, -7.91315659999997 ], [ -35.001836499999968, -7.913156599999975 ], [ -35.001646899999976, -7.913236499999928 ], [ -35.001507099999969, -7.913366199999951 ], [ -35.001317499999963, -7.913366199999919 ], [ -35.001068, -7.913406199999959 ], [ -35.000748599999952, -7.913506 ], [ -35.000509, -7.913506 ], [ -35.00043919999996, -7.913416099999963 ], [ -35.0005988, -7.913146699999976 ], [ -35.00069869999993, -7.912987 ], [ -35.00069869999993, -7.912787299999943 ], [ -35.000598799999977, -7.91271749999993 ], [ -35.000269499999945, -7.912787299999955 ], [ -35.000069899999971, -7.91293709999998 ], [ -34.99984029999996, -7.912907099999921 ], [ -34.999381199999952, -7.912807299999931 ], [ -34.999121699999932, -7.912817299999963 ], [ -34.998952, -7.91285719999996 ], [ -34.998802299999966, -7.912867199999929 ], [ -34.998632599999944, -7.912867199999947 ], [ -34.998512799999965, -7.912817299999984 ], [ -34.998156, -7.913116699999946 ], [ -34.997946399999925, -7.9133363 ], [ -34.997796699999981, -7.913525899999949 ], [ -34.997696899999937, -7.913615799999945 ], [ -34.997267699999952, -7.913496 ], [ -34.997068099999979, -7.913276399999969 ], [ -34.996888399999932, -7.913136699999927 ], [ -34.996688799999966, -7.913096799999968 ], [ -34.996409299999982, -7.913026899999974 ], [ -34.99615979999993, -7.912917099999984 ], [ -34.996010099999978, -7.91288719999994 ], [ -34.995790499999941, -7.912827299999971 ], [ -34.995590899999968, -7.912737399999963 ], [ -34.995461099999943, -7.91277739999992 ], [ -34.995371299999931, -7.913016899999932 ], [ -34.995101799999937, -7.913146699999974 ], [ -34.994852299999941, -7.913236499999925 ], [ -34.994592799999957, -7.9133363 ], [ -34.994480499999952, -7.913503499999926 ], [ -34.994260899999979, -7.913513499999968 ], [ -34.994001399999945, -7.913563399999951 ], [ -34.993811699999988, -7.913683099999959 ], [ -34.993692, -7.913703099999945 ], [ -34.993502299999939, -7.913713099999943 ], [ -34.993412499999977, -7.913763 ], [ -34.993173, -7.913792899999982 ], [ -34.992803699999961, -7.913713099999915 ], [ -34.992554099999957, -7.913573299999932 ], [ -34.992344499999945, -7.913483499999908 ], [ -34.992144899999971, -7.9133538 ], [ -34.992075, -7.913064299999973 ], [ -34.992005199999937, -7.91276489999995 ], [ -34.99178559999995, -7.912635099999957 ], [ -34.991356399999972, -7.912655099999931 ], [ -34.991096899999938, -7.912685 ], [ -34.990807399999937, -7.912685 ], [ -34.990278399999973, -7.912665099999956 ], [ -34.989969, -7.912505399999924 ], [ -34.989939099999958, -7.91247539999995 ], [ -34.989729499999953, -7.912235899999922 ], [ -34.989250399999953, -7.9121461 ], [ -34.989030799999973, -7.912146099999987 ], [ -34.988137499999944, -7.91201379999996 ], [ -34.98781809999997, -7.912043799999934 ], [ -34.987448799999981, -7.911993799999965 ], [ -34.987219299999943, -7.911844099999959 ], [ -34.9869298, -7.911584599999947 ], [ -34.986800099999975, -7.911365 ], [ -34.986620399999936, -7.911135499999928 ], [ -34.986440699999939, -7.910895899999966 ], [ -34.986181199999969, -7.910656399999948 ], [ -34.985831899999944, -7.910466699999974 ], [ -34.985562399999942, -7.910386899999951 ], [ -34.9852231, -7.910297099999963 ], [ -34.984903699999961, -7.91014739999996 ], [ -34.984664099999968, -7.909957699999957 ], [ -34.984564299999938, -7.909887799999956 ], [ -34.983965399999946, -7.909556 ], [ -34.983626099999981, -7.90963579999994 ], [ -34.983017199999956, -7.909493599999971 ], [ -34.982697799999983, -7.909473599999948 ], [ -34.982298599999986, -7.909473599999949 ], [ -34.981899399999982, -7.909453699999978 ], [ -34.981460199999965, -7.909473599999945 ], [ -34.981270099999968, -7.909581499999955 ], [ -34.980721599999981, -7.909892799999961 ], [ -34.979923099999951, -7.910691299999934 ], [ -34.9796037, -7.911210299999929 ], [ -34.979543799999931, -7.911554699999962 ], [ -34.979384099999955, -7.911914 ], [ -34.979204499999987, -7.91219349999995 ], [ -34.978825199999953, -7.912472899999963 ], [ -34.97862559999993, -7.912632599999945 ], [ -34.978266299999966, -7.9130319 ], [ -34.977847099999956, -7.913530899999959 ], [ -34.977447799999943, -7.91406989999995 ], [ -34.977008699999949, -7.9144891 ] ] ], [ [ [ -34.928593399999954, -7.926874199999914 ], [ -34.928717099999979, -7.926660699999944 ], [ -34.928644799999979, -7.925873199999981 ], [ -34.929089, -7.925563799999948 ], [ -34.929561199999974, -7.925403699999937 ], [ -34.930247, -7.92517109999995 ], [ -34.930325399999965, -7.925144599999935 ], [ -34.930477899999964, -7.925092899999975 ], [ -34.932193699999971, -7.924847199999943 ], [ -34.932199899999951, -7.924847599999976 ], [ -34.933840599999947, -7.924941899999978 ], [ -34.935196499999954, -7.925280399999957 ], [ -34.936015599999969, -7.925485 ], [ -34.936110799999938, -7.925508699999979 ], [ -34.936458, -7.92448359999998 ], [ -34.936523199999961, -7.924370799999965 ], [ -34.936558, -7.9241835 ], [ -34.9365448, -7.923831299999956 ], [ -34.934979199999937, -7.922033899999988 ], [ -34.933831199999936, -7.921309399999925 ], [ -34.935347099999944, -7.92007 ], [ -34.935088599999972, -7.919899099999939 ], [ -34.934309199999973, -7.919695299999962 ], [ -34.933671099999962, -7.91953049999996 ], [ -34.933490199999945, -7.919548399999925 ], [ -34.932821799999942, -7.918847699999939 ], [ -34.932142899999967, -7.917992099999946 ], [ -34.932197699999961, -7.917902099999947 ], [ -34.932200199999954, -7.91776319999997 ], [ -34.932276399999971, -7.91762109999997 ], [ -34.932582699999955, -7.917432 ], [ -34.93266269999998, -7.917258599999974 ], [ -34.932666099999956, -7.917096299999963 ], [ -34.932363099999982, -7.916774099999953 ], [ -34.93242649999997, -7.916250599999972 ], [ -34.932390299999959, -7.916094599999965 ], [ -34.932136599999978, -7.916031899999963 ], [ -34.931987399999961, -7.916146899999967 ], [ -34.931586699999961, -7.916872399999942 ], [ -34.931333399999971, -7.917103899999957 ], [ -34.931236599999963, -7.917016899999942 ], [ -34.931202699999972, -7.91684739999994 ], [ -34.931189299999964, -7.916774099999941 ], [ -34.931030399999933, -7.916564099999974 ], [ -34.930999, -7.916471499999944 ], [ -34.930930099999962, -7.916376099999981 ], [ -34.930891399999958, -7.916262499999947 ], [ -34.930922599999981, -7.916160299999936 ], [ -34.931042599999962, -7.916013799999971 ], [ -34.931076, -7.915960399999975 ], [ -34.931029299999985, -7.915833699999946 ], [ -34.930962599999937, -7.915653699999956 ], [ -34.930769199999922, -7.915573599999964 ], [ -34.9306218, -7.915582499999975 ], [ -34.930442399999947, -7.915653699999933 ], [ -34.930392899999966, -7.915754399999985 ], [ -34.930430099999967, -7.915890599999962 ], [ -34.930395699999963, -7.916020499999933 ], [ -34.930389, -7.916093799999942 ], [ -34.930322399999966, -7.916133799999964 ], [ -34.930068899999988, -7.916040499999927 ], [ -34.929588699999961, -7.915913799999925 ], [ -34.929489899999957, -7.915864499999961 ], [ -34.929448699999966, -7.915787 ], [ -34.929431, -7.915724099999982 ], [ -34.929440399999976, -7.9156326 ], [ -34.929440799999952, -7.9155072 ], [ -34.929342, -7.915112099999947 ], [ -34.929366099999982, -7.915023899999944 ], [ -34.92953179999995, -7.914854 ], [ -34.929686599999975, -7.914727299999967 ], [ -34.929848799999959, -7.914673299999972 ], [ -34.929934299999964, -7.914623899999984 ], [ -34.929948899999943, -7.914533299999951 ], [ -34.929911, -7.914423 ], [ -34.929775699999936, -7.914272299999926 ], [ -34.929622099999953, -7.914173099999985 ], [ -34.929541199999967, -7.914047199999969 ], [ -34.929375299999954, -7.91369289999993 ], [ -34.929337899999958, -7.9135889 ], [ -34.929149499999944, -7.913350599999936 ], [ -34.929029899999932, -7.9131442 ], [ -34.928994499999931, -7.913022599999985 ], [ -34.92893209999994, -7.91288019999996 ], [ -34.928797699999961, -7.912738899999968 ], [ -34.928558, -7.912708499999946 ], [ -34.928557499999954, -7.912517299999952 ], [ -34.928436599999941, -7.912164499999958 ], [ -34.928402199999944, -7.911758499999967 ], [ -34.928301599999941, -7.911552099999933 ], [ -34.92832, -7.911410499999944 ], [ -34.929109199999971, -7.910550699999926 ], [ -34.929168599999976, -7.910064899999953 ], [ -34.929028499999959, -7.909984899999925 ], [ -34.928956, -7.909769 ], [ -34.929041899999959, -7.909671499999936 ], [ -34.929108599999957, -7.909498099999938 ], [ -34.929121899999984, -7.9093847 ], [ -34.929248599999937, -7.908937799999917 ], [ -34.928611399999966, -7.908307499999972 ], [ -34.928068199999984, -7.9082486 ], [ -34.92703529999995, -7.905037799999935 ], [ -34.927025699999945, -7.905007 ], [ -34.927387899999928, -7.904724599999942 ], [ -34.927989099999941, -7.903836399999926 ], [ -34.928475, -7.903477499999967 ], [ -34.92910679999995, -7.903456099999962 ], [ -34.930955899999958, -7.9032774 ], [ -34.932731499999939, -7.903123299999958 ], [ -34.933416799999968, -7.902937299999954 ], [ -34.933976199999961, -7.902541799999917 ], [ -34.934504, -7.901943899999918 ], [ -34.935164099999959, -7.901456799999956 ], [ -34.937587699999938, -7.900720299999924 ], [ -34.937849699999958, -7.900759199999942 ], [ -34.938838799999935, -7.900669799999945 ], [ -34.940206, -7.900316299999926 ], [ -34.940886299999939, -7.899669399999918 ], [ -34.941819899999985, -7.899195899999964 ], [ -34.942286799999977, -7.899182599999975 ], [ -34.942740299999969, -7.899115899999949 ], [ -34.943393799999967, -7.898842499999923 ], [ -34.943943199999978, -7.898201099999929 ], [ -34.944971699999947, -7.896631 ], [ -34.945690299999967, -7.896134899999932 ], [ -34.945589199999972, -7.895073399999956 ], [ -34.937969, -7.893881 ], [ -34.936295199999961, -7.893619 ], [ -34.930782799999974, -7.892756 ], [ -34.9301756, -7.892293799999957 ], [ -34.929873799999939, -7.891903099999976 ], [ -34.92936839999993, -7.891247099999947 ], [ -34.928060099999982, -7.890124699999968 ], [ -34.926580899999983, -7.889503799999941 ], [ -34.925223599999981, -7.888647 ], [ -34.923243, -7.886924099999927 ], [ -34.92185759999996, -7.886429099999935 ], [ -34.918114299999957, -7.8860382 ], [ -34.913907699999982, -7.886934199999934 ], [ -34.913153599999937, -7.887252499999945 ], [ -34.91214819999994, -7.88731979999995 ], [ -34.911471499999955, -7.887118399999974 ], [ -34.910794799999969, -7.886917099999923 ], [ -34.910777099999962, -7.886916499999908 ], [ -34.910750899999989, -7.886915499999961 ], [ -34.910590399999947, -7.886909499999956 ], [ -34.909647599999971, -7.886874399999948 ], [ -34.908624199999963, -7.887012899999949 ], [ -34.908411399999977, -7.887041499999969 ], [ -34.907869799999958, -7.886635799999953 ], [ -34.907626, -7.886453199999965 ], [ -34.907549299999978, -7.886445599999941 ], [ -34.907450599999962, -7.8864359 ], [ -34.907248299999928, -7.886416 ], [ -34.907041899999975, -7.88639559999997 ], [ -34.906893199999956, -7.886381 ], [ -34.905988499999985, -7.886291899999934 ], [ -34.905862099999979, -7.8862794 ], [ -34.905352699999973, -7.886229199999928 ], [ -34.904673799999955, -7.886162399999939 ], [ -34.904323699999971, -7.886127899999964 ], [ -34.904282099999932, -7.886123799999954 ], [ -34.904236399999945, -7.886119299999956 ], [ -34.903986499999974, -7.8860946 ], [ -34.903941299999936, -7.886090199999944 ], [ -34.903186099999964, -7.886015799999953 ], [ -34.902562, -7.8859543 ], [ -34.902160399999964, -7.8859148 ], [ -34.901432299999961, -7.88610639999996 ], [ -34.901054399999964, -7.886288599999925 ], [ -34.900348, -7.886629199999937 ], [ -34.900169699999942, -7.886636899999924 ], [ -34.899404599999976, -7.88666539999995 ], [ -34.896790399999936, -7.886762699999946 ], [ -34.893619799999946, -7.887062199999917 ], [ -34.891036699999979, -7.887584499999922 ], [ -34.888170799999962, -7.887717799999963 ], [ -34.886733499999941, -7.888791599999937 ], [ -34.884191499999929, -7.889215099999959 ], [ -34.884106499999973, -7.889321299999946 ], [ -34.881845499999947, -7.892173 ], [ -34.880508799999973, -7.892707899999937 ], [ -34.880511799999972, -7.892714599999972 ], [ -34.88074869999997, -7.893447 ], [ -34.880863499999982, -7.893571099999982 ], [ -34.880973799999943, -7.893772599999963 ], [ -34.881165799999962, -7.893791399999943 ], [ -34.881316199999965, -7.893958299999946 ], [ -34.881382499999972, -7.894141899999945 ], [ -34.881452299999978, -7.894396499999968 ], [ -34.881600799999944, -7.894448399999931 ], [ -34.881739399999965, -7.89462259999994 ], [ -34.881988499999984, -7.894937199999962 ], [ -34.882347499999987, -7.895102699999939 ], [ -34.882372299999936, -7.895100499999967 ], [ -34.882648799999977, -7.895076599999932 ], [ -34.882349599999941, -7.895287199999956 ], [ -34.882339099999967, -7.895293 ], [ -34.881955799999957, -7.895502699999936 ], [ -34.881577899999968, -7.895638499999947 ], [ -34.881401099999955, -7.895799899999937 ], [ -34.881163199999946, -7.895979199999966 ], [ -34.880947499999927, -7.896152599999934 ], [ -34.8806307, -7.896259099999948 ], [ -34.880252199999966, -7.896349499999944 ], [ -34.880059899999942, -7.896415099999943 ], [ -34.879832299999968, -7.8967001 ], [ -34.879550599999959, -7.896928199999932 ], [ -34.879285099999947, -7.897063499999936 ], [ -34.879003, -7.897187199999952 ], [ -34.878638499999965, -7.897290899999964 ], [ -34.878460399999938, -7.89730349999996 ], [ -34.877926899999977, -7.89700129999993 ], [ -34.877459299999941, -7.896754299999938 ], [ -34.877264099999934, -7.896681499999949 ], [ -34.877151599999934, -7.896688699999967 ], [ -34.876998299999968, -7.89678489999995 ], [ -34.876571399999939, -7.896832899999951 ], [ -34.87641739999998, -7.896782299999944 ], [ -34.876177899999959, -7.896673 ], [ -34.875827399999942, -7.89657569999995 ], [ -34.875506799999989, -7.896532899999976 ], [ -34.874825899999969, -7.896432499999936 ], [ -34.874355899999948, -7.896375499999976 ], [ -34.874120699999935, -7.89628959999992 ], [ -34.873836299999937, -7.89623429999993 ], [ -34.873551099999929, -7.8961965 ], [ -34.873444899999981, -7.896195199999971 ], [ -34.873250899999974, -7.896261299999943 ], [ -34.87303349999997, -7.896356199999947 ], [ -34.872826199999963, -7.896337599999956 ], [ -34.872591099999966, -7.896352399999937 ], [ -34.8723452, -7.896411699999943 ], [ -34.872188399999978, -7.896410399999962 ], [ -34.871945699999969, -7.896318499999952 ], [ -34.871616299999964, -7.89619259999993 ], [ -34.871357399999958, -7.8967939 ], [ -34.871189699999938, -7.897219799999969 ], [ -34.871160299999929, -7.89729439999996 ], [ -34.870672199999959, -7.898439699999939 ], [ -34.870376099999937, -7.899140299999928 ], [ -34.869575899999973, -7.901086399999931 ], [ -34.869302199999936, -7.901781599999929 ], [ -34.869138299999975, -7.902237699999956 ], [ -34.868940299999963, -7.903358199999948 ], [ -34.8688107, -7.904355399999949 ], [ -34.868691, -7.904557 ], [ -34.868623099999979, -7.905627099999937 ], [ -34.868509199999941, -7.906865199999978 ], [ -34.868408299999949, -7.907772799999984 ], [ -34.868263, -7.909576799999947 ], [ -34.868203699999981, -7.910493899999977 ], [ -34.869868299999958, -7.910167499999956 ], [ -34.871689299999964, -7.909809899999969 ], [ -34.872721099999985, -7.9099894 ], [ -34.874599599999947, -7.91097269999993 ], [ -34.875631699999929, -7.911298099999958 ], [ -34.880511599999977, -7.91345939999994 ], [ -34.881361299999973, -7.913746799999958 ], [ -34.882686, -7.9137426 ], [ -34.883312199999978, -7.914033199999942 ], [ -34.884157799999976, -7.914138499999967 ], [ -34.884930299999951, -7.9140262 ], [ -34.885239, -7.91383159999997 ], [ -34.885517199999981, -7.91365619999996 ], [ -34.886284599999954, -7.912662499999969 ], [ -34.886616699999927, -7.912440199999922 ], [ -34.886981399999968, -7.912255199999954 ], [ -34.887125199999957, -7.912254499999973 ], [ -34.887282, -7.912253699999954 ], [ -34.887459, -7.912252799999973 ], [ -34.887882099999963, -7.912014899999988 ], [ -34.888544, -7.911642699999984 ], [ -34.889682799999953, -7.91167409999998 ], [ -34.890382399999964, -7.9119267 ], [ -34.891376399999956, -7.912766099999944 ], [ -34.893365199999941, -7.912904799999977 ], [ -34.894029899999971, -7.91334029999996 ], [ -34.894288899999935, -7.914075799999985 ], [ -34.894769899999979, -7.914439 ], [ -34.894993, -7.914805599999966 ], [ -34.894978199999969, -7.915667299999934 ], [ -34.895200599999953, -7.916142899999941 ], [ -34.89597549999997, -7.916948699999953 ], [ -34.896507799999938, -7.917864899999908 ], [ -34.896276, -7.918082 ], [ -34.895828, -7.918704 ], [ -34.895673, -7.919189 ], [ -34.895468, -7.919764 ], [ -34.895403, -7.920135 ], [ -34.895410199999958, -7.92024489999996 ], [ -34.895444, -7.920757 ], [ -34.895884, -7.922046 ], [ -34.896007, -7.922366 ], [ -34.896464, -7.923655 ], [ -34.896546, -7.92383 ], [ -34.89691, -7.924805 ], [ -34.897756, -7.927338 ], [ -34.898166, -7.928131 ], [ -34.898489, -7.928532 ], [ -34.898808, -7.928902 ], [ -34.899139, -7.929293 ], [ -34.899548599999946, -7.929712399999969 ], [ -34.900541299999936, -7.92985819999993 ], [ -34.901792399999977, -7.930294499999959 ], [ -34.903176199999969, -7.931221299999934 ], [ -34.904210299999924, -7.932283099999946 ], [ -34.905388, -7.934278399999927 ], [ -34.905397, -7.934293699999974 ], [ -34.906139099999962, -7.935186899999941 ], [ -34.906397099999943, -7.935497299999927 ], [ -34.907171299999966, -7.9359 ], [ -34.90853189999995, -7.936040699999975 ], [ -34.910037599999953, -7.935843699999988 ], [ -34.912546299999974, -7.934397899999964 ], [ -34.912554099999959, -7.933629899999985 ], [ -34.912578099999955, -7.93126459999996 ], [ -34.912887599999983, -7.929900799999929 ], [ -34.913294699999945, -7.929113599999947 ], [ -34.914046299999939, -7.928186899999953 ], [ -34.914798799999978, -7.9276 ], [ -34.915756099999953, -7.927116399999944 ], [ -34.917316, -7.926943099999936 ], [ -34.918182, -7.926965199999914 ], [ -34.918337399999984, -7.927026099999988 ], [ -34.918519699999941, -7.927097499999932 ], [ -34.920354499999974, -7.92834289999995 ], [ -34.920741599999928, -7.928605599999956 ], [ -34.921145, -7.928879399999959 ], [ -34.921780399999932, -7.929310699999969 ], [ -34.922862299999977, -7.929906899999929 ], [ -34.923583799999967, -7.930006899999956 ], [ -34.924741199999978, -7.929548599999961 ], [ -34.92530679999993, -7.929324599999966 ], [ -34.92595079999996, -7.929069499999964 ], [ -34.926118499999973, -7.929003099999917 ], [ -34.927419599999951, -7.928241799999963 ], [ -34.92816809999993, -7.927550899999973 ], [ -34.928239199999943, -7.927485299999936 ], [ -34.928593399999954, -7.926874199999914 ] ] ], [ [ [ -35.064202299999984, -7.902686 ], [ -35.064189499999948, -7.902429499999915 ], [ -35.064191299999948, -7.901826799999982 ], [ -35.064240299999938, -7.901537099999919 ], [ -35.064301099999966, -7.901413099999973 ], [ -35.06450609999996, -7.901149 ], [ -35.065695299999966, -7.899540799999961 ], [ -35.065747, -7.899432499999929 ], [ -35.065710599999925, -7.899336399999985 ], [ -35.06569669999994, -7.899290799999981 ], [ -35.065365399999969, -7.899179599999953 ], [ -35.064989199999957, -7.899072 ], [ -35.064779899999955, -7.899079899999933 ], [ -35.064260299999951, -7.899191099999928 ], [ -35.063791299999934, -7.899264499999959 ], [ -35.063247499999932, -7.899298099999948 ], [ -35.063182499999982, -7.899304599999951 ], [ -35.062776299999932, -7.899345099999941 ], [ -35.062293499999953, -7.899377799999973 ], [ -35.061906, -7.899391799999925 ], [ -35.061693899999966, -7.89939449999997 ], [ -35.061433799999975, -7.899352299999973 ], [ -35.061180899999961, -7.899317799999954 ], [ -35.060835199999936, -7.899177899999922 ], [ -35.060576399999945, -7.8990378 ], [ -35.060350599999936, -7.898836699999929 ], [ -35.060174199999956, -7.898619199999942 ], [ -35.060044, -7.898447799999947 ], [ -35.059843099999966, -7.898132299999927 ], [ -35.059735799999949, -7.897935799999964 ], [ -35.059583399999958, -7.897720099999982 ], [ -35.059481099999971, -7.897522899999969 ], [ -35.059292199999966, -7.896991199999929 ], [ -35.059173699999967, -7.896797799999929 ], [ -35.059024499999964, -7.896670099999946 ], [ -35.058588599999958, -7.896359399999931 ], [ -35.05816329999994, -7.896020699999955 ], [ -35.057583299999976, -7.895653499999986 ], [ -35.056869399999982, -7.895315199999954 ], [ -35.056364699999968, -7.895127899999965 ], [ -35.055965799999974, -7.895075399999929 ], [ -35.055743299999968, -7.895185299999965 ], [ -35.055639399999968, -7.895159899999982 ], [ -35.055423099999985, -7.895106799999949 ], [ -35.055354, -7.895105 ], [ -35.054555099999966, -7.8949269 ], [ -35.054074899999939, -7.894886599999963 ], [ -35.054218399999975, -7.897092099999956 ], [ -35.056084299999952, -7.898534699999972 ], [ -35.056935199999941, -7.899193499999984 ], [ -35.057853899999941, -7.899952899999953 ], [ -35.05849429999995, -7.900400799999924 ], [ -35.058938499999954, -7.90058939999993 ], [ -35.060397099999939, -7.902158899999975 ], [ -35.06056, -7.902231499999947 ], [ -35.060639499999979, -7.902378499999925 ], [ -35.06079, -7.902587699999972 ], [ -35.062943399999938, -7.905297299999984 ], [ -35.063259, -7.905096299999967 ], [ -35.063865, -7.904710499999964 ], [ -35.064043899999945, -7.904504 ], [ -35.064176799999984, -7.90421149999997 ], [ -35.064237799999944, -7.903933699999938 ], [ -35.064229499999954, -7.903228199999927 ], [ -35.064202299999984, -7.902686 ] ] ] ] } }
]
}
