{
"type": "FeatureCollection",
"name": "2600807",
"crs": { "type": "name", "properties": { "name": "urn:ogc:def:crs:OGC:1.3:CRS84" } },
"features": [
{ "type": "Feature", "properties": { "CD_MUN": "2600807", "NM_MUN": "Altinho" }, "geometry": { "type": "MultiPolygon", "coordinates": [ [ [ [ -36.064640699999984, -8.497966 ], [ -36.064370299999958, -8.497662499999926 ], [ -36.064207, -8.497479099999971 ], [ -36.063878099999961, -8.497104799999921 ], [ -36.063854, -8.497079 ], [ -36.063633, -8.496814599999926 ], [ -36.063525399999953, -8.496654499999954 ], [ -36.063438499999954, -8.496528099999978 ], [ -36.063295, -8.496161499999976 ], [ -36.063172, -8.495897299999953 ], [ -36.063099699999952, -8.495710299999924 ], [ -36.062957, -8.495341499999943 ], [ -36.06284629999994, -8.495045699999958 ], [ -36.062612299999955, -8.494400699999964 ], [ -36.062549299999944, -8.494227099999936 ], [ -36.062525899999976, -8.494172199999959 ], [ -36.063290399999971, -8.493794599999958 ], [ -36.062328299999933, -8.492256299999953 ], [ -36.062437799999934, -8.49127119999998 ], [ -36.064189199999937, -8.49166289999992 ], [ -36.064941, -8.492265 ], [ -36.066306499999946, -8.4920749 ], [ -36.066637599999986, -8.493170499999977 ], [ -36.06692849999996, -8.49343369999997 ], [ -36.068711599999979, -8.492361 ], [ -36.070141, -8.491155499999952 ], [ -36.070110099999965, -8.490494699999939 ], [ -36.069861499999945, -8.490161599999974 ], [ -36.06967769999995, -8.489827699999973 ], [ -36.06943229999996, -8.489200299999951 ], [ -36.069204299999974, -8.488961799999975 ], [ -36.069017399999957, -8.488927599999933 ], [ -36.06823049999997, -8.489162499999946 ], [ -36.067351899999949, -8.489252599999917 ], [ -36.067236799999939, -8.489118699999926 ], [ -36.06665849999996, -8.488389199999963 ], [ -36.066218599999956, -8.487739699999949 ], [ -36.066080499999941, -8.487683899999976 ], [ -36.06581319999998, -8.487546 ], [ -36.065557699999935, -8.487319399999937 ], [ -36.065115099999964, -8.487158499999959 ], [ -36.064057299999938, -8.48709229999997 ], [ -36.063446499999941, -8.486994699999968 ], [ -36.063374899999928, -8.486990899999947 ], [ -36.063195699999945, -8.486990799999926 ], [ -36.062533899999956, -8.486884899999954 ], [ -36.062465199999963, -8.486873099999952 ], [ -36.062282299999929, -8.486841399999953 ], [ -36.062173399999949, -8.486793 ], [ -36.062103299999933, -8.486679299999937 ], [ -36.062035499999979, -8.486597 ], [ -36.0619387, -8.486509899999939 ], [ -36.061814499999969, -8.486366 ], [ -36.061807, -8.486248199999981 ], [ -36.06175, -8.486120699999951 ], [ -36.061557899999961, -8.485901899999918 ], [ -36.061424599999945, -8.485847 ], [ -36.061334699999982, -8.485772199999918 ], [ -36.06106879999993, -8.485513499999966 ], [ -36.060940599999981, -8.485237699999965 ], [ -36.060839699999967, -8.484888199999949 ], [ -36.060684199999962, -8.484363799999935 ], [ -36.060645499999964, -8.484238 ], [ -36.060524499999936, -8.484058899999956 ], [ -36.060316899999975, -8.483706199999972 ], [ -36.060224499999947, -8.483546 ], [ -36.060162599999956, -8.48336269999993 ], [ -36.060059799999983, -8.483195199999956 ], [ -36.059863499999956, -8.482944599999929 ], [ -36.059739199999967, -8.482775699999912 ], [ -36.059590599999979, -8.48256359999991 ], [ -36.059376199999981, -8.482186 ], [ -36.0595656, -8.48212209999998 ], [ -36.059827799999937, -8.481919399999965 ], [ -36.0599, -8.481714199999969 ], [ -36.060072499999926, -8.481645299999981 ], [ -36.06019219999996, -8.481376 ], [ -36.060273399999978, -8.480918699999959 ], [ -36.060316199999939, -8.480687699999974 ], [ -36.060350299999989, -8.480197399999962 ], [ -36.060659099999953, -8.480320299999951 ], [ -36.060861099999961, -8.480372599999942 ], [ -36.061234, -8.480313899999949 ], [ -36.061322399999945, -8.480118299999948 ], [ -36.06161869999994, -8.480077699999967 ], [ -36.062552599999947, -8.480336299999966 ], [ -36.063129599999968, -8.480182399999931 ], [ -36.063467199999934, -8.479891799999958 ], [ -36.063582599999961, -8.479678099999951 ], [ -36.06373119999995, -8.479705899999935 ], [ -36.063641399999945, -8.47795559999995 ], [ -36.063223599999958, -8.477655399999925 ], [ -36.062968199999943, -8.477481199999934 ], [ -36.062442499999982, -8.477643599999974 ], [ -36.061147499999947, -8.477558099999948 ], [ -36.061023499999983, -8.477092299999986 ], [ -36.060899799999959, -8.47707019999994 ], [ -36.060878899999977, -8.47691529999997 ], [ -36.060793199999985, -8.476618099999961 ], [ -36.060517499999946, -8.475907799999945 ], [ -36.060371199999963, -8.475432799999973 ], [ -36.060208799999948, -8.475024699999942 ], [ -36.059951499999954, -8.474259299999988 ], [ -36.059771399999931, -8.473863299999962 ], [ -36.059584, -8.473629899999949 ], [ -36.059393, -8.473347 ], [ -36.059230499999963, -8.473293599999961 ], [ -36.058570199999963, -8.473791599999974 ], [ -36.05790769999993, -8.474340799999926 ], [ -36.057704699999924, -8.474531 ], [ -36.056986599999959, -8.475251199999926 ], [ -36.056678899999945, -8.475479899999936 ], [ -36.056418099999966, -8.475561099999947 ], [ -36.056178799999941, -8.475599499999939 ], [ -36.056016399999983, -8.475665799999936 ], [ -36.0557899, -8.475834599999931 ], [ -36.055281199999968, -8.476144499999968 ], [ -36.054997, -8.476309 ], [ -36.054836699999953, -8.476341099999958 ], [ -36.054815399999931, -8.476495 ], [ -36.054905099999985, -8.476965099999957 ], [ -36.054949699999945, -8.47720809999991 ], [ -36.055071, -8.477128499999919 ], [ -36.05560909999997, -8.476783299999953 ], [ -36.055974699999986, -8.47652939999994 ], [ -36.056451899999956, -8.476438 ], [ -36.056878299999937, -8.476448199999925 ], [ -36.057302199999974, -8.476685599999934 ], [ -36.0576928, -8.476963099999969 ], [ -36.057881099999975, -8.477175299999958 ], [ -36.058146099999931, -8.477521299999975 ], [ -36.05818, -8.47762769999998 ], [ -36.058223499999947, -8.4778262 ], [ -36.058247699999981, -8.478024599999987 ], [ -36.05828159999993, -8.478242299999968 ], [ -36.058320299999934, -8.478368099999974 ], [ -36.058397699999944, -8.47857619999994 ], [ -36.058414399999947, -8.478768599999988 ], [ -36.058440499999961, -8.479047399999944 ], [ -36.058475199999982, -8.479308799999963 ], [ -36.058504199999959, -8.479527099999904 ], [ -36.058513899999973, -8.479643199999931 ], [ -36.058597599999985, -8.479794099999941 ], [ -36.058783799999965, -8.480019099999938 ], [ -36.058925199999976, -8.480223899999922 ], [ -36.058997799999929, -8.480320699999938 ], [ -36.059118699999956, -8.480412699999913 ], [ -36.059263899999955, -8.4804852 ], [ -36.059458499999948, -8.480576699999977 ], [ -36.05953489999996, -8.4806498 ], [ -36.059593, -8.480770699999946 ], [ -36.059651, -8.480940099999962 ], [ -36.059655899999939, -8.480988499999953 ], [ -36.059602599999948, -8.48111429999995 ], [ -36.059544599999988, -8.481264299999969 ], [ -36.059491399999963, -8.48138049999994 ], [ -36.059351, -8.481646599999969 ], [ -36.059339399999956, -8.48185619999998 ], [ -36.056624099999965, -8.481468299999955 ], [ -36.056119299999978, -8.481577899999907 ], [ -36.054354899999964, -8.482897699999949 ], [ -36.054414799999954, -8.482940899999956 ], [ -36.05056309999997, -8.485191899999965 ], [ -36.050045399999924, -8.488539199999925 ], [ -36.050127, -8.488551199999947 ], [ -36.050195299999984, -8.488561299999967 ], [ -36.050563, -8.488615399999979 ], [ -36.050655699999936, -8.488629799999952 ], [ -36.050707899999964, -8.489128199999902 ], [ -36.050773099999958, -8.4896874 ], [ -36.050830399999953, -8.490233699999973 ], [ -36.050875699999942, -8.490774 ], [ -36.050955599999959, -8.491727599999944 ], [ -36.04910279999995, -8.491875699999984 ], [ -36.049227499999979, -8.492949699999926 ], [ -36.049430799999989, -8.494937599999956 ], [ -36.049501299999974, -8.494892499999926 ], [ -36.049643099999969, -8.494791 ], [ -36.05010539999995, -8.494604599999921 ], [ -36.0505401, -8.494470399999956 ], [ -36.050654699999932, -8.49442539999994 ], [ -36.050669299999988, -8.494467099999937 ], [ -36.051264499999945, -8.495088599999955 ], [ -36.052539099999933, -8.495765199999944 ], [ -36.053935199999955, -8.495963 ], [ -36.053739699999944, -8.496872 ], [ -36.054613899999936, -8.497096 ], [ -36.055143699999974, -8.497322299999956 ], [ -36.055139799999949, -8.497330099999926 ], [ -36.054973899999936, -8.497635299999935 ], [ -36.054770399999938, -8.497901199999941 ], [ -36.054492899999964, -8.498139899999943 ], [ -36.054212499999949, -8.498344099999949 ], [ -36.054025299999985, -8.498566099999953 ], [ -36.053970099999965, -8.498754499999974 ], [ -36.053884399999951, -8.499046799999963 ], [ -36.054718, -8.499194199999977 ], [ -36.055382599999966, -8.499325299999958 ], [ -36.056847199999936, -8.500732799999961 ], [ -36.059731699999922, -8.502803899999947 ], [ -36.060114399999982, -8.502289599999919 ], [ -36.060358799999968, -8.502187299999973 ], [ -36.060492599999968, -8.502189899999975 ], [ -36.060645499999964, -8.502088699999971 ], [ -36.060714399999945, -8.502052499999937 ], [ -36.060956399999952, -8.501921899999957 ], [ -36.061130599999949, -8.50188309999994 ], [ -36.061191099999981, -8.5018249 ], [ -36.061206199999958, -8.501708699999952 ], [ -36.061334299999935, -8.501840899999934 ], [ -36.0616434, -8.502124499999988 ], [ -36.062072, -8.502479799999948 ], [ -36.062518, -8.502759699999965 ], [ -36.062704099999962, -8.502875299999989 ], [ -36.062815099999966, -8.503009799999974 ], [ -36.063901799999947, -8.50165789999995 ], [ -36.064036299999941, -8.499669399999963 ], [ -36.065286, -8.498705399999935 ], [ -36.06525629999993, -8.498668399999909 ], [ -36.065242599999983, -8.498651299999944 ], [ -36.065123699999958, -8.498514299999968 ], [ -36.064810099999931, -8.498156199999936 ], [ -36.064640699999984, -8.497966 ] ] ], [ [ [ -36.167334299999936, -8.490751299999939 ], [ -36.167138899999948, -8.490749299999933 ], [ -36.166877899999974, -8.490755699999944 ], [ -36.166591599999947, -8.490874399999941 ], [ -36.163142499999935, -8.490376399999947 ], [ -36.162056399999983, -8.490571699999949 ], [ -36.166069399999969, -8.493775099999922 ], [ -36.167077099999972, -8.493382699999909 ], [ -36.167283399999981, -8.492786299999954 ], [ -36.1678022, -8.492564499999945 ], [ -36.170009499999935, -8.491086099999965 ], [ -36.17098679999998, -8.490510699999957 ], [ -36.169969099999939, -8.489416899999968 ], [ -36.169224899999968, -8.48995509999996 ], [ -36.169009199999955, -8.489660499999948 ], [ -36.168371, -8.48946479999994 ], [ -36.167876, -8.48958279999993 ], [ -36.167841399999929, -8.489765599999936 ], [ -36.167334299999936, -8.490751299999939 ] ] ] ] } }
]
}
