{
"type": "FeatureCollection",
"name": "2601300",
"crs": { "type": "name", "properties": { "name": "urn:ogc:def:crs:OGC:1.3:CRS84" } },
"features": [
{ "type": "Feature", "properties": { "CD_MUN": "2601300", "NM_MUN": "Barra de Guabiraba" }, "geometry": { "type": "Polygon", "coordinates": [ [ [ -35.655585099999946, -8.42195809999993 ], [ -35.65547209999994, -8.422282799999966 ], [ -35.65547429999998, -8.422546699999925 ], [ -35.655627399999958, -8.422742799999954 ], [ -35.656754199999966, -8.423728799999941 ], [ -35.660763599999939, -8.424183099999924 ], [ -35.663016399999947, -8.424152 ], [ -35.665574799999945, -8.423712199999942 ], [ -35.665740199999966, -8.423939699999961 ], [ -35.666037299999978, -8.424464099999984 ], [ -35.666600399999936, -8.425055599999968 ], [ -35.666967199999931, -8.425520599999956 ], [ -35.666773499999969, -8.425040099999929 ], [ -35.666582299999966, -8.424655199999952 ], [ -35.666504799999984, -8.424479599999938 ], [ -35.66628529999997, -8.423916399999932 ], [ -35.666117399999969, -8.423600099999941 ], [ -35.666131299999954, -8.423550299999944 ], [ -35.666152899999936, -8.42348549999995 ], [ -35.666494299999961, -8.422946799999954 ], [ -35.666819699999969, -8.422583199999947 ], [ -35.667603899999961, -8.421785799999942 ], [ -35.667928199999956, -8.421745299999948 ], [ -35.668166699999965, -8.421796399999938 ], [ -35.669304799999971, -8.422581899999932 ], [ -35.670312899999935, -8.423013299999971 ], [ -35.67054329999997, -8.422944099999949 ], [ -35.672228, -8.422688399999961 ], [ -35.672336599999937, -8.422826599999976 ], [ -35.672509699999978, -8.422911799999955 ], [ -35.672734, -8.42309389999996 ], [ -35.672878799999985, -8.42328619999995 ], [ -35.67297879999996, -8.423532599999943 ], [ -35.673035399999954, -8.423691399999932 ], [ -35.673349099999939, -8.423742399999984 ], [ -35.673903199999984, -8.423754899999942 ], [ -35.674192799999958, -8.423789 ], [ -35.674430799999982, -8.423889099999945 ], [ -35.674744099999941, -8.424199599999973 ], [ -35.674848899999972, -8.424382099999939 ], [ -35.67508, -8.424729399999919 ], [ -35.675189899999964, -8.424873299999946 ], [ -35.675302699999975, -8.424962099999984 ], [ -35.675429799999954, -8.425074099999968 ], [ -35.675693599999938, -8.425306599999933 ], [ -35.675807299999974, -8.425425399999924 ], [ -35.675959699999964, -8.425559699999965 ], [ -35.676079799999968, -8.425586799999945 ], [ -35.676143299999978, -8.425566099999985 ], [ -35.676553899999931, -8.42543179999997 ], [ -35.676756699999942, -8.425368599999942 ], [ -35.676908899999944, -8.425339499999943 ], [ -35.677007299999957, -8.425320799999961 ], [ -35.676656299999941, -8.425030899999982 ], [ -35.676344599999943, -8.424693 ], [ -35.676314299999945, -8.424660599999967 ], [ -35.676730799999973, -8.424591 ], [ -35.676763099999967, -8.424538 ], [ -35.676755399999927, -8.424500599999924 ], [ -35.676590099999942, -8.424056199999958 ], [ -35.676208199999962, -8.42314289999994 ], [ -35.676114699999971, -8.422578599999961 ], [ -35.676114699999971, -8.421710599999923 ], [ -35.676308499999941, -8.421193899999926 ], [ -35.676576, -8.420934099999934 ], [ -35.676801099999985, -8.420676299999947 ], [ -35.676130899999976, -8.420726499999938 ], [ -35.67568979999993, -8.420759899999927 ], [ -35.675038799999982, -8.420951099999964 ], [ -35.674207, -8.421243 ], [ -35.672843599999965, -8.421938899999944 ], [ -35.672299599999974, -8.422052699999934 ], [ -35.670865099999951, -8.422367099999976 ], [ -35.670428699999952, -8.422462 ], [ -35.670259799999947, -8.422481599999966 ], [ -35.67018319999994, -8.4220463 ], [ -35.669889199999943, -8.421997299999916 ], [ -35.66971539999998, -8.42209969999994 ], [ -35.669608499999981, -8.422041799999937 ], [ -35.669577299999958, -8.421988399999968 ], [ -35.669648599999967, -8.421828 ], [ -35.669559499999934, -8.421703199999984 ], [ -35.669403599999953, -8.421654199999978 ], [ -35.669180799999936, -8.421654199999969 ], [ -35.669056099999978, -8.421560699999949 ], [ -35.669042699999984, -8.421458199999952 ], [ -35.66899369999993, -8.421369099999936 ], [ -35.668968899999989, -8.42135119999995 ], [ -35.668837799999949, -8.421266599999944 ], [ -35.668717499999964, -8.421222099999952 ], [ -35.66872189999998, -8.421101799999954 ], [ -35.668686299999933, -8.420972599999972 ], [ -35.668537099999988, -8.420843 ], [ -35.668338799999958, -8.420740899999958 ], [ -35.668116, -8.420665199999977 ], [ -35.667773, -8.420647399999936 ], [ -35.667652699999962, -8.42063849999993 ], [ -35.667577, -8.420518199999929 ], [ -35.667519099999943, -8.4204291 ], [ -35.667523499999959, -8.420402399999947 ], [ -35.667621499999939, -8.4204425 ], [ -35.667652699999969, -8.420415699999959 ], [ -35.667639299999969, -8.420348899999947 ], [ -35.667559199999971, -8.420304299999952 ], [ -35.667443299999938, -8.420317699999945 ], [ -35.667367599999977, -8.42036669999993 ], [ -35.667336399999961, -8.4204736 ], [ -35.667331899999965, -8.420571699999947 ], [ -35.667358699999966, -8.420611699999952 ], [ -35.667220599999958, -8.420723099999964 ], [ -35.667171599999968, -8.420660799999956 ], [ -35.667051299999969, -8.420602799999941 ], [ -35.666997799999933, -8.420540499999948 ], [ -35.666988899999986, -8.420482499999945 ], [ -35.667002299999979, -8.420397899999951 ], [ -35.667020099999945, -8.420331099999947 ], [ -35.666859699999975, -8.42030429999993 ], [ -35.667055699999935, -8.419680599999923 ], [ -35.666815199999967, -8.419649399999983 ], [ -35.666788399999973, -8.419466799999951 ], [ -35.666717099999964, -8.419212799999968 ], [ -35.666267199999936, -8.419097 ], [ -35.666129099999971, -8.419074699999967 ], [ -35.665946399999939, -8.418945499999964 ], [ -35.665821699999981, -8.418860899999947 ], [ -35.665857299999971, -8.418727199999957 ], [ -35.665991, -8.418638099999974 ], [ -35.666160299999952, -8.418615899999969 ], [ -35.66640079999997, -8.418575799999941 ], [ -35.666534499999941, -8.418522299999955 ], [ -35.666592399999956, -8.418339599999952 ], [ -35.666538899999978, -8.418206 ], [ -35.666543399999973, -8.417983199999972 ], [ -35.666552299999971, -8.41790749999997 ], [ -35.666436499999975, -8.417769399999916 ], [ -35.666400799999955, -8.417662499999931 ], [ -35.666432, -8.417542199999964 ], [ -35.666387499999985, -8.417390699999963 ], [ -35.666253799999943, -8.417377299999943 ], [ -35.666222599999969, -8.417306099999969 ], [ -35.6663028, -8.417163499999976 ], [ -35.666467699999941, -8.416998699999985 ], [ -35.666779499999961, -8.416842699999959 ], [ -35.666988899999978, -8.416718 ], [ -35.667122599999971, -8.416566499999938 ], [ -35.667171599999953, -8.416370499999983 ], [ -35.667202699999962, -8.416129899999932 ], [ -35.667167099999972, -8.415818099999967 ], [ -35.666882, -8.415684399999988 ], [ -35.666882, -8.415430499999971 ], [ -35.667002299999986, -8.415234399999957 ], [ -35.667184899999945, -8.415056199999968 ], [ -35.667229499999969, -8.415020599999917 ], [ -35.667256199999947, -8.4149538 ], [ -35.667345299999972, -8.414927 ], [ -35.667380899999962, -8.414811199999955 ], [ -35.667412099999979, -8.414713199999959 ], [ -35.667519099999936, -8.414601799999936 ], [ -35.667559199999978, -8.414477099999926 ], [ -35.667550199999944, -8.414312199999928 ], [ -35.667550199999944, -8.414205299999924 ], [ -35.667541299999982, -8.414004799999921 ], [ -35.667536899999966, -8.413835499999966 ], [ -35.667746299999976, -8.413670699999937 ], [ -35.667706199999941, -8.413528099999958 ], [ -35.667697299999936, -8.413447899999934 ], [ -35.667755199999931, -8.413403399999936 ], [ -35.667724, -8.413243 ], [ -35.667274, -8.413140499999933 ], [ -35.667162699999956, -8.413323199999972 ], [ -35.665928099999988, -8.413200199999942 ], [ -35.665932599999962, -8.413140799999962 ], [ -35.66431179999995, -8.413003499999942 ], [ -35.664238399999931, -8.413227699999918 ], [ -35.664220299999947, -8.413282899999981 ], [ -35.664172099999973, -8.413340699999953 ], [ -35.66410709999996, -8.413357499999959 ], [ -35.664033, -8.413376899999966 ], [ -35.663885599999965, -8.413415299999935 ], [ -35.663823, -8.413675399999942 ], [ -35.663733799999932, -8.413757299999915 ], [ -35.663495399999931, -8.413824699999953 ], [ -35.663493, -8.413769299999961 ], [ -35.663456899999979, -8.413687499999972 ], [ -35.663430399999974, -8.413624799999981 ], [ -35.663435199999988, -8.413579099999925 ], [ -35.663437599999959, -8.41349 ], [ -35.663391899999972, -8.41337439999994 ], [ -35.663346099999956, -8.413304499999967 ], [ -35.663338899999928, -8.413239499999957 ], [ -35.663314799999966, -8.413145599999938 ], [ -35.663194399999959, -8.413061299999983 ], [ -35.663194399999959, -8.412974599999924 ], [ -35.663167899999969, -8.412928899999928 ], [ -35.663030599999956, -8.412847 ], [ -35.662759699999974, -8.4128446 ], [ -35.662687499999947, -8.412821699999951 ], [ -35.662588699999958, -8.412809599999962 ], [ -35.662309399999977, -8.412833699999958 ], [ -35.662131199999976, -8.412889099999983 ], [ -35.662010799999962, -8.412978199999948 ], [ -35.662003499999976, -8.413028799999926 ], [ -35.662001099999941, -8.413146799999918 ], [ -35.6619, -8.413170899999978 ], [ -35.661798799999922, -8.413199799999974 ], [ -35.661639899999962, -8.413310599999907 ], [ -35.661639899999955, -8.413186 ], [ -35.661639899999955, -8.413166099999959 ], [ -35.661418299999973, -8.413252799999958 ], [ -35.661240099999922, -8.413363499999958 ], [ -35.661254599999957, -8.413493599999963 ], [ -35.661134199999935, -8.413551399999976 ], [ -35.660912599999961, -8.413753699999955 ], [ -35.660883699999943, -8.41378739999992 ], [ -35.660600899999963, -8.413976299999945 ], [ -35.66034819999993, -8.413975799999927 ], [ -35.65997839999995, -8.413888299999943 ], [ -35.659842599999941, -8.413868199999973 ], [ -35.659800499999967, -8.413997699999969 ], [ -35.659771599999942, -8.414164199999956 ], [ -35.659791599999949, -8.414368599999921 ], [ -35.659843899999942, -8.414538899999961 ], [ -35.660031, -8.414877499999925 ], [ -35.660095499999954, -8.41507909999998 ], [ -35.660119499999944, -8.4152986 ], [ -35.660081199999986, -8.4155436 ], [ -35.659978699999954, -8.415945399999933 ], [ -35.659915399999932, -8.416281899999962 ], [ -35.659907499999974, -8.416441599999917 ], [ -35.65987639999998, -8.416642099999956 ], [ -35.659916799999962, -8.416939799999948 ], [ -35.659942, -8.417024 ], [ -35.660044, -8.417353899999965 ], [ -35.660300199999938, -8.418125499999977 ], [ -35.659355699999942, -8.418105699999941 ], [ -35.659312299999947, -8.419374199999947 ], [ -35.657727599999937, -8.419935299999953 ], [ -35.656273399999975, -8.420457 ], [ -35.656482799999942, -8.420781 ], [ -35.656384099999968, -8.420812599999978 ], [ -35.656360299999967, -8.420844199999975 ], [ -35.656435399999964, -8.420958799999939 ], [ -35.656403799999964, -8.421037899999918 ], [ -35.656320799999946, -8.42103789999992 ], [ -35.656172899999952, -8.420962499999982 ], [ -35.655232899999938, -8.421012899999935 ], [ -35.655026299999975, -8.421219599999963 ], [ -35.655127, -8.421891 ], [ -35.655631599999936, -8.421815799999946 ], [ -35.655585099999946, -8.42195809999993 ] ] ] } }
]
}
