{
"type": "FeatureCollection",
"name": "2602902",
"crs": { "type": "name", "properties": { "name": "urn:ogc:def:crs:OGC:1.3:CRS84" } },
"features": [
{ "type": "Feature", "properties": { "CD_MUN": "2602902", "NM_MUN": "Cabo de Santo Agostinho" }, "geometry": { "type": "MultiPolygon", "coordinates": [ [ [ [ -34.961085199999964, -8.360231799999971 ], [ -34.960078499999952, -8.3588245 ], [ -34.960120699999941, -8.3587138 ], [ -34.96042639999996, -8.358210499999936 ], [ -34.96062139999998, -8.357672899999947 ], [ -34.960247199999976, -8.357309199999989 ], [ -34.960178699999979, -8.356771599999936 ], [ -34.960263, -8.356671399999932 ], [ -34.960410599999932, -8.356276099999951 ], [ -34.960210299999964, -8.3560864 ], [ -34.959667399999937, -8.355970399999956 ], [ -34.958861, -8.355385399999921 ], [ -34.958397199999979, -8.355034899999966 ], [ -34.958845199999985, -8.35463829999996 ], [ -34.95863959999997, -8.35398469999995 ], [ -34.957849, -8.353220399999937 ], [ -34.958797699999934, -8.352524699999963 ], [ -34.959903899999979, -8.351254899999944 ], [ -34.95924069999996, -8.350964899999953 ], [ -34.959052799999938, -8.3508912 ], [ -34.959086399999926, -8.350846 ], [ -34.959171599999927, -8.3507552 ], [ -34.959097499999984, -8.350675599999933 ], [ -34.959125299999982, -8.350604299999937 ], [ -34.959367799999939, -8.350228399999947 ], [ -34.959649299999967, -8.349961799999964 ], [ -34.959717399999938, -8.349902599999945 ], [ -34.959818699999978, -8.349984 ], [ -34.960749599999936, -8.35047779999997 ], [ -34.960744599999941, -8.350537 ], [ -34.961152, -8.350709899999973 ], [ -34.961263099999947, -8.35049259999996 ], [ -34.9613174, -8.350263 ], [ -34.960786599999949, -8.349947 ], [ -34.960873, -8.349798799999972 ], [ -34.961016199999968, -8.349668 ], [ -34.96116439999998, -8.349561799999933 ], [ -34.961305099999947, -8.349386499999989 ], [ -34.961408799999958, -8.349287699999941 ], [ -34.961435899999969, -8.349216099999969 ], [ -34.961443299999985, -8.349151899999962 ], [ -34.961426099999983, -8.349092699999984 ], [ -34.961492699999944, -8.348737799999975 ], [ -34.961450799999966, -8.348305699999976 ], [ -34.961418699999967, -8.348169899999961 ], [ -34.961388099999965, -8.348114399999957 ], [ -34.961454799999956, -8.348032299999966 ], [ -34.961225199999944, -8.347769299999939 ], [ -34.961128899999949, -8.347473 ], [ -34.9611733, -8.347154499999917 ], [ -34.961365899999976, -8.347073 ], [ -34.961688099999954, -8.34751379999992 ], [ -34.961973299999954, -8.347332299999971 ], [ -34.962073299999922, -8.347421199999925 ], [ -34.962206599999945, -8.347321199999953 ], [ -34.962306599999984, -8.34740639999996 ], [ -34.96252509999993, -8.347243399999984 ], [ -34.962391799999985, -8.347099 ], [ -34.962480599999935, -8.34702489999993 ], [ -34.962391799999985, -8.346973099999955 ], [ -34.962536199999938, -8.346861899999984 ], [ -34.962476899999956, -8.346795299999959 ], [ -34.96276579999995, -8.346606399999931 ], [ -34.962710299999976, -8.346512 ], [ -34.962780599999974, -8.346471199999947 ], [ -34.962706499999975, -8.346304599999916 ], [ -34.96283619999997, -8.346226799999936 ], [ -34.96303249999994, -8.34634159999997 ], [ -34.963410199999949, -8.345967599999936 ], [ -34.96366949999998, -8.346160099999969 ], [ -34.963884299999961, -8.345886099999985 ], [ -34.964084299999968, -8.346030499999939 ], [ -34.963925, -8.346278599999941 ], [ -34.964017599999984, -8.346426799999943 ], [ -34.963706499999937, -8.347041599999963 ], [ -34.963536099999949, -8.347315599999931 ], [ -34.963480599999968, -8.347304499999954 ], [ -34.96318059999993, -8.347798899999933 ], [ -34.96298059999998, -8.347784099999961 ], [ -34.962921399999971, -8.348002599999989 ], [ -34.962981599999985, -8.34837289999993 ], [ -34.96291489999993, -8.348552599999929 ], [ -34.962868, -8.348735299999941 ], [ -34.962848199999947, -8.348856299999982 ], [ -34.96264819999994, -8.348878499999968 ], [ -34.962645799999962, -8.3489896 ], [ -34.962776599999984, -8.349172299999957 ], [ -34.962890199999947, -8.349503199999958 ], [ -34.963048199999946, -8.349796299999968 ], [ -34.963134599999925, -8.3501272 ], [ -34.96316419999993, -8.350356799999956 ], [ -34.9633, -8.350658 ], [ -34.963346899999976, -8.350833299999971 ], [ -34.963356799999936, -8.350961699999964 ], [ -34.963351899999964, -8.351122199999947 ], [ -34.963433399999928, -8.351200599999979 ], [ -34.963455599999982, -8.351287 ], [ -34.963423499999976, -8.351427699999928 ], [ -34.963346899999983, -8.351640099999949 ], [ -34.963248199999953, -8.35183759999995 ], [ -34.963154399999951, -8.351933899999963 ], [ -34.963097599999969, -8.352064699999978 ], [ -34.963102499999934, -8.352190699999944 ], [ -34.963179099999934, -8.35224 ], [ -34.963270399999949, -8.352232599999979 ], [ -34.963391399999985, -8.352269699999946 ], [ -34.963430899999942, -8.352491899999983 ], [ -34.963495099999932, -8.352620299999966 ], [ -34.963593799999963, -8.352728899999947 ], [ -34.963625899999954, -8.352898 ], [ -34.963793799999969, -8.353149899999934 ], [ -34.963764199999957, -8.353584399999942 ], [ -34.963709899999976, -8.353821399999971 ], [ -34.96379879999995, -8.354221399999975 ], [ -34.963937, -8.354354699999924 ], [ -34.964109899999983, -8.354374499999963 ], [ -34.964351799999974, -8.354256 ], [ -34.964529599999935, -8.354206599999916 ], [ -34.964737, -8.35416709999993 ], [ -34.964939399999942, -8.35415969999997 ], [ -34.965257899999983, -8.354275699999969 ], [ -34.965406099999946, -8.354394199999934 ], [ -34.965576499999941, -8.354490499999931 ], [ -34.96580849999998, -8.354532499999948 ], [ -34.965909799999977, -8.354618899999918 ], [ -34.966067799999969, -8.354705299999974 ], [ -34.966220899999932, -8.354873199999917 ], [ -34.966171499999973, -8.35504109999993 ], [ -34.966097399999967, -8.3551646 ], [ -34.965895, -8.355312699999944 ], [ -34.965717199999972, -8.355589199999947 ], [ -34.965623399999977, -8.355870699999949 ], [ -34.965578899999969, -8.356147199999956 ], [ -34.965539399999948, -8.356295399999963 ], [ -34.96559369999995, -8.356438599999926 ], [ -34.965559199999966, -8.356641 ], [ -34.965499899999941, -8.35674469999997 ], [ -34.965441899999981, -8.356926199999959 ], [ -34.965496199999947, -8.35723229999997 ], [ -34.965451799999983, -8.357454599999944 ], [ -34.965649299999939, -8.357755799999953 ], [ -34.96577769999994, -8.35810139999994 ], [ -34.96589119999993, -8.358486599999917 ], [ -34.96577769999994, -8.358526099999946 ], [ -34.965595, -8.358378 ], [ -34.965441899999981, -8.358042199999934 ], [ -34.965535699999982, -8.357903899999915 ], [ -34.965476499999966, -8.357790299999976 ], [ -34.965293699999961, -8.357662 ], [ -34.965032, -8.357543399999944 ], [ -34.964819699999971, -8.357410099999983 ], [ -34.964691299999977, -8.357395299999979 ], [ -34.964474, -8.357415099999978 ], [ -34.964197499999955, -8.357602699999973 ], [ -34.963896299999924, -8.357711299999957 ], [ -34.963684, -8.357864399999935 ], [ -34.963545699999948, -8.358037199999966 ], [ -34.963501299999955, -8.358205099999989 ], [ -34.9633383, -8.358427299999985 ], [ -34.963175399999955, -8.358570499999928 ], [ -34.963150699999971, -8.358664399999961 ], [ -34.963205, -8.358728599999941 ], [ -34.96345679999996, -8.358827299999982 ], [ -34.963511099999955, -8.358970499999952 ], [ -34.963624699999968, -8.359015 ], [ -34.963777799999946, -8.359153199999975 ], [ -34.963871599999948, -8.359306299999947 ], [ -34.963940699999966, -8.35940009999995 ], [ -34.963965399999957, -8.359553199999928 ], [ -34.964, -8.359661799999985 ], [ -34.964074099999948, -8.359740899999949 ], [ -34.96422709999996, -8.359760599999971 ], [ -34.9644, -8.359691499999967 ], [ -34.964641899999947, -8.359642099999981 ], [ -34.965120899999931, -8.359691499999951 ], [ -34.965283899999974, -8.359726 ], [ -34.965550499999949, -8.359869199999922 ], [ -34.965713499999936, -8.359849499999957 ], [ -34.965777699999933, -8.359795199999946 ], [ -34.965777699999926, -8.35973589999997 ], [ -34.96590109999994, -8.359735899999983 ], [ -34.966207299999958, -8.359775399999947 ], [ -34.966464099999946, -8.359829699999976 ], [ -34.966567799999943, -8.359834699999972 ], [ -34.966612199999936, -8.359745799999931 ], [ -34.966814699999929, -8.35977049999998 ], [ -34.967160299999932, -8.359864299999964 ], [ -34.967486199999932, -8.36000749999994 ], [ -34.96752569999996, -8.360056899999966 ], [ -34.967673899999973, -8.360056899999964 ], [ -34.967730599999982, -8.359921099999964 ], [ -34.967893599999968, -8.359787799999916 ], [ -34.96796269999993, -8.35971859999994 ], [ -34.96818, -8.359708799999989 ], [ -34.968318299999972, -8.359689 ], [ -34.96845159999998, -8.359595199999939 ], [ -34.96855039999997, -8.359575399999933 ], [ -34.96888609999997, -8.359605099999969 ], [ -34.969138, -8.35959519999995 ], [ -34.969296, -8.359659399999943 ], [ -34.969458899999957, -8.359689 ], [ -34.969557699999946, -8.359664299999979 ], [ -34.969612, -8.359580399999983 ], [ -34.969720699999982, -8.359531 ], [ -34.969942899999978, -8.359447 ], [ -34.969992299999952, -8.359397699999917 ], [ -34.97017, -8.359392699999967 ], [ -34.970367499999952, -8.359417399999904 ], [ -34.970402099999937, -8.359486499999941 ], [ -34.970619399999983, -8.35948649999993 ], [ -34.970905799999976, -8.359456899999973 ], [ -34.971044, -8.359456899999948 ], [ -34.971194699999955, -8.359407499999959 ], [ -34.971377399999938, -8.359476699999961 ], [ -34.97199459999996, -8.359491499999937 ], [ -34.972350099999971, -8.359447 ], [ -34.972498299999984, -8.3594816 ], [ -34.972685899999924, -8.359466799999961 ], [ -34.972834099999936, -8.359422399999977 ], [ -34.973016799999989, -8.359427299999952 ], [ -34.973120499999929, -8.359397699999949 ], [ -34.973234, -8.359289 ], [ -34.973401899999942, -8.35928409999995 ], [ -34.973579699999952, -8.359239599999972 ], [ -34.973920399999948, -8.359101399999911 ], [ -34.974201899999969, -8.35895819999997 ], [ -34.974475899999959, -8.358834699999944 ], [ -34.974727799999982, -8.358671799999977 ], [ -34.974737699999935, -8.358459399999965 ], [ -34.974722799999938, -8.358331099999948 ], [ -34.974742599999956, -8.358291499999948 ], [ -34.97491389999994, -8.358286 ], [ -34.974871799999967, -8.357969799999982 ], [ -34.974373299999982, -8.353966699999944 ], [ -34.974455099999943, -8.353237499999972 ], [ -34.97332409999995, -8.352404199999972 ], [ -34.973123199999975, -8.352188399999926 ], [ -34.972825599999972, -8.352188399999907 ], [ -34.972468499999927, -8.3521661 ], [ -34.972163399999943, -8.352002399999966 ], [ -34.971925299999953, -8.351682399999982 ], [ -34.97165739999997, -8.351481499999956 ], [ -34.971211, -8.351332699999956 ], [ -34.970943099999936, -8.351124399999966 ], [ -34.9708687, -8.350640699999914 ], [ -34.970905899999934, -8.350447299999951 ], [ -34.971025, -8.349569299999937 ], [ -34.971010099999944, -8.349070699999986 ], [ -34.971300299999946, -8.348728499999963 ], [ -34.971754199999971, -8.348497799999983 ], [ -34.972208, -8.34812579999994 ], [ -34.97263959999998, -8.347634699999972 ], [ -34.972825599999972, -8.347344499999977 ], [ -34.973041399999943, -8.346898099999963 ], [ -34.973063699999955, -8.346600399999961 ], [ -34.973056299999939, -8.346228399999982 ], [ -34.972684199999946, -8.345834 ], [ -34.971969899999984, -8.345462 ], [ -34.971553299999989, -8.345335499999967 ], [ -34.971158899999978, -8.345261099999947 ], [ -34.970838899999933, -8.345343 ], [ -34.970161799999971, -8.3453876 ], [ -34.969663299999986, -8.345417399999983 ], [ -34.969164799999938, -8.345447099999934 ], [ -34.968763, -8.3453876 ], [ -34.968383499999959, -8.345238799999951 ], [ -34.968234699999982, -8.345023 ], [ -34.968242099999941, -8.344844399999948 ], [ -34.968301699999984, -8.344710499999969 ], [ -34.968502599999965, -8.344353299999961 ], [ -34.968614199999934, -8.344055699999954 ], [ -34.968681099999976, -8.34352 ], [ -34.968507, -8.343228899999952 ], [ -34.968682, -8.343173 ], [ -34.969439, -8.342874 ], [ -34.969838, -8.342622 ], [ -34.970017, -8.342417 ], [ -34.970505, -8.341892 ], [ -34.97109, -8.34138 ], [ -34.971387599999964, -8.341283399999947 ], [ -34.971676399999978, -8.341078199999982 ], [ -34.97218259999994, -8.340684299999984 ], [ -34.972324299999983, -8.340568799999968 ], [ -34.9724892, -8.340207299999967 ], [ -34.972536499999933, -8.339896299999941 ], [ -34.972875, -8.339485 ], [ -34.97296, -8.33931 ], [ -34.973394, -8.337952 ], [ -34.973751, -8.337537 ], [ -34.974177, -8.337217 ], [ -34.974902, -8.337038 ], [ -34.975579, -8.336986 ], [ -34.975878, -8.336665 ], [ -34.976588, -8.336087 ], [ -34.977139, -8.33573 ], [ -34.977367, -8.335731 ], [ -34.977607, -8.33583 ], [ -34.977892, -8.335886 ], [ -34.978192, -8.335916 ], [ -34.978909699999981, -8.3360084 ], [ -34.978971899999976, -8.335544199999935 ], [ -34.979018799999949, -8.334800699999953 ], [ -34.979367399999944, -8.334895799999956 ], [ -34.980191899999973, -8.334777099999945 ], [ -34.980497399999933, -8.334191499999958 ], [ -34.980964599999943, -8.333893699999955 ], [ -34.981030399999952, -8.333597099999976 ], [ -34.981154799999956, -8.333333099999939 ], [ -34.981265699999938, -8.332838099999931 ], [ -34.981318899999955, -8.332117799999949 ], [ -34.980889199999972, -8.331621699999953 ], [ -34.980512499999975, -8.33127979999996 ], [ -34.980038799999932, -8.331084899999947 ], [ -34.979562899999969, -8.331065299999976 ], [ -34.979149399999983, -8.331209899999976 ], [ -34.978232899999973, -8.331019599999927 ], [ -34.977521299999978, -8.330936299999966 ], [ -34.977324899999921, -8.330715599999952 ], [ -34.976984099999981, -8.330511599999989 ], [ -34.976883699999973, -8.330354499999927 ], [ -34.976234799999936, -8.33034449999996 ], [ -34.97461879999998, -8.330409399999938 ], [ -34.974276599999946, -8.330550799999973 ], [ -34.973376199999961, -8.331436299999956 ], [ -34.971290599999975, -8.332413099999934 ], [ -34.970029199999942, -8.331612599999961 ], [ -34.969847, -8.331195299999948 ], [ -34.96976379999996, -8.330849399999989 ], [ -34.969648599999971, -8.330495599999951 ], [ -34.969603799999966, -8.330348699999927 ], [ -34.969228099999953, -8.330095299999934 ], [ -34.969380899999983, -8.330022899999959 ], [ -34.969832499999946, -8.329883599999974 ], [ -34.970055399999978, -8.32979209999996 ], [ -34.971392299999941, -8.329117699999925 ], [ -34.971557399999938, -8.329018199999945 ], [ -34.971656899999971, -8.328880899999954 ], [ -34.971836, -8.328487 ], [ -34.971901599999974, -8.328298 ], [ -34.971933499999977, -8.328142799999949 ], [ -34.971845899999948, -8.327898099999972 ], [ -34.971923499999946, -8.32778769999992 ], [ -34.97211649999997, -8.327455399999947 ], [ -34.972562099999948, -8.326464599999948 ], [ -34.972862599999942, -8.325726499999966 ], [ -34.972802899999976, -8.325170499999965 ], [ -34.972747099999943, -8.325035499999931 ], [ -34.972745099999948, -8.325037199999958 ], [ -34.972681799999975, -8.3250558 ], [ -34.972276, -8.324472199999954 ], [ -34.971642399999944, -8.323621899999955 ], [ -34.971589199999983, -8.323417299999944 ], [ -34.971379899999938, -8.323058599999959 ], [ -34.971036099999935, -8.322834399999975 ], [ -34.970468199999978, -8.32267 ], [ -34.970283199999983, -8.32259729999992 ], [ -34.97040579999998, -8.322288 ], [ -34.9703502, -8.322143499999967 ], [ -34.970033399999984, -8.321693299999941 ], [ -34.970016699999974, -8.321400099999964 ], [ -34.969938899999924, -8.32115 ], [ -34.969405399999971, -8.320805399999918 ], [ -34.969016299999964, -8.319910599999959 ], [ -34.969030299999929, -8.319097899999974 ], [ -34.969049699999971, -8.317975 ], [ -34.966898799999967, -8.316552199999917 ], [ -34.964742299999955, -8.314090099999918 ], [ -34.96358, -8.31353 ], [ -34.96454, -8.31277 ], [ -34.964795, -8.31256 ], [ -34.965375, -8.3121 ], [ -34.965545, -8.311965 ], [ -34.96592, -8.311705 ], [ -34.966288, -8.311504 ], [ -34.96681, -8.311235 ], [ -34.967305, -8.310915 ], [ -34.96776, -8.31055 ], [ -34.968526, -8.309745 ], [ -34.96878, -8.309405 ], [ -34.969005, -8.309205 ], [ -34.967619, -8.30892 ], [ -34.966167, -8.308029 ], [ -34.96552, -8.307595 ], [ -34.965216, -8.307103 ], [ -34.965139, -8.306755 ], [ -34.965003, -8.306213 ], [ -34.965003, -8.305467 ], [ -34.964854, -8.304817 ], [ -34.964802, -8.304411 ], [ -34.96476, -8.303587 ], [ -34.96588, -8.30205 ], [ -34.966029, -8.301796 ], [ -34.966054, -8.301589 ], [ -34.965968, -8.30137 ], [ -34.963395, -8.299428 ], [ -34.96316, -8.299193 ], [ -34.962488, -8.298866 ], [ -34.962292199999986, -8.298699399999963 ], [ -34.96209, -8.298401 ], [ -34.96186, -8.297732 ], [ -34.961612, -8.297365 ], [ -34.961227, -8.297077 ], [ -34.962454, -8.294826799999967 ], [ -34.962514099999972, -8.294626399999945 ], [ -34.962433899999951, -8.294005 ], [ -34.962253499999981, -8.293824599999931 ], [ -34.96173239999996, -8.293764499999941 ], [ -34.96177159999997, -8.2918971 ], [ -34.961568499999949, -8.291389399999968 ], [ -34.960457, -8.291455 ], [ -34.959951499999924, -8.2918362 ], [ -34.959707799999933, -8.291839299999916 ], [ -34.959611, -8.2913675 ], [ -34.959682799999932, -8.290835499999972 ], [ -34.959901599999966, -8.290369199999944 ], [ -34.959951899999965, -8.290112599999915 ], [ -34.959714499999961, -8.290003199999953 ], [ -34.959045799999963, -8.289903199999976 ], [ -34.957949799999938, -8.290138299999958 ], [ -34.957299899999953, -8.290441399999958 ], [ -34.956443, -8.29052239999992 ], [ -34.956488, -8.289971499999989 ], [ -34.957051, -8.288817 ], [ -34.957132, -8.28856 ], [ -34.957034, -8.287919 ], [ -34.956966, -8.287549 ], [ -34.956937, -8.287403 ], [ -34.956878, -8.287175 ], [ -34.956709, -8.2866 ], [ -34.956586, -8.286226 ], [ -34.956259, -8.285236 ], [ -34.955783, -8.28455 ], [ -34.955677, -8.284344 ], [ -34.955636, -8.284095 ], [ -34.955589, -8.283863 ], [ -34.9555, -8.283652 ], [ -34.955373, -8.283457 ], [ -34.955165, -8.283321 ], [ -34.954947, -8.283175 ], [ -34.954664499999978, -8.282814699999969 ], [ -34.954414, -8.282592 ], [ -34.953538, -8.281618 ], [ -34.952668299999978, -8.280731599999962 ], [ -34.952452, -8.280494 ], [ -34.952354, -8.280291 ], [ -34.952321, -8.280011 ], [ -34.952283, -8.279714 ], [ -34.952244299999968, -8.279462 ], [ -34.95217759999997, -8.279104 ], [ -34.952134, -8.278747 ], [ -34.952048, -8.277798 ], [ -34.951962399999957, -8.277233399999959 ], [ -34.951918699999965, -8.276945699999938 ], [ -34.951891, -8.276763 ], [ -34.951831299999981, -8.276492 ], [ -34.951743299999976, -8.276324399999975 ], [ -34.951748799999969, -8.276134699999922 ], [ -34.951783599999942, -8.275962799999959 ], [ -34.951719399999945, -8.275620299999961 ], [ -34.951567399999931, -8.275167899999934 ], [ -34.951187, -8.274626799999973 ], [ -34.95118269999994, -8.274589199999978 ], [ -34.951047799999969, -8.274496299999953 ], [ -34.950629399999968, -8.274152199999952 ], [ -34.950291299999947, -8.273660199999945 ], [ -34.95001369999995, -8.27319909999995 ], [ -34.949569499999939, -8.272431399999951 ], [ -34.949429299999963, -8.272167799999957 ], [ -34.94925719999997, -8.271716 ], [ -34.949172599999947, -8.271229599999954 ], [ -34.949153699999961, -8.271047199999948 ], [ -34.949773299999947, -8.270961499999931 ], [ -34.950102299999969, -8.270697499999946 ], [ -34.950169799999969, -8.270223199999981 ], [ -34.9502, -8.269728499999939 ], [ -34.950042799999949, -8.269338 ], [ -34.950050799999929, -8.26859649999993 ], [ -34.949756, -8.268341699999937 ], [ -34.9495563, -8.268230199999957 ], [ -34.949384599999973, -8.268141399999951 ], [ -34.949280799999933, -8.26803949999992 ], [ -34.949174399999947, -8.267836199999973 ], [ -34.949065499999961, -8.267636799999947 ], [ -34.948841099999981, -8.267364099999943 ], [ -34.948829, -8.266904399999921 ], [ -34.948845899999981, -8.266482399999973 ], [ -34.948913599999976, -8.266216099999967 ], [ -34.949086499999964, -8.2659614 ], [ -34.949503899999968, -8.265541199999976 ], [ -34.949899499999958, -8.265371799999981 ], [ -34.95001579999996, -8.265060399999973 ], [ -34.950194, -8.2647014 ], [ -34.95062159999997, -8.263787599999967 ], [ -34.950739399999975, -8.263369599999985 ], [ -34.950636899999949, -8.262868099999926 ], [ -34.950644599999976, -8.262586099999957 ], [ -34.950911799999986, -8.26188159999996 ], [ -34.951131599999933, -8.261641599999958 ], [ -34.953283, -8.260629 ], [ -34.952959, -8.26042 ], [ -34.952655, -8.259999 ], [ -34.952461, -8.259336 ], [ -34.951255, -8.258235 ], [ -34.950362, -8.256952 ], [ -34.949789, -8.254783 ], [ -34.949136, -8.252533 ], [ -34.948566, -8.251007 ], [ -34.947994, -8.248817 ], [ -34.947869099999934, -8.247885799999956 ], [ -34.947475899999986, -8.247885799999928 ], [ -34.946239599999956, -8.247683599999954 ], [ -34.945864099999945, -8.247568899999971 ], [ -34.945717799999954, -8.247829799999961 ], [ -34.945532, -8.247901 ], [ -34.945018099999963, -8.2479405 ], [ -34.944939099999949, -8.247995899999987 ], [ -34.944654399999934, -8.248067 ], [ -34.944618899999973, -8.248082799999962 ], [ -34.944958799999945, -8.248818099999957 ], [ -34.944867899999963, -8.248814099999944 ], [ -34.944784899999945, -8.248861599999925 ], [ -34.944745399999924, -8.248861599999948 ], [ -34.944694, -8.248802299999983 ], [ -34.944559599999934, -8.248735099999967 ], [ -34.944385599999976, -8.248580899999975 ], [ -34.944267, -8.248501799999907 ], [ -34.944176099999936, -8.248513699999933 ], [ -34.944097099999965, -8.248573 ], [ -34.944029899999975, -8.24868759999991 ], [ -34.944029899999975, -8.248796299999986 ], [ -34.944073299999957, -8.248903099999966 ], [ -34.94403779999994, -8.249081 ], [ -34.944014, -8.249306299999951 ], [ -34.944128699999965, -8.249666 ], [ -34.944314499999962, -8.250057399999953 ], [ -34.944488399999955, -8.250282699999969 ], [ -34.944650499999966, -8.250349899999941 ], [ -34.944749299999955, -8.250587099999949 ], [ -34.944527899999969, -8.250780799999962 ], [ -34.944524, -8.250875599999974 ], [ -34.94461089999993, -8.251057499999927 ], [ -34.944812599999977, -8.251243299999937 ], [ -34.944947, -8.251523899999928 ], [ -34.945080299999972, -8.251675 ], [ -34.944972799999967, -8.252019099999938 ], [ -34.94479, -8.252255599999959 ], [ -34.944682499999935, -8.252588899999987 ], [ -34.944215099999951, -8.252371199999986 ], [ -34.943699699999968, -8.251799599999979 ], [ -34.943240599999974, -8.250965699999918 ], [ -34.942390299999943, -8.249021399999936 ], [ -34.942268399999925, -8.2483842 ], [ -34.941575099999966, -8.247625199999966 ], [ -34.941172099999953, -8.247100499999917 ], [ -34.94055369999996, -8.246041699999978 ], [ -34.940122699999968, -8.245535699999946 ], [ -34.939672899999955, -8.245263899999953 ], [ -34.939382399999943, -8.24504839999997 ], [ -34.938916299999967, -8.244519 ], [ -34.938522699999957, -8.244041099999967 ], [ -34.938082299999955, -8.243582 ], [ -34.937913699999974, -8.242982299999921 ], [ -34.938035499999955, -8.242663699999973 ], [ -34.937838699999936, -8.242579399999952 ], [ -34.937548199999974, -8.242748099999954 ], [ -34.93718279999996, -8.242663699999957 ], [ -34.936798599999975, -8.2423732 ], [ -34.936601799999956, -8.242504399999959 ], [ -34.936911099999975, -8.243047899999938 ], [ -34.937171099999944, -8.243429699999977 ], [ -34.937112499999955, -8.243631199999989 ], [ -34.9370469, -8.243783499999946 ], [ -34.93625789999993, -8.244430499999968 ], [ -34.937451599999974, -8.246151099999972 ], [ -34.938564799999945, -8.247988099999917 ], [ -34.939601199999977, -8.249808099999925 ], [ -34.94078769999993, -8.252148899999957 ], [ -34.941682599999986, -8.254022699999945 ], [ -34.942551799999933, -8.255942 ], [ -34.94316589999994, -8.257416099999949 ], [ -34.943862, -8.259082099999947 ], [ -34.944177799999984, -8.260031099999921 ], [ -34.944307299999934, -8.260420199999958 ], [ -34.944381699999951, -8.260643799999968 ], [ -34.944665399999977, -8.261600599999957 ], [ -34.944897899999944, -8.262384599999965 ], [ -34.945250699999981, -8.263820699999926 ], [ -34.945355499999941, -8.265430299999933 ], [ -34.945199199999934, -8.266485 ], [ -34.945003799999931, -8.267551299999976 ], [ -34.944904299999962, -8.268328099999952 ], [ -34.944941299999982, -8.268906699999938 ], [ -34.945326799999982, -8.270674399999955 ], [ -34.945498499999928, -8.27243229999992 ], [ -34.945788099999952, -8.273589 ], [ -34.94617, -8.275160799999977 ], [ -34.946482399999972, -8.277030599999943 ], [ -34.946756899999968, -8.278872299999907 ], [ -34.946979599999963, -8.279604799999982 ], [ -34.947754899999957, -8.281285699999954 ], [ -34.947755599999937, -8.281287199999946 ], [ -34.948443, -8.283002799999958 ], [ -34.94948849999998, -8.284448499999929 ], [ -34.950334299999945, -8.286199899999938 ], [ -34.950932199999961, -8.288541899999938 ], [ -34.951533599999941, -8.291218099999977 ], [ -34.951652699999954, -8.292038 ], [ -34.951845099999957, -8.293363499999936 ], [ -34.9518907, -8.2936779 ], [ -34.951946599999921, -8.295669499999958 ], [ -34.951994199999945, -8.2962464 ], [ -34.952113499999946, -8.297695099999963 ], [ -34.952102, -8.297871799999948 ], [ -34.952046099999968, -8.29817629999998 ], [ -34.951942699999961, -8.298388699999974 ], [ -34.951881799999967, -8.298497199999929 ], [ -34.951838399999936, -8.29857449999998 ], [ -34.951753099999962, -8.298656199999924 ], [ -34.951622, -8.298631 ], [ -34.951460299999951, -8.298534299999947 ], [ -34.951332899999954, -8.298509499999955 ], [ -34.951178299999981, -8.298595299999935 ], [ -34.950968099999962, -8.298875799999973 ], [ -34.950749599999945, -8.299197099999947 ], [ -34.950584599999956, -8.299367799999951 ], [ -34.95054719999996, -8.299406499999954 ], [ -34.950486199999943, -8.299446799999926 ], [ -34.950309, -8.299564 ], [ -34.950168099999978, -8.29984059999995 ], [ -34.950109099999978, -8.299959 ], [ -34.949967599999972, -8.300243299999977 ], [ -34.949789299999964, -8.300618 ], [ -34.949582399999947, -8.300868599999935 ], [ -34.949307899999951, -8.300930299999951 ], [ -34.949113299999972, -8.300996799999957 ], [ -34.948826199999921, -8.301084299999944 ], [ -34.948548499999958, -8.301176 ], [ -34.948360599999944, -8.301250699999972 ], [ -34.94820359999995, -8.301393 ], [ -34.948198599999962, -8.301403799999957 ], [ -34.94801549999994, -8.301611499999964 ], [ -34.94773559999993, -8.301793799999917 ], [ -34.947732399999957, -8.301795399999962 ], [ -34.947473, -8.30192319999998 ], [ -34.947379199999936, -8.3020117 ], [ -34.947293799999962, -8.302199499999968 ], [ -34.947293, -8.302207 ], [ -34.947167699999966, -8.30240949999995 ], [ -34.947154299999973, -8.302427 ], [ -34.946977599999968, -8.302574799999951 ], [ -34.946690799999942, -8.302714699999969 ], [ -34.946434399999923, -8.302857899999932 ], [ -34.946247299999989, -8.30303109999994 ], [ -34.946007099999974, -8.30327059999998 ], [ -34.945867599999929, -8.303347099999954 ], [ -34.945787499999945, -8.303391099999921 ], [ -34.945669899999984, -8.303432799999946 ], [ -34.94536759999994, -8.303362899999989 ], [ -34.945105799999965, -8.303342699999963 ], [ -34.944733699999972, -8.303352399999939 ], [ -34.94447229999998, -8.303328499999942 ], [ -34.944241099999942, -8.3032737 ], [ -34.943985699999978, -8.30326549999994 ], [ -34.943848, -8.303300099999928 ], [ -34.943622299999966, -8.303370799999925 ], [ -34.943410899999947, -8.303344599999965 ], [ -34.9432743, -8.303299799999932 ], [ -34.943057299999964, -8.303244899999985 ], [ -34.943019399999969, -8.303346899999937 ], [ -34.943044799999939, -8.303501 ], [ -34.942861499999943, -8.303674599999981 ], [ -34.942673599999978, -8.303749299999945 ], [ -34.942515499999956, -8.303796899999977 ], [ -34.942330299999988, -8.304023199999959 ], [ -34.942189799999944, -8.30419 ], [ -34.942185199999983, -8.304197099999945 ], [ -34.942141499999934, -8.304423399999948 ], [ -34.9421761, -8.304563299999939 ], [ -34.942259699999973, -8.304674399999946 ], [ -34.942477099999969, -8.304716399999954 ], [ -34.942646, -8.30468049999997 ], [ -34.943173, -8.305247099999988 ], [ -34.943807199999988, -8.306571299999966 ], [ -34.944261499999982, -8.30752 ], [ -34.94462209999994, -8.308352099999979 ], [ -34.945240799999965, -8.30978 ], [ -34.945318299999933, -8.309959 ], [ -34.946261299999946, -8.312142 ], [ -34.94653349999993, -8.312772 ], [ -34.946783199999977, -8.313350199999933 ], [ -34.947610499999939, -8.315683699999955 ], [ -34.947746099999968, -8.316066 ], [ -34.948128, -8.31701969999995 ], [ -34.948176399999973, -8.317147199999964 ], [ -34.948297199999949, -8.317465899999938 ], [ -34.948534199999983, -8.31809059999995 ], [ -34.948707899999931, -8.319372899999957 ], [ -34.949060599999946, -8.320373899999929 ], [ -34.949388599999963, -8.32088739999994 ], [ -34.949399199999959, -8.320892199999951 ], [ -34.949803199999955, -8.321512 ], [ -34.949906299999952, -8.32167 ], [ -34.949995799999961, -8.322052399999963 ], [ -34.950066399999969, -8.322354199999962 ], [ -34.950106499999954, -8.323596699999948 ], [ -34.949986, -8.324400599999919 ], [ -34.949928199999938, -8.324968199999937 ], [ -34.949968299999973, -8.325764499999963 ], [ -34.950240699999931, -8.327369 ], [ -34.95036319999997, -8.328126 ], [ -34.950501599999932, -8.329319899999977 ], [ -34.950417399999935, -8.330336399999963 ], [ -34.950315299999943, -8.331348299999938 ], [ -34.950180199999977, -8.332595799999989 ], [ -34.950190199999945, -8.333395099999972 ], [ -34.950215199999953, -8.334422799999951 ], [ -34.950223699999988, -8.334768199999923 ], [ -34.950257599999929, -8.33582759999998 ], [ -34.950254199999961, -8.336785299999967 ], [ -34.95016169999996, -8.33757 ], [ -34.950058399999932, -8.338172099999941 ], [ -34.950010899999945, -8.338449 ], [ -34.949864299999952, -8.339081 ], [ -34.949702, -8.339652399999963 ], [ -34.949395, -8.340605899999959 ], [ -34.949216899999946, -8.341186699999986 ], [ -34.94916969999997, -8.341275499999956 ], [ -34.949048699999935, -8.341503599999962 ], [ -34.948827399999971, -8.34181979999993 ], [ -34.948614299999974, -8.342036299999954 ], [ -34.948389, -8.342262599999973 ], [ -34.948173499999939, -8.34239789999997 ], [ -34.947918199999954, -8.3424886 ], [ -34.947712599999939, -8.342484 ], [ -34.947699399999983, -8.342483699999933 ], [ -34.947572299999933, -8.342457299999955 ], [ -34.947544799999953, -8.342402899999986 ], [ -34.947509499999974, -8.342248299999952 ], [ -34.947462299999984, -8.342066699999979 ], [ -34.9474034, -8.341924299999963 ], [ -34.947320699999977, -8.341864099999958 ], [ -34.947218599999928, -8.341845899999965 ], [ -34.94714479999994, -8.341909099999958 ], [ -34.947037399999942, -8.342008 ], [ -34.946956199999939, -8.342139199999968 ], [ -34.946873899999957, -8.342281299999984 ], [ -34.946809899999948, -8.342425399999971 ], [ -34.946805699999977, -8.342601499999933 ], [ -34.946806899999963, -8.342726699999982 ], [ -34.946767799999975, -8.342847699999931 ], [ -34.94669509999995, -8.342832599999952 ], [ -34.94664309999996, -8.342797599999919 ], [ -34.946595699999939, -8.342788899999984 ], [ -34.946539899999941, -8.342823499999954 ], [ -34.94650089999994, -8.342874499999933 ], [ -34.946429, -8.342852199999971 ], [ -34.946378899999964, -8.342765899999977 ], [ -34.946334399999948, -8.342661899999937 ], [ -34.946273199999943, -8.342541299999931 ], [ -34.946189199999942, -8.342432099999959 ], [ -34.94607179999997, -8.342349699999948 ], [ -34.946011299999952, -8.342221799999965 ], [ -34.945937099999981, -8.3421514 ], [ -34.945845099999929, -8.34210849999995 ], [ -34.945709699999952, -8.342123599999974 ], [ -34.945642199999952, -8.342197399999973 ], [ -34.945553, -8.342368199999965 ], [ -34.945483799999984, -8.342526399999954 ], [ -34.945419299999976, -8.342744 ], [ -34.945391299999976, -8.343002199999928 ], [ -34.945397499999956, -8.34325309999995 ], [ -34.945381299999951, -8.34336889999998 ], [ -34.945362299999942, -8.343543399999941 ], [ -34.945334399999979, -8.343731799999953 ], [ -34.945271299999959, -8.344004699999978 ], [ -34.945270099999959, -8.344221599999962 ], [ -34.945263799999971, -8.344449 ], [ -34.945254299999931, -8.344536299999969 ], [ -34.945193599999989, -8.344548199999952 ], [ -34.945060399999925, -8.344508399999949 ], [ -34.944915899999963, -8.344471 ], [ -34.944777599999945, -8.34447839999997 ], [ -34.944661399999973, -8.344521199999976 ], [ -34.944545799999965, -8.344548299999943 ], [ -34.944484399999972, -8.344526 ], [ -34.944463799999937, -8.344485399999968 ], [ -34.944483799999936, -8.344406399999945 ], [ -34.944518799999969, -8.344295099999966 ], [ -34.944542199999944, -8.34418469999995 ], [ -34.944556099999943, -8.344077899999929 ], [ -34.94449549999996, -8.344048899999976 ], [ -34.944403099999931, -8.344059499999965 ], [ -34.944324299999941, -8.344134599999968 ], [ -34.944265199999954, -8.344216299999974 ], [ -34.944259, -8.344294599999962 ], [ -34.944254199999939, -8.344359499999925 ], [ -34.944239099999955, -8.344393899999959 ], [ -34.944202299999972, -8.344390699999972 ], [ -34.944132399999944, -8.34440779999996 ], [ -34.944119, -8.344473699999984 ], [ -34.944131, -8.344591299999962 ], [ -34.944134, -8.344677299999962 ], [ -34.944085499999964, -8.344782399999906 ], [ -34.943903699999964, -8.344861 ], [ -34.943864399999939, -8.344866099999926 ], [ -34.943696499999938, -8.344888 ], [ -34.943472199999974, -8.344845899999953 ], [ -34.94331909999994, -8.344774499999989 ], [ -34.943268899999964, -8.34461 ], [ -34.943253799999979, -8.344406399999949 ], [ -34.943252599999937, -8.344247099999947 ], [ -34.943256399999939, -8.343984199999955 ], [ -34.943239199999937, -8.343743599999909 ], [ -34.943045199999979, -8.34364959999996 ], [ -34.943020699999984, -8.343647 ], [ -34.942844, -8.34345069999995 ], [ -34.942654299999965, -8.343430599999953 ], [ -34.942497599999975, -8.34350579999996 ], [ -34.942407099999961, -8.343826799999958 ], [ -34.942250299999948, -8.343846899999974 ], [ -34.942063499999968, -8.343857699999962 ], [ -34.941953099999978, -8.343962299999918 ], [ -34.941817, -8.344076399999933 ], [ -34.941722499999969, -8.344148799999985 ], [ -34.941583099999953, -8.344293299999928 ], [ -34.941475599999933, -8.344428799999934 ], [ -34.941301299999971, -8.344496 ], [ -34.941260199999931, -8.344589599999967 ], [ -34.941169899999977, -8.344622899999948 ], [ -34.940981399999941, -8.344707 ], [ -34.940829099999981, -8.344856099999951 ], [ -34.9407035, -8.345044799999942 ], [ -34.940611899999958, -8.345261599999979 ], [ -34.940610599999957, -8.34527369999997 ], [ -34.940554, -8.345739099999959 ], [ -34.940539299999962, -8.345988599999925 ], [ -34.940538, -8.346000699999948 ], [ -34.940499299999956, -8.346186299999927 ], [ -34.940498, -8.346198499999971 ], [ -34.940401699999946, -8.346402499999973 ], [ -34.9403837, -8.346682199999975 ], [ -34.940379699999944, -8.346776199999947 ], [ -34.940398699999946, -8.346943499999968 ], [ -34.940454199999984, -8.347059699999926 ], [ -34.940434499999988, -8.347241299999945 ], [ -34.940307099999984, -8.347503199999936 ], [ -34.940143199999966, -8.347816399999939 ], [ -34.939981299999943, -8.348111399999924 ], [ -34.939766299999967, -8.348382499999977 ], [ -34.939613799999968, -8.348647899999953 ], [ -34.939564599999983, -8.348930499999959 ], [ -34.939515, -8.349102699999932 ], [ -34.939470899999947, -8.349167499999954 ], [ -34.939422599999943, -8.349327699999941 ], [ -34.93942119999997, -8.349339799999941 ], [ -34.939425199999967, -8.349646299999954 ], [ -34.939481099999959, -8.349872699999951 ], [ -34.939492, -8.349886099999944 ], [ -34.939685799999943, -8.350096499999966 ], [ -34.939946899999931, -8.350314 ], [ -34.939892599999958, -8.350528599999956 ], [ -34.939776799999954, -8.350798 ], [ -34.939775499999946, -8.350810099999915 ], [ -34.939703399999985, -8.351133 ], [ -34.939655499999965, -8.35140339999997 ], [ -34.939653599999929, -8.351421599999975 ], [ -34.939651799999979, -8.351666299999986 ], [ -34.939651099999942, -8.351672299999969 ], [ -34.939743099999937, -8.351908599999939 ], [ -34.939850399999948, -8.352060799999952 ], [ -34.939915, -8.352263599999972 ], [ -34.939925899999942, -8.352277 ], [ -34.940032799999983, -8.352490299999939 ], [ -34.94014, -8.352642499999929 ], [ -34.940277, -8.352748899999934 ], [ -34.940378199999941, -8.352900399999966 ], [ -34.940451399999972, -8.353036399999962 ], [ -34.94068829999997, -8.353135 ], [ -34.94069989999997, -8.353142399999982 ], [ -34.940973799999938, -8.35318369999993 ], [ -34.94118079999997, -8.353101499999987 ], [ -34.941411499999965, -8.353028099999969 ], [ -34.941533399999962, -8.353102199999979 ], [ -34.941519599999943, -8.353229299999935 ], [ -34.941445299999934, -8.35334389999997 ], [ -34.941425, -8.353360099999966 ], [ -34.94140119999998, -8.353522899999957 ], [ -34.941479199999939, -8.353659699999982 ], [ -34.941501699999939, -8.353680399999989 ], [ -34.941664199999941, -8.353722199999918 ], [ -34.941840899999931, -8.353747 ], [ -34.941904499999964, -8.353845599999939 ], [ -34.941943399999957, -8.354057899999917 ], [ -34.941941399999962, -8.354076 ], [ -34.941964799999937, -8.354317299999924 ], [ -34.942015899999944, -8.354530899999926 ], [ -34.942059099999938, -8.354616799999977 ], [ -34.942262699999965, -8.354736399999966 ], [ -34.942511399999944, -8.354726 ], [ -34.942524299999953, -8.354721299999945 ], [ -34.942744499999939, -8.354573299999968 ], [ -34.943007299999977, -8.354546099999945 ], [ -34.943090799999936, -8.354689599999972 ], [ -34.943089499999928, -8.354701699999973 ], [ -34.943039899999974, -8.354874 ], [ -34.943038499999943, -8.354886099999947 ], [ -34.942890199999965, -8.355170299999921 ], [ -34.942662299999938, -8.355617499999932 ], [ -34.94262619999995, -8.355778899999969 ], [ -34.942807499999958, -8.3559329 ], [ -34.943059199999944, -8.35618 ], [ -34.943004599999945, -8.356455799999921 ], [ -34.942878699999945, -8.35676079999997 ], [ -34.942944, -8.356957499999975 ], [ -34.942955599999955, -8.3569649 ], [ -34.9432298, -8.357232699999953 ], [ -34.943356399999971, -8.357409599999899 ], [ -34.943448799999949, -8.35809889999997 ], [ -34.943649099999952, -8.358420199999953 ], [ -34.943821499999963, -8.358542499999967 ], [ -34.943845299999971, -8.358551199999948 ], [ -34.943856199999978, -8.358564599999978 ], [ -34.944049199999938, -8.358554399999939 ], [ -34.944279399999971, -8.3585421 ], [ -34.944433499999938, -8.358662499999971 ], [ -34.944548399999974, -8.358687 ], [ -34.944684499999937, -8.358744299999959 ], [ -34.944863199999936, -8.358869099999952 ], [ -34.945037399999933, -8.358918199999966 ], [ -34.94526349999996, -8.358715599999906 ], [ -34.945492799999961, -8.358427599999963 ], [ -34.945962699999946, -8.358887699999981 ], [ -34.946124099999963, -8.358996699999961 ], [ -34.946205399999947, -8.359103299999978 ], [ -34.946384599999938, -8.359220299999956 ], [ -34.946623099999954, -8.359245599999957 ], [ -34.947191299999929, -8.359269399999956 ], [ -34.9476289, -8.358942299999962 ], [ -34.948124, -8.358713199999974 ], [ -34.948401499999939, -8.358856699999926 ], [ -34.948659799999973, -8.358871799999974 ], [ -34.949042799999972, -8.358820599999943 ], [ -34.949273299999959, -8.358692 ], [ -34.949637099999954, -8.358418399999957 ], [ -34.949892499999983, -8.35805969999994 ], [ -34.950111199999981, -8.357868699999941 ], [ -34.950341399999964, -8.357684899999986 ], [ -34.950880699999978, -8.357619699999933 ], [ -34.951695599999937, -8.356868899999961 ], [ -34.952102599999932, -8.356367199999962 ], [ -34.952589099999948, -8.355874 ], [ -34.953438499999947, -8.355572299999956 ], [ -34.954222299999969, -8.355311 ], [ -34.954258399999958, -8.355325499999955 ], [ -34.954989799999964, -8.355620199999963 ], [ -34.95523, -8.355855099999921 ], [ -34.955605799999944, -8.35622279999996 ], [ -34.955615099999939, -8.35624059999998 ], [ -34.956302699999988, -8.357551799999962 ], [ -34.956460499999935, -8.357852699999945 ], [ -34.957022799999947, -8.359205799999929 ], [ -34.957502199999972, -8.361286199999954 ], [ -34.957684099999945, -8.36257019999991 ], [ -34.958018599999953, -8.363789799999939 ], [ -34.958130099999956, -8.364196499999922 ], [ -34.958134, -8.364066 ], [ -34.958406199999956, -8.364023599999941 ], [ -34.958499, -8.364347899999931 ], [ -34.95856629999998, -8.364444899999953 ], [ -34.958701499999968, -8.364466499999931 ], [ -34.958755799999956, -8.364565299999963 ], [ -34.958879299999978, -8.364580099999971 ], [ -34.959081799999986, -8.364496099999952 ], [ -34.959081799999979, -8.364649199999963 ], [ -34.959195299999976, -8.364619599999976 ], [ -34.959304, -8.364451699999952 ], [ -34.959412599999951, -8.364392399999936 ], [ -34.959491599999978, -8.364387499999966 ], [ -34.959644699999956, -8.364466499999939 ], [ -34.959763199999948, -8.364412199999947 ], [ -34.959970599999963, -8.363903599999952 ], [ -34.960092199999963, -8.36389669999995 ], [ -34.96023229999998, -8.363888799999952 ], [ -34.960316299999931, -8.363864099999969 ], [ -34.960323399999943, -8.363723299999936 ], [ -34.960331099999969, -8.3635727 ], [ -34.960405099999946, -8.363518399999981 ], [ -34.960483899999929, -8.363492199999953 ], [ -34.960612499999968, -8.363449299999951 ], [ -34.96084959999996, -8.363434499999919 ], [ -34.961116199999928, -8.363281399999961 ], [ -34.961343399999983, -8.363271499999932 ], [ -34.96135819999995, -8.3630937 ], [ -34.961165599999966, -8.363054199999951 ], [ -34.961155699999956, -8.3629999 ], [ -34.961239699999972, -8.362955499999954 ], [ -34.961274199999934, -8.362876499999988 ], [ -34.961333499999967, -8.362659199999959 ], [ -34.961921099999984, -8.36217029999996 ], [ -34.962197599999975, -8.362037 ], [ -34.962276599999939, -8.361928399999933 ], [ -34.962276599999939, -8.361814799999941 ], [ -34.962458099999935, -8.361595099999954 ], [ -34.962581599999965, -8.361367899999948 ], [ -34.962680299999931, -8.36122969999996 ], [ -34.962764299999947, -8.361145699999961 ], [ -34.962892699999941, -8.361175299999942 ], [ -34.963001299999981, -8.361071599999926 ], [ -34.962734599999976, -8.360819799999941 ], [ -34.962542099999951, -8.360651899999944 ], [ -34.96243839999994, -8.360721 ], [ -34.962437899999934, -8.360726099999956 ], [ -34.962433599999933, -8.360728 ], [ -34.96243469999996, -8.360728499999942 ], [ -34.962294899999968, -8.360859 ], [ -34.962321199999963, -8.361059299999967 ], [ -34.962026099999953, -8.361180499999948 ], [ -34.961873199999957, -8.361143599999945 ], [ -34.961483199999968, -8.361206899999956 ], [ -34.961427799999967, -8.3611726 ], [ -34.961201199999948, -8.360940699999949 ], [ -34.961027299999955, -8.36048739999995 ], [ -34.961085199999964, -8.360231799999971 ] ] ], [ [ [ -35.062623199999969, -8.303982 ], [ -35.062996, -8.30417 ], [ -35.063422199999934, -8.304502399999951 ], [ -35.063860099999943, -8.304988599999962 ], [ -35.06403, -8.305247899999951 ], [ -35.063949599999951, -8.30477739999996 ], [ -35.06406439999995, -8.304490599999943 ], [ -35.063949599999951, -8.304398799999955 ], [ -35.063720199999977, -8.304398799999936 ], [ -35.063697199999979, -8.304215199999916 ], [ -35.063834899999968, -8.303859499999952 ], [ -35.064787299999971, -8.303343099999957 ], [ -35.065085599999975, -8.302608799999989 ], [ -35.065002599999957, -8.302245799999989 ], [ -35.065526, -8.301525 ], [ -35.066948, -8.299566 ], [ -35.067517, -8.298793 ], [ -35.06727, -8.298545 ], [ -35.0671, -8.298413 ], [ -35.066538, -8.298202 ], [ -35.065994599999954, -8.298055099999955 ], [ -35.064332499999978, -8.297605699999956 ], [ -35.064084, -8.297486 ], [ -35.063783, -8.297276 ], [ -35.063602, -8.297179 ], [ -35.06331, -8.297072 ], [ -35.063012, -8.296992 ], [ -35.062828499999974, -8.296949399999969 ], [ -35.063032699999958, -8.296334 ], [ -35.062946699999948, -8.296127 ], [ -35.063047499999982, -8.295913299999954 ], [ -35.063047499999982, -8.295816899999966 ], [ -35.063126699999948, -8.295761899999921 ], [ -35.063216199999943, -8.295610399999941 ], [ -35.063446799999952, -8.295403799999981 ], [ -35.063577699999932, -8.29538659999996 ], [ -35.06377729999997, -8.29539 ], [ -35.06393909999997, -8.295314299999973 ], [ -35.064021799999985, -8.295159399999923 ], [ -35.064094099999984, -8.29497 ], [ -35.064231799999959, -8.294963199999911 ], [ -35.064321299999968, -8.295094 ], [ -35.064462399999968, -8.295145599999946 ], [ -35.064521, -8.295083699999966 ], [ -35.064562299999984, -8.294859899999947 ], [ -35.064610499999965, -8.29476 ], [ -35.0647034, -8.294739399999942 ], [ -35.064944399999952, -8.294835799999943 ], [ -35.065147499999966, -8.294715299999964 ], [ -35.065151, -8.29456719999998 ], [ -35.064968499999971, -8.29443989999992 ], [ -35.064796399999985, -8.294402 ], [ -35.06405959999995, -8.29434 ], [ -35.063959799999957, -8.294477699999964 ], [ -35.063629299999945, -8.29453629999996 ], [ -35.063501899999949, -8.294601699999921 ], [ -35.063326299999964, -8.294763499999947 ], [ -35.063192099999966, -8.294815099999955 ], [ -35.062992399999985, -8.295059599999956 ], [ -35.062758299999985, -8.2951904 ], [ -35.062854699999953, -8.295059599999936 ], [ -35.062971799999957, -8.294732499999943 ], [ -35.063185, -8.29429 ], [ -35.063314, -8.29435 ], [ -35.066035, -8.293933 ], [ -35.06584, -8.293442 ], [ -35.065855, -8.293177 ], [ -35.065531, -8.292942 ], [ -35.065664, -8.292751 ], [ -35.06612, -8.292648 ], [ -35.066428, -8.292236 ], [ -35.068348, -8.291402 ], [ -35.068437, -8.290444 ], [ -35.068087399999968, -8.290661799999958 ], [ -35.06618, -8.291206499999918 ], [ -35.064242299999933, -8.289940599999975 ], [ -35.065125499999972, -8.288934399999972 ], [ -35.06660839999995, -8.287245199999967 ], [ -35.066806399999962, -8.286986799999944 ], [ -35.06702729999995, -8.286492099999972 ], [ -35.066374099999969, -8.286607399999976 ], [ -35.0652439, -8.286607399999987 ], [ -35.064963899999952, -8.286387399999942 ], [ -35.06489, -8.28587 ], [ -35.064961, -8.283873 ], [ -35.066241799999936, -8.282260599999972 ], [ -35.066309899999972, -8.282150699999926 ], [ -35.066726099999983, -8.280769199999941 ], [ -35.065783899999929, -8.27869309999994 ], [ -35.065639099999949, -8.278088399999943 ], [ -35.065639449999942, -8.277907249999966 ], [ -35.065818499999985, -8.27807 ], [ -35.065987399999983, -8.278038699999955 ], [ -35.06615149999994, -8.278337499999944 ], [ -35.066198399999962, -8.278517 ], [ -35.066258899999973, -8.278668099999955 ], [ -35.067031, -8.27817879999996 ], [ -35.067112599999973, -8.278227699999963 ], [ -35.067259399999962, -8.278238599999954 ], [ -35.067188699999981, -8.2785105 ], [ -35.067210499999931, -8.278711599999955 ], [ -35.067346399999963, -8.278874799999938 ], [ -35.067466, -8.27907049999995 ], [ -35.06766719999996, -8.279429399999955 ], [ -35.067917299999984, -8.27975559999993 ], [ -35.068341399999952, -8.279037899999935 ], [ -35.068839399999952, -8.27914939999993 ], [ -35.068748799999987, -8.278909799999949 ], [ -35.06872319999998, -8.278716599999928 ], [ -35.06858439999997, -8.278475599999981 ], [ -35.068391, -8.278225 ], [ -35.067981, -8.27777 ], [ -35.067901, -8.27764 ], [ -35.067861, -8.27751 ], [ -35.067769, -8.277352 ], [ -35.067727899999966, -8.277187199999975 ], [ -35.067636899999968, -8.27700909999991 ], [ -35.067545799999948, -8.276799299999947 ], [ -35.067463699999962, -8.276591199999931 ], [ -35.067362799999962, -8.276414899999951 ], [ -35.067269, -8.27628 ], [ -35.067178, -8.276032 ], [ -35.067146, -8.275855 ], [ -35.067106, -8.275807 ], [ -35.066783, -8.275194 ], [ -35.065637099999954, -8.274100799999932 ], [ -35.065221599999973, -8.274687899999931 ], [ -35.064144699999929, -8.275230399999945 ], [ -35.063377899999985, -8.275226299999904 ], [ -35.062311299999976, -8.275989099999968 ], [ -35.062146899999959, -8.276011 ], [ -35.061973799999976, -8.2762347 ], [ -35.062674699999945, -8.276831599999987 ], [ -35.062747799999947, -8.277343299999945 ], [ -35.062364, -8.277791 ], [ -35.062290899999944, -8.278202199999955 ], [ -35.062665499999987, -8.278723 ], [ -35.062969799999969, -8.279007299999929 ], [ -35.062457399999971, -8.279564899999974 ], [ -35.062190499999929, -8.279877599999976 ], [ -35.061762, -8.280382 ], [ -35.061406699999964, -8.280832799999949 ], [ -35.059753399999977, -8.279497899999978 ], [ -35.059276399999938, -8.279895299999954 ], [ -35.058546799999931, -8.28056189999996 ], [ -35.057861899999978, -8.281100899999974 ], [ -35.057184899999989, -8.281762299999958 ], [ -35.057054799999953, -8.28181209999998 ], [ -35.056680899999947, -8.282457099999926 ], [ -35.05626029999997, -8.282784299999953 ], [ -35.05581159999997, -8.283036599999953 ], [ -35.055213399999964, -8.283345099999979 ], [ -35.054577799999947, -8.283504 ], [ -35.053839299999943, -8.283457299999968 ], [ -35.053231799999942, -8.282952499999947 ], [ -35.052823799999942, -8.282444399999985 ], [ -35.052736399999965, -8.282335599999971 ], [ -35.052498, -8.282055199999951 ], [ -35.051993299999943, -8.2816673 ], [ -35.051353, -8.281485 ], [ -35.050432899999983, -8.281540799999961 ], [ -35.050233299999945, -8.28162019999996 ], [ -35.05006659999998, -8.281726399999974 ], [ -35.049959899999976, -8.281783499999989 ], [ -35.049695099999958, -8.281966599999977 ], [ -35.049277199999949, -8.282255499999954 ], [ -35.048897799999963, -8.282528899999946 ], [ -35.0483048, -8.2820953 ], [ -35.050023899999928, -8.28084069999993 ], [ -35.050996099999963, -8.280223899999962 ], [ -35.051189499999957, -8.279554799999971 ], [ -35.050201599999987, -8.27895889999996 ], [ -35.049605699999972, -8.278885799999967 ], [ -35.049302499999953, -8.278802099999963 ], [ -35.049177099999952, -8.27864529999994 ], [ -35.049179799999926, -8.278442499999931 ], [ -35.049628399999953, -8.277302099999947 ], [ -35.04717009999996, -8.2766104 ], [ -35.047039199999972, -8.276302 ], [ -35.047114, -8.2760216 ], [ -35.047263599999951, -8.27581589999993 ], [ -35.047329, -8.275610299999929 ], [ -35.047086, -8.275414 ], [ -35.046487799999973, -8.275283099999946 ], [ -35.046011, -8.275329899999972 ], [ -35.045403499999964, -8.274918599999989 ], [ -35.044394, -8.274058599999938 ], [ -35.044122899999927, -8.273666099999952 ], [ -35.044085499999944, -8.273451099999946 ], [ -35.043889199999967, -8.273189299999938 ], [ -35.043506, -8.2730491 ], [ -35.042982599999966, -8.274311 ], [ -35.042010399999981, -8.274011899999925 ], [ -35.041038299999968, -8.273067799999966 ], [ -35.039617599999936, -8.27155359999994 ], [ -35.039324, -8.271147799999927 ], [ -35.038371599999948, -8.271761899999952 ], [ -35.038313599999988, -8.271727799999935 ], [ -35.0382537, -8.271675199999942 ], [ -35.038146899999965, -8.271573 ], [ -35.038040499999973, -8.271553199999982 ], [ -35.037988399999968, -8.271543599999971 ], [ -35.037908, -8.271483699999989 ], [ -35.037791499999969, -8.271456099999977 ], [ -35.037631699999963, -8.271418699999963 ], [ -35.037595, -8.271407799999958 ], [ -35.037509899999975, -8.271378199999971 ], [ -35.037416, -8.271345499999953 ], [ -35.037334699999974, -8.271283899999965 ], [ -35.037289, -8.271245899999927 ], [ -35.037236899999989, -8.271213099999958 ], [ -35.037221399999972, -8.271195699999968 ], [ -35.037175399999974, -8.271144899999982 ], [ -35.037024799999976, -8.270967899999961 ], [ -35.036957099999945, -8.270905 ], [ -35.036816799999947, -8.270775799999949 ], [ -35.036695199999954, -8.270562799999929 ], [ -35.036616699999961, -8.270424 ], [ -35.03652, -8.270397599999969 ], [ -35.036345599999947, -8.270387899999951 ], [ -35.036217299999983, -8.270396899999986 ], [ -35.036130299999968, -8.270421699999945 ], [ -35.036050499999938, -8.270725899999954 ], [ -35.035999, -8.270886 ], [ -35.035975799999953, -8.271022299999952 ], [ -35.035915399999965, -8.271123799999945 ], [ -35.035796799999957, -8.271191399999946 ], [ -35.035684599999968, -8.271206199999925 ], [ -35.035548699999936, -8.271229399999989 ], [ -35.035498499999974, -8.271224899999936 ], [ -35.035462499999937, -8.271221599999931 ], [ -35.035371699999985, -8.271218399999951 ], [ -35.035346, -8.271221599999924 ], [ -35.035351099999957, -8.271018599999916 ], [ -35.035380699999969, -8.270891199999953 ], [ -35.035378099999946, -8.270675299999938 ], [ -35.035342099999987, -8.270437499999947 ], [ -35.035315099999941, -8.270205799999953 ], [ -35.035293199999948, -8.2701327 ], [ -35.035217299999942, -8.269884699999961 ], [ -35.035116899999942, -8.269660699999985 ], [ -35.035075399999982, -8.2696018 ], [ -35.035052199999932, -8.269545199999945 ], [ -35.03501609999995, -8.269405199999962 ], [ -35.035107499999981, -8.269239199999959 ], [ -35.035132, -8.269138799999947 ], [ -35.035135799999985, -8.269065399999944 ], [ -35.035107499999988, -8.269012599999963 ], [ -35.035068899999949, -8.268922499999965 ], [ -35.035332799999942, -8.268727799999972 ], [ -35.034639799999979, -8.268063299999929 ], [ -35.034616799999988, -8.2677586 ], [ -35.034485899999929, -8.267534299999971 ], [ -35.034252299999935, -8.267151099999985 ], [ -35.034074699999969, -8.266833199999949 ], [ -35.033700799999963, -8.266571499999943 ], [ -35.033364299999946, -8.26621629999995 ], [ -35.033336199999951, -8.265917199999942 ], [ -35.033224099999984, -8.265356399999952 ], [ -35.033136499999955, -8.265165599999953 ], [ -35.033132799999983, -8.265157499999944 ], [ -35.032949699999961, -8.264758299999951 ], [ -35.033298, -8.264687799999955 ], [ -35.033619299999934, -8.264499499999957 ], [ -35.034605399999982, -8.264288099999918 ], [ -35.035373, -8.264264899999933 ], [ -35.035542599999928, -8.264745499999933 ], [ -35.035985499999981, -8.265107699999911 ], [ -35.036422099999989, -8.265223599999944 ], [ -35.036757399999949, -8.265181599999947 ], [ -35.036844599999931, -8.264817399999989 ], [ -35.037000499999984, -8.264812199999957 ], [ -35.037271399999945, -8.265076 ], [ -35.037556899999977, -8.2650108 ], [ -35.037829799999955, -8.265079199999931 ], [ -35.038736699999959, -8.265063399999962 ], [ -35.038879, -8.264997399999961 ], [ -35.038970199999937, -8.264874199999937 ], [ -35.039171199999956, -8.264808 ], [ -35.039362799999942, -8.264821199999968 ], [ -35.039818599999933, -8.264944899999914 ], [ -35.040229299999964, -8.265290299999942 ], [ -35.040498699999951, -8.265303 ], [ -35.040763099999928, -8.265315499999938 ], [ -35.041068899999971, -8.265366 ], [ -35.041563599999954, -8.265296399999965 ], [ -35.041968, -8.265268 ], [ -35.042608799999989, -8.265076 ], [ -35.042957, -8.265032899999932 ], [ -35.043248699999943, -8.26514629999995 ], [ -35.043491399999937, -8.265317899999962 ], [ -35.043583399999932, -8.265923099999945 ], [ -35.04453859999996, -8.264923499999959 ], [ -35.044937399999981, -8.264746099999977 ], [ -35.045267499999966, -8.264854799999968 ], [ -35.045576499999989, -8.264877599999977 ], [ -35.045884699999938, -8.264783199999938 ], [ -35.046442099999986, -8.264665199999952 ], [ -35.046735, -8.264506199999962 ], [ -35.047085799999941, -8.26449229999996 ], [ -35.047851499999972, -8.264682 ], [ -35.048447299999971, -8.264378 ], [ -35.049062699999986, -8.26418789999998 ], [ -35.04895659999994, -8.263830099999966 ], [ -35.049259799999959, -8.263674199999967 ], [ -35.049657399999944, -8.263798899999935 ], [ -35.049233399999927, -8.2633418 ], [ -35.048669399999937, -8.262743599999958 ], [ -35.048130899999933, -8.262132799999971 ], [ -35.047557499999982, -8.261488 ], [ -35.046946199999979, -8.2608021 ], [ -35.046020099999964, -8.259814299999965 ], [ -35.045443599999942, -8.259364199999938 ], [ -35.045022599999982, -8.259070799999975 ], [ -35.044482399999936, -8.258771199999984 ], [ -35.043714499999972, -8.258406499999975 ], [ -35.042970799999978, -8.258131 ], [ -35.042311799999943, -8.257900599999953 ], [ -35.041557099999977, -8.257641299999937 ], [ -35.040808499999962, -8.257379499999974 ], [ -35.039851299999953, -8.257027899999985 ], [ -35.039084099999975, -8.256761099999949 ], [ -35.038271799999961, -8.256449399999953 ], [ -35.037564499999974, -8.256213399999963 ], [ -35.037048, -8.256056 ], [ -35.036680599999961, -8.255938699999945 ], [ -35.035919799999931, -8.255677699999978 ], [ -35.035051399999936, -8.255373 ], [ -35.034252, -8.25510619999995 ], [ -35.033581099999942, -8.254875899999918 ], [ -35.033099499999935, -8.2546829 ], [ -35.032086299999953, -8.2542592 ], [ -35.031574699999965, -8.254051299999956 ], [ -35.031250099999966, -8.253873599999952 ], [ -35.030781499999939, -8.253664899999919 ], [ -35.028249, -8.252512599999939 ], [ -35.027410199999956, -8.252124099999939 ], [ -35.02683339999993, -8.251869599999985 ], [ -35.026385299999959, -8.251667899999958 ], [ -35.026379499999962, -8.251665199999925 ], [ -35.025211099999979, -8.251381899999972 ], [ -35.024262599999929, -8.251259 ], [ -35.02303569999998, -8.251296099999919 ], [ -35.021855399999929, -8.251355599999972 ], [ -35.020923, -8.251414099999959 ], [ -35.019404099999981, -8.251487799999932 ], [ -35.017829599999978, -8.251525499999939 ], [ -35.016902899999941, -8.251473699999954 ], [ -35.015772399999953, -8.251255899999917 ], [ -35.014342, -8.250882 ], [ -35.013430799999988, -8.250611799999934 ], [ -35.013364, -8.250593599999942 ], [ -35.013169699999928, -8.250540799999973 ], [ -35.013067, -8.250518 ], [ -35.011267, -8.250012 ], [ -35.008805, -8.24929 ], [ -35.00787, -8.248925 ], [ -35.008231199999969, -8.248245799999935 ], [ -35.00831479999993, -8.247702199999917 ], [ -35.008210299999973, -8.247305 ], [ -35.007645699999955, -8.246583599999953 ], [ -35.007112599999964, -8.246123599999988 ], [ -35.006046199999957, -8.245161799999947 ], [ -35.00480779999998, -8.243222 ], [ -35.00425, -8.241575 ], [ -35.003955, -8.24074 ], [ -35.00357, -8.2399 ], [ -35.003175, -8.239265 ], [ -35.00283, -8.23873 ], [ -35.002125, -8.23774 ], [ -35.00184, -8.237345 ], [ -35.001709, -8.23717 ], [ -35.00132, -8.236645 ], [ -35.0007, -8.23577 ], [ -35.000021, -8.234895 ], [ -34.999511, -8.234261 ], [ -34.997535, -8.231805 ], [ -34.99724, -8.231365 ], [ -34.997025, -8.230975 ], [ -34.9966, -8.231108 ], [ -34.996343, -8.23125149999991 ], [ -34.995811499999938, -8.232278399999922 ], [ -34.995448599999975, -8.23307509999996 ], [ -34.995193, -8.233796599999952 ], [ -34.995147599999946, -8.233931 ], [ -34.994368699999939, -8.234033399999936 ], [ -34.993983899999932, -8.234109 ], [ -34.993398099999986, -8.234058 ], [ -34.993035399999954, -8.234026499999954 ], [ -34.99293229999995, -8.233930299999932 ], [ -34.992355, -8.233036799999988 ], [ -34.991571499999971, -8.232253299999982 ], [ -34.991090399999962, -8.231875299999949 ], [ -34.990809, -8.231800099999912 ], [ -34.990575099999944, -8.2317581 ], [ -34.989324, -8.231489299999961 ], [ -34.98885539999997, -8.231583799999941 ], [ -34.988675899999976, -8.231600899999906 ], [ -34.988398299999979, -8.231596 ], [ -34.988036499999978, -8.23151959999994 ], [ -34.98760209999994, -8.231455399999939 ], [ -34.987378299999932, -8.231306199999946 ], [ -34.987193599999969, -8.2311357 ], [ -34.9868987, -8.231032699999965 ], [ -34.986767299999947, -8.230997199999933 ], [ -34.986575499999958, -8.230507 ], [ -34.986444099999972, -8.230354299999949 ], [ -34.986000099999956, -8.230166 ], [ -34.985939699999967, -8.23002389999994 ], [ -34.985786899999937, -8.229906699999972 ], [ -34.985205899999983, -8.22969149999993 ], [ -34.985104299999939, -8.229597799999961 ], [ -34.985113199999958, -8.229446699999915 ], [ -34.985159099999976, -8.229335599999954 ], [ -34.985169299999946, -8.229245299999922 ], [ -34.985091799999971, -8.229197699999926 ], [ -34.984788199999969, -8.229119799999985 ], [ -34.984624299999957, -8.2291342 ], [ -34.984494199999972, -8.229198 ], [ -34.98426029999996, -8.229272299999939 ], [ -34.983876099999982, -8.229266299999928 ], [ -34.98332239999997, -8.229187599999923 ], [ -34.983188899999966, -8.2290647 ], [ -34.982835199999954, -8.22926009999998 ], [ -34.982486799999954, -8.22940779999991 ], [ -34.982340399999941, -8.22949029999994 ], [ -34.981909099999939, -8.228936599999962 ], [ -34.981585, -8.228736899999959 ], [ -34.981352, -8.228597199999964 ], [ -34.980836099999969, -8.228509299999949 ], [ -34.980138299999965, -8.2284524 ], [ -34.979259099999979, -8.228607799999985 ], [ -34.978643, -8.2288121 ], [ -34.978289899999936, -8.229095699999966 ], [ -34.978129, -8.229408299999932 ], [ -34.978150599999935, -8.22989119999994 ], [ -34.978192699999973, -8.230434399999988 ], [ -34.977920499999982, -8.230717499999979 ], [ -34.977658, -8.230869699999989 ], [ -34.977334799999952, -8.230992099999984 ], [ -34.976981299999977, -8.231094499999912 ], [ -34.976718199999937, -8.231045499999954 ], [ -34.976272699999988, -8.230826399999966 ], [ -34.975967899999951, -8.230314699999971 ], [ -34.975714, -8.229943799999957 ], [ -34.97530839999996, -8.229533199999929 ], [ -34.974812, -8.22920369999995 ], [ -34.974042599999969, -8.228865399999957 ], [ -34.973282299999937, -8.228185 ], [ -34.971860299999946, -8.226724199999989 ], [ -34.971338499999952, -8.226188299999935 ], [ -34.970417099999956, -8.225241699999966 ], [ -34.970031099999979, -8.224777499999947 ], [ -34.969896499999948, -8.224511799999954 ], [ -34.969929299999933, -8.224278499999976 ], [ -34.970062199999973, -8.223994899999978 ], [ -34.970413099999973, -8.223826599999917 ], [ -34.970278499999942, -8.223560899999939 ], [ -34.970143, -8.222962299999955 ], [ -34.970108599999946, -8.222637699999934 ], [ -34.970090399999947, -8.222138399999924 ], [ -34.970238299999949, -8.221205299999932 ], [ -34.969931699999968, -8.2211619 ], [ -34.969129099999975, -8.222181199999982 ], [ -34.968414299999949, -8.2227157 ], [ -34.967930199999962, -8.223012699999959 ], [ -34.96763459999994, -8.223068699999946 ], [ -34.967413299999969, -8.2230719 ], [ -34.967136699999976, -8.22298519999994 ], [ -34.966854099999978, -8.222457 ], [ -34.96661279999995, -8.221373699999971 ], [ -34.966130199999952, -8.219492599999983 ], [ -34.965698499999981, -8.21783629999992 ], [ -34.965095, -8.218002399999946 ], [ -34.96509379999997, -8.217997799999978 ], [ -34.964492199999945, -8.215532799999957 ], [ -34.964486799999975, -8.215531299999958 ], [ -34.9640017, -8.215600099999957 ], [ -34.963903599999988, -8.215607099999918 ], [ -34.963656199999946, -8.215624599999964 ], [ -34.963408799999975, -8.215642099999966 ], [ -34.962789599999951, -8.215791099999908 ], [ -34.96272079999995, -8.215807699999983 ], [ -34.962717899999973, -8.215783599999943 ], [ -34.962673, -8.215635499999971 ], [ -34.962619099999984, -8.215551299999937 ], [ -34.962574599999982, -8.215481899999956 ], [ -34.962560499999945, -8.215459699999917 ], [ -34.962539199999981, -8.215467499999946 ], [ -34.96253269999994, -8.215469899999958 ], [ -34.961850899999945, -8.215719599999925 ], [ -34.961814799999956, -8.215732799999952 ], [ -34.961569899999965, -8.215822499999938 ], [ -34.960545799999984, -8.216030799999963 ], [ -34.960412699999949, -8.21604719999995 ], [ -34.960397099999966, -8.216049099999967 ], [ -34.960349599999979, -8.216055 ], [ -34.960327599999978, -8.2160577 ], [ -34.960315299999941, -8.216059199999977 ], [ -34.960310499999942, -8.216059799999934 ], [ -34.959960499999973, -8.216106499999961 ], [ -34.95991609999993, -8.216112399999938 ], [ -34.959888799999923, -8.216116 ], [ -34.95995319999998, -8.216500899999986 ], [ -34.959911199999965, -8.216510299999932 ], [ -34.959918199999954, -8.216531699999956 ], [ -34.959976899999951, -8.216711899999948 ], [ -34.96001959999996, -8.216877199999944 ], [ -34.960089799999928, -8.217032599999927 ], [ -34.960173499999939, -8.217357 ], [ -34.960194799999954, -8.21744119999993 ], [ -34.960194399999985, -8.217590299999936 ], [ -34.960224799999928, -8.217722499999953 ], [ -34.960225499999979, -8.217863899999939 ], [ -34.960236099999982, -8.21788789999993 ], [ -34.960262299999947, -8.217935 ], [ -34.960334699999983, -8.218207599999962 ], [ -34.960381899999959, -8.218413 ], [ -34.960401099999956, -8.218655499999972 ], [ -34.960392499999948, -8.218762099999958 ], [ -34.960389599999928, -8.2187633 ], [ -34.960348899999929, -8.218781499999979 ], [ -34.960338399999955, -8.218782299999944 ], [ -34.960214199999939, -8.2187926 ], [ -34.960078199999941, -8.218797399999966 ], [ -34.959992499999949, -8.219580899999929 ], [ -34.959919399999933, -8.220423899999949 ], [ -34.959422599999982, -8.221072099999933 ], [ -34.9590343, -8.221625699999965 ], [ -34.958964699999974, -8.221491299999972 ], [ -34.958811799999978, -8.221532099999934 ], [ -34.958780299999944, -8.221637 ], [ -34.958755299999957, -8.221711399999961 ], [ -34.958362499999971, -8.222898 ], [ -34.95832269999994, -8.223063399999965 ], [ -34.958061599999958, -8.224149099999979 ], [ -34.957366, -8.224774599999934 ], [ -34.95619929999998, -8.224835899999972 ], [ -34.955634799999984, -8.224919 ], [ -34.955739399999977, -8.22534469999996 ], [ -34.955818499999964, -8.2256664 ], [ -34.955921499999931, -8.226420399999958 ], [ -34.956414499999944, -8.228805399999938 ], [ -34.957048, -8.229755699999938 ], [ -34.958125, -8.231529499999965 ], [ -34.959173799999974, -8.232781499999934 ], [ -34.959307, -8.232501 ], [ -34.95941, -8.232363 ], [ -34.959513, -8.232225 ], [ -34.960087599999952, -8.232143 ], [ -34.96057, -8.23206 ], [ -34.961052, -8.232012 ], [ -34.96195, -8.232442 ], [ -34.962456, -8.232577 ], [ -34.96349, -8.232228 ], [ -34.963903, -8.231997 ], [ -34.964649799999961, -8.230540099999917 ], [ -34.964875, -8.23031779999995 ], [ -34.965414, -8.229931 ], [ -34.965735, -8.229884 ], [ -34.96599869999995, -8.230114599999956 ], [ -34.966311, -8.230283 ], [ -34.966524, -8.230493 ], [ -34.967267399999962, -8.231761699999934 ], [ -34.967554799999952, -8.232603799999929 ], [ -34.968430099999978, -8.232756899999975 ], [ -34.968950199999938, -8.232681599999982 ], [ -34.969376199999942, -8.232407799999972 ], [ -34.969617299999982, -8.232109099999951 ], [ -34.970001699999955, -8.230936 ], [ -34.97025529999997, -8.230311499999951 ], [ -34.970359099999939, -8.230055899999957 ], [ -34.970618899999977, -8.229734499999937 ], [ -34.971000699999934, -8.229497299999959 ], [ -34.971348599999949, -8.229200799999917 ], [ -34.971779, -8.228904 ], [ -34.971941399999942, -8.228726299999966 ], [ -34.973878, -8.230309 ], [ -34.976582, -8.23235 ], [ -34.976853299999966, -8.232551199999934 ], [ -34.977069099999937, -8.232711699999989 ], [ -34.977558199999976, -8.233298599999955 ], [ -34.976278499999978, -8.234242499999938 ], [ -34.976132499999949, -8.234106299999974 ], [ -34.975631699999958, -8.234521299999928 ], [ -34.975302599999964, -8.234703499999972 ], [ -34.975337499999959, -8.235067299999969 ], [ -34.976142099999947, -8.235976799999953 ], [ -34.976114099999961, -8.236459499999954 ], [ -34.976324, -8.236690399999917 ], [ -34.975988199999961, -8.237327 ], [ -34.976086099999968, -8.237921699999937 ], [ -34.974164599999938, -8.238323399999951 ], [ -34.9746957, -8.23930219999993 ], [ -34.974941, -8.239880399999945 ], [ -34.975275799999963, -8.240784899999955 ], [ -34.975586, -8.241781499999947 ], [ -34.9756503, -8.242004099999962 ], [ -34.975894499999974, -8.242843099999973 ], [ -34.976027699999975, -8.243242 ], [ -34.976138699999979, -8.243557899999933 ], [ -34.976393499999979, -8.244141199999929 ], [ -34.976621099999932, -8.244566099999929 ], [ -34.976831499999939, -8.24491 ], [ -34.977048, -8.245264 ], [ -34.977458399999932, -8.245751299999956 ], [ -34.977635699999951, -8.245938199999941 ], [ -34.978834699999929, -8.247050599999945 ], [ -34.980523799999965, -8.248515199999913 ], [ -34.980951599999969, -8.248930099999962 ], [ -34.98159279999993, -8.249629499999969 ], [ -34.982038, -8.250183 ], [ -34.982553, -8.250845 ], [ -34.982628499999976, -8.251004599999913 ], [ -34.982665, -8.251357099999947 ], [ -34.98277539999998, -8.251881 ], [ -34.982977199999944, -8.252149199999971 ], [ -34.983289199999945, -8.252703299999947 ], [ -34.983786, -8.253526699999979 ], [ -34.984514399999973, -8.25470209999998 ], [ -34.98508639999995, -8.255632799999949 ], [ -34.985777, -8.256735 ], [ -34.986392499999972, -8.257725099999936 ], [ -34.986908799999981, -8.2586 ], [ -34.988218599999982, -8.260819699999978 ], [ -34.988557499999956, -8.260573799999952 ], [ -34.988699599999968, -8.260165 ], [ -34.988859, -8.259511499999947 ], [ -34.988998199999976, -8.259168299999954 ], [ -34.990065099999988, -8.258769299999914 ], [ -34.991540199999974, -8.258351899999985 ], [ -34.993364099999951, -8.257962899999944 ], [ -34.994341099999922, -8.25724059999993 ], [ -34.995180199999936, -8.256698499999985 ], [ -34.996125499999955, -8.256727499999965 ], [ -34.997876699999949, -8.25802 ], [ -34.999566699999946, -8.258305099999987 ], [ -35.001298599999977, -8.260010399999926 ], [ -35.001756199999932, -8.260418899999927 ], [ -35.002428299999963, -8.260400899999963 ], [ -35.003263099999977, -8.260941 ], [ -35.003743199999974, -8.261253399999935 ], [ -35.005348799999972, -8.260936199999966 ], [ -35.00600529999997, -8.260885099999948 ], [ -35.006839599999978, -8.261790799999957 ], [ -35.007130699999948, -8.262139 ], [ -35.007216099999944, -8.262706199999956 ], [ -35.008267799999949, -8.263084799999961 ], [ -35.008395699999937, -8.263771599999908 ], [ -35.007944799999969, -8.264131099999926 ], [ -35.007329199999951, -8.264246299999977 ], [ -35.006765499999972, -8.264363699999945 ], [ -35.006422399999977, -8.264461099999934 ], [ -35.006373899999964, -8.264702499999935 ], [ -35.006634899999938, -8.265023299999946 ], [ -35.007386799999956, -8.265499599999945 ], [ -35.007497, -8.26596529999993 ], [ -35.007393799999939, -8.266658699999921 ], [ -35.007220299999965, -8.267291199999946 ], [ -35.007208199999972, -8.267631499999933 ], [ -35.007358, -8.268125699999914 ], [ -35.007558399999937, -8.268465899999965 ], [ -35.007883299999939, -8.268474399999942 ], [ -35.008269899999966, -8.268152299999924 ], [ -35.008635, -8.26799119999993 ], [ -35.009064499999965, -8.268195199999983 ], [ -35.009311499999974, -8.268474399999956 ], [ -35.009418899999957, -8.26900059999998 ], [ -35.009311499999967, -8.269440799999909 ], [ -35.009397399999962, -8.269945499999944 ], [ -35.009966499999962, -8.270772299999983 ], [ -35.01054639999996, -8.271889099999967 ], [ -35.010847, -8.272619299999976 ], [ -35.011061799999936, -8.273013899999958 ], [ -35.010476, -8.273495 ], [ -35.010469299999961, -8.27355979999993 ], [ -35.010353099999982, -8.273687499999923 ], [ -35.010071799999942, -8.27401889999995 ], [ -35.009625799999981, -8.274435699999977 ], [ -35.009607199999955, -8.274717799999953 ], [ -35.009392199999979, -8.274651599999984 ], [ -35.009303399999972, -8.274624299999985 ], [ -35.009435699999976, -8.275298099999944 ], [ -35.009362, -8.2765669 ], [ -35.009005199999933, -8.277320299999936 ], [ -35.008835199999965, -8.278300299999975 ], [ -35.009464, -8.280186599999977 ], [ -35.009720199999954, -8.280609899999957 ], [ -35.009051799999952, -8.282643799999979 ], [ -35.0090613, -8.283159399999933 ], [ -35.009557799999982, -8.283445899999952 ], [ -35.010063899999977, -8.285470299999922 ], [ -35.010426799999948, -8.287122199999962 ], [ -35.011677699999957, -8.288487699999974 ], [ -35.011611199999948, -8.289361899999957 ], [ -35.011899799999981, -8.289765299999923 ], [ -35.011969099999931, -8.289891199999934 ], [ -35.009699799999964, -8.28990019999997 ], [ -35.005500599999955, -8.289908399999941 ], [ -35.005749899999962, -8.290195099999947 ], [ -35.006352799999945, -8.290955499999932 ], [ -35.007169699999956, -8.291788299999942 ], [ -35.008366199999955, -8.291933199999974 ], [ -35.009204199999935, -8.291999099999936 ], [ -35.009262199999966, -8.292046499999953 ], [ -35.009409799999958, -8.292391799999981 ], [ -35.0094309, -8.292556499999922 ], [ -35.009573199999977, -8.292635499999962 ], [ -35.009615299999957, -8.292762 ], [ -35.009520499999951, -8.292817399999949 ], [ -35.009636399999984, -8.29309929999993 ], [ -35.009744499999954, -8.293065099999966 ], [ -35.009852499999965, -8.293368199999971 ], [ -35.009934199999975, -8.2940237 ], [ -35.009973799999962, -8.294400599999964 ], [ -35.010506199999945, -8.294442199999926 ], [ -35.0106426, -8.294564799999943 ], [ -35.01134959999996, -8.2937403 ], [ -35.011410799999972, -8.293793299999969 ], [ -35.011474899999939, -8.293818 ], [ -35.01167989999994, -8.293788399999928 ], [ -35.011898399999957, -8.293739 ], [ -35.011945299999987, -8.293723 ], [ -35.012002099999961, -8.29367479999997 ], [ -35.011965, -8.293618 ], [ -35.012196799999984, -8.293312499999947 ], [ -35.012293099999965, -8.293234699999985 ], [ -35.012640899999958, -8.292804799999967 ], [ -35.012686599999945, -8.292772699999958 ], [ -35.012790299999942, -8.292641799999965 ], [ -35.012948299999955, -8.29246779999993 ], [ -35.013024899999948, -8.292487499999945 ], [ -35.01309519999996, -8.292397399999986 ], [ -35.013169299999966, -8.292334499999972 ], [ -35.013473, -8.29234189999994 ], [ -35.013675399999954, -8.292302399999919 ], [ -35.013897699999973, -8.292295 ], [ -35.013926699999956, -8.292205799999984 ], [ -35.013941499999937, -8.292106399999989 ], [ -35.01385259999995, -8.291745899999961 ], [ -35.013781, -8.291617499999976 ], [ -35.013864899999938, -8.291526199999959 ], [ -35.013504499999961, -8.291141 ], [ -35.013423, -8.291200299999959 ], [ -35.013069899999955, -8.290800299999956 ], [ -35.013045799999936, -8.290773399999955 ], [ -35.0133125, -8.290393799999938 ], [ -35.013358799999935, -8.290362299999956 ], [ -35.014055, -8.290206799999957 ], [ -35.014303599999948, -8.290182299999953 ], [ -35.014449899999924, -8.290182299999975 ], [ -35.014537, -8.290208199999945 ], [ -35.014664699999976, -8.290289699999981 ], [ -35.014770299999945, -8.290391499999963 ], [ -35.014911, -8.290358199999963 ], [ -35.015144299999974, -8.290236 ], [ -35.015331399999972, -8.290228599999983 ], [ -35.015474, -8.290204499999938 ], [ -35.015549899999932, -8.290154499999968 ], [ -35.015744299999945, -8.289958199999955 ], [ -35.015827599999959, -8.289898899999971 ], [ -35.016063699999961, -8.289852199999954 ], [ -35.016243399999951, -8.289848499999952 ], [ -35.016374799999944, -8.28985959999995 ], [ -35.016485899999964, -8.289857699999976 ], [ -35.016774799999958, -8.289820699999959 ], [ -35.016850699999971, -8.289935499999974 ], [ -35.016948899999946, -8.290281799999939 ], [ -35.017080299999968, -8.290821599999958 ], [ -35.017269199999944, -8.291387299999949 ], [ -35.017439599999932, -8.292087199999981 ], [ -35.017287699999954, -8.292087199999965 ], [ -35.017165499999969, -8.292124299999962 ], [ -35.01703219999996, -8.292113199999958 ], [ -35.017061799999972, -8.292279799999958 ], [ -35.01701, -8.292383499999977 ], [ -35.016953199999939, -8.292467099999969 ], [ -35.016926499999954, -8.292482399999937 ], [ -35.016930399999978, -8.292490899999954 ], [ -35.017026599999951, -8.292553899999961 ], [ -35.01695629999994, -8.293031599999972 ], [ -35.016615599999973, -8.293342699999924 ], [ -35.016312799999987, -8.2936779 ], [ -35.015379499999931, -8.294585299999934 ], [ -35.014494399999933, -8.294044499999925 ], [ -35.014398899999954, -8.294118 ], [ -35.013730299999956, -8.29472589999996 ], [ -35.013699499999973, -8.294851499999922 ], [ -35.014386499999951, -8.295593799999926 ], [ -35.014608099999975, -8.295384199999953 ], [ -35.014879, -8.295675299999985 ], [ -35.01534479999998, -8.296109699999922 ], [ -35.014634199999932, -8.296759099999967 ], [ -35.01464, -8.296808299999954 ], [ -35.015200199999988, -8.297409199999958 ], [ -35.01499629999995, -8.29779449999997 ], [ -35.015365899999949, -8.298112199999924 ], [ -35.015794299999975, -8.297670299999961 ], [ -35.016090599999984, -8.297433199999961 ], [ -35.016442399999967, -8.297288799999921 ], [ -35.016698, -8.297255499999954 ], [ -35.016905399999985, -8.297255499999967 ], [ -35.017012799999982, -8.297188799999949 ], [ -35.017174299999972, -8.297188799999955 ], [ -35.016955699999976, -8.29763649999995 ], [ -35.01491, -8.301826 ], [ -35.014169899999949, -8.303621699999955 ], [ -35.012243, -8.308295 ], [ -35.010949, -8.310853099999964 ], [ -35.009857, -8.313012 ], [ -35.009332399999941, -8.315195199999948 ], [ -35.009249899999922, -8.315778499999976 ], [ -35.007643, -8.318404 ], [ -35.005538, -8.320248 ], [ -35.004496199999949, -8.320076399999948 ], [ -35.005193099999936, -8.324766499999953 ], [ -35.005320799999929, -8.325625899999965 ], [ -35.005746099999961, -8.327840699999953 ], [ -35.006065, -8.329501 ], [ -35.006592599999983, -8.332795499999964 ], [ -35.010012599999982, -8.340011799999944 ], [ -35.011012099999959, -8.34387039999997 ], [ -35.01223889999995, -8.347675 ], [ -35.012454, -8.348342 ], [ -35.012995, -8.348675 ], [ -35.013101, -8.348773 ], [ -35.013223599999947, -8.348978699999979 ], [ -35.013086399999963, -8.349080899999951 ], [ -35.013029, -8.349195699999944 ], [ -35.013082599999969, -8.350225099999923 ], [ -35.012715199999953, -8.350232699999923 ], [ -35.011816, -8.350286299999929 ], [ -35.011881, -8.350531199999981 ], [ -35.012076199999967, -8.350753199999918 ], [ -35.012397599999936, -8.351063099999974 ], [ -35.012500899999971, -8.351177899999906 ], [ -35.012810899999977, -8.352104 ], [ -35.013710199999927, -8.352253199999966 ], [ -35.014979499999981, -8.351323599999935 ], [ -35.015630299999941, -8.352475499999983 ], [ -35.016014299999938, -8.353627399999942 ], [ -35.015845099999979, -8.354089499999914 ], [ -35.015858099999939, -8.354916 ], [ -35.015546799999989, -8.356374299999974 ], [ -35.015325399999938, -8.356377199999933 ], [ -35.014758399999948, -8.356227499999926 ], [ -35.014356899999946, -8.356171799999963 ], [ -35.014096699999982, -8.356512399999927 ], [ -35.013002199999953, -8.357048099999915 ], [ -35.01255069999997, -8.356902699999967 ], [ -35.012076199999974, -8.356864399999926 ], [ -35.011453099999983, -8.357624499999943 ], [ -35.012246499999954, -8.357548799999975 ], [ -35.012929, -8.35889289999994 ], [ -35.014939699999957, -8.360413399999953 ], [ -35.016019199999967, -8.3602385 ], [ -35.017334399999989, -8.360892599999929 ], [ -35.017582799999957, -8.36150339999994 ], [ -35.019183799999951, -8.3619859 ], [ -35.020319199999953, -8.361857299999937 ], [ -35.021374599999945, -8.362942799999926 ], [ -35.023033799999951, -8.363497599999945 ], [ -35.023565399999939, -8.36351919999994 ], [ -35.024385399999979, -8.363552299999963 ], [ -35.023980699999981, -8.363005599999964 ], [ -35.022774099999936, -8.361806399999967 ], [ -35.021859199999938, -8.360888099999967 ], [ -35.021010599999954, -8.360018599999936 ], [ -35.019975299999942, -8.358929499999929 ], [ -35.019547, -8.358311599999972 ], [ -35.019141499999932, -8.357543299999975 ], [ -35.018992299999979, -8.357106199999984 ], [ -35.018744599999934, -8.356199899999966 ], [ -35.01874, -8.356115 ], [ -35.018742599999946, -8.356008899999956 ], [ -35.019884299999937, -8.354398699999946 ], [ -35.020292299999937, -8.353916299999975 ], [ -35.020655799999936, -8.353754799999923 ], [ -35.021315499999957, -8.353835499999954 ], [ -35.021759799999977, -8.353647 ], [ -35.021921299999981, -8.353054699999971 ], [ -35.021746299999961, -8.352448799999911 ], [ -35.021302, -8.35174869999998 ], [ -35.021140499999944, -8.351412199999976 ], [ -35.021732799999945, -8.351344799999955 ], [ -35.022069399999964, -8.351237099999915 ], [ -35.02224449999995, -8.350873599999954 ], [ -35.022136699999969, -8.350187 ], [ -35.021611699999937, -8.349985099999952 ], [ -35.021423199999958, -8.349217699999935 ], [ -35.020777, -8.348477199999937 ], [ -35.020373099999972, -8.347817499999948 ], [ -35.020090299999943, -8.346955799999934 ], [ -35.020265399999978, -8.346430799999935 ], [ -35.020090299999943, -8.345730699999923 ], [ -35.019750099999953, -8.34586459999997 ], [ -35.018190799999964, -8.346291099999974 ], [ -35.01719339999994, -8.343707299999929 ], [ -35.01744739999998, -8.343627899999943 ], [ -35.020726499999967, -8.342602 ], [ -35.019728099999952, -8.339712 ], [ -35.01907319999998, -8.338113499999956 ], [ -35.018501299999976, -8.336696 ], [ -35.018017899999961, -8.335523199999935 ], [ -35.017476599999952, -8.334356599999976 ], [ -35.016277799999955, -8.333473 ], [ -35.014671499999956, -8.332127299999971 ], [ -35.011949899999941, -8.329886199999969 ], [ -35.012508299999986, -8.329797399999967 ], [ -35.012891799999984, -8.329671299999953 ], [ -35.012969399999982, -8.32947749999993 ], [ -35.013327199999942, -8.329589199999933 ], [ -35.013442399999974, -8.329581099999936 ], [ -35.013298299999981, -8.329440699999967 ], [ -35.013444699999972, -8.329351699999977 ], [ -35.013727899999942, -8.328610199999959 ], [ -35.014158799999969, -8.327937199999951 ], [ -35.013776499999942, -8.328019499999941 ], [ -35.013568499999963, -8.328000599999948 ], [ -35.013171799999952, -8.327915399999936 ], [ -35.01263959999995, -8.3279694 ], [ -35.012192199999959, -8.327603199999965 ], [ -35.012104799999982, -8.327425299999945 ], [ -35.012978799999985, -8.327240099999939 ], [ -35.013168699999937, -8.327001199999932 ], [ -35.013173399999971, -8.326627 ], [ -35.013037399999973, -8.326109 ], [ -35.012975399999966, -8.325919299999928 ], [ -35.012934099999946, -8.325349699999935 ], [ -35.013223, -8.324928799999952 ], [ -35.01333029999995, -8.324648099999921 ], [ -35.013322099999982, -8.324301399999966 ], [ -35.01319, -8.323740099999968 ], [ -35.013247799999938, -8.323550199999943 ], [ -35.01333859999994, -8.323302599999964 ], [ -35.013140499999963, -8.323137499999973 ], [ -35.013148699999931, -8.322988899999917 ], [ -35.013346799999965, -8.321899299999904 ], [ -35.013891599999972, -8.321238899999948 ], [ -35.014106199999958, -8.320842699999973 ], [ -35.014601499999976, -8.320264899999945 ], [ -35.01560859999995, -8.319191799999926 ], [ -35.01650009999998, -8.318944099999964 ], [ -35.016764199999955, -8.3184654 ], [ -35.016780799999935, -8.317920599999985 ], [ -35.017094399999969, -8.317557399999931 ], [ -35.017639199999969, -8.317491299999972 ], [ -35.017998599999942, -8.317645399999963 ], [ -35.018925499999959, -8.320104299999985 ], [ -35.022108399999979, -8.319065 ], [ -35.02049059999996, -8.315826 ], [ -35.020487299999957, -8.315819799999943 ], [ -35.020495699999969, -8.31582009999995 ], [ -35.020857099999944, -8.315859699999987 ], [ -35.021475799999962, -8.315661699999978 ], [ -35.021931099999961, -8.315335 ], [ -35.022544899999964, -8.315186499999976 ], [ -35.023178399999956, -8.315295399999988 ], [ -35.023990099999942, -8.315483499999969 ], [ -35.024782099999982, -8.315443899999913 ], [ -35.02505919999993, -8.315325099999962 ], [ -35.025465099999963, -8.315216199999934 ], [ -35.025861099999936, -8.314948899999907 ], [ -35.025979899999982, -8.314671799999907 ], [ -35.026032399999963, -8.314424499999989 ], [ -35.025854599999946, -8.31440939999993 ], [ -35.025729799999958, -8.314387699999935 ], [ -35.025615799999969, -8.314298099999974 ], [ -35.025451499999981, -8.314133899999948 ], [ -35.025390499999965, -8.313973799999932 ], [ -35.025150599999968, -8.313518399999944 ], [ -35.024537499999937, -8.3128121 ], [ -35.022761399999979, -8.311180499999978 ], [ -35.02149419999995, -8.309162399999934 ], [ -35.020770199999959, -8.308290199999927 ], [ -35.021158899999932, -8.307954099999971 ], [ -35.02134209999997, -8.307931199999937 ], [ -35.021708499999939, -8.307679299999961 ], [ -35.022181499999931, -8.307015199999967 ], [ -35.023681099999983, -8.304909899999917 ], [ -35.024032899999952, -8.304416 ], [ -35.024307699999952, -8.304255699999935 ], [ -35.024548099999954, -8.304152699999955 ], [ -35.025303799999968, -8.30456489999996 ], [ -35.02641449999993, -8.304977099999983 ], [ -35.026473599999981, -8.304995599999913 ], [ -35.027582399999972, -8.305343499999925 ], [ -35.028668299999943, -8.30556709999996 ], [ -35.029666299999967, -8.305721299999949 ], [ -35.030193, -8.306225099999933 ], [ -35.030605199999968, -8.306809099999967 ], [ -35.03136929999993, -8.307424 ], [ -35.031445599999984, -8.30732639999996 ], [ -35.031540199999945, -8.307223 ], [ -35.031645899999951, -8.307230099999966 ], [ -35.031752, -8.307215499999918 ], [ -35.032313199999976, -8.307451499999946 ], [ -35.033177899999941, -8.307767599999973 ], [ -35.033713699999971, -8.307949899999915 ], [ -35.033865899999981, -8.308016399999927 ], [ -35.03420569999998, -8.308164899999968 ], [ -35.034559899999977, -8.30835509999998 ], [ -35.034599399999941, -8.308376299999949 ], [ -35.034967499999944, -8.308635099999943 ], [ -35.035167, -8.308779899999921 ], [ -35.035040199999969, -8.308903399999975 ], [ -35.035876499999979, -8.309490699999969 ], [ -35.03595259999998, -8.3096753 ], [ -35.036017099999981, -8.309812899999949 ], [ -35.036359799999964, -8.31022589999996 ], [ -35.036608799999961, -8.310559899999932 ], [ -35.03676989999996, -8.310781 ], [ -35.036828899999939, -8.310864799999939 ], [ -35.037386399999946, -8.312431099999987 ], [ -35.037556, -8.312452 ], [ -35.037846, -8.312452 ], [ -35.037997, -8.312452 ], [ -35.038112899999931, -8.312307899999965 ], [ -35.038821799999937, -8.31159309999993 ], [ -35.039308, -8.311476 ], [ -35.039573099999984, -8.311285599999975 ], [ -35.040053499999942, -8.3109517 ], [ -35.040125199999984, -8.310805199999947 ], [ -35.040324399999975, -8.309961599999928 ], [ -35.040670099999943, -8.309241 ], [ -35.040898499999976, -8.308618599999923 ], [ -35.041261799999972, -8.306907899999935 ], [ -35.04084, -8.306562299999962 ], [ -35.040342, -8.306480299999981 ], [ -35.039656599999951, -8.306591599999914 ], [ -35.03930539999994, -8.306633399999946 ], [ -35.039438099999984, -8.306133 ], [ -35.039562, -8.306049199999963 ], [ -35.039732399999934, -8.304783399999943 ], [ -35.039886399999943, -8.30362449999997 ], [ -35.040232499999945, -8.303519 ], [ -35.040293, -8.303450399999971 ], [ -35.040403, -8.30332 ], [ -35.040446, -8.303271 ], [ -35.040491, -8.303229 ], [ -35.040763, -8.302973 ], [ -35.040823, -8.302846 ], [ -35.040907, -8.302735 ], [ -35.041019, -8.302643 ], [ -35.041538299999949, -8.302060699999961 ], [ -35.041838399999968, -8.30166819999994 ], [ -35.042251499999971, -8.301246799999936 ], [ -35.042385099999933, -8.301088599999961 ], [ -35.042485799999952, -8.301014599999972 ], [ -35.042607099999934, -8.300994 ], [ -35.042775599999977, -8.300977599999973 ], [ -35.042886599999967, -8.300893299999935 ], [ -35.04291749999993, -8.30075969999996 ], [ -35.042899, -8.300597399999972 ], [ -35.042832899999944, -8.300528 ], [ -35.042945, -8.300453 ], [ -35.043047, -8.300346 ], [ -35.043139, -8.300249 ], [ -35.043284, -8.300137 ], [ -35.043459, -8.300007 ], [ -35.043551399999963, -8.299835599999938 ], [ -35.043547599999954, -8.299980699999955 ], [ -35.043533199999963, -8.300127199999951 ], [ -35.043532499999969, -8.300227 ], [ -35.043520399999977, -8.300353 ], [ -35.043527199999971, -8.300476799999942 ], [ -35.043553599999946, -8.300623099999951 ], [ -35.043577, -8.300807 ], [ -35.043577299999981, -8.300811699999951 ], [ -35.043791499999941, -8.300093799999971 ], [ -35.04444019999994, -8.299686399999912 ], [ -35.045356, -8.299078399999923 ], [ -35.045491, -8.298999199999974 ], [ -35.045611099999974, -8.299045399999972 ], [ -35.045700499999953, -8.299070499999962 ], [ -35.045921, -8.299162599999935 ], [ -35.0459992, -8.299224099999945 ], [ -35.046055, -8.299302199999953 ], [ -35.046130399999988, -8.299559099999936 ], [ -35.046183399999954, -8.299656799999989 ], [ -35.046256, -8.299718199999985 ], [ -35.046356499999952, -8.299726599999927 ], [ -35.046471, -8.299698599999928 ], [ -35.04661609999993, -8.299645599999989 ], [ -35.04690539999995, -8.2995759 ], [ -35.047008299999966, -8.299581399999951 ], [ -35.047134, -8.2996065 ], [ -35.047247, -8.299619099999957 ], [ -35.047474199999961, -8.299674699999978 ], [ -35.04760859999994, -8.299718199999985 ], [ -35.048108299999974, -8.29983119999997 ], [ -35.048449199999936, -8.2998871 ], [ -35.048618199999957, -8.299950399999936 ], [ -35.048775099999943, -8.2999806 ], [ -35.048898799999961, -8.29993229999997 ], [ -35.049300099999989, -8.299748299999965 ], [ -35.050081699999971, -8.299654699999945 ], [ -35.051285599999972, -8.299440499999957 ], [ -35.051804599999969, -8.299440499999957 ], [ -35.052237199999979, -8.299417199999953 ], [ -35.052180399999941, -8.2992 ], [ -35.05206069999997, -8.298563 ], [ -35.051984, -8.298161399999957 ], [ -35.053255, -8.298949399999955 ], [ -35.054737, -8.299637 ], [ -35.055583, -8.300047 ], [ -35.056036, -8.300271 ], [ -35.057532, -8.300645 ], [ -35.057615, -8.300665 ], [ -35.057802899999963, -8.300726 ], [ -35.058079899999939, -8.300816 ], [ -35.058381599999969, -8.300936199999972 ], [ -35.058673699999929, -8.301115599999962 ], [ -35.059046699999953, -8.30138659999996 ], [ -35.05977709999997, -8.301974399999969 ], [ -35.059901, -8.302072 ], [ -35.059889, -8.302189 ], [ -35.060041, -8.302389 ], [ -35.060526699999976, -8.302819299999955 ], [ -35.060800199999967, -8.303029399999961 ], [ -35.061085799999951, -8.303247199999923 ], [ -35.061273099999937, -8.303356 ], [ -35.061368699999946, -8.30341009999996 ], [ -35.061637, -8.303562 ], [ -35.062623199999969, -8.303982 ] ] ], [ [ [ -35.231414499999964, -8.215133899999973 ], [ -35.23109339999997, -8.2141359 ], [ -35.23062079999994, -8.21273469999994 ], [ -35.229475399999963, -8.209504299999928 ], [ -35.228925, -8.209053899999965 ], [ -35.228724, -8.209036 ], [ -35.228748, -8.209139 ], [ -35.228748, -8.209338 ], [ -35.228709, -8.209508 ], [ -35.228639, -8.209745 ], [ -35.228571, -8.210001 ], [ -35.228489, -8.210298 ], [ -35.228481, -8.210328 ], [ -35.228461, -8.21033 ], [ -35.228501499999936, -8.210667199999948 ], [ -35.227693399999964, -8.210671899999985 ], [ -35.225797399999969, -8.210477299999951 ], [ -35.223603899999951, -8.212570699999958 ], [ -35.223548299999948, -8.212815299999919 ], [ -35.222775499999955, -8.213354699999973 ], [ -35.222158299999933, -8.213755 ], [ -35.22240289999997, -8.214299899999977 ], [ -35.222375099999965, -8.214386099999951 ], [ -35.222386299999982, -8.214469499999963 ], [ -35.222572499999956, -8.214597399999933 ], [ -35.22258369999998, -8.214716899999935 ], [ -35.222530799999959, -8.214819799999917 ], [ -35.222364, -8.214922599999962 ], [ -35.222421, -8.215132 ], [ -35.223191099999951, -8.215692 ], [ -35.223599799999938, -8.215872699999986 ], [ -35.223897199999961, -8.215831 ], [ -35.224653399999966, -8.216036699999979 ], [ -35.224784099999965, -8.216161199999911 ], [ -35.224678399999959, -8.216300199999974 ], [ -35.224731199999944, -8.216372399999946 ], [ -35.224962, -8.216580899999929 ], [ -35.225098199999941, -8.217103599999989 ], [ -35.225237199999988, -8.216989599999978 ], [ -35.225392899999974, -8.216959 ], [ -35.225498499999958, -8.217078599999983 ], [ -35.22539009999997, -8.217662399999931 ], [ -35.227769899999942, -8.219163599999947 ], [ -35.228028399999978, -8.219525 ], [ -35.227825499999938, -8.219879199999973 ], [ -35.228463, -8.220092 ], [ -35.229017, -8.221009099999966 ], [ -35.229264299999954, -8.220968499999971 ], [ -35.230196899999953, -8.220654399999951 ], [ -35.230797299999949, -8.220487599999974 ], [ -35.231014199999954, -8.22032639999998 ], [ -35.231019799999949, -8.220020599999927 ], [ -35.230997499999944, -8.21943679999991 ], [ -35.231003099999967, -8.21894189999993 ], [ -35.23138119999993, -8.218764 ], [ -35.231595, -8.218800299999947 ], [ -35.231771799999933, -8.218744499999952 ], [ -35.232233199999939, -8.218652799999951 ], [ -35.231705, -8.216884699999959 ], [ -35.231219899999935, -8.216103499999956 ], [ -35.230888, -8.215839 ], [ -35.23104, -8.215733 ], [ -35.231135, -8.215592 ], [ -35.231210499999975, -8.215487799999956 ], [ -35.231346, -8.215359 ], [ -35.2314277, -8.215257699999924 ], [ -35.231414499999964, -8.215133899999973 ] ] ] ] } }
]
}
