{
"type": "FeatureCollection",
"name": "2608750",
"crs": { "type": "name", "properties": { "name": "urn:ogc:def:crs:OGC:1.3:CRS84" } },
"features": [
{ "type": "Feature", "properties": { "CD_MUN": "2608750", "NM_MUN": "Lagoa Grande" }, "geometry": { "type": "MultiPolygon", "coordinates": [ [ [ [ -40.122197699999958, -9.088388099999987 ], [ -40.124201199999952, -9.088965799999944 ], [ -40.124402099999948, -9.088991399999946 ], [ -40.124594599999966, -9.082043499999923 ], [ -40.124669299999944, -9.079973599999972 ], [ -40.124473899999941, -9.079962099999918 ], [ -40.124877099999935, -9.076309899999963 ], [ -40.12578689999998, -9.066067299999922 ], [ -40.125729899999953, -9.065932 ], [ -40.12627249999997, -9.060494399999936 ], [ -40.1265638, -9.057188899999963 ], [ -40.126719099999953, -9.055831 ], [ -40.126508099999967, -9.056427799999918 ], [ -40.126351299999953, -9.057157199999939 ], [ -40.126052899999934, -9.058293599999937 ], [ -40.125929399999961, -9.058718599999967 ], [ -40.125754499999978, -9.059508299999957 ], [ -40.125552599999942, -9.060288899999945 ], [ -40.125492799999961, -9.06042209999992 ], [ -40.125211499999978, -9.061523199999954 ], [ -40.12499449999995, -9.062439499999925 ], [ -40.124737299999936, -9.063223199999959 ], [ -40.12462069999998, -9.063741699999989 ], [ -40.124459899999977, -9.064344499999924 ], [ -40.124303199999936, -9.065075899999943 ], [ -40.124118299999964, -9.065698899999948 ], [ -40.123985699999928, -9.066289699999986 ], [ -40.123917399999982, -9.066514699999974 ], [ -40.123933499999964, -9.066711599999973 ], [ -40.123865199999962, -9.066920599999953 ], [ -40.123760699999941, -9.067197899999927 ], [ -40.123787599999957, -9.0673796 ], [ -40.123527, -9.067567599999958 ], [ -40.122577499999984, -9.06819449999994 ], [ -40.122222799999975, -9.068428899999944 ], [ -40.12200739999998, -9.068534099999971 ], [ -40.121875599999953, -9.068577599999955 ], [ -40.121847199999941, -9.06875679999996 ], [ -40.12158419999998, -9.069947499999939 ], [ -40.120103499999978, -9.075392499999957 ], [ -40.119787699999961, -9.076581799999945 ], [ -40.119317899999949, -9.078461799999944 ], [ -40.118380799999954, -9.081841 ], [ -40.117416599999963, -9.085790399999949 ], [ -40.117166899999965, -9.086742699999947 ], [ -40.119619, -9.087389 ], [ -40.121912, -9.088290799999962 ], [ -40.122197699999958, -9.088388099999987 ] ] ], [ [ [ -40.102308299999947, -9.063341 ], [ -40.102247099999943, -9.06330209999993 ], [ -40.101308399999937, -9.064630899999932 ], [ -40.104574699999951, -9.0667473 ], [ -40.10536419999994, -9.065664799999976 ], [ -40.106440199999959, -9.063939699999928 ], [ -40.103516599999978, -9.06216289999997 ], [ -40.102662099999975, -9.063604 ], [ -40.102308299999947, -9.063341 ] ] ], [ [ [ -40.279774, -9.000951199999966 ], [ -40.280122, -9.0009037 ], [ -40.280678499999965, -9.000946299999953 ], [ -40.281775899999964, -9.001041499999905 ], [ -40.283018699999957, -9.001206199999954 ], [ -40.28360379999998, -9.001224799999944 ], [ -40.283827799999983, -9.001195699999919 ], [ -40.284091499999938, -9.001007299999976 ], [ -40.284725699999967, -9.000498699999968 ], [ -40.28562409999995, -9.0001842 ], [ -40.286792099999957, -8.999495399999947 ], [ -40.287630599999943, -8.998641899999932 ], [ -40.288004899999983, -8.997923199999928 ], [ -40.288201099999988, -8.997089 ], [ -40.283294599999984, -8.995360699999944 ], [ -40.281869699999959, -8.9905363 ], [ -40.281748799999946, -8.990464499999968 ], [ -40.281411799999944, -8.99056089999994 ], [ -40.281225099999972, -8.990202699999953 ], [ -40.279697399999968, -8.987461099999974 ], [ -40.279192, -8.986535199999937 ], [ -40.278952099999977, -8.986106899999971 ], [ -40.278716699999961, -8.985730599999957 ], [ -40.278395099999962, -8.985166399999972 ], [ -40.277373, -8.983438499999979 ], [ -40.277103399999937, -8.98290919999995 ], [ -40.276706699999977, -8.982199699999953 ], [ -40.276268, -8.981473899999974 ], [ -40.276139699999938, -8.981266599999955 ], [ -40.275814499999967, -8.980677199999954 ], [ -40.269090199999944, -8.983712099999927 ], [ -40.269527199999963, -8.984769499999974 ], [ -40.269921, -8.985720799999964 ], [ -40.269921899999936, -8.985722699999963 ], [ -40.269251099999963, -8.985979799999928 ], [ -40.269067499999949, -8.986062099999952 ], [ -40.268529299999962, -8.98641039999997 ], [ -40.268518299999982, -8.986419599999961 ], [ -40.269192299999936, -8.987887399999988 ], [ -40.269187799999941, -8.987904699999962 ], [ -40.268032199999944, -8.988341599999954 ], [ -40.267288199999939, -8.9883733 ], [ -40.266955699999983, -8.988414499999971 ], [ -40.266569499999946, -8.988620299999976 ], [ -40.264014499999966, -8.987271499999979 ], [ -40.263897399999962, -8.987537699999967 ], [ -40.263255099999988, -8.988315899999989 ], [ -40.263988199999979, -8.988742699999923 ], [ -40.263229099999933, -8.990895199999965 ], [ -40.263665899999978, -8.991695 ], [ -40.26387509999995, -8.992295699999939 ], [ -40.263953, -8.992396 ], [ -40.264584799999966, -8.992875 ], [ -40.265087, -8.993879 ], [ -40.265470099999966, -8.994242 ], [ -40.26604279999998, -8.99459 ], [ -40.266455, -8.99507 ], [ -40.267058, -8.995622 ], [ -40.268530099999964, -8.997249 ], [ -40.268633, -8.997424 ], [ -40.268824899999977, -8.9977 ], [ -40.268927899999937, -8.99786 ], [ -40.269148899999948, -8.998064 ], [ -40.269398, -8.998209 ], [ -40.269731, -8.998303399999935 ], [ -40.269750799999947, -8.998309 ], [ -40.269971199999937, -8.998498 ], [ -40.270147899999984, -8.998702 ], [ -40.270296199999969, -8.999072 ], [ -40.270311, -8.999109 ], [ -40.270839, -9.000086699999931 ], [ -40.2710929, -9.000557 ], [ -40.271185099999975, -9.00144929999994 ], [ -40.271973799999948, -9.001790799999988 ], [ -40.272186499999968, -9.001882899999949 ], [ -40.272195199999935, -9.001886699999966 ], [ -40.272214, -9.001894799999965 ], [ -40.274797399999954, -9.004625299999942 ], [ -40.27514709999997, -9.00484129999996 ], [ -40.275910799999963, -9.003972299999919 ], [ -40.276452199999945, -9.003456199999947 ], [ -40.276588, -9.003632299999943 ], [ -40.277654, -9.001768199999947 ], [ -40.277612, -9.001283399999954 ], [ -40.278875199999973, -9.001128499999927 ], [ -40.279311199999938, -9.00103509999998 ], [ -40.279774, -9.000951199999966 ] ] ], [ [ [ -40.238342499999931, -8.636050599999969 ], [ -40.241714499999951, -8.639613099999949 ], [ -40.242164599999967, -8.639518 ], [ -40.242763899999943, -8.639186299999928 ], [ -40.242480499999942, -8.638211699999935 ], [ -40.242903699999943, -8.637865599999939 ], [ -40.242180699999949, -8.636826299999951 ], [ -40.242722899999926, -8.63648789999997 ], [ -40.243286899999923, -8.635580199999925 ], [ -40.243023299999955, -8.634948299999946 ], [ -40.241661399999941, -8.632394699999969 ], [ -40.241622799999959, -8.631588599999938 ], [ -40.240314299999959, -8.631155199999958 ], [ -40.23923659999997, -8.631532 ], [ -40.238114399999972, -8.632220899999952 ], [ -40.237611099999988, -8.63264239999995 ], [ -40.238430899999969, -8.634004199999938 ], [ -40.238214599999935, -8.635186699999986 ], [ -40.237758699999979, -8.635227399999957 ], [ -40.237699, -8.635453799999924 ], [ -40.237690399999956, -8.636013099999973 ], [ -40.238342499999931, -8.636050599999969 ] ] ] ] } }
]
}
