{
"type": "FeatureCollection",
"name": "2609204",
"crs": { "type": "name", "properties": { "name": "urn:ogc:def:crs:OGC:1.3:CRS84" } },
"features": [
{ "type": "Feature", "properties": { "CD_MUN": "2609204", "NM_MUN": "Maraial" }, "geometry": { "type": "MultiPolygon", "coordinates": [ [ [ [ -35.740732099999946, -8.89249 ], [ -35.740804299999979, -8.892938399999938 ], [ -35.740810699999948, -8.89317 ], [ -35.74080649999997, -8.893556799999935 ], [ -35.740825599999937, -8.893822499999926 ], [ -35.740953599999955, -8.893938 ], [ -35.742665299999949, -8.893915099999946 ], [ -35.742850799999921, -8.893820299999973 ], [ -35.743273699999982, -8.893541899999946 ], [ -35.743656299999941, -8.893318799999964 ], [ -35.743835599999954, -8.893221699999977 ], [ -35.744040899999966, -8.893110499999988 ], [ -35.744361799999979, -8.892898 ], [ -35.744571799999953, -8.892798499999989 ], [ -35.743898499999951, -8.892137199999986 ], [ -35.743671099999972, -8.891920499999975 ], [ -35.743604499999954, -8.891843599999962 ], [ -35.7434502, -8.891573099999942 ], [ -35.743420399999927, -8.891520899999927 ], [ -35.743479599999951, -8.891459099999963 ], [ -35.743866199999957, -8.891055199999943 ], [ -35.743809799999958, -8.890993899999964 ], [ -35.743416599999932, -8.890719799999955 ], [ -35.743327799999982, -8.890733299999955 ], [ -35.742679199999941, -8.890832399999958 ], [ -35.742120299999954, -8.890896099999946 ], [ -35.741871799999956, -8.8909088 ], [ -35.74153589999996, -8.89092589999998 ], [ -35.741283, -8.890953499999966 ], [ -35.740775099999951, -8.891047 ], [ -35.740587699999942, -8.891053 ], [ -35.74050729999994, -8.89105549999994 ], [ -35.740260799999938, -8.890991799999941 ], [ -35.740106899999944, -8.890948699999983 ], [ -35.740010099999942, -8.890921599999974 ], [ -35.739929299999972, -8.890979 ], [ -35.739888499999942, -8.891105899999973 ], [ -35.740058899999958, -8.891444299999936 ], [ -35.740250899999978, -8.891434799999958 ], [ -35.740266699999957, -8.891667599999932 ], [ -35.740417599999944, -8.891839699999933 ], [ -35.740506799999928, -8.892050099999928 ], [ -35.740732099999946, -8.89249 ] ] ], [ [ [ -35.815992399999971, -8.791216899999963 ], [ -35.81567519999993, -8.790704099999962 ], [ -35.815543099999964, -8.790291699999932 ], [ -35.815521899999958, -8.79003 ], [ -35.8155589, -8.789707599999922 ], [ -35.815558899999985, -8.78945379999992 ], [ -35.815511399999941, -8.78917359999998 ], [ -35.815400299999958, -8.788893399999964 ], [ -35.81521, -8.788576199999964 ], [ -35.814940399999955, -8.788200899999948 ], [ -35.814496399999946, -8.787793799999983 ], [ -35.815046099999961, -8.787360299999923 ], [ -35.815336899999984, -8.787809699999988 ], [ -35.815543099999957, -8.787717799999932 ], [ -35.815717499999948, -8.7875797 ], [ -35.815577399999938, -8.787043099999948 ], [ -35.815664699999957, -8.786866 ], [ -35.815960699999948, -8.786358499999945 ], [ -35.81614049999996, -8.785861599999956 ], [ -35.816383599999931, -8.785298599999962 ], [ -35.816605699999975, -8.785203399999949 ], [ -35.816785399999965, -8.785055399999976 ], [ -35.816965199999977, -8.784833399999972 ], [ -35.817261199999962, -8.784569099999938 ], [ -35.817818, -8.783633299999947 ], [ -35.818311499999936, -8.783372499999922 ], [ -35.818713199999941, -8.783330199999952 ], [ -35.819164299999954, -8.783386599999957 ], [ -35.819728199999922, -8.783436 ], [ -35.820031299999989, -8.783288 ], [ -35.820327399999933, -8.783027199999937 ], [ -35.820595199999957, -8.782759299999972 ], [ -35.820785499999943, -8.782392799999961 ], [ -35.820870099999979, -8.781899399999945 ], [ -35.820905399999965, -8.780828 ], [ -35.820956299999978, -8.780770399999959 ], [ -35.820867899999932, -8.780471799999933 ], [ -35.820457199999957, -8.778999899999986 ], [ -35.82044169999994, -8.778944299999976 ], [ -35.820429799999935, -8.778901499999984 ], [ -35.815953899999954, -8.776698499999934 ], [ -35.814268499999969, -8.776281199999987 ], [ -35.813308, -8.776689199999987 ], [ -35.812551399999954, -8.7768422 ], [ -35.811862899999937, -8.777199199999933 ], [ -35.811238099999969, -8.777547699999943 ], [ -35.811025599999944, -8.777709199999929 ], [ -35.810821599999947, -8.778185299999967 ], [ -35.810733199999966, -8.778088199999969 ], [ -35.81052179999994, -8.778024799999967 ], [ -35.81041079999995, -8.777961299999962 ], [ -35.810339399999982, -8.777956099999905 ], [ -35.810333199999945, -8.777956599999932 ], [ -35.810328799999979, -8.77796 ], [ -35.810244199999929, -8.778002299999963 ], [ -35.810207199999972, -8.778034 ], [ -35.810154399999924, -8.778102799999962 ], [ -35.810151699999942, -8.778221699999964 ], [ -35.809940299999944, -8.77820849999995 ], [ -35.809826599999944, -8.77819 ], [ -35.809763199999971, -8.778256099999952 ], [ -35.809673299999936, -8.778258099999947 ], [ -35.809543799999979, -8.778310899999953 ], [ -35.809562299999982, -8.77801419999996 ], [ -35.809591299999965, -8.777757799999961 ], [ -35.80971, -8.777338099999978 ], [ -35.809703699999943, -8.777334899999959 ], [ -35.809412899999984, -8.777229199999974 ], [ -35.809455199999945, -8.776843199999979 ], [ -35.809455199999945, -8.776552499999971 ], [ -35.809397099999956, -8.776124299999921 ], [ -35.809127499999931, -8.775944499999968 ], [ -35.80902169999996, -8.776066099999969 ], [ -35.808968899999968, -8.776404499999954 ], [ -35.80899, -8.777017699999918 ], [ -35.808794399999954, -8.777007099999935 ], [ -35.808545899999949, -8.777054699999949 ], [ -35.808387299999936, -8.777070599999954 ], [ -35.808223499999933, -8.777112899999947 ], [ -35.807604899999944, -8.777160399999939 ], [ -35.807504499999936, -8.776975399999978 ], [ -35.80725069999994, -8.777023 ], [ -35.807256, -8.777192199999964 ], [ -35.807076299999949, -8.77726089999995 ], [ -35.806854199999975, -8.777382499999954 ], [ -35.806632199999974, -8.777260899999941 ], [ -35.80632559999998, -8.777514599999952 ], [ -35.80616, -8.777421199999932 ], [ -35.806145899999933, -8.777527 ], [ -35.806089499999985, -8.777639799999974 ], [ -35.805871, -8.777851199999928 ], [ -35.805687699999964, -8.778267099999955 ], [ -35.805617199999979, -8.778563099999909 ], [ -35.805603099999978, -8.778809799999987 ], [ -35.805624299999977, -8.779035399999952 ], [ -35.805585499999957, -8.779222199999927 ], [ -35.805871, -8.779645099999923 ], [ -35.806156399999971, -8.779613399999942 ], [ -35.806491199999989, -8.779599299999962 ], [ -35.806494799999939, -8.779951699999987 ], [ -35.806480699999945, -8.780159699999974 ], [ -35.806639299999972, -8.780328799999941 ], [ -35.806378599999967, -8.780775399999907 ], [ -35.806157699999964, -8.780647599999979 ], [ -35.805867099999944, -8.780601 ], [ -35.805437, -8.780635899999961 ], [ -35.805071799999958, -8.7805822 ], [ -35.805052399999965, -8.780686499999963 ], [ -35.805137399999978, -8.780873599999966 ], [ -35.805213899999956, -8.781532399999945 ], [ -35.805320099999953, -8.781753399999948 ], [ -35.805715399999947, -8.782305899999912 ], [ -35.805898199999952, -8.782480199999963 ], [ -35.806229699999975, -8.782628899999947 ], [ -35.806361499999973, -8.782739399999985 ], [ -35.80665049999994, -8.783173 ], [ -35.806795, -8.78360649999998 ], [ -35.806986199999983, -8.783751 ], [ -35.807342499999947, -8.783856499999935 ], [ -35.807392799999953, -8.783871399999937 ], [ -35.807632299999966, -8.783942299999957 ], [ -35.808042699999937, -8.784064099999958 ], [ -35.808782199999939, -8.784210299999923 ], [ -35.808977899999945, -8.784212799999986 ], [ -35.809286699999973, -8.784122599999916 ], [ -35.80955229999995, -8.783905299999965 ], [ -35.810112699999934, -8.783993 ], [ -35.810049099999965, -8.784088299999947 ], [ -35.80990809999998, -8.784148 ], [ -35.809889, -8.784437699999968 ], [ -35.8100123, -8.784641 ], [ -35.810110199999947, -8.784966599999967 ], [ -35.81025469999998, -8.785213099999989 ], [ -35.810586199999932, -8.785434099999978 ], [ -35.810688199999959, -8.785765599999952 ], [ -35.810875199999948, -8.786080099999928 ], [ -35.810960199999954, -8.786182099999959 ], [ -35.81112179999996, -8.786258599999949 ], [ -35.811223799999929, -8.786105599999908 ], [ -35.812056799999944, -8.786526399999962 ], [ -35.812078099999958, -8.786645399999923 ], [ -35.812299099999969, -8.786734699999958 ], [ -35.812541299999971, -8.786964199999959 ], [ -35.812647599999941, -8.787266 ], [ -35.812685799999947, -8.787508199999941 ], [ -35.812558299999978, -8.787674 ], [ -35.81236709999996, -8.787844 ], [ -35.812235299999948, -8.788035299999931 ], [ -35.812175799999984, -8.788281799999952 ], [ -35.812180099999978, -8.788681299999949 ], [ -35.812184299999956, -8.789000099999948 ], [ -35.812133, -8.789263199999926 ], [ -35.812170399999957, -8.7894894 ], [ -35.812297499999943, -8.789667599999982 ], [ -35.812479799999949, -8.789880299999945 ], [ -35.812804899999946, -8.790223599999946 ], [ -35.813102699999952, -8.790597299999966 ], [ -35.813373099999978, -8.790916399999963 ], [ -35.813646599999963, -8.791302299999913 ], [ -35.813923099999961, -8.7916 ], [ -35.814275499999951, -8.791815799999947 ], [ -35.814518599999936, -8.791852199999928 ], [ -35.814740399999955, -8.791849199999955 ], [ -35.815199199999938, -8.791779299999956 ], [ -35.8153521, -8.791792899999979 ], [ -35.815506099999936, -8.791806699999928 ], [ -35.815855499999941, -8.791989 ], [ -35.816359899999959, -8.792055799999963 ], [ -35.816476499999965, -8.792092499999971 ], [ -35.816716699999972, -8.791745499999939 ], [ -35.816399499999932, -8.791623899999943 ], [ -35.816267299999936, -8.791544599999963 ], [ -35.815992399999971, -8.791216899999963 ] ] ] ] } }
]
}
