{
"type": "FeatureCollection",
"name": "2609402",
"crs": { "type": "name", "properties": { "name": "urn:ogc:def:crs:OGC:1.3:CRS84" } },
"features": [
{ "type": "Feature", "properties": { "CD_MUN": "2609402", "NM_MUN": "Moreno" }, "geometry": { "type": "MultiPolygon", "coordinates": [ [ [ [ -35.111049099999953, -8.124718 ], [ -35.111090199999978, -8.124683 ], [ -35.111214, -8.124538 ], [ -35.111445099999976, -8.124264 ], [ -35.111715099999969, -8.124017 ], [ -35.111816, -8.123910199999941 ], [ -35.111849599999971, -8.123693599999982 ], [ -35.11196979999994, -8.123462799999983 ], [ -35.112224599999941, -8.122683799999963 ], [ -35.112335199999968, -8.122361599999964 ], [ -35.112342, -8.122324499999932 ], [ -35.112420799999938, -8.121894499999936 ], [ -35.112526, -8.120831899999942 ], [ -35.112542799999979, -8.120687699999964 ], [ -35.112574799999948, -8.120069399999981 ], [ -35.112556699999971, -8.120003099999973 ], [ -35.112442199999975, -8.11872069999991 ], [ -35.112302699999937, -8.117967799999976 ], [ -35.112250899999935, -8.117170499999917 ], [ -35.112233599999968, -8.116904 ], [ -35.112180899999942, -8.116108899999977 ], [ -35.112115, -8.115818499999923 ], [ -35.111880399999961, -8.115024699999935 ], [ -35.111842799999977, -8.114660499999948 ], [ -35.112208599999967, -8.114731399999947 ], [ -35.112718099999938, -8.114656 ], [ -35.113324, -8.114362 ], [ -35.113631, -8.114256 ], [ -35.113788, -8.114262 ], [ -35.114082099999962, -8.114387 ], [ -35.114332, -8.114524 ], [ -35.114369, -8.114612 ], [ -35.114369, -8.114824 ], [ -35.114393899999975, -8.115086 ], [ -35.114469799999938, -8.115298 ], [ -35.114369, -8.115435 ], [ -35.11401909999995, -8.115448 ], [ -35.11384419999996, -8.11546 ], [ -35.113744099999963, -8.11547 ], [ -35.113675, -8.115551 ], [ -35.113668799999978, -8.115676 ], [ -35.113594, -8.116013 ], [ -35.113605799999966, -8.116094 ], [ -35.1137002, -8.116144 ], [ -35.114294199999968, -8.116275 ], [ -35.114563099999941, -8.116219 ], [ -35.115026, -8.116094 ], [ -35.115502, -8.116106 ], [ -35.116803, -8.116156 ], [ -35.118117, -8.116056 ], [ -35.118824, -8.115857 ], [ -35.119062, -8.115794 ], [ -35.119337, -8.115838 ], [ -35.119505899999972, -8.115932 ], [ -35.119906899999933, -8.116088 ], [ -35.120251099999962, -8.116069 ], [ -35.120554899999945, -8.115923 ], [ -35.120401299999969, -8.115555299999924 ], [ -35.120889299999924, -8.115596099999953 ], [ -35.122652599999981, -8.115709099999961 ], [ -35.123234699999955, -8.115657799999942 ], [ -35.12389, -8.115240499999974 ], [ -35.124501299999963, -8.114775599999973 ], [ -35.124691699999978, -8.11448469999992 ], [ -35.124794199999933, -8.114281399999985 ], [ -35.124820199999938, -8.11417 ], [ -35.124381, -8.114143 ], [ -35.122786199999958, -8.114060299999958 ], [ -35.122123099999946, -8.114026 ], [ -35.115396799999935, -8.113637 ], [ -35.113317799999948, -8.113551 ], [ -35.112889799999948, -8.113529 ], [ -35.112281499999931, -8.113422599999979 ], [ -35.111387899999961, -8.113120599999945 ], [ -35.109611199999961, -8.11243389999993 ], [ -35.109291099999957, -8.112287 ], [ -35.108263199999953, -8.11189259999998 ], [ -35.107651299999937, -8.111553199999944 ], [ -35.107202, -8.1111941 ], [ -35.106702099999964, -8.110751599999968 ], [ -35.106541199999988, -8.110566699999959 ], [ -35.106313399999976, -8.110261399999965 ], [ -35.106034399999949, -8.109892299999956 ], [ -35.105788699999948, -8.109583199999989 ], [ -35.105620199999969, -8.109172399999974 ], [ -35.105233799999958, -8.1082994 ], [ -35.10474089999996, -8.107352599999958 ], [ -35.103801899999951, -8.105418 ], [ -35.103384199999937, -8.10464 ], [ -35.102830599999947, -8.103696099999958 ], [ -35.101867199999958, -8.102468599999945 ], [ -35.101458499999978, -8.101978399999959 ], [ -35.101001099999969, -8.10140179999998 ], [ -35.10059849999994, -8.100983099999958 ], [ -35.100213499999946, -8.100552899999959 ], [ -35.099352699999933, -8.099919499999944 ], [ -35.098098799999946, -8.099428 ], [ -35.096032899999955, -8.098895599999944 ], [ -35.092791099999957, -8.098092199999959 ], [ -35.090332099999955, -8.097429199999977 ], [ -35.089381799999956, -8.09720419999997 ], [ -35.088696899999952, -8.097146299999967 ], [ -35.087990899999966, -8.097148 ], [ -35.084542299999953, -8.097373899999967 ], [ -35.083822099999963, -8.09734459999992 ], [ -35.083012599999968, -8.097165899999926 ], [ -35.081979099999963, -8.096807 ], [ -35.081624199999972, -8.096587 ], [ -35.081495899999943, -8.096534599999906 ], [ -35.081295, -8.096420299999982 ], [ -35.081188899999979, -8.096370299999936 ], [ -35.081101099999955, -8.096319099999949 ], [ -35.080175599999961, -8.095777499999945 ], [ -35.079519799999957, -8.095637599999987 ], [ -35.076519, -8.095465799999943 ], [ -35.075383299999949, -8.095394499999921 ], [ -35.073708799999963, -8.095339099999922 ], [ -35.072857599999971, -8.095377699999966 ], [ -35.071443599999952, -8.095326899999966 ], [ -35.070806799999964, -8.095499299999982 ], [ -35.070316, -8.095632099999913 ], [ -35.069568, -8.096069799999961 ], [ -35.068744599999938, -8.096503599999927 ], [ -35.067741299999973, -8.097044099999929 ], [ -35.06681569999995, -8.097506899999926 ], [ -35.065987499999956, -8.097921 ], [ -35.065323699999965, -8.098229599999947 ], [ -35.064136399999938, -8.098310699999946 ], [ -35.063737799999956, -8.098341599999969 ], [ -35.063742899999966, -8.098350799999919 ], [ -35.063794099999946, -8.098447399999932 ], [ -35.067494799999963, -8.105434399999984 ], [ -35.068321599999933, -8.106995299999943 ], [ -35.068429899999956, -8.107196699999983 ], [ -35.068514799999939, -8.107356099999931 ], [ -35.068980599999975, -8.1082312 ], [ -35.074606699999947, -8.118782299999939 ], [ -35.075078, -8.119662599999971 ], [ -35.075271499999921, -8.120024199999923 ], [ -35.075669799999957, -8.119933899999964 ], [ -35.07634939999997, -8.120873899999923 ], [ -35.076752299999953, -8.120344899999978 ], [ -35.077883499999984, -8.120515799999954 ], [ -35.078498, -8.120186199999983 ], [ -35.079722899999979, -8.120703 ], [ -35.081452299999967, -8.120540199999947 ], [ -35.081843, -8.120654199999946 ], [ -35.0827647, -8.121134399999949 ], [ -35.083399499999985, -8.120884099999961 ], [ -35.08402209999997, -8.120814899999976 ], [ -35.084555199999954, -8.120770099999961 ], [ -35.085615299999979, -8.120749799999931 ], [ -35.085836799999981, -8.120772 ], [ -35.085643199999936, -8.121044599999948 ], [ -35.085955, -8.121339799999939 ], [ -35.08592919999996, -8.121852 ], [ -35.08567369999998, -8.12217079999991 ], [ -35.085673399999962, -8.122380799999984 ], [ -35.085765799999926, -8.122623699999961 ], [ -35.08584319999995, -8.123006199999953 ], [ -35.085969299999931, -8.123474199999977 ], [ -35.086032399999972, -8.123881199999985 ], [ -35.08627039999994, -8.124086699999978 ], [ -35.086571899999974, -8.124220599999946 ], [ -35.086575799999942, -8.124216099999964 ], [ -35.086629799999976, -8.124358199999984 ], [ -35.086723, -8.124571699999914 ], [ -35.086794499999939, -8.124689699999982 ], [ -35.086966499999967, -8.124895 ], [ -35.087045499999924, -8.125014599999938 ], [ -35.086590899999976, -8.125203599999976 ], [ -35.086334, -8.125297 ], [ -35.08604379999997, -8.125340499999924 ], [ -35.085928799999984, -8.125353 ], [ -35.085835599999946, -8.12538429999994 ], [ -35.085756599999968, -8.125460599999943 ], [ -35.085651299999938, -8.125845899999939 ], [ -35.085574299999962, -8.125930199999962 ], [ -35.085521, -8.125981 ], [ -35.085304299999969, -8.12613019999996 ], [ -35.085156499999989, -8.126229799999981 ], [ -35.085115899999956, -8.126351799999934 ], [ -35.08514219999995, -8.126507699999946 ], [ -35.084996599999954, -8.126802199999915 ], [ -35.085016899999971, -8.127209899999968 ], [ -35.084964, -8.127425899999947 ], [ -35.084886599999948, -8.127557 ], [ -35.084807099999985, -8.127678699999933 ], [ -35.084586699999932, -8.12786859999993 ], [ -35.084494899999989, -8.127999299999935 ], [ -35.084345299999939, -8.128215299999974 ], [ -35.084303299999931, -8.128385299999955 ], [ -35.084338299999963, -8.128571099999935 ], [ -35.084414299999935, -8.128826899999964 ], [ -35.084440499999964, -8.128986099999974 ], [ -35.084456199999977, -8.129220599999943 ], [ -35.084693, -8.129342099999972 ], [ -35.08492439999997, -8.129404 ], [ -35.085529199999947, -8.129503399999972 ], [ -35.08587, -8.129883899999983 ], [ -35.085777699999944, -8.130386299999929 ], [ -35.085829399999966, -8.131070599999928 ], [ -35.085877399999966, -8.131807499999987 ], [ -35.08601, -8.132066 ], [ -35.086074799999949, -8.132104599999931 ], [ -35.086412299999949, -8.132327699999957 ], [ -35.086704699999984, -8.132583 ], [ -35.087314499999934, -8.132552599999951 ], [ -35.08744569999994, -8.132617699999981 ], [ -35.087569499999972, -8.132713899999938 ], [ -35.087956599999977, -8.132791899999987 ], [ -35.088107599999951, -8.132874299999953 ], [ -35.088123499999945, -8.1330225 ], [ -35.087909299999986, -8.133329099999971 ], [ -35.087516299999947, -8.133575399999916 ], [ -35.087545799999937, -8.133797799999968 ], [ -35.088002399999944, -8.134318199999928 ], [ -35.08826959999994, -8.134405 ], [ -35.088746499999964, -8.134784699999958 ], [ -35.089608899999973, -8.135125 ], [ -35.089963799999964, -8.135203 ], [ -35.090296799999976, -8.13547839999994 ], [ -35.091488199999958, -8.134619 ], [ -35.091540599999973, -8.1341849 ], [ -35.091544199999937, -8.133002 ], [ -35.091573899999958, -8.132714299999973 ], [ -35.091605699999953, -8.132520199999949 ], [ -35.091895, -8.132272 ], [ -35.092157, -8.132016 ], [ -35.092291, -8.131502 ], [ -35.092797799999964, -8.131226399999955 ], [ -35.092863099999924, -8.131105299999945 ], [ -35.092978899999935, -8.13090129999993 ], [ -35.093071799999969, -8.130589399999975 ], [ -35.093063099999945, -8.129999699999924 ], [ -35.093401899999947, -8.1296131 ], [ -35.093585399999938, -8.129147399999972 ], [ -35.093889499999932, -8.127929099999957 ], [ -35.094161199999967, -8.127741799999969 ], [ -35.094554799999976, -8.127565399999982 ], [ -35.094879499999934, -8.127457399999972 ], [ -35.0950577, -8.127487099999934 ], [ -35.095360399999954, -8.12760459999993 ], [ -35.095711299999948, -8.127595 ], [ -35.095975499999952, -8.12766639999996 ], [ -35.096208299999951, -8.127755199999974 ], [ -35.096364899999969, -8.12786909999995 ], [ -35.096460299999933, -8.127997 ], [ -35.096636099999962, -8.127895099999922 ], [ -35.097023499999978, -8.127654599999964 ], [ -35.09721859999997, -8.127559299999982 ], [ -35.097576699999934, -8.127542899999979 ], [ -35.097642599999972, -8.127471299999968 ], [ -35.097751799999969, -8.127455 ], [ -35.097986499999941, -8.127494 ], [ -35.0981743, -8.127486599999928 ], [ -35.098289, -8.1274511 ], [ -35.0987699, -8.127463 ], [ -35.098914799999932, -8.127513399999948 ], [ -35.099202699999978, -8.12774959999998 ], [ -35.09943229999994, -8.127899899999925 ], [ -35.099659099999954, -8.127986099999928 ], [ -35.10004379999998, -8.128187 ], [ -35.100339499999954, -8.128132499999944 ], [ -35.100344199999938, -8.12812969999991 ], [ -35.100326099999968, -8.128265499999955 ], [ -35.100527299999953, -8.128486199999918 ], [ -35.100553299999959, -8.128674399999975 ], [ -35.100611699999952, -8.128927499999985 ], [ -35.100540299999984, -8.129102799999952 ], [ -35.100507799999946, -8.129291 ], [ -35.100748, -8.129401299999909 ], [ -35.101267199999938, -8.129518099999933 ], [ -35.101682499999981, -8.129518099999931 ], [ -35.102052499999964, -8.129414299999929 ], [ -35.102987, -8.129148199999976 ], [ -35.10318819999997, -8.129018399999943 ], [ -35.103515, -8.129189199999937 ], [ -35.103985399999942, -8.129383799999964 ], [ -35.104577499999941, -8.129432499999965 ], [ -35.104885699999954, -8.129254099999953 ], [ -35.105161399999936, -8.12914859999996 ], [ -35.105656099999976, -8.12894589999998 ], [ -35.105931899999973, -8.128897199999916 ], [ -35.106199499999953, -8.128970199999971 ], [ -35.106702399999968, -8.129156699999948 ], [ -35.107180899999953, -8.129221599999953 ], [ -35.107440399999973, -8.128621499999944 ], [ -35.10748909999996, -8.128313299999958 ], [ -35.107797299999952, -8.1279077 ], [ -35.108162199999981, -8.127753599999929 ], [ -35.108292, -8.1277861 ], [ -35.108543399999974, -8.127688799999934 ], [ -35.109062499999936, -8.127526599999941 ], [ -35.109208499999966, -8.127583299999955 ], [ -35.109499199999966, -8.127550799999948 ], [ -35.110033899999962, -8.127747 ], [ -35.11061629999994, -8.125203199999934 ], [ -35.110742399999928, -8.125042499999964 ], [ -35.110874699999961, -8.124851 ], [ -35.110882099999976, -8.124851 ], [ -35.110955199999985, -8.124812 ], [ -35.111049099999953, -8.124718 ] ] ], [ [ [ -35.183136, -8.111182199999982 ], [ -35.182825099999945, -8.112682899999973 ], [ -35.184319, -8.113318299999944 ], [ -35.185745399999973, -8.11282479999994 ], [ -35.185917099999983, -8.112481399999982 ], [ -35.18775839999995, -8.113352599999937 ], [ -35.187833199999943, -8.113388 ], [ -35.189744, -8.115729 ], [ -35.193007099999939, -8.116584399999965 ], [ -35.195756, -8.117305 ], [ -35.196610299999975, -8.117515599999917 ], [ -35.199193, -8.11838 ], [ -35.199805099999935, -8.118514399999986 ], [ -35.207169099999938, -8.120131 ], [ -35.207908, -8.12026909999998 ], [ -35.211034199999972, -8.120853599999956 ], [ -35.209307, -8.11991429999995 ], [ -35.206989399999941, -8.112340399999932 ], [ -35.206924099999981, -8.112130899999933 ], [ -35.206304399999965, -8.110160699999936 ], [ -35.205761099999968, -8.10840639999998 ], [ -35.205081, -8.106178199999924 ], [ -35.204805699999952, -8.106173599999984 ], [ -35.20379729999997, -8.106173599999963 ], [ -35.203043899999962, -8.106787899999983 ], [ -35.202418, -8.108051299999936 ], [ -35.202317199999989, -8.108377699999926 ], [ -35.201846099999955, -8.107889599999972 ], [ -35.201172099999951, -8.107191199999942 ], [ -35.199950699999938, -8.105925499999968 ], [ -35.196945199999966, -8.102810899999961 ], [ -35.195769, -8.101592 ], [ -35.190282199999963, -8.10270679999997 ], [ -35.190182899999961, -8.102727 ], [ -35.190125299999977, -8.10274779999996 ], [ -35.180365, -8.10627 ], [ -35.184399399999968, -8.107202299999933 ], [ -35.184335799999936, -8.107381199999969 ], [ -35.184154699999972, -8.107903299999965 ], [ -35.183978899999943, -8.108531899999955 ], [ -35.183819099999937, -8.109064599999945 ], [ -35.183624799999961, -8.109580099999947 ], [ -35.183542099999961, -8.10979979999995 ], [ -35.183355599999963, -8.110391099999973 ], [ -35.183131899999978, -8.11116349999997 ], [ -35.183143899999955, -8.111169199999956 ], [ -35.183136, -8.111182199999982 ] ] ], [ [ [ -35.169121, -8.104026099999942 ], [ -35.170052799999951, -8.102245399999976 ], [ -35.1703012, -8.101800299999987 ], [ -35.16970079999993, -8.101510399999961 ], [ -35.168044299999956, -8.101003099999952 ], [ -35.168013299999984, -8.102711299999953 ], [ -35.168002899999976, -8.103270299999965 ], [ -35.168417, -8.103663699999968 ], [ -35.169121, -8.104026099999942 ] ] ] ] } }
]
}
