{
"type": "FeatureCollection",
"name": "2610004",
"crs": { "type": "name", "properties": { "name": "urn:ogc:def:crs:OGC:1.3:CRS84" } },
"features": [
{ "type": "Feature", "properties": { "CD_MUN": "2610004", "NM_MUN": "Palmares" }, "geometry": { "type": "MultiPolygon", "coordinates": [ [ [ [ -35.674479499999968, -8.7567 ], [ -35.674361399999952, -8.75682529999996 ], [ -35.674224699999975, -8.756908399999929 ], [ -35.67411079999993, -8.757003399999974 ], [ -35.674023599999934, -8.757128199999942 ], [ -35.671843899999949, -8.764101499999983 ], [ -35.672177, -8.765744299999943 ], [ -35.673934199999962, -8.766596599999957 ], [ -35.676880099999956, -8.763236499999925 ], [ -35.6775823, -8.759886499999917 ], [ -35.675586599999981, -8.755937899999921 ], [ -35.675327799999934, -8.756007699999945 ], [ -35.675029099999968, -8.75613089999997 ], [ -35.674768899999947, -8.756305199999932 ], [ -35.674479499999968, -8.7567 ] ] ], [ [ [ -35.599975, -8.706617499999917 ], [ -35.600132099999946, -8.705887599999954 ], [ -35.600395499999941, -8.705804299999954 ], [ -35.600626299999938, -8.705529199999924 ], [ -35.601473699999929, -8.70537109999997 ], [ -35.601321899999959, -8.7043624 ], [ -35.601496299999951, -8.704049799999943 ], [ -35.601811099999971, -8.704172899999934 ], [ -35.602222, -8.704425699999948 ], [ -35.602843799999953, -8.704322899999942 ], [ -35.60304049999997, -8.70430629999991 ], [ -35.603725399999981, -8.70459859999994 ], [ -35.60430759999997, -8.704081799999924 ], [ -35.604270099999951, -8.703426499999965 ], [ -35.603828599999929, -8.702549799999943 ], [ -35.603064299999971, -8.701708399999985 ], [ -35.602395099999967, -8.701026899999924 ], [ -35.600891099999949, -8.701182299999953 ], [ -35.600435799999957, -8.702504 ], [ -35.600448399999955, -8.702947599999952 ], [ -35.600426099999943, -8.70308259999994 ], [ -35.600204499999968, -8.703338299999908 ], [ -35.599826499999949, -8.703443599999968 ], [ -35.599423, -8.7037526 ], [ -35.599225, -8.704153299999975 ], [ -35.599082899999978, -8.704632 ], [ -35.59901919999993, -8.705050899999943 ], [ -35.599012, -8.705500399999949 ], [ -35.599426099999967, -8.7061406 ], [ -35.5995569, -8.706160099999961 ], [ -35.59916, -8.706680599999975 ], [ -35.598059099999951, -8.707706699999958 ], [ -35.598206099999977, -8.70783909999996 ], [ -35.59858579999996, -8.708227299999988 ], [ -35.599267699999977, -8.708325199999946 ], [ -35.600087199999962, -8.70843919999994 ], [ -35.600307699999973, -8.708469199999975 ], [ -35.60045869999994, -8.708045699999952 ], [ -35.600129899999956, -8.706901099999918 ], [ -35.599975, -8.706617499999917 ] ] ], [ [ [ -35.598019699999952, -8.700125499999944 ], [ -35.597860799999978, -8.699780899999947 ], [ -35.597878899999948, -8.699446499999963 ], [ -35.597736599999962, -8.698667099999964 ], [ -35.59853179999994, -8.697821299999935 ], [ -35.598560899999946, -8.696478299999955 ], [ -35.597541799999931, -8.696200299999948 ], [ -35.597485199999937, -8.696453699999948 ], [ -35.597404799999936, -8.696796199999934 ], [ -35.597363899999948, -8.696997899999943 ], [ -35.597383, -8.697186299999927 ], [ -35.597416799999955, -8.697360499999929 ], [ -35.597402299999942, -8.6975472 ], [ -35.597283299999965, -8.697705299999962 ], [ -35.597161399999948, -8.697839299999949 ], [ -35.597042699999982, -8.698022699999946 ], [ -35.596940399999937, -8.698417799999964 ], [ -35.596896499999957, -8.69873779999994 ], [ -35.596813299999958, -8.699149799999931 ], [ -35.596690599999938, -8.699434699999941 ], [ -35.596589699999981, -8.699772099999972 ], [ -35.596484399999959, -8.700134499999953 ], [ -35.59637859999998, -8.700472799999945 ], [ -35.596184899999969, -8.701125699999983 ], [ -35.596111399999984, -8.701493199999968 ], [ -35.596042099999984, -8.701858599999975 ], [ -35.595988399999953, -8.702205 ], [ -35.595973399999934, -8.702590899999961 ], [ -35.596053599999948, -8.702980699999944 ], [ -35.596243, -8.703562799999929 ], [ -35.596768, -8.703294899999964 ], [ -35.597432, -8.703143099999973 ], [ -35.597656499999971, -8.70278579999996 ], [ -35.597618499999953, -8.702270499999955 ], [ -35.597462, -8.701873599999939 ], [ -35.597460399999932, -8.701661799999965 ], [ -35.597534799999949, -8.701532199999964 ], [ -35.597864799999968, -8.70090329999994 ], [ -35.598019699999952, -8.700125499999944 ] ] ], [ [ [ -35.603931, -8.700515 ], [ -35.603980899999954, -8.70032389999994 ], [ -35.603999599999952, -8.700153599999956 ], [ -35.604001099999955, -8.699936799999939 ], [ -35.603986299999967, -8.699772299999951 ], [ -35.605988399999951, -8.698776099999964 ], [ -35.606142199999965, -8.698680099999939 ], [ -35.606308599999977, -8.698564499999975 ], [ -35.606442, -8.698444099999982 ], [ -35.606537899999978, -8.698326399999926 ], [ -35.606615399999953, -8.698203699999945 ], [ -35.606682099999951, -8.698093499999951 ], [ -35.606735399999934, -8.697975599999941 ], [ -35.60678739999998, -8.69784739999996 ], [ -35.606840399999953, -8.697687 ], [ -35.606867499999957, -8.697564699999916 ], [ -35.606891599999983, -8.69741149999995 ], [ -35.606877399999973, -8.696716299999919 ], [ -35.606878699999982, -8.696233 ], [ -35.606860499999989, -8.69570479999995 ], [ -35.606942099999976, -8.69561759999992 ], [ -35.606991199999982, -8.695481799999936 ], [ -35.607012599999962, -8.695335899999963 ], [ -35.607014899999967, -8.695220599999969 ], [ -35.606975399999961, -8.694533 ], [ -35.606756299999965, -8.694116599999981 ], [ -35.606379399999973, -8.693551299999942 ], [ -35.603967799999964, -8.695241499999957 ], [ -35.602963099999954, -8.694668599999959 ], [ -35.602462699999933, -8.695514199999929 ], [ -35.601548899999955, -8.69587389999997 ], [ -35.601557799999966, -8.696394 ], [ -35.60156649999994, -8.697921499999975 ], [ -35.601565599999965, -8.698454299999987 ], [ -35.601970299999955, -8.698692399999977 ], [ -35.602351399999982, -8.698908799999986 ], [ -35.602747099999931, -8.69914419999998 ], [ -35.60314139999997, -8.699374 ], [ -35.603219799999977, -8.699429 ], [ -35.602838899999938, -8.699512799999956 ], [ -35.602389499999958, -8.700558499999914 ], [ -35.60246379999996, -8.700595 ], [ -35.603278399999972, -8.701035799999943 ], [ -35.603599699999954, -8.701201499999964 ], [ -35.603812199999936, -8.700864899999928 ], [ -35.603861799999954, -8.70074929999994 ], [ -35.603931, -8.700515 ] ] ], [ [ [ -35.599420599999974, -8.689112799999975 ], [ -35.599585799999943, -8.688760199999949 ], [ -35.599736599999972, -8.688497 ], [ -35.600457199999944, -8.687217099999934 ], [ -35.600741, -8.686597799999955 ], [ -35.600952099999972, -8.686029399999956 ], [ -35.601077, -8.685233 ], [ -35.60112369999996, -8.683957399999938 ], [ -35.601043499999939, -8.683469699999952 ], [ -35.600846499999925, -8.683073199999972 ], [ -35.600620499999934, -8.682654199999936 ], [ -35.600402799999983, -8.68232759999993 ], [ -35.600094199999944, -8.682019099999934 ], [ -35.599628, -8.681752099999946 ], [ -35.599115099999949, -8.681433399999936 ], [ -35.598636799999944, -8.681271 ], [ -35.598337199999953, -8.680721299999949 ], [ -35.598279199999986, -8.680055499999986 ], [ -35.598439, -8.679300799999952 ], [ -35.598727399999973, -8.678190599999944 ], [ -35.599131399999976, -8.677178099999942 ], [ -35.599285399999928, -8.676987399999975 ], [ -35.598560299999974, -8.676665899999955 ], [ -35.598633599999978, -8.676403499999948 ], [ -35.598680199999926, -8.676222399999974 ], [ -35.598689799999924, -8.676074199999977 ], [ -35.598674799999976, -8.67588669999998 ], [ -35.598634899999979, -8.6757143 ], [ -35.598566799999958, -8.675546399999972 ], [ -35.598445, -8.675343 ], [ -35.598062099999936, -8.674820799999953 ], [ -35.598040499999968, -8.67476 ], [ -35.597963599999957, -8.674601399999961 ], [ -35.597913199999937, -8.6744118 ], [ -35.597885899999937, -8.674184399999929 ], [ -35.597907199999952, -8.67395369999997 ], [ -35.597926299999983, -8.67388119999991 ], [ -35.597376599999954, -8.673943699999917 ], [ -35.597244299999943, -8.673980699999941 ], [ -35.597120799999971, -8.674223899999951 ], [ -35.597015599999963, -8.674531599999977 ], [ -35.596714499999962, -8.674556 ], [ -35.59670749999998, -8.674556499999937 ], [ -35.595982499999934, -8.674435199999934 ], [ -35.595394399999975, -8.674254699999933 ], [ -35.594877899999979, -8.674130199999956 ], [ -35.595063799999942, -8.671589199999964 ], [ -35.593748599999977, -8.670083599999945 ], [ -35.590831399999956, -8.6703846 ], [ -35.59029349999998, -8.671604299999975 ], [ -35.588633799999975, -8.670937099999939 ], [ -35.58618459999996, -8.671353699999946 ], [ -35.58634, -8.670947599999989 ], [ -35.586368299999954, -8.670427199999935 ], [ -35.5862365, -8.66931429999995 ], [ -35.586186099999971, -8.668822899999961 ], [ -35.58608769999995, -8.668455699999983 ], [ -35.585861099999931, -8.668159899999983 ], [ -35.585768399999949, -8.667896299999938 ], [ -35.585761499999926, -8.667610899999952 ], [ -35.585352599999965, -8.667782599999946 ], [ -35.584721, -8.667747499999955 ], [ -35.583922199999954, -8.668101499999979 ], [ -35.582904499999984, -8.668687099999966 ], [ -35.582123799999977, -8.669818299999987 ], [ -35.582111, -8.669818699999949 ], [ -35.582104599999987, -8.669662399999918 ], [ -35.582073499999979, -8.669224299999932 ], [ -35.581920699999955, -8.6687171 ], [ -35.581873699999974, -8.668655199999931 ], [ -35.581853899999942, -8.668593399999944 ], [ -35.581806599999936, -8.668446199999959 ], [ -35.581768899999936, -8.668431099999944 ], [ -35.58175319999998, -8.668429199999933 ], [ -35.581577, -8.668406 ], [ -35.58153, -8.668398199999968 ], [ -35.581275499999954, -8.668359499999937 ], [ -35.581052199999945, -8.668402099999959 ], [ -35.580770299999976, -8.668417599999936 ], [ -35.5807546, -8.668409799999944 ], [ -35.580727199999956, -8.668398199999947 ], [ -35.580476599999947, -8.668286 ], [ -35.58012419999995, -8.668104 ], [ -35.579673899999932, -8.667956899999979 ], [ -35.579654299999959, -8.6679569 ], [ -35.579642499999977, -8.66794919999993 ], [ -35.579576, -8.667918199999955 ], [ -35.579552499999977, -8.667918199999963 ], [ -35.57932529999993, -8.667895 ], [ -35.579297899999979, -8.66790269999996 ], [ -35.579262699999965, -8.667910399999931 ], [ -35.579215699999963, -8.667918199999983 ], [ -35.578945499999982, -8.668030499999917 ], [ -35.57891809999996, -8.668018799999976 ], [ -35.578843699999943, -8.66798009999995 ], [ -35.578597099999975, -8.667960799999925 ], [ -35.578385699999949, -8.667987899999963 ], [ -35.57835259999996, -8.667970399999934 ], [ -35.578349799999955, -8.667978499999922 ], [ -35.578077699999938, -8.668251399999981 ], [ -35.577034599999934, -8.668399799999966 ], [ -35.576841699999932, -8.6682575 ], [ -35.576113699999958, -8.666867 ], [ -35.576563199999953, -8.667003199999947 ], [ -35.577551799999981, -8.666955799999938 ], [ -35.578105199999982, -8.666458 ], [ -35.57916, -8.665976699999954 ], [ -35.579354099999932, -8.666165599999967 ], [ -35.58026579999995, -8.665584299999983 ], [ -35.580287899999981, -8.665208 ], [ -35.579769699999929, -8.664554699999927 ], [ -35.579561199999944, -8.663964199999935 ], [ -35.579298899999976, -8.663423599999932 ], [ -35.579747599999969, -8.66315979999996 ], [ -35.579909899999961, -8.662935699999906 ], [ -35.580039099999972, -8.662748 ], [ -35.579974299999954, -8.6623969 ], [ -35.580031299999973, -8.66229569999995 ], [ -35.579885799999936, -8.66197 ], [ -35.579588, -8.661697199999921 ], [ -35.579691, -8.661668 ], [ -35.579764, -8.661613599999942 ], [ -35.57982109999994, -8.661524399999983 ], [ -35.579842599999964, -8.661431 ], [ -35.57983569999994, -8.661335899999914 ], [ -35.579795599999954, -8.661223399999935 ], [ -35.579750299999944, -8.661115199999934 ], [ -35.579692599999937, -8.660993799999956 ], [ -35.579574099999945, -8.660800899999982 ], [ -35.579520299999956, -8.660635 ], [ -35.579467, -8.660315599999949 ], [ -35.57947879999994, -8.660175399999947 ], [ -35.579496, -8.660063599999955 ], [ -35.57953329999998, -8.659881599999952 ], [ -35.57954529999995, -8.659828899999988 ], [ -35.579594799999938, -8.659562299999957 ], [ -35.579603299999974, -8.659344099999959 ], [ -35.579559, -8.659201099999963 ], [ -35.579361799999965, -8.659226299999931 ], [ -35.578993199999957, -8.659142399999972 ], [ -35.578229399999941, -8.658918 ], [ -35.577427099999966, -8.658807699999986 ], [ -35.577182199999974, -8.658887699999976 ], [ -35.576802, -8.659028 ], [ -35.576165499999952, -8.659192099999931 ], [ -35.576147499999934, -8.659196699999951 ], [ -35.57579869999995, -8.659286799999963 ], [ -35.575220199999933, -8.659278399999975 ], [ -35.570974499999984, -8.659043399999964 ], [ -35.568608499999982, -8.6588892 ], [ -35.566922499999968, -8.65878929999996 ], [ -35.565078899999946, -8.658664199999981 ], [ -35.564914199999976, -8.659718899999971 ], [ -35.564893599999955, -8.660127799999922 ], [ -35.564970299999963, -8.660541899999961 ], [ -35.565143499999976, -8.660960499999913 ], [ -35.565321, -8.661234399999948 ], [ -35.565529199999965, -8.661458299999911 ], [ -35.565752299999929, -8.661658899999972 ], [ -35.565987899999989, -8.661794599999924 ], [ -35.56631079999994, -8.661909699999988 ], [ -35.566314499999969, -8.662527899999944 ], [ -35.566313099999945, -8.662945199999973 ], [ -35.566362099999935, -8.663230499999949 ], [ -35.566402299999943, -8.66354939999994 ], [ -35.566394399999979, -8.663803799999942 ], [ -35.566292399999952, -8.664034 ], [ -35.565997699999976, -8.66453479999994 ], [ -35.565661499999976, -8.665228099999972 ], [ -35.565543199999979, -8.66546009999997 ], [ -35.565472399999976, -8.665802099999953 ], [ -35.565200199999936, -8.666235599999945 ], [ -35.565021499999943, -8.666493699999938 ], [ -35.564902399999951, -8.667 ], [ -35.564895299999939, -8.667247799999918 ], [ -35.564942099999939, -8.667317699999952 ], [ -35.565083499999965, -8.667639199999964 ], [ -35.565114599999966, -8.668088499999955 ], [ -35.565127399999945, -8.668393099999951 ], [ -35.564882499999953, -8.6692303 ], [ -35.564909, -8.669918599999958 ], [ -35.564814599999977, -8.67022 ], [ -35.564809699999955, -8.670514199999953 ], [ -35.56477, -8.671242199999943 ], [ -35.564267, -8.671904 ], [ -35.563790499999989, -8.672327599999951 ], [ -35.563102299999969, -8.673178 ], [ -35.562414, -8.67488209999995 ], [ -35.56229309999997, -8.675245299999977 ], [ -35.562248499999946, -8.675716 ], [ -35.562132899999938, -8.675997699999938 ], [ -35.562137199999938, -8.67622449999994 ], [ -35.562162499999943, -8.676556499999958 ], [ -35.562043399999943, -8.676817899999939 ], [ -35.561987899999963, -8.677053799999975 ], [ -35.562075799999946, -8.677248299999983 ], [ -35.562171299999939, -8.677527699999933 ], [ -35.562172799999985, -8.677723799999971 ], [ -35.562068599999975, -8.678096599999963 ], [ -35.562096299999951, -8.678479 ], [ -35.562119499999945, -8.678675899999975 ], [ -35.562253799999951, -8.678882499999938 ], [ -35.56244659999993, -8.679116699999961 ], [ -35.562565199999938, -8.679334 ], [ -35.562506599999949, -8.679594199999931 ], [ -35.562441199999967, -8.679729899999932 ], [ -35.562427199999952, -8.67992509999994 ], [ -35.562507899999964, -8.680033299999952 ], [ -35.562705699999988, -8.680298799999942 ], [ -35.562797799999949, -8.680514099999941 ], [ -35.562871499999972, -8.680953699999986 ], [ -35.563036099999984, -8.681235499999948 ], [ -35.563182099999949, -8.681645399999976 ], [ -35.563161799999939, -8.681963499999938 ], [ -35.56430869999997, -8.683330399999919 ], [ -35.564765, -8.683751899999939 ], [ -35.564959799999947, -8.683807699999933 ], [ -35.565151699999944, -8.683831099999967 ], [ -35.565348299999982, -8.683901299999954 ], [ -35.565633799999937, -8.684074399999915 ], [ -35.565866099999937, -8.684185899999935 ], [ -35.565970699999987, -8.684238199999969 ], [ -35.566476199999961, -8.684313099999926 ], [ -35.566926399999943, -8.684535299999931 ], [ -35.567618299999928, -8.685234799999932 ], [ -35.577206899999965, -8.692745499999941 ], [ -35.597357299999942, -8.696168899999972 ], [ -35.597458299999978, -8.696013899999956 ], [ -35.59777669999994, -8.694927499999944 ], [ -35.598153599999932, -8.693504 ], [ -35.598343299999961, -8.692638899999983 ], [ -35.598458, -8.692039499999959 ], [ -35.598261299999933, -8.6914477 ], [ -35.598131399999943, -8.690836399999959 ], [ -35.59851969999994, -8.690463699999942 ], [ -35.598775, -8.690157699999954 ], [ -35.599044399999975, -8.689754399999986 ], [ -35.599420599999974, -8.689112799999975 ] ] ] ] } }
]
}
