{
"type": "FeatureCollection",
"name": "2610707",
"crs": { "type": "name", "properties": { "name": "urn:ogc:def:crs:OGC:1.3:CRS84" } },
"features": [
{ "type": "Feature", "properties": { "CD_MUN": "2610707", "NM_MUN": "Paulista" }, "geometry": { "type": "MultiPolygon", "coordinates": [ [ [ [ -34.966122, -7.92537509999996 ], [ -34.966198399999946, -7.925125 ], [ -34.966851599999977, -7.925229199999936 ], [ -34.966937599999937, -7.925001499999951 ], [ -34.967126799999967, -7.924887599999965 ], [ -34.967404199999976, -7.9247061 ], [ -34.968110299999978, -7.924302599999981 ], [ -34.968366299999943, -7.924610799999953 ], [ -34.969610099999962, -7.923881199999903 ], [ -34.970207699999953, -7.923224599999982 ], [ -34.970277099999983, -7.922300499999935 ], [ -34.970589699999948, -7.920077199999976 ], [ -34.970958099999962, -7.920090899999936 ], [ -34.971083199999953, -7.919006899999963 ], [ -34.9720837, -7.919034699999949 ], [ -34.97216729999996, -7.917841399999923 ], [ -34.970636799999966, -7.917543499999942 ], [ -34.967681499999969, -7.917147799999963 ], [ -34.9665318, -7.916902199999978 ], [ -34.966629199999943, -7.918296399999965 ], [ -34.967678399999954, -7.918345099999954 ], [ -34.967727099999927, -7.9187689 ], [ -34.968929199999934, -7.918894 ], [ -34.968936099999965, -7.919307399999974 ], [ -34.968831899999948, -7.921475299999951 ], [ -34.967792599999932, -7.922183099999916 ], [ -34.967394099999979, -7.92157489999996 ], [ -34.966950299999958, -7.921110899999968 ], [ -34.966868099999949, -7.921090799999929 ], [ -34.966080299999923, -7.919995299999908 ], [ -34.965857899999946, -7.920294099999983 ], [ -34.966142799999957, -7.920863899999973 ], [ -34.967046099999948, -7.921767199999989 ], [ -34.967004399999958, -7.922072899999926 ], [ -34.965274299999983, -7.921781099999981 ], [ -34.965141599999988, -7.921776599999935 ], [ -34.963599699999982, -7.922715599999937 ], [ -34.963865299999959, -7.923038499999947 ], [ -34.963511, -7.923168399999962 ], [ -34.963655599999981, -7.923534899999924 ], [ -34.964213699999966, -7.9234542 ], [ -34.964772, -7.923819399999959 ], [ -34.964357099999972, -7.924807099999974 ], [ -34.964801799999975, -7.92498079999995 ], [ -34.964343199999981, -7.926275 ], [ -34.965531399999975, -7.926796099999951 ], [ -34.96580239999998, -7.926622399999926 ], [ -34.966122, -7.92537509999996 ] ] ], [ [ [ -34.990952199999981, -7.923240199999932 ], [ -34.991827699999931, -7.923143 ], [ -34.992279299999957, -7.923379199999952 ], [ -34.992793499999948, -7.922990099999945 ], [ -34.99339109999994, -7.923530299999927 ], [ -34.99372459999995, -7.92320379999997 ], [ -34.995037799999977, -7.922453299999985 ], [ -34.99547559999997, -7.922778199999904 ], [ -34.995781299999976, -7.922673899999946 ], [ -34.996010599999984, -7.92236129999998 ], [ -34.995955, -7.921694199999947 ], [ -34.996500499999968, -7.921343299999937 ], [ -34.996750599999984, -7.921350299999981 ], [ -34.996695, -7.920693599999935 ], [ -34.996597799999961, -7.920026599999982 ], [ -34.997779, -7.919818099999944 ], [ -34.997918, -7.919151099999957 ], [ -35.000488899999937, -7.91851179999998 ], [ -35.00364339999993, -7.91833119999996 ], [ -35.006256099999973, -7.918233899999962 ], [ -35.006339399999945, -7.918025399999966 ], [ -35.007882, -7.917942099999941 ], [ -35.007965399999932, -7.920582499999985 ], [ -35.006811899999953, -7.920749199999912 ], [ -35.006798, -7.921972099999941 ], [ -35.006144899999981, -7.922208399999952 ], [ -35.006089299999935, -7.922653099999929 ], [ -35.0065896, -7.92325069999992 ], [ -35.008646299999953, -7.923250699999924 ], [ -35.008715799999948, -7.924098399999922 ], [ -35.009549599999957, -7.924209499999977 ], [ -35.010008199999959, -7.924140099999942 ], [ -35.010452899999962, -7.923931599999933 ], [ -35.010772499999987, -7.923639799999923 ], [ -35.011384, -7.92251409999995 ], [ -35.011592399999984, -7.921986 ], [ -35.01168969999997, -7.921499699999978 ], [ -35.01155069999993, -7.9209716 ], [ -35.011481299999964, -7.920554699999952 ], [ -35.011564599999929, -7.920165599999983 ], [ -35.011912099999961, -7.919304 ], [ -35.011787, -7.918803699999962 ], [ -35.01155069999993, -7.917928199999936 ], [ -35.011509099999962, -7.917552899999966 ], [ -35.013829799999939, -7.917261099999968 ], [ -35.013710599999968, -7.916144699999986 ], [ -35.011565799999978, -7.9163096 ], [ -35.007820299999935, -7.916597599999942 ], [ -34.997447799999989, -7.918991799999962 ], [ -34.988214899999953, -7.920079399999942 ], [ -34.98654, -7.920154599999927 ], [ -34.986671899999983, -7.920360099999922 ], [ -34.987325099999964, -7.921756699999953 ], [ -34.987776699999984, -7.922760799999931 ], [ -34.988270099999966, -7.923796099999925 ], [ -34.988145, -7.923879499999924 ], [ -34.98868, -7.924907899999964 ], [ -34.989499899999956, -7.924838399999929 ], [ -34.990278199999985, -7.924574299999946 ], [ -34.99023649999998, -7.923949 ], [ -34.990896599999928, -7.923705799999934 ], [ -34.990952199999981, -7.923240199999932 ] ] ], [ [ [ -34.913336599999973, -7.973577599999965 ], [ -34.913044799999959, -7.971290399999909 ], [ -34.912853899999959, -7.969794199999971 ], [ -34.910903699999949, -7.957579699999937 ], [ -34.910292399999946, -7.953750899999937 ], [ -34.910191499999932, -7.953119199999953 ], [ -34.910161, -7.952824799999971 ], [ -34.910156299999983, -7.952779599999953 ], [ -34.909248599999955, -7.944014599999973 ], [ -34.909346199999959, -7.943927899999958 ], [ -34.909921599999969, -7.943417599999962 ], [ -34.910225599999933, -7.9431367 ], [ -34.910499799999961, -7.942881 ], [ -34.910589399999942, -7.942790699999929 ], [ -34.910637299999969, -7.9426276 ], [ -34.910699499999957, -7.942343899999954 ], [ -34.910749599999974, -7.942261 ], [ -34.910978199999938, -7.941882699999965 ], [ -34.911018399999939, -7.941816099999936 ], [ -34.911283899999951, -7.941122 ], [ -34.911295199999984, -7.940409 ], [ -34.911263799999979, -7.940341499999942 ], [ -34.911214099999931, -7.940234799999918 ], [ -34.911125599999934, -7.940031499999974 ], [ -34.911095499999931, -7.939849499999958 ], [ -34.911047699999983, -7.93956079999996 ], [ -34.911238099999935, -7.939107099999971 ], [ -34.911310199999953, -7.939056299999929 ], [ -34.911699399999982, -7.93875 ], [ -34.911901899999982, -7.938557299999947 ], [ -34.911975699999971, -7.938487 ], [ -34.910875099999942, -7.936829599999935 ], [ -34.916433799999936, -7.93368539999996 ], [ -34.916169799999977, -7.932684899999976 ], [ -34.917156499999969, -7.932101199999984 ], [ -34.917920799999926, -7.933074 ], [ -34.919894199999924, -7.932976699999928 ], [ -34.920811399999934, -7.930906099999961 ], [ -34.921603499999954, -7.931003399999935 ], [ -34.92296539999996, -7.930628099999962 ], [ -34.922862299999977, -7.929906899999929 ], [ -34.921780399999932, -7.929310699999969 ], [ -34.921145, -7.928879399999959 ], [ -34.920741599999928, -7.928605599999956 ], [ -34.920354499999974, -7.92834289999995 ], [ -34.918519699999941, -7.927097499999932 ], [ -34.918337399999984, -7.927026099999988 ], [ -34.918182, -7.926965199999914 ], [ -34.917316, -7.926943099999936 ], [ -34.915756099999953, -7.927116399999944 ], [ -34.914798799999978, -7.9276 ], [ -34.914046299999939, -7.928186899999953 ], [ -34.913294699999945, -7.929113599999947 ], [ -34.912887599999983, -7.929900799999929 ], [ -34.912578099999955, -7.93126459999996 ], [ -34.912554099999959, -7.933629899999985 ], [ -34.912546299999974, -7.934397899999964 ], [ -34.910037599999953, -7.935843699999988 ], [ -34.90853189999995, -7.936040699999975 ], [ -34.907171299999966, -7.9359 ], [ -34.906397099999943, -7.935497299999927 ], [ -34.906139099999962, -7.935186899999941 ], [ -34.905397, -7.934293699999974 ], [ -34.905388, -7.934278399999927 ], [ -34.904210299999924, -7.932283099999946 ], [ -34.903176199999969, -7.931221299999934 ], [ -34.901792399999977, -7.930294499999959 ], [ -34.900541299999936, -7.92985819999993 ], [ -34.899548599999946, -7.929712399999969 ], [ -34.899139, -7.929293 ], [ -34.898808, -7.928902 ], [ -34.898489, -7.928532 ], [ -34.898166, -7.928131 ], [ -34.897756, -7.927338 ], [ -34.89691, -7.924805 ], [ -34.896546, -7.92383 ], [ -34.896464, -7.923655 ], [ -34.896007, -7.922366 ], [ -34.895884, -7.922046 ], [ -34.895444, -7.920757 ], [ -34.895410199999958, -7.92024489999996 ], [ -34.895403, -7.920135 ], [ -34.895468, -7.919764 ], [ -34.895673, -7.919189 ], [ -34.895828, -7.918704 ], [ -34.896276, -7.918082 ], [ -34.896507799999938, -7.917864899999908 ], [ -34.89597549999997, -7.916948699999953 ], [ -34.895200599999953, -7.916142899999941 ], [ -34.894978199999969, -7.915667299999934 ], [ -34.894993, -7.914805599999966 ], [ -34.894769899999979, -7.914439 ], [ -34.894288899999935, -7.914075799999985 ], [ -34.894029899999971, -7.91334029999996 ], [ -34.893365199999941, -7.912904799999977 ], [ -34.891376399999956, -7.912766099999944 ], [ -34.890382399999964, -7.9119267 ], [ -34.889682799999953, -7.91167409999998 ], [ -34.888544, -7.911642699999984 ], [ -34.887882099999963, -7.912014899999988 ], [ -34.887459, -7.912252799999973 ], [ -34.887282, -7.912253699999954 ], [ -34.887125199999957, -7.912254499999973 ], [ -34.886981399999968, -7.912255199999954 ], [ -34.886616699999927, -7.912440199999922 ], [ -34.886284599999954, -7.912662499999969 ], [ -34.885517199999981, -7.91365619999996 ], [ -34.885239, -7.91383159999997 ], [ -34.884930299999951, -7.9140262 ], [ -34.884157799999976, -7.914138499999967 ], [ -34.883312199999978, -7.914033199999942 ], [ -34.883017299999949, -7.914042 ], [ -34.882065, -7.914346699999947 ], [ -34.881893599999962, -7.914794299999913 ], [ -34.87979849999995, -7.914251499999959 ], [ -34.878989099999963, -7.917098899999931 ], [ -34.879008099999972, -7.9175084 ], [ -34.880017499999951, -7.917546399999949 ], [ -34.88100419999995, -7.917775199999948 ], [ -34.881203099999929, -7.917360699999957 ], [ -34.881255499999959, -7.916913199999946 ], [ -34.881617399999989, -7.917194099999961 ], [ -34.881865, -7.917198899999963 ], [ -34.882224299999962, -7.917294699999949 ], [ -34.882265, -7.917222699999948 ], [ -34.882903, -7.916975099999961 ], [ -34.883683899999944, -7.916708399999958 ], [ -34.884478, -7.916709799999973 ], [ -34.884677099999976, -7.916979099999954 ], [ -34.884908099999961, -7.918070599999972 ], [ -34.885820199999962, -7.918484299999909 ], [ -34.88610749999998, -7.918624899999949 ], [ -34.886421799999944, -7.917910699999927 ], [ -34.886993099999984, -7.918072599999944 ], [ -34.887812099999962, -7.918072599999954 ], [ -34.888614399999945, -7.917694099999958 ], [ -34.890154799999948, -7.91872019999992 ], [ -34.889500099999971, -7.91963669999994 ], [ -34.889057199999975, -7.920308099999968 ], [ -34.889628599999988, -7.920551 ], [ -34.889571499999931, -7.920836599999989 ], [ -34.889814299999962, -7.921008099999947 ], [ -34.889685799999938, -7.921408 ], [ -34.888757299999945, -7.921236599999927 ], [ -34.888314399999963, -7.921408 ], [ -34.888314399999963, -7.921822299999977 ], [ -34.888600099999962, -7.922322199999928 ], [ -34.89092849999998, -7.922593599999963 ], [ -34.887643099999934, -7.925864799999943 ], [ -34.886628899999955, -7.925414799999945 ], [ -34.88664319999998, -7.92615759999998 ], [ -34.886514599999948, -7.927157499999979 ], [ -34.886228899999928, -7.927257499999922 ], [ -34.885843199999954, -7.927514599999953 ], [ -34.885714699999937, -7.927928899999931 ], [ -34.886028899999928, -7.928171699999968 ], [ -34.885914699999944, -7.928514599999955 ], [ -34.886128899999967, -7.929000199999971 ], [ -34.885771799999922, -7.929614499999978 ], [ -34.884829, -7.929114499999971 ], [ -34.88434339999997, -7.9286003 ], [ -34.884471899999944, -7.928286 ], [ -34.884271899999931, -7.928014599999912 ], [ -34.883772, -7.92797169999995 ], [ -34.883243499999935, -7.927886 ], [ -34.883514899999966, -7.92745749999994 ], [ -34.883772, -7.927500399999928 ], [ -34.883957699999939, -7.927271799999984 ], [ -34.883972, -7.926571899999955 ], [ -34.883072, -7.925914799999947 ], [ -34.882300699999973, -7.9257148 ], [ -34.881843599999968, -7.926200499999948 ], [ -34.881686399999971, -7.926875399999981 ], [ -34.881915, -7.927189699999922 ], [ -34.882086399999935, -7.92750389999998 ], [ -34.881700699999953, -7.927846799999945 ], [ -34.88190069999996, -7.928389599999932 ], [ -34.88198639999996, -7.928732399999944 ], [ -34.881829299999943, -7.929089499999979 ], [ -34.881700699999961, -7.929646599999958 ], [ -34.881929299999967, -7.929775199999938 ], [ -34.881929299999967, -7.930303699999968 ], [ -34.882186399999966, -7.930689399999953 ], [ -34.882543499999933, -7.930746499999943 ], [ -34.88315769999997, -7.9305608 ], [ -34.883372, -7.930432199999914 ], [ -34.884000499999956, -7.930189399999966 ], [ -34.884114799999956, -7.929803699999977 ], [ -34.884500499999952, -7.929703699999962 ], [ -34.885529, -7.930203699999959 ], [ -34.884743299999975, -7.931517899999964 ], [ -34.884029099999964, -7.931403599999965 ], [ -34.883572, -7.932117799999966 ], [ -34.882857799999954, -7.932189199999915 ], [ -34.882486399999948, -7.933189199999984 ], [ -34.882772099999954, -7.933532 ], [ -34.882315, -7.934346199999931 ], [ -34.88192929999996, -7.934389099999979 ], [ -34.880800799999982, -7.933774799999967 ], [ -34.880100899999952, -7.934289099999953 ], [ -34.879617599999968, -7.934056099999975 ], [ -34.879022399999947, -7.933699799999944 ], [ -34.878874799999949, -7.9333475 ], [ -34.878532, -7.932909399999959 ], [ -34.878108199999929, -7.93276179999997 ], [ -34.878074799999979, -7.9321214 ], [ -34.878512899999983, -7.931788099999938 ], [ -34.878179599999953, -7.93135 ], [ -34.877255899999973, -7.93175 ], [ -34.877265399999935, -7.93135 ], [ -34.876979699999943, -7.930912 ], [ -34.87673209999997, -7.930550099999927 ], [ -34.876865399999929, -7.929835899999944 ], [ -34.877246299999975, -7.92986439999991 ], [ -34.877627299999979, -7.930321499999924 ], [ -34.878941399999981, -7.929702499999972 ], [ -34.879236699999986, -7.929602599999935 ], [ -34.879703299999967, -7.930097799999962 ], [ -34.880093699999975, -7.929783499999905 ], [ -34.880369899999941, -7.929916799999927 ], [ -34.880598399999947, -7.929735899999982 ], [ -34.880465099999981, -7.92909779999995 ], [ -34.880750799999937, -7.92839309999994 ], [ -34.880008, -7.927897899999973 ], [ -34.879408099999978, -7.92739319999994 ], [ -34.879903299999974, -7.926888499999966 ], [ -34.880179399999967, -7.9257838 ], [ -34.880427, -7.924893399999955 ], [ -34.880817499999985, -7.924445899999951 ], [ -34.88132219999995, -7.924150599999956 ], [ -34.882093499999939, -7.923741199999965 ], [ -34.881836399999948, -7.92331259999997 ], [ -34.881112699999953, -7.923626899999919 ], [ -34.880798399999946, -7.923607799999941 ], [ -34.88063649999998, -7.923998299999939 ], [ -34.880331799999972, -7.924064899999957 ], [ -34.879836599999983, -7.923626899999933 ], [ -34.87937, -7.923922099999988 ], [ -34.879455699999937, -7.924245899999942 ], [ -34.87917, -7.92429349999998 ], [ -34.878893799999958, -7.9241792 ], [ -34.87814149999997, -7.924179199999984 ], [ -34.878084399999977, -7.924531599999958 ], [ -34.878617699999957, -7.924741099999947 ], [ -34.87897, -7.925045799999964 ], [ -34.879293799999964, -7.925655299999948 ], [ -34.879217599999954, -7.925883799999943 ], [ -34.879293799999964, -7.926302799999979 ], [ -34.878674799999949, -7.926893299999966 ], [ -34.878503399999943, -7.927083699999972 ], [ -34.87814149999997, -7.926636099999956 ], [ -34.877246299999975, -7.926731399999955 ], [ -34.876903499999969, -7.927121799999971 ], [ -34.876884499999967, -7.927626499999964 ], [ -34.876217899999972, -7.928359799999949 ], [ -34.874570399999975, -7.926902799999956 ], [ -34.874103799999951, -7.926712299999958 ], [ -34.873941899999984, -7.92626469999994 ], [ -34.874599, -7.926169499999938 ], [ -34.874970399999945, -7.925664799999929 ], [ -34.875008399999956, -7.925245799999973 ], [ -34.873389499999973, -7.924998199999945 ], [ -34.873218099999967, -7.9247506 ], [ -34.872932399999975, -7.92429349999998 ], [ -34.872218199999971, -7.92400779999997 ], [ -34.87233249999997, -7.924750599999968 ], [ -34.872084899999948, -7.925360099999986 ], [ -34.871694399999981, -7.926102899999933 ], [ -34.871694399999967, -7.926483799999948 ], [ -34.872046799999971, -7.926683799999965 ], [ -34.8720087, -7.927398 ], [ -34.872189599999963, -7.928069399999951 ], [ -34.872570599999953, -7.928774099999949 ], [ -34.873608599999962, -7.93002159999995 ], [ -34.874713199999974, -7.930764399999932 ], [ -34.874808499999986, -7.931221499999922 ], [ -34.8742276, -7.932211899999968 ], [ -34.872932399999968, -7.932440399999965 ], [ -34.872561, -7.931916599999959 ], [ -34.872018199999964, -7.931983299999934 ], [ -34.871618299999973, -7.932230899999962 ], [ -34.871046899999953, -7.932297599999974 ], [ -34.870945599999978, -7.93290379999997 ], [ -34.870796, -7.932830799999988 ], [ -34.870288699999946, -7.9327089 ], [ -34.8697835, -7.932573599999943 ], [ -34.869373299999957, -7.932457799999959 ], [ -34.869298199999953, -7.932428399999955 ], [ -34.868875699999933, -7.932232699999924 ], [ -34.868497099999963, -7.932005 ], [ -34.867861, -7.931633499999948 ], [ -34.866982099999973, -7.93138429999993 ], [ -34.866748399999949, -7.931304799999964 ], [ -34.866737299999954, -7.931252199999972 ], [ -34.866780499999948, -7.931179799999942 ], [ -34.86695659999998, -7.931050699999952 ], [ -34.867048199999942, -7.931003 ], [ -34.8672266, -7.930790899999955 ], [ -34.867498799999971, -7.930544499999936 ], [ -34.867641499999948, -7.930413499999924 ], [ -34.867761399999949, -7.930296299999939 ], [ -34.867940299999937, -7.930132599999952 ], [ -34.867984699999973, -7.930023099999958 ], [ -34.86794569999995, -7.929970199999964 ], [ -34.867916799999939, -7.929810199999965 ], [ -34.867922399999934, -7.929702799999975 ], [ -34.86793739999996, -7.929594699999946 ], [ -34.867957499999932, -7.929525899999942 ], [ -34.868051299999927, -7.9293365 ], [ -34.868071499999935, -7.9292761 ], [ -34.868129, -7.929108199999959 ], [ -34.868167099999944, -7.928992799999952 ], [ -34.868146699999954, -7.928945 ], [ -34.868133499999942, -7.928914 ], [ -34.867907499999944, -7.928801399999948 ], [ -34.868021099999964, -7.928710199999953 ], [ -34.868162, -7.928670899999916 ], [ -34.868278, -7.928667399999948 ], [ -34.868432499999983, -7.928692 ], [ -34.868590599999955, -7.9287166 ], [ -34.868664299999971, -7.928688499999965 ], [ -34.868783799999967, -7.928555 ], [ -34.868925899999958, -7.928330699999921 ], [ -34.868903499999945, -7.92801039999993 ], [ -34.868854899999974, -7.927535 ], [ -34.868317, -7.92617 ], [ -34.868156899999974, -7.923808399999947 ], [ -34.86749279999998, -7.922501 ], [ -34.866486099999968, -7.921565299999932 ], [ -34.866139099999941, -7.921875 ], [ -34.865612699999936, -7.921705799999902 ], [ -34.865476899999976, -7.9216868 ], [ -34.865276899999976, -7.921659399999955 ], [ -34.865022299999971, -7.921632499999926 ], [ -34.864877699999973, -7.921643199999928 ], [ -34.864726199999943, -7.921654399999981 ], [ -34.864638599999985, -7.921641099999939 ], [ -34.864550599999973, -7.921606599999977 ], [ -34.864411499999967, -7.921601099999965 ], [ -34.864301, -7.921613899999972 ], [ -34.864159899999947, -7.921558299999973 ], [ -34.864128299999948, -7.921475299999955 ], [ -34.864052399999927, -7.92125669999997 ], [ -34.863963199999951, -7.921120799999906 ], [ -34.863830499999949, -7.920955199999965 ], [ -34.863722099999976, -7.920871899999934 ], [ -34.863550699999969, -7.920834199999951 ], [ -34.863342099999947, -7.920862799999957 ], [ -34.863105899999937, -7.92091059999998 ], [ -34.862834, -7.921005699999965 ], [ -34.862589799999974, -7.921000399999973 ], [ -34.862312799999984, -7.921082199999964 ], [ -34.862091599999935, -7.921162599999951 ], [ -34.861922699999987, -7.921327499999968 ], [ -34.861822099999976, -7.921375799999987 ], [ -34.861765799999958, -7.921536699999931 ], [ -34.861580799999949, -7.921890599999942 ], [ -34.861488299999969, -7.922282799999942 ], [ -34.861415899999933, -7.922471799999908 ], [ -34.861436, -7.9226649 ], [ -34.861500399999947, -7.9227936 ], [ -34.861584799999946, -7.9228821 ], [ -34.86168129999993, -7.9230067 ], [ -34.86186679999998, -7.923225899999965 ], [ -34.862023799999974, -7.923507199999954 ], [ -34.862148099999963, -7.923707 ], [ -34.862162799999965, -7.923736 ], [ -34.862231199999933, -7.923831 ], [ -34.862260299999946, -7.923942099999979 ], [ -34.862264299999936, -7.924 ], [ -34.862269899999944, -7.924081699999912 ], [ -34.862295499999959, -7.924241399999972 ], [ -34.862324, -7.92432879999995 ], [ -34.862465199999981, -7.924530899999975 ], [ -34.8625924, -7.924744299999916 ], [ -34.862711299999951, -7.925048799999932 ], [ -34.862712799999947, -7.925061599999919 ], [ -34.86232259999997, -7.925278099999958 ], [ -34.862227299999965, -7.92530369999997 ], [ -34.862191099999968, -7.925389899999979 ], [ -34.862175, -7.925431 ], [ -34.862122099999972, -7.925517399999916 ], [ -34.86204869999996, -7.92561629999997 ], [ -34.862058199999971, -7.925702099999962 ], [ -34.862104099999954, -7.925823399999951 ], [ -34.862103299999937, -7.925932099999978 ], [ -34.861979, -7.926018399999983 ], [ -34.861838699999971, -7.926063499999937 ], [ -34.861738499999952, -7.926147699999937 ], [ -34.861620399999936, -7.926241799999963 ], [ -34.861296399999958, -7.926401 ], [ -34.860948199999946, -7.926532599999959 ], [ -34.860699599999975, -7.926628699999986 ], [ -34.860592299999951, -7.926670599999951 ], [ -34.86058809999998, -7.926672 ], [ -34.860328, -7.926757899999918 ], [ -34.860212399999966, -7.926786299999962 ], [ -34.860019099999924, -7.926823299999976 ], [ -34.859922299999944, -7.926816 ], [ -34.859808, -7.926829199999938 ], [ -34.859673599999958, -7.926852299999963 ], [ -34.859594899999934, -7.926884099999923 ], [ -34.859258599999976, -7.926921099999954 ], [ -34.859164199999952, -7.926955099999934 ], [ -34.859114699999964, -7.926967899999988 ], [ -34.858986499999958, -7.926986199999921 ], [ -34.858949899999963, -7.927021 ], [ -34.85890779999994, -7.927035699999964 ], [ -34.85879969999997, -7.927035699999982 ], [ -34.858741099999975, -7.927013699999976 ], [ -34.858697099999965, -7.927006399999934 ], [ -34.858589099999968, -7.927032 ], [ -34.858530499999972, -7.927054 ], [ -34.858402299999966, -7.927092499999977 ], [ -34.858325299999933, -7.927090599999926 ], [ -34.858263099999931, -7.927103499999928 ], [ -34.858204499999957, -7.927123599999979 ], [ -34.858098199999986, -7.927160199999933 ], [ -34.858063399999935, -7.92719689999994 ], [ -34.858043299999963, -7.927222499999982 ], [ -34.858019499999962, -7.927231699999942 ], [ -34.857915099999957, -7.927229799999973 ], [ -34.857829699999968, -7.92718319999994 ], [ -34.8576571, -7.926966699999971 ], [ -34.857073399999926, -7.926438799999978 ], [ -34.856751299999928, -7.92615579999994 ], [ -34.855620399999971, -7.925126399999941 ], [ -34.855118899999972, -7.92469679999996 ], [ -34.853933399999967, -7.923713199999953 ], [ -34.853773299999951, -7.923567199999975 ], [ -34.853563299999969, -7.923419099999959 ], [ -34.853231499999936, -7.923225099999961 ], [ -34.852237299999956, -7.922643499999931 ], [ -34.851788099999965, -7.922293499999981 ], [ -34.851273499999927, -7.92180779999994 ], [ -34.851093499999941, -7.921589599999922 ], [ -34.850989799999979, -7.921466299999975 ], [ -34.85072839999998, -7.92115539999998 ], [ -34.850559, -7.920958899999981 ], [ -34.85030439999997, -7.920694199999947 ], [ -34.850100799999964, -7.92048259999997 ], [ -34.849261399999939, -7.919813599999935 ], [ -34.849162499999977, -7.919727799999961 ], [ -34.84903769999994, -7.919624299999934 ], [ -34.848598899999963, -7.91925849999994 ], [ -34.848490299999987, -7.919167899999914 ], [ -34.846954799999928, -7.917973399999944 ], [ -34.846548299999938, -7.9176654 ], [ -34.846206599999967, -7.917349199999928 ], [ -34.84590819999994, -7.917032099999989 ], [ -34.845645699999984, -7.916647399999917 ], [ -34.845524099999977, -7.916426299999959 ], [ -34.845329699999986, -7.915985499999984 ], [ -34.845214299999945, -7.915633199999955 ], [ -34.845123399999977, -7.915176399999945 ], [ -34.845084899999968, -7.914972499999988 ], [ -34.845040799999943, -7.914559099999939 ], [ -34.844987, -7.914158299999945 ], [ -34.8449275, -7.913752299999922 ], [ -34.844866499999974, -7.913371799999931 ], [ -34.844762499999945, -7.912738399999969 ], [ -34.844586299999946, -7.911753299999916 ], [ -34.844510899999932, -7.911311099999971 ], [ -34.844245899999969, -7.9097561 ], [ -34.844171399999937, -7.909283 ], [ -34.844111599999962, -7.908914299999927 ], [ -34.844069399999967, -7.908644699999982 ], [ -34.844005, -7.908276299999941 ], [ -34.84393259999996, -7.907697499999953 ], [ -34.843857599999978, -7.906991699999924 ], [ -34.843731399999967, -7.905748599999971 ], [ -34.843667099999948, -7.905121 ], [ -34.843590499999941, -7.904762799999967 ], [ -34.843441, -7.904331 ], [ -34.843172299999935, -7.9037853 ], [ -34.843387599999964, -7.903713699999957 ], [ -34.844039199999933, -7.90374779999998 ], [ -34.84426219999996, -7.903656299999965 ], [ -34.844281699999947, -7.903121599999973 ], [ -34.844603399999983, -7.903221899999964 ], [ -34.844879099999957, -7.903115199999926 ], [ -34.845076799999958, -7.902725 ], [ -34.845217299999945, -7.90211369999996 ], [ -34.845461799999953, -7.901609099999953 ], [ -34.845279699999935, -7.90111479999996 ], [ -34.845529399999982, -7.899907799999951 ], [ -34.845690699999984, -7.898972599999981 ], [ -34.845781099999961, -7.898168799999957 ], [ -34.845919, -7.897427399999983 ], [ -34.846197299999979, -7.896485699999959 ], [ -34.846075099999958, -7.896106 ], [ -34.84571219999998, -7.895627299999938 ], [ -34.845142499999959, -7.895598699999956 ], [ -34.844267099999975, -7.895570099999927 ], [ -34.843653199999949, -7.895570099999917 ], [ -34.843268899999948, -7.895507599999958 ], [ -34.842952199999957, -7.89538149999992 ], [ -34.842559399999963, -7.895202 ], [ -34.841719799999957, -7.894715499999965 ], [ -34.84129379999996, -7.894262899999928 ], [ -34.840921799999933, -7.893245799999931 ], [ -34.840693599999945, -7.892562899999977 ], [ -34.840638699999943, -7.892297 ], [ -34.840540099999942, -7.891819 ], [ -34.840311199999967, -7.8917279 ], [ -34.840157699999963, -7.891540599999919 ], [ -34.840345, -7.891080199999957 ], [ -34.840321599999982, -7.890833099999935 ], [ -34.840171299999952, -7.89062629999996 ], [ -34.839721299999958, -7.890571599999935 ], [ -34.839547699999969, -7.890229499999962 ], [ -34.839178299999958, -7.889584399999907 ], [ -34.838952, -7.889179899999955 ], [ -34.83894939999994, -7.8888977 ], [ -34.8389936, -7.88829679999997 ], [ -34.839004, -7.887768699999982 ], [ -34.838946799999988, -7.887178199999911 ], [ -34.838687299999947, -7.88671 ], [ -34.838421899999958, -7.886051799999975 ], [ -34.838474, -7.885711 ], [ -34.838247699999968, -7.885159599999973 ], [ -34.83848439999997, -7.884601599999958 ], [ -34.838598799999943, -7.884375299999925 ], [ -34.838307499999985, -7.8838992 ], [ -34.838104599999944, -7.88347259999994 ], [ -34.838206, -7.88321249999994 ], [ -34.838705299999958, -7.882753299999925 ], [ -34.838558, -7.88265 ], [ -34.838420099999958, -7.882452199999944 ], [ -34.837987399999982, -7.882613899999971 ], [ -34.837740499999938, -7.882423899999927 ], [ -34.837006299999985, -7.882660499999941 ], [ -34.836573, -7.882590399999973 ], [ -34.836168099999959, -7.882591099999942 ], [ -34.835065499999985, -7.882733699999947 ], [ -34.834858899999972, -7.881158099999942 ], [ -34.834503899999945, -7.881185799999967 ], [ -34.834032499999985, -7.881213799999938 ], [ -34.833684, -7.881233899999945 ], [ -34.833341, -7.881280599999972 ], [ -34.833501799999972, -7.880907599999937 ], [ -34.833758399999972, -7.880370599999926 ], [ -34.834041099999979, -7.879846599999971 ], [ -34.834147299999984, -7.879904299999941 ], [ -34.834576499999976, -7.879091199999957 ], [ -34.835228799999989, -7.877617499999924 ], [ -34.835270899999948, -7.877523599999968 ], [ -34.834157599999969, -7.876114599999942 ], [ -34.833625899999959, -7.8757884 ], [ -34.83349539999994, -7.875747 ], [ -34.833654399999944, -7.875309699999923 ], [ -34.834002299999959, -7.874217899999953 ], [ -34.834212599999951, -7.873598899999942 ], [ -34.834386699999975, -7.873116399999943 ], [ -34.83607219999994, -7.873429699999969 ], [ -34.836652199999961, -7.873150199999937 ], [ -34.83808369999997, -7.8715587 ], [ -34.838144699999937, -7.869048099999917 ], [ -34.838377099999938, -7.867600299999935 ], [ -34.838635199999935, -7.8670021 ], [ -34.839422699999936, -7.865719 ], [ -34.83974, -7.865164899999973 ], [ -34.840021499999985, -7.865091199999918 ], [ -34.840052799999967, -7.864912399999977 ], [ -34.840236, -7.864675599999921 ], [ -34.840316399999949, -7.864510199999954 ], [ -34.840446, -7.864304699999948 ], [ -34.840566699999954, -7.864117 ], [ -34.84114759999995, -7.863330499999948 ], [ -34.841372699999972, -7.863123899999951 ], [ -34.84072039999996, -7.861245499999923 ], [ -34.841151099999927, -7.85940059999996 ], [ -34.841375199999959, -7.858440499999983 ], [ -34.841466399999952, -7.85804979999996 ], [ -34.841724799999952, -7.856942699999952 ], [ -34.841663899999965, -7.855370599999955 ], [ -34.841568399999979, -7.852908399999949 ], [ -34.841552499999977, -7.852499299999979 ], [ -34.841524599999957, -7.851779799999986 ], [ -34.841122499999983, -7.847790899999941 ], [ -34.841040199999952, -7.846973799999937 ], [ -34.841102299999939, -7.84512239999998 ], [ -34.840198699999974, -7.845037799999955 ], [ -34.84017, -7.844345299999936 ], [ -34.840387799999981, -7.843490499999973 ], [ -34.840743599999932, -7.842580699999914 ], [ -34.840785199999978, -7.842051 ], [ -34.840814, -7.841337499999947 ], [ -34.841011399999964, -7.840787899999941 ], [ -34.840923099999941, -7.840509899999972 ], [ -34.840443599999958, -7.840113199999953 ], [ -34.839587299999948, -7.83961739999997 ], [ -34.838769, -7.839578099999938 ], [ -34.837902399999962, -7.839961699999956 ], [ -34.837555799999969, -7.840691699999979 ], [ -34.83743579999998, -7.84155 ], [ -34.836953199999982, -7.843143 ], [ -34.83675089999997, -7.84364789999993 ], [ -34.83650949999997, -7.844102399999959 ], [ -34.836468799999984, -7.844324 ], [ -34.83646669999996, -7.844335799999931 ], [ -34.836378099999934, -7.844839799999935 ], [ -34.836352499999975, -7.844985499999946 ], [ -34.83628049999993, -7.845367199999957 ], [ -34.836134699999945, -7.846147699999953 ], [ -34.835857399999959, -7.847497799999925 ], [ -34.835770399999944, -7.849023199999976 ], [ -34.835564399999953, -7.849996299999935 ], [ -34.835368799999983, -7.851316599999983 ], [ -34.835328399999973, -7.851472499999953 ], [ -34.834947699999923, -7.852943199999959 ], [ -34.834549899999949, -7.854235599999988 ], [ -34.834319, -7.855357 ], [ -34.834314099999972, -7.855401 ], [ -34.834313699999946, -7.855408 ], [ -34.834155699999933, -7.856822399999928 ], [ -34.834031899999964, -7.858365499999953 ], [ -34.834140599999955, -7.859698699999986 ], [ -34.834214599999939, -7.860873899999971 ], [ -34.834232099999959, -7.861150299999961 ], [ -34.834352, -7.862169899999985 ], [ -34.834393399999954, -7.862521399999918 ], [ -34.834417399999957, -7.864030699999957 ], [ -34.834375199999961, -7.865587599999968 ], [ -34.834162399999968, -7.866917 ], [ -34.83408929999996, -7.86779179999994 ], [ -34.833935899999965, -7.869145299999966 ], [ -34.833523899999939, -7.870695399999934 ], [ -34.832873699999936, -7.872289499999962 ], [ -34.832713, -7.872612599999971 ], [ -34.832091799999944, -7.87386179999991 ], [ -34.831820099999966, -7.87433609999993 ], [ -34.831733299999939, -7.87448749999992 ], [ -34.831434, -7.87501 ], [ -34.83093949999995, -7.875980299999985 ], [ -34.830404, -7.876689099999982 ], [ -34.829423, -7.87781579999994 ], [ -34.828905699999957, -7.878410799999942 ], [ -34.828462499999951, -7.878920599999983 ], [ -34.827566499999932, -7.87982809999995 ], [ -34.826989099999942, -7.880392899999952 ], [ -34.826485099999964, -7.881145 ], [ -34.825780199999947, -7.882097699999972 ], [ -34.825172899999984, -7.883024499999967 ], [ -34.824777099999949, -7.883857599999938 ], [ -34.82450289999997, -7.884498099999956 ], [ -34.824319399999979, -7.88532019999996 ], [ -34.824256699999978, -7.885739299999941 ], [ -34.82411819999993, -7.886665199999913 ], [ -34.823871899999972, -7.887887299999909 ], [ -34.823747899999958, -7.888221699999974 ], [ -34.823729299999975, -7.8886027 ], [ -34.8237549, -7.889175 ], [ -34.823789499999982, -7.889394299999949 ], [ -34.823851, -7.889784499999973 ], [ -34.823907, -7.890286 ], [ -34.823808, -7.891138899999921 ], [ -34.823746899999954, -7.891731 ], [ -34.823707099999979, -7.892457499999971 ], [ -34.823812599999947, -7.89322169999996 ], [ -34.823820199999943, -7.893717499999986 ], [ -34.823730899999944, -7.894090899999987 ], [ -34.823593799999962, -7.894365899999954 ], [ -34.823578399999974, -7.89474719999991 ], [ -34.823678499999986, -7.895232 ], [ -34.823897, -7.896421699999936 ], [ -34.824131799999982, -7.897497 ], [ -34.82420129999997, -7.897768599999935 ], [ -34.824378199999948, -7.89846 ], [ -34.82441689999996, -7.898702299999975 ], [ -34.824448599999975, -7.899397499999981 ], [ -34.824530099999954, -7.899933299999935 ], [ -34.824776599999964, -7.901135099999982 ], [ -34.824846, -7.901948199999933 ], [ -34.824891, -7.902474499999899 ], [ -34.824875299999967, -7.903997 ], [ -34.824602699999957, -7.905207199999969 ], [ -34.82426259999994, -7.906166899999952 ], [ -34.823903199999968, -7.907397199999932 ], [ -34.823447599999952, -7.908392399999989 ], [ -34.822854299999953, -7.909003099999958 ], [ -34.822387499999934, -7.90970149999993 ], [ -34.822144799999933, -7.910259199999929 ], [ -34.822033899999951, -7.91083639999995 ], [ -34.822068299999962, -7.911232499999945 ], [ -34.821844099999964, -7.911681199999975 ], [ -34.82157489999998, -7.912202799999925 ], [ -34.821331199999975, -7.912375199999922 ], [ -34.82113819999995, -7.912629299999937 ], [ -34.821092, -7.912772199999954 ], [ -34.821066099999939, -7.912852 ], [ -34.821075299999968, -7.913080299999952 ], [ -34.820695599999972, -7.914616599999961 ], [ -34.820398, -7.9160204 ], [ -34.820377299999954, -7.916118 ], [ -34.820177399999984, -7.91744949999996 ], [ -34.820162899999957, -7.91772389999996 ], [ -34.820142299999937, -7.918113299999945 ], [ -34.820080599999983, -7.919464699999951 ], [ -34.820049399999967, -7.920603699999978 ], [ -34.820048599999957, -7.920873799999954 ], [ -34.820045799999953, -7.921896299999948 ], [ -34.820049599999948, -7.922249099999933 ], [ -34.820058, -7.923044799999973 ], [ -34.820121499999971, -7.923787499999938 ], [ -34.820212599999941, -7.924447299999923 ], [ -34.820362199999977, -7.925312099999939 ], [ -34.820238499999959, -7.925668699999947 ], [ -34.820238099999983, -7.925672299999987 ], [ -34.820285799999965, -7.925948299999943 ], [ -34.820410399999972, -7.926715 ], [ -34.820523799999933, -7.927292 ], [ -34.820745299999935, -7.92816839999995 ], [ -34.820924199999979, -7.929027799999974 ], [ -34.821082799999942, -7.929663199999911 ], [ -34.8211156, -7.929886199999923 ], [ -34.821077499999944, -7.930120399999954 ], [ -34.821004, -7.930272399999984 ], [ -34.820979499999964, -7.930323199999988 ], [ -34.820864899999954, -7.930561799999943 ], [ -34.820867099999937, -7.930775299999942 ], [ -34.820840099999941, -7.930991199999935 ], [ -34.820873899999981, -7.931218799999948 ], [ -34.8209174, -7.931474699999937 ], [ -34.821012899999971, -7.931573099999968 ], [ -34.82106019999997, -7.931700699999968 ], [ -34.821067099999937, -7.931719299999954 ], [ -34.821074299999957, -7.931853699999966 ], [ -34.821163299999974, -7.931984 ], [ -34.821370299999955, -7.93203979999991 ], [ -34.821487599999955, -7.93209279999998 ], [ -34.821552799999957, -7.932122299999939 ], [ -34.821695799999937, -7.932157 ], [ -34.821908099999973, -7.932283 ], [ -34.82213239999993, -7.932397899999944 ], [ -34.822152299999964, -7.932586599999966 ], [ -34.822208799999942, -7.932880399999911 ], [ -34.82222, -7.932894099999954 ], [ -34.822301699999976, -7.933191299999955 ], [ -34.822382, -7.933500799999917 ], [ -34.822508399999947, -7.933852899999977 ], [ -34.822512699999955, -7.933872199999924 ], [ -34.822569599999959, -7.934223099999952 ], [ -34.822577499999959, -7.9346755 ], [ -34.822419, -7.93491069999992 ], [ -34.822275, -7.935058299999971 ], [ -34.822169599999945, -7.935166299999951 ], [ -34.821798499999936, -7.935292299999956 ], [ -34.821797199999935, -7.935487799999954 ], [ -34.821930299999963, -7.935764299999962 ], [ -34.821935199999984, -7.936184199999951 ], [ -34.822532899999942, -7.936029299999979 ], [ -34.822548799999943, -7.936025199999962 ], [ -34.822900699999934, -7.936118799999982 ], [ -34.823100799999963, -7.936285799999975 ], [ -34.823241699999983, -7.936533599999953 ], [ -34.823266599999961, -7.936901099999958 ], [ -34.823309, -7.937269299999967 ], [ -34.823258099999975, -7.937621399999948 ], [ -34.823250799999983, -7.938097199999967 ], [ -34.823433, -7.93869349999996 ], [ -34.823437199999958, -7.9387128 ], [ -34.823557499999929, -7.939296199999954 ], [ -34.823407399999958, -7.940038299999987 ], [ -34.823031, -7.940367699999955 ], [ -34.823015699999928, -7.940381099999959 ], [ -34.822761899999939, -7.940403099999974 ], [ -34.822669399999945, -7.941182 ], [ -34.823105799999944, -7.941407899999956 ], [ -34.823172599999971, -7.94144249999993 ], [ -34.823327, -7.941733399999975 ], [ -34.823234099999986, -7.942003499999947 ], [ -34.823156899999965, -7.942117799999935 ], [ -34.823011599999973, -7.942333 ], [ -34.822755899999947, -7.942464399999942 ], [ -34.823075, -7.943081199999929 ], [ -34.82302, -7.943299 ], [ -34.823122, -7.943462399999937 ], [ -34.823261299999956, -7.943569099999946 ], [ -34.82371089999998, -7.94391369999996 ], [ -34.823988399999955, -7.944181 ], [ -34.82399359999993, -7.944186 ], [ -34.824189799999957, -7.94452059999996 ], [ -34.824244699999959, -7.945002799999923 ], [ -34.824118799999958, -7.945671799999975 ], [ -34.82388919999994, -7.945928 ], [ -34.823749599999935, -7.946083899999943 ], [ -34.823687099999979, -7.946173 ], [ -34.823399599999959, -7.946431199999958 ], [ -34.823513499999933, -7.946799 ], [ -34.824243499999973, -7.946719599999916 ], [ -34.824319699999933, -7.946711299999945 ], [ -34.824504499999932, -7.946854699999941 ], [ -34.824609, -7.947125399999947 ], [ -34.824825899999958, -7.947571299999924 ], [ -34.824777599999948, -7.947858 ], [ -34.824771899999973, -7.947900299999946 ], [ -34.824697, -7.948463099999977 ], [ -34.82482559999994, -7.948694 ], [ -34.825090799999941, -7.948757799999942 ], [ -34.825363799999941, -7.948885499999946 ], [ -34.825380199999984, -7.948893199999937 ], [ -34.825613299999929, -7.949124199999978 ], [ -34.82571959999995, -7.9493525 ], [ -34.825757899999928, -7.949434699999956 ], [ -34.825741799999946, -7.94973729999997 ], [ -34.825709499999952, -7.95 ], [ -34.825379799999951, -7.950549299999969 ], [ -34.825972899999954, -7.951389799999985 ], [ -34.826381899999944, -7.951299399999931 ], [ -34.826592599999969, -7.951369 ], [ -34.826729899999968, -7.951476499999941 ], [ -34.826863899999978, -7.951615699999951 ], [ -34.826868499999939, -7.951622299999952 ], [ -34.82693729999994, -7.95172 ], [ -34.826966, -7.951811699999942 ], [ -34.826991499999963, -7.951998299999944 ], [ -34.82698639999996, -7.952040199999947 ], [ -34.826956299999964, -7.952286 ], [ -34.826898799999988, -7.952428199999957 ], [ -34.827071099999962, -7.952557899999937 ], [ -34.827132899999988, -7.952559799999961 ], [ -34.827176699999946, -7.952561199999935 ], [ -34.82731, -7.9526572 ], [ -34.827412899999963, -7.952695399999922 ], [ -34.827507699999948, -7.952729499999985 ], [ -34.827519, -7.952736699999932 ], [ -34.82773949999995, -7.952864299999949 ], [ -34.828012699999931, -7.953170099999947 ], [ -34.828323099999977, -7.953795 ], [ -34.828455499999961, -7.954374399999952 ], [ -34.828540399999959, -7.954992699999937 ], [ -34.828511, -7.955822899999931 ], [ -34.828421899999967, -7.957211 ], [ -34.828243099999966, -7.958133299999909 ], [ -34.828168899999987, -7.958406899999939 ], [ -34.828052599999978, -7.958594599999958 ], [ -34.827944699999932, -7.958705199999947 ], [ -34.8279649, -7.9591134 ], [ -34.829056, -7.958916599999966 ], [ -34.830158, -7.958117 ], [ -34.830824, -7.957781 ], [ -34.831396, -7.957927 ], [ -34.831619, -7.957971 ], [ -34.833110199999965, -7.958634899999937 ], [ -34.836543499999955, -7.960163599999923 ], [ -34.837818, -7.960731 ], [ -34.838273, -7.960711 ], [ -34.838677, -7.96067 ], [ -34.83903, -7.96066 ], [ -34.839162, -7.960657 ], [ -34.840249799999988, -7.9606224 ], [ -34.840515, -7.960614 ], [ -34.840747, -7.96094 ], [ -34.841161, -7.960677 ], [ -34.84131739999998, -7.960528799999966 ], [ -34.841466, -7.960388 ], [ -34.84178, -7.9601 ], [ -34.842119, -7.959834 ], [ -34.842467, -7.959546 ], [ -34.842785, -7.959332 ], [ -34.843112, -7.959058 ], [ -34.843467, -7.958804 ], [ -34.843752, -7.958507 ], [ -34.844712, -7.957819 ], [ -34.845088, -7.957516 ], [ -34.845475, -7.957224 ], [ -34.845126, -7.956755 ], [ -34.845428899999952, -7.956626 ], [ -34.845471, -7.956608 ], [ -34.845592, -7.956532 ], [ -34.845908, -7.956384 ], [ -34.846305, -7.956216 ], [ -34.846585, -7.956142 ], [ -34.846839, -7.956092 ], [ -34.847054, -7.956109 ], [ -34.847558, -7.955937 ], [ -34.848072599999966, -7.955745799999943 ], [ -34.848831, -7.955464 ], [ -34.849297, -7.955296 ], [ -34.849728, -7.955124 ], [ -34.850195, -7.954957 ], [ -34.850917, -7.954672 ], [ -34.85092, -7.954731 ], [ -34.85169, -7.954716 ], [ -34.852131399999962, -7.954730899999968 ], [ -34.852135, -7.954731 ], [ -34.852638, -7.954731 ], [ -34.853204, -7.954727 ], [ -34.853621299999929, -7.954780899999963 ], [ -34.855348, -7.955004 ], [ -34.855502, -7.955704 ], [ -34.855534, -7.955817 ], [ -34.855668599999952, -7.956422499999971 ], [ -34.855825, -7.957126 ], [ -34.855941, -7.957697 ], [ -34.856014, -7.958108 ], [ -34.856092, -7.958547 ], [ -34.856169, -7.958929 ], [ -34.856247, -7.959344 ], [ -34.856325, -7.959734 ], [ -34.856401799999958, -7.960194099999948 ], [ -34.856404, -7.960207 ], [ -34.856418, -7.960287 ], [ -34.856683, -7.96185 ], [ -34.856995, -7.962973 ], [ -34.857023, -7.96307 ], [ -34.857121, -7.963414 ], [ -34.857624, -7.965769 ], [ -34.857716, -7.966232 ], [ -34.85799, -7.96702269999995 ], [ -34.858022, -7.967115 ], [ -34.857168, -7.967074 ], [ -34.856976399999958, -7.967076599999925 ], [ -34.856585, -7.967082 ], [ -34.856034, -7.96706 ], [ -34.855392, -7.967038 ], [ -34.855308299999933, -7.967034899999946 ], [ -34.854987, -7.967023 ], [ -34.854024, -7.967184 ], [ -34.853259399999956, -7.96726979999992 ], [ -34.853106, -7.967287 ], [ -34.852197199999978, -7.967441599999975 ], [ -34.851861299999946, -7.967489599999981 ], [ -34.851650799999966, -7.96756339999998 ], [ -34.85151419999994, -7.967578199999941 ], [ -34.851215199999963, -7.967622499999941 ], [ -34.853395899999953, -7.968862599999969 ], [ -34.853399299999978, -7.968864599999984 ], [ -34.854906799999981, -7.969721799999937 ], [ -34.854910399999937, -7.969723799999958 ], [ -34.856906799999933, -7.970859099999939 ], [ -34.858414099999941, -7.971716299999984 ], [ -34.859155299999941, -7.9721443 ], [ -34.860926799999959, -7.973167399999959 ], [ -34.861315599999962, -7.973391899999962 ], [ -34.862936199999986, -7.974327899999925 ], [ -34.862972399999933, -7.974338 ], [ -34.863009599999948, -7.974374799999955 ], [ -34.863046399999973, -7.974396799999971 ], [ -34.863092899999977, -7.974420499999963 ], [ -34.863222899999982, -7.974484 ], [ -34.863319199999978, -7.974529599999925 ], [ -34.863409899999972, -7.974536899999976 ], [ -34.863509799999981, -7.974532 ], [ -34.863594599999942, -7.974515599999966 ], [ -34.863658499999929, -7.974488199999936 ], [ -34.863767499999945, -7.974498899999951 ], [ -34.863897299999962, -7.974522199999968 ], [ -34.864129399999975, -7.97464 ], [ -34.864212699999939, -7.974464599999976 ], [ -34.864756099999965, -7.973320499999961 ], [ -34.864774699999948, -7.97328129999995 ], [ -34.864793299999974, -7.973242299999979 ], [ -34.86481, -7.973207099999984 ], [ -34.864837199999947, -7.973149799999947 ], [ -34.864864499999953, -7.973092499999933 ], [ -34.865082799999982, -7.97263329999993 ], [ -34.865988899999934, -7.9707258 ], [ -34.867011899999959, -7.968572199999927 ], [ -34.8675363, -7.967468299999955 ], [ -34.867537299999981, -7.967466299999962 ], [ -34.867692499999976, -7.967545 ], [ -34.867773199999924, -7.967584099999947 ], [ -34.869390699999933, -7.968404499999949 ], [ -34.869795199999942, -7.9686096 ], [ -34.869905299999971, -7.968666199999973 ], [ -34.870417499999974, -7.968925499999955 ], [ -34.870660399999963, -7.969048499999928 ], [ -34.872135699999951, -7.969810799999938 ], [ -34.872516799999971, -7.970007699999939 ], [ -34.872245899999953, -7.970570399999941 ], [ -34.871975, -7.971133 ], [ -34.871825, -7.971422 ], [ -34.871511099999964, -7.972065 ], [ -34.87137, -7.972354 ], [ -34.871263, -7.972586 ], [ -34.871169, -7.972774 ], [ -34.871069, -7.972978 ], [ -34.870977, -7.973176 ], [ -34.87089, -7.973333 ], [ -34.870771, -7.973596 ], [ -34.870675, -7.97379 ], [ -34.870559, -7.974025 ], [ -34.870466, -7.97422 ], [ -34.870369, -7.974455 ], [ -34.869643, -7.976132 ], [ -34.869593, -7.976181299999931 ], [ -34.869418, -7.976354 ], [ -34.872039799999975, -7.976345599999954 ], [ -34.872488099999941, -7.976344099999964 ], [ -34.872844, -7.976343 ], [ -34.873233, -7.977022 ], [ -34.873106, -7.97792 ], [ -34.872968, -7.978755 ], [ -34.872958, -7.979177 ], [ -34.872884, -7.979663 ], [ -34.872894, -7.980054 ], [ -34.873021, -7.980392 ], [ -34.873466, -7.980698 ], [ -34.87427, -7.980814 ], [ -34.875057199999958, -7.980791599999982 ], [ -34.875361, -7.980783 ], [ -34.876556, -7.980376 ], [ -34.877288, -7.980096 ], [ -34.878011, -7.979436 ], [ -34.878463, -7.978649 ], [ -34.878897, -7.97739 ], [ -34.880392, -7.976575 ], [ -34.881886, -7.975674 ], [ -34.883922, -7.976273 ], [ -34.884044599999982, -7.97626659999998 ], [ -34.885162099999953, -7.976208599999932 ], [ -34.885304399999946, -7.97620129999994 ], [ -34.887414499999977, -7.976091799999971 ], [ -34.89163, -7.975873 ], [ -34.891723599999978, -7.9758682 ], [ -34.891865099999968, -7.975861 ], [ -34.895240799999954, -7.975688199999969 ], [ -34.895264, -7.975687 ], [ -34.897583, -7.976487399999941 ], [ -34.897585599999957, -7.976488299999964 ], [ -34.900404, -7.977461 ], [ -34.901617299999941, -7.977859899999953 ], [ -34.90382, -7.978584 ], [ -34.904949, -7.978573 ], [ -34.906209299999944, -7.97880489999993 ], [ -34.907616599999976, -7.979063699999936 ], [ -34.909472699999981, -7.9794052 ], [ -34.910885, -7.979665 ], [ -34.911182099999955, -7.979586599999948 ], [ -34.912970199999975, -7.979416299999961 ], [ -34.913062399999944, -7.979407499999964 ], [ -34.913361699999932, -7.97939079999998 ], [ -34.913871, -7.979362299999918 ], [ -34.913723799999957, -7.977623299999967 ], [ -34.913579299999988, -7.975836099999983 ], [ -34.913501, -7.974867099999911 ], [ -34.913336599999973, -7.973577599999965 ] ] ] ] } }
]
}
