{
"type": "FeatureCollection",
"name": "2611804",
"crs": { "type": "name", "properties": { "name": "urn:ogc:def:crs:OGC:1.3:CRS84" } },
"features": [
{ "type": "Feature", "properties": { "CD_MUN": "2611804", "NM_MUN": "Ribeirão" }, "geometry": { "type": "MultiPolygon", "coordinates": [ [ [ [ -35.376991, -8.526583699999964 ], [ -35.377096299999948, -8.526765799999955 ], [ -35.377598599999942, -8.527634699999963 ], [ -35.378520199999983, -8.528595199999913 ], [ -35.378825, -8.528849599999932 ], [ -35.379761599999938, -8.529711899999942 ], [ -35.379848799999941, -8.529800899999962 ], [ -35.3804727, -8.5304379 ], [ -35.380686699999963, -8.530162799999975 ], [ -35.383977399999935, -8.533090199999961 ], [ -35.384722699999941, -8.53200089999997 ], [ -35.38531519999998, -8.531465799999971 ], [ -35.38534379999993, -8.53116 ], [ -35.385477599999952, -8.530949799999986 ], [ -35.385745199999981, -8.530605799999931 ], [ -35.385859799999935, -8.530309599999937 ], [ -35.385859799999935, -8.530022899999967 ], [ -35.38586939999994, -8.52987959999998 ], [ -35.386051, -8.529736299999954 ], [ -35.386328099999957, -8.529908299999917 ], [ -35.386605199999956, -8.530118499999967 ], [ -35.386882299999954, -8.530319199999953 ], [ -35.387293199999931, -8.530395599999958 ], [ -35.387522499999925, -8.5303001 ], [ -35.387598899999951, -8.530118499999981 ], [ -35.387484299999983, -8.529793599999964 ], [ -35.387178499999948, -8.529459199999982 ], [ -35.386891799999951, -8.529220299999942 ], [ -35.386433199999935, -8.529163 ], [ -35.386184699999944, -8.529038699999957 ], [ -35.386251599999987, -8.528752099999965 ], [ -35.386423599999951, -8.528475 ], [ -35.386442699999975, -8.528341199999959 ], [ -35.386203799999983, -8.528226499999969 ], [ -35.385993599999942, -8.528131 ], [ -35.385668699999933, -8.527978099999908 ], [ -35.384827899999948, -8.527777399999916 ], [ -35.384194299999947, -8.527682 ], [ -35.383701199999962, -8.527553499999943 ], [ -35.384202899999934, -8.525551399999944 ], [ -35.38438019999996, -8.524758799999963 ], [ -35.382217399999945, -8.524253199999965 ], [ -35.382343199999987, -8.523760499999963 ], [ -35.382439, -8.523405799999978 ], [ -35.3836, -8.522096699999956 ], [ -35.383303799999972, -8.522087099999956 ], [ -35.382668299999985, -8.522125399999927 ], [ -35.382348199999967, -8.522101499999959 ], [ -35.382181, -8.522058499999936 ], [ -35.381899099999934, -8.522039399999922 ], [ -35.381645899999967, -8.522201799999948 ], [ -35.381402199999968, -8.522311699999941 ], [ -35.381129899999969, -8.52221139999997 ], [ -35.380742899999973, -8.521676199999945 ], [ -35.380604299999966, -8.521255799999942 ], [ -35.380551799999985, -8.520940499999941 ], [ -35.380370199999959, -8.520596499999955 ], [ -35.380152399999936, -8.520369299999953 ], [ -35.380131299999967, -8.519954 ], [ -35.380092599999955, -8.519742799999968 ], [ -35.38017, -8.519492899999939 ], [ -35.3800222, -8.519397899999941 ], [ -35.379808499999967, -8.519386799999969 ], [ -35.379768199999944, -8.51937529999997 ], [ -35.379740699999964, -8.519211499999916 ], [ -35.379662299999957, -8.519086399999924 ], [ -35.379543399999932, -8.519002099999964 ], [ -35.379365899999975, -8.518742199999958 ], [ -35.379285599999953, -8.51852749999993 ], [ -35.379105499999987, -8.518106 ], [ -35.3790413, -8.517742 ], [ -35.379019, -8.517616 ], [ -35.379063599999931, -8.517249499999954 ], [ -35.379291899999949, -8.51723519999998 ], [ -35.379846199999974, -8.517184099999941 ], [ -35.380307299999977, -8.516976499999927 ], [ -35.380492, -8.51689019999996 ], [ -35.380544799999932, -8.516691399999974 ], [ -35.38050439999995, -8.516464399999949 ], [ -35.38044629999996, -8.516318299999982 ], [ -35.380407599999955, -8.5162655 ], [ -35.380203399999978, -8.516121199999944 ], [ -35.38000459999995, -8.515962799999953 ], [ -35.379733599999952, -8.51564079999997 ], [ -35.37966849999998, -8.515540499999934 ], [ -35.379538199999963, -8.515144599999935 ], [ -35.379453799999972, -8.514739799999981 ], [ -35.379441499999984, -8.51434739999997 ], [ -35.379452, -8.514104499999952 ], [ -35.379557599999934, -8.513701499999966 ], [ -35.379622699999963, -8.513643499999951 ], [ -35.37973709999995, -8.513508 ], [ -35.379800399999965, -8.513483299999962 ], [ -35.380025699999976, -8.513317899999947 ], [ -35.380217499999958, -8.513080299999963 ], [ -35.380398799999966, -8.513011699999939 ], [ -35.380602899999928, -8.512985299999965 ], [ -35.380689099999984, -8.512997599999963 ], [ -35.381051599999978, -8.513089099999931 ], [ -35.381206499999969, -8.513110299999941 ], [ -35.381296199999952, -8.513068 ], [ -35.381377199999982, -8.513008199999954 ], [ -35.381414199999938, -8.512950099999944 ], [ -35.381565499999972, -8.512543599999976 ], [ -35.381861099999988, -8.512200499999958 ], [ -35.381956199999934, -8.512033299999953 ], [ -35.38225, -8.511903099999907 ], [ -35.382419, -8.51185549999998 ], [ -35.382820199999976, -8.511808 ], [ -35.38302079999994, -8.511864299999973 ], [ -35.383226699999966, -8.511876699999942 ], [ -35.38332349999996, -8.511933 ], [ -35.383482699999938, -8.512070899999951 ], [ -35.383629699999972, -8.512193399999962 ], [ -35.383749399999942, -8.512432699999989 ], [ -35.38383029999995, -8.512819899999959 ], [ -35.383855, -8.513956699999943 ], [ -35.38392529999993, -8.514833099999967 ], [ -35.384126, -8.515804499999923 ], [ -35.384323099999961, -8.516174 ], [ -35.384407499999959, -8.516606899999935 ], [ -35.38455179999994, -8.516976499999966 ], [ -35.384671499999975, -8.516797 ], [ -35.384805199999967, -8.516304199999965 ], [ -35.385062199999936, -8.516177499999962 ], [ -35.385280399999942, -8.516219799999947 ], [ -35.385512699999936, -8.516258499999923 ], [ -35.38573439999994, -8.516265499999975 ], [ -35.386103899999966, -8.516167 ], [ -35.386251799999968, -8.516029699999924 ], [ -35.386466499999983, -8.51577279999997 ], [ -35.386501599999981, -8.51561439999994 ], [ -35.386867699999989, -8.515705899999917 ], [ -35.387054199999973, -8.51561089999996 ], [ -35.387288899999938, -8.515516899999978 ], [ -35.387462699999958, -8.515578699999933 ], [ -35.387788699999938, -8.515698399999948 ], [ -35.387918699999943, -8.515777499999935 ], [ -35.388044099999945, -8.515955799999965 ], [ -35.388182599999936, -8.516255899999988 ], [ -35.388526199999944, -8.51612419999997 ], [ -35.388692299999946, -8.51622149999997 ], [ -35.388841199999952, -8.516152799999913 ], [ -35.389127799999976, -8.515989899999978 ], [ -35.38871869999997, -8.515412699999956 ], [ -35.388318599999941, -8.514852699999945 ], [ -35.387935299999981, -8.514241 ], [ -35.387519099999956, -8.513549899999923 ], [ -35.387317299999957, -8.513211699999941 ], [ -35.386935799999947, -8.512585699999928 ], [ -35.38677179999997, -8.512309 ], [ -35.386718199999962, -8.512222499999963 ], [ -35.386682899999983, -8.512169099999962 ], [ -35.386540799999977, -8.5119104 ], [ -35.386510499999929, -8.511833099999915 ], [ -35.386494199999959, -8.511808599999936 ], [ -35.386270599999932, -8.511471099999939 ], [ -35.38580769999993, -8.510681 ], [ -35.385448399999966, -8.510103799999959 ], [ -35.385144499999967, -8.509671899999951 ], [ -35.385131499999943, -8.509653499999965 ], [ -35.384959699999975, -8.509425599999931 ], [ -35.384703199999933, -8.509125399999967 ], [ -35.384969399999932, -8.508617699999959 ], [ -35.385254099999948, -8.508126799999946 ], [ -35.385262199999943, -8.507988499999941 ], [ -35.385411599999941, -8.507933599999953 ], [ -35.385419899999938, -8.507591399999971 ], [ -35.385329, -8.507335599999983 ], [ -35.385299199999956, -8.5067761 ], [ -35.385107799999965, -8.50671259999997 ], [ -35.385020299999951, -8.506485799999956 ], [ -35.384928799999955, -8.50624869999997 ], [ -35.384906299999955, -8.506007699999943 ], [ -35.385038499999951, -8.5056385 ], [ -35.385318699999985, -8.505217899999915 ], [ -35.385512499999948, -8.504616499999953 ], [ -35.385705199999961, -8.504322799999969 ], [ -35.385697299999961, -8.503877099999945 ], [ -35.385816699999964, -8.5034745 ], [ -35.385888699999953, -8.503479799999988 ], [ -35.38586179999993, -8.503176099999969 ], [ -35.386009399999985, -8.503083799999946 ], [ -35.386372099999953, -8.502889799999927 ], [ -35.386774299999956, -8.50246079999995 ], [ -35.387122799999922, -8.501602799999967 ], [ -35.387136199999929, -8.500530299999969 ], [ -35.387029, -8.500087899999938 ], [ -35.386961899999967, -8.499377399999952 ], [ -35.386734, -8.49894839999995 ], [ -35.386465899999969, -8.498680299999952 ], [ -35.386494099999936, -8.49841 ], [ -35.385981399999935, -8.498075199999974 ], [ -35.384664099999952, -8.4976177 ], [ -35.3835352, -8.497232799999956 ], [ -35.38192289999995, -8.496700499999964 ], [ -35.381906299999976, -8.496700799999918 ], [ -35.381889599999965, -8.496701099999935 ], [ -35.381673399999954, -8.496589899999952 ], [ -35.38065689999997, -8.496106599999965 ], [ -35.37994579999998, -8.495719699999945 ], [ -35.378817799999986, -8.495028 ], [ -35.37845539999995, -8.49474 ], [ -35.378025499999978, -8.494346 ], [ -35.376760699999984, -8.493552499999947 ], [ -35.376515199999972, -8.493385599999979 ], [ -35.376314, -8.493220799999969 ], [ -35.376051699999948, -8.493007599999954 ], [ -35.374900299999979, -8.492120699999914 ], [ -35.373839199999964, -8.490683199999973 ], [ -35.373636899999958, -8.490392899999943 ], [ -35.373982299999959, -8.4926773 ], [ -35.37388379999993, -8.492682499999951 ], [ -35.373829099999973, -8.492620199999983 ], [ -35.373674799999954, -8.492605299999957 ], [ -35.373445799999956, -8.492642599999956 ], [ -35.373309, -8.49273469999998 ], [ -35.373256699999956, -8.49283919999994 ], [ -35.373065099999963, -8.492906399999988 ], [ -35.372948099999974, -8.492849199999942 ], [ -35.372684399999969, -8.492851699999941 ], [ -35.372612199999942, -8.492869099999936 ], [ -35.372482799999943, -8.492849199999942 ], [ -35.372383199999952, -8.492886499999933 ], [ -35.372313599999984, -8.492963699999947 ], [ -35.372263799999985, -8.492991 ], [ -35.372141899999974, -8.4929711 ], [ -35.372007499999938, -8.492973599999987 ], [ -35.371788499999987, -8.493068199999902 ], [ -35.371691499999947, -8.493142799999939 ], [ -35.3717238, -8.493304399999925 ], [ -35.371739899999959, -8.493389399999957 ], [ -35.371705099999929, -8.493632 ], [ -35.371708599999977, -8.493707899999933 ], [ -35.371802399999979, -8.493859399999971 ], [ -35.372107899999953, -8.493843099999944 ], [ -35.372217699999965, -8.493851099999954 ], [ -35.372264199999961, -8.493927199999987 ], [ -35.372311699999962, -8.49412549999994 ], [ -35.372369399999968, -8.494386699999968 ], [ -35.372416899999969, -8.494772099999965 ], [ -35.372348299999942, -8.495242 ], [ -35.37236409999997, -8.495389899999939 ], [ -35.372348299999942, -8.495490199999949 ], [ -35.372300699999982, -8.495543 ], [ -35.372226799999972, -8.49573829999998 ], [ -35.37214229999995, -8.495865099999945 ], [ -35.372079, -8.495965399999907 ], [ -35.371867799999961, -8.496023499999982 ], [ -35.371783299999954, -8.495986499999971 ], [ -35.371588, -8.495949499999911 ], [ -35.371514, -8.495965399999941 ], [ -35.37140849999998, -8.496007599999942 ], [ -35.371345099999928, -8.49608149999993 ], [ -35.371197299999949, -8.496107899999989 ], [ -35.37112859999997, -8.496076299999947 ], [ -35.37106, -8.496118499999953 ], [ -35.371017699999975, -8.496187099999938 ], [ -35.370991299999957, -8.496276899999931 ], [ -35.370970199999924, -8.496361399999948 ], [ -35.371028299999978, -8.496435299999979 ], [ -35.371146099999976, -8.49649109999997 ], [ -35.371228699999968, -8.496566499999965 ], [ -35.371273699999961, -8.496657599999944 ], [ -35.371218399999975, -8.496794299999967 ], [ -35.3711613, -8.496805399999953 ], [ -35.371076599999981, -8.496726399999966 ], [ -35.371034399999935, -8.496701099999946 ], [ -35.370944, -8.496725899999937 ], [ -35.370870599999932, -8.496812899999973 ], [ -35.370831299999963, -8.496909099999931 ], [ -35.370967799999967, -8.497183199999927 ], [ -35.370975599999944, -8.497369 ], [ -35.37084039999997, -8.497518399999917 ], [ -35.370921899999985, -8.49766189999996 ], [ -35.371133599999943, -8.497827199999969 ], [ -35.371138099999939, -8.497972799999932 ], [ -35.370940599999983, -8.498043499999916 ], [ -35.370768099999971, -8.498168199999927 ], [ -35.37064289999995, -8.498563 ], [ -35.370600599999932, -8.4986792 ], [ -35.370640799999933, -8.498778499999942 ], [ -35.370659299999943, -8.498880099999958 ], [ -35.370774299999937, -8.499012399999975 ], [ -35.370853799999956, -8.499211199999936 ], [ -35.370871399999935, -8.499301899999969 ], [ -35.370739899999933, -8.499628199999956 ], [ -35.370775399999957, -8.499763599999946 ], [ -35.370838699999986, -8.500060899999941 ], [ -35.37084439999996, -8.500071599999952 ], [ -35.370841599999942, -8.500243499999963 ], [ -35.370883899999974, -8.500459799999915 ], [ -35.370872099999936, -8.500640599999933 ], [ -35.37082159999995, -8.50094 ], [ -35.370774099999942, -8.501304599999987 ], [ -35.370744099999968, -8.501525499999953 ], [ -35.370744399999971, -8.501718099999957 ], [ -35.370837499999936, -8.5018929 ], [ -35.370969699999925, -8.502117899999988 ], [ -35.371079499999958, -8.502345099999964 ], [ -35.37135729999995, -8.502504299999927 ], [ -35.371474799999923, -8.502566099999989 ], [ -35.371482899999926, -8.5027871 ], [ -35.371533199999931, -8.503072799999929 ], [ -35.37164359999997, -8.503220599999977 ], [ -35.371845599999979, -8.503299299999979 ], [ -35.372036199999975, -8.503351099999959 ], [ -35.372164099999964, -8.503395499999929 ], [ -35.372173, -8.503554499999964 ], [ -35.372253099999966, -8.503719299999947 ], [ -35.372305699999977, -8.503904299999908 ], [ -35.372350599999955, -8.503973499999983 ], [ -35.372395399999959, -8.504042699999973 ], [ -35.372478299999955, -8.504089099999936 ], [ -35.372620699999963, -8.504021199999972 ], [ -35.372594099999965, -8.503875299999937 ], [ -35.372487, -8.503712799999937 ], [ -35.372427599999973, -8.503563199999984 ], [ -35.372427899999934, -8.503551399999917 ], [ -35.372455199999933, -8.50340679999994 ], [ -35.37246139999997, -8.503398 ], [ -35.372543599999979, -8.50334359999993 ], [ -35.372668799999936, -8.503373099999974 ], [ -35.372746599999971, -8.503508299999986 ], [ -35.372787199999962, -8.503695899999949 ], [ -35.372836199999945, -8.504035 ], [ -35.372808199999952, -8.504336699999964 ], [ -35.372772199999929, -8.504466299999951 ], [ -35.372730799999943, -8.504572099999949 ], [ -35.37265629999996, -8.504680099999966 ], [ -35.372612, -8.504782799999946 ], [ -35.372627499999972, -8.504886899999967 ], [ -35.372712299999932, -8.504980699999988 ], [ -35.3728025, -8.505089699999928 ], [ -35.372813399999984, -8.505264899999929 ], [ -35.372810499999964, -8.505389299999946 ], [ -35.372718499999962, -8.505476199999972 ], [ -35.372617, -8.505589399999959 ], [ -35.372613199999932, -8.505752399999936 ], [ -35.3726645, -8.505866199999934 ], [ -35.372788599999978, -8.505940199999934 ], [ -35.372836799999959, -8.50605989999997 ], [ -35.372789399999931, -8.50616549999995 ], [ -35.372736099999948, -8.506268 ], [ -35.372692399999956, -8.50634109999992 ], [ -35.372706099999959, -8.506397799999954 ], [ -35.372769099999978, -8.506394199999937 ], [ -35.372884599999963, -8.506325699999955 ], [ -35.373047199999981, -8.506290799999944 ], [ -35.373204, -8.506380399999976 ], [ -35.373278899999953, -8.506512499999916 ], [ -35.373240099999975, -8.506633199999952 ], [ -35.373160599999949, -8.506699499999973 ], [ -35.373154599999964, -8.506699399999947 ], [ -35.372996099999959, -8.506811399999963 ], [ -35.372926499999949, -8.506972799999962 ], [ -35.372907, -8.507165099999948 ], [ -35.372971799999966, -8.507472799999944 ], [ -35.372941399999945, -8.508120099999944 ], [ -35.373094399999964, -8.5082854 ], [ -35.373131099999966, -8.508432199999934 ], [ -35.373149499999961, -8.508548499999959 ], [ -35.373125, -8.50868319999995 ], [ -35.372868, -8.5089341 ], [ -35.372849599999945, -8.509264599999934 ], [ -35.373002599999943, -8.509344099999971 ], [ -35.373204599999958, -8.509331899999939 ], [ -35.373278, -8.509331899999962 ], [ -35.37331469999998, -8.509478799999966 ], [ -35.373320799999945, -8.509705199999928 ], [ -35.373449399999977, -8.50994389999995 ], [ -35.37348609999998, -8.510078499999951 ], [ -35.37344319999994, -8.51033559999995 ], [ -35.373333099999975, -8.510500799999944 ], [ -35.373149499999961, -8.510568199999954 ], [ -35.372990399999942, -8.510574299999952 ], [ -35.372580299999981, -8.510537599999976 ], [ -35.372268199999944, -8.510543699999976 ], [ -35.372170299999937, -8.5105804 ], [ -35.372170299999937, -8.510647699999945 ], [ -35.372298799999953, -8.510764 ], [ -35.372415099999955, -8.510855799999943 ], [ -35.372459899999974, -8.510923099999955 ], [ -35.3725252, -8.511021 ], [ -35.372562, -8.511198499999985 ], [ -35.372366099999965, -8.51148 ], [ -35.371986699999987, -8.511571799999958 ], [ -35.371362399999953, -8.51164529999993 ], [ -35.371252299999981, -8.511431099999989 ], [ -35.371209399999948, -8.510972099999929 ], [ -35.370872799999972, -8.51043959999992 ], [ -35.370677, -8.51017649999994 ], [ -35.370628, -8.510782399999904 ], [ -35.37044439999994, -8.511045499999984 ], [ -35.370101699999964, -8.511363799999961 ], [ -35.369661, -8.51165749999994 ], [ -35.369263199999978, -8.51225119999998 ], [ -35.369024599999932, -8.512716299999946 ], [ -35.368926599999952, -8.512820299999921 ], [ -35.368620599999936, -8.512808099999955 ], [ -35.368284, -8.512667299999972 ], [ -35.367916799999925, -8.512404199999938 ], [ -35.367176299999983, -8.511694199999988 ], [ -35.367011, -8.51165749999995 ], [ -35.366858, -8.511755399999979 ], [ -35.366380699999979, -8.512257299999938 ], [ -35.366772399999945, -8.512649 ], [ -35.367096699999941, -8.513022299999959 ], [ -35.367451699999954, -8.513352799999927 ], [ -35.367776099999958, -8.513634299999966 ], [ -35.36600819999996, -8.514845599999948 ], [ -35.364849699999986, -8.515613299999938 ], [ -35.365692199999962, -8.517154 ], [ -35.365852699999955, -8.517494499999948 ], [ -35.365816099999968, -8.517603899999932 ], [ -35.3658, -8.51766 ], [ -35.36576679999996, -8.517754199999946 ], [ -35.365871399999953, -8.517869799999957 ], [ -35.365985899999949, -8.517993299999963 ], [ -35.366191, -8.518167799999965 ], [ -35.366441899999984, -8.518372799999952 ], [ -35.366766199999979, -8.51867269999997 ], [ -35.367044699999951, -8.51895109999997 ], [ -35.367179299999975, -8.5191715 ], [ -35.367375199999977, -8.519456 ], [ -35.367577199999978, -8.519547799999934 ], [ -35.36780049999993, -8.519602899999946 ], [ -35.367962699999971, -8.519532499999981 ], [ -35.36810039999996, -8.519336699999926 ], [ -35.368216699999955, -8.519042899999937 ], [ -35.368351299999972, -8.51879809999998 ], [ -35.36844619999993, -8.518755299999963 ], [ -35.368550199999966, -8.518752199999945 ], [ -35.368611399999963, -8.518810399999962 ], [ -35.368684899999948, -8.518893 ], [ -35.368736899999931, -8.519018399999943 ], [ -35.368862399999969, -8.519168399999947 ], [ -35.369107199999974, -8.519281599999944 ], [ -35.36932749999994, -8.519321399999976 ], [ -35.369437699999935, -8.519272399999982 ], [ -35.369593699999946, -8.519168399999979 ], [ -35.369642699999929, -8.519055199999963 ], [ -35.369630399999942, -8.518859299999972 ], [ -35.369584499999981, -8.51859 ], [ -35.369528299999949, -8.518361 ], [ -35.369577799999938, -8.518346799999957 ], [ -35.369760699999965, -8.518301299999944 ], [ -35.369875599999943, -8.518253599999982 ], [ -35.370013799999981, -8.518187399999945 ], [ -35.370168499999977, -8.518108899999977 ], [ -35.370378599999981, -8.518022499999971 ], [ -35.37049379999997, -8.517965199999956 ], [ -35.370517899999989, -8.517969199999921 ], [ -35.370553, -8.517957899999955 ], [ -35.370659599999961, -8.517912499999959 ], [ -35.370708099999952, -8.517982299999982 ], [ -35.370746599999961, -8.517960199999942 ], [ -35.370833199999929, -8.517935699999946 ], [ -35.370919899999933, -8.517911199999974 ], [ -35.370926799999957, -8.517893299999958 ], [ -35.370971, -8.518071 ], [ -35.370970799999952, -8.518076599999967 ], [ -35.370960399999944, -8.518219499999935 ], [ -35.370922299999961, -8.518278599999968 ], [ -35.370922199999939, -8.51828229999993 ], [ -35.370943799999971, -8.518322599999962 ], [ -35.371093499999972, -8.518287699999965 ], [ -35.371214, -8.518154 ], [ -35.371329399999979, -8.517884499999987 ], [ -35.37132679999997, -8.517613199999948 ], [ -35.371357799999942, -8.51736359999996 ], [ -35.371544299999982, -8.517253099999921 ], [ -35.371825099999974, -8.517111299999973 ], [ -35.372192399999967, -8.516927299999985 ], [ -35.37255649999998, -8.516743 ], [ -35.372738599999941, -8.516646799999924 ], [ -35.372738699999957, -8.516643 ], [ -35.372949399999989, -8.516549799999927 ], [ -35.373142499999972, -8.516410899999945 ], [ -35.373167399999943, -8.516401 ], [ -35.373401099999967, -8.516307899999939 ], [ -35.373538299999964, -8.516246399999943 ], [ -35.373616699999957, -8.516239399999964 ], [ -35.373663, -8.516278599999959 ], [ -35.373694099999973, -8.516377499999985 ], [ -35.373734099999979, -8.516437199999908 ], [ -35.373799, -8.516492 ], [ -35.373807499999941, -8.516498199999946 ], [ -35.37379059999995, -8.51653759999993 ], [ -35.373777, -8.516827799999911 ], [ -35.373788499999939, -8.517157699999927 ], [ -35.373821499999963, -8.517651299999939 ], [ -35.37382179999998, -8.517971699999981 ], [ -35.373707399999944, -8.518228699999936 ], [ -35.373541099999954, -8.518513499999921 ], [ -35.37342, -8.518624799999925 ], [ -35.373401, -8.518733899999964 ], [ -35.373500499999984, -8.518780899999964 ], [ -35.373593899999953, -8.518822599999957 ], [ -35.373623, -8.518939299999941 ], [ -35.373652, -8.519056 ], [ -35.373679599999946, -8.519442 ], [ -35.373628099999969, -8.519672599999987 ], [ -35.37345629999993, -8.520158099999938 ], [ -35.373445199999942, -8.520576699999946 ], [ -35.373432599999944, -8.520765299999939 ], [ -35.373420099999976, -8.5209538 ], [ -35.373388899999959, -8.521223 ], [ -35.3734525, -8.521409499999935 ], [ -35.373645399999937, -8.521654799999975 ], [ -35.373868899999934, -8.5221536 ], [ -35.3739644, -8.522310099999961 ], [ -35.374090899999942, -8.522473599999941 ], [ -35.374110599999931, -8.522671299999955 ], [ -35.373966099999969, -8.52271679999996 ], [ -35.37376729999994, -8.522693199999932 ], [ -35.373832699999973, -8.522811899999981 ], [ -35.373832399999976, -8.522824199999929 ], [ -35.37394709999996, -8.522962799999965 ], [ -35.37407589999998, -8.523040099999939 ], [ -35.374102599999958, -8.523207099999979 ], [ -35.374089699999956, -8.523225299999988 ], [ -35.37388569999996, -8.523398699999955 ], [ -35.373775099999939, -8.523574499999922 ], [ -35.373787199999981, -8.523587099999943 ], [ -35.373838699999965, -8.523761 ], [ -35.374031199999934, -8.523784499999969 ], [ -35.374239899999964, -8.523666699999984 ], [ -35.374405699999961, -8.523523099999966 ], [ -35.374573, -8.523558199999954 ], [ -35.374561199999967, -8.523767399999931 ], [ -35.374550099999965, -8.523952 ], [ -35.374590099999978, -8.524157099999981 ], [ -35.375157699999924, -8.523900699999976 ], [ -35.375695099999973, -8.523606599999932 ], [ -35.375977499999976, -8.523527699999926 ], [ -35.376108499999937, -8.524227399999956 ], [ -35.376170099999968, -8.524956099999924 ], [ -35.376182099999937, -8.524974899999952 ], [ -35.376486899999982, -8.525697499999964 ], [ -35.376609, -8.525951399999952 ], [ -35.376991, -8.526583699999964 ] ] ], [ [ [ -35.402158399999962, -8.468447299999976 ], [ -35.402238699999941, -8.468139499999959 ], [ -35.402335099999966, -8.467948399999958 ], [ -35.402432, -8.467840799999967 ], [ -35.402486499999959, -8.467762099999955 ], [ -35.402545599999947, -8.467583499999911 ], [ -35.402556199999935, -8.467353299999973 ], [ -35.402856, -8.467457799999982 ], [ -35.403024, -8.467292699999954 ], [ -35.403278399999984, -8.467021699999966 ], [ -35.403410099999967, -8.466905099999988 ], [ -35.403741699999969, -8.466773399999958 ], [ -35.404249, -8.466585699999934 ], [ -35.404834899999969, -8.46627979999993 ], [ -35.404933299999982, -8.466235899999951 ], [ -35.40523769999993, -8.4659346 ], [ -35.405466299999944, -8.465763499999964 ], [ -35.405826699999977, -8.465713499999922 ], [ -35.405916, -8.465653 ], [ -35.406211199999973, -8.465524299999984 ], [ -35.406697299999969, -8.465503099999959 ], [ -35.407092499999976, -8.465562099999934 ], [ -35.407536099999959, -8.465314499999979 ], [ -35.408653799999975, -8.465918099999961 ], [ -35.408667599999951, -8.465925599999945 ], [ -35.4087014, -8.465297699999962 ], [ -35.408724699999937, -8.465168199999949 ], [ -35.408261099999955, -8.465072399999933 ], [ -35.40781039999996, -8.464974 ], [ -35.407763799999941, -8.464953199999966 ], [ -35.4076161, -8.464882 ], [ -35.407453, -8.464862599999934 ], [ -35.407464599999962, -8.464805599999954 ], [ -35.407550099999987, -8.464678699999988 ], [ -35.407481399999945, -8.464599699999953 ], [ -35.407396, -8.46459059999995 ], [ -35.407280699999951, -8.464480499999977 ], [ -35.40750479999997, -8.464408 ], [ -35.40756429999994, -8.464391199999961 ], [ -35.407871299999947, -8.464354899999947 ], [ -35.407961899999968, -8.464291499999957 ], [ -35.408140599999967, -8.464264299999968 ], [ -35.408303799999949, -8.464177499999927 ], [ -35.408461799999941, -8.46432 ], [ -35.408490799999988, -8.464280499999969 ], [ -35.408652199999942, -8.464033699999963 ], [ -35.408735099999944, -8.463844699999967 ], [ -35.408841299999949, -8.463935299999939 ], [ -35.408968199999947, -8.464114 ], [ -35.409084699999937, -8.464194299999978 ], [ -35.409292, -8.464238399999934 ], [ -35.4094396, -8.464204699999909 ], [ -35.409553599999974, -8.464116599999928 ], [ -35.409374799999959, -8.463901599999927 ], [ -35.409064, -8.463448399999944 ], [ -35.409025199999981, -8.463168599999959 ], [ -35.408973399999979, -8.46305209999996 ], [ -35.408862, -8.462948499999902 ], [ -35.40874279999997, -8.46286039999997 ], [ -35.408556399999952, -8.462689499999964 ], [ -35.408325799999936, -8.462503 ], [ -35.408157499999959, -8.462370899999936 ], [ -35.407958, -8.462124799999966 ], [ -35.407857, -8.461956399999973 ], [ -35.407813, -8.461705199999923 ], [ -35.407670499999945, -8.461264899999955 ], [ -35.407603199999983, -8.461073199999923 ], [ -35.407546199999956, -8.460961799999948 ], [ -35.40754359999994, -8.460832299999927 ], [ -35.407481399999945, -8.460702799999977 ], [ -35.407427099999964, -8.460573299999957 ], [ -35.40739079999998, -8.460539599999947 ], [ -35.406935299999937, -8.460615099999927 ], [ -35.406405499999948, -8.460750099999949 ], [ -35.40649639999998, -8.460444399999988 ], [ -35.406631, -8.46005149999996 ], [ -35.406774399999968, -8.459640099999955 ], [ -35.406934899999953, -8.459415199999954 ], [ -35.407042499999932, -8.459316399999983 ], [ -35.407197399999973, -8.45916909999996 ], [ -35.407272499999976, -8.459079699999966 ], [ -35.407292399999967, -8.458969899999957 ], [ -35.407294099999959, -8.458960699999956 ], [ -35.407278299999973, -8.458965599999935 ], [ -35.407127399999979, -8.459013 ], [ -35.406886899999961, -8.459066399999934 ], [ -35.406123199999968, -8.459134799999946 ], [ -35.406195599999933, -8.458792699999949 ], [ -35.406210799999947, -8.4587031 ], [ -35.406391199999973, -8.458556099999946 ], [ -35.405833199999954, -8.45808649999997 ], [ -35.405723899999948, -8.457899299999944 ], [ -35.405764699999963, -8.457802899999916 ], [ -35.405860899999929, -8.457663499999954 ], [ -35.405928899999942, -8.457467099999965 ], [ -35.405985, -8.457351 ], [ -35.405939499999931, -8.457294699999965 ], [ -35.405667899999969, -8.4572393 ], [ -35.40547909999998, -8.457253699999983 ], [ -35.405228, -8.457185699999958 ], [ -35.404968799999949, -8.457115099999962 ], [ -35.404738, -8.457299299999939 ], [ -35.40470879999998, -8.456997899999985 ], [ -35.404659199999969, -8.456732 ], [ -35.404517299999952, -8.456477799999966 ], [ -35.404139699999973, -8.456006 ], [ -35.403675199999959, -8.455760799999949 ], [ -35.403701099999985, -8.455512199999946 ], [ -35.403703699999937, -8.455488899999956 ], [ -35.403631199999957, -8.45535929999995 ], [ -35.403561299999978, -8.455305 ], [ -35.403312599999943, -8.455444799999936 ], [ -35.403141699999942, -8.455525099999953 ], [ -35.403032899999971, -8.455569199999973 ], [ -35.402929299999983, -8.4555458 ], [ -35.402867099999987, -8.455584699999985 ], [ -35.402785899999962, -8.45568809999998 ], [ -35.402777699999952, -8.455720799999947 ], [ -35.402523399999957, -8.455843099999983 ], [ -35.4023299, -8.455963799999962 ], [ -35.402116799999938, -8.456040499999983 ], [ -35.401928199999936, -8.456093699999924 ], [ -35.40172559999997, -8.456010799999943 ], [ -35.4016721, -8.4559275 ], [ -35.401600499999972, -8.45578209999994 ], [ -35.40160869999994, -8.4556272 ], [ -35.401608699999954, -8.455381699999988 ], [ -35.401557899999951, -8.455190899999913 ], [ -35.401407199999944, -8.455098799999959 ], [ -35.401260499999978, -8.455135199999983 ], [ -35.401198199999946, -8.455264 ], [ -35.401176099999937, -8.455580499999941 ], [ -35.40121, -8.455779099999962 ], [ -35.401220099999932, -8.456007699999947 ], [ -35.401189, -8.456185799999956 ], [ -35.401082299999985, -8.456327599999939 ], [ -35.400833, -8.456373099999956 ], [ -35.40072779999997, -8.456414699999927 ], [ -35.400694, -8.456573 ], [ -35.400773099999981, -8.456687299999967 ], [ -35.401091399999977, -8.456923799999979 ], [ -35.401404799999973, -8.457166699999943 ], [ -35.401899299999968, -8.457466799999963 ], [ -35.402232799999979, -8.458171499999953 ], [ -35.402321699999966, -8.458529799999932 ], [ -35.402304699999938, -8.458754499999937 ], [ -35.402222, -8.459040099999983 ], [ -35.402172399999984, -8.459170599999942 ], [ -35.402111399999974, -8.459391599999929 ], [ -35.402029599999935, -8.459683799999951 ], [ -35.401994499999951, -8.459941 ], [ -35.40195939999996, -8.460432 ], [ -35.4020179, -8.460794399999935 ], [ -35.402029599999949, -8.461262099999942 ], [ -35.401889299999944, -8.461764799999973 ], [ -35.401842499999937, -8.462138799999932 ], [ -35.40169049999998, -8.462676599999966 ], [ -35.401269699999936, -8.463027299999951 ], [ -35.401070899999979, -8.463272799999954 ], [ -35.400942299999947, -8.46350659999994 ], [ -35.40094229999994, -8.463810599999913 ], [ -35.401094299999968, -8.464056099999931 ], [ -35.401187799999953, -8.464254799999949 ], [ -35.401258, -8.464453599999974 ], [ -35.401269699999951, -8.4647108 ], [ -35.401304699999962, -8.465003 ], [ -35.401421599999928, -8.465494 ], [ -35.40156189999994, -8.465856399999952 ], [ -35.401678799999964, -8.466148699999964 ], [ -35.401936, -8.466522799999934 ], [ -35.402052899999944, -8.466850099999933 ], [ -35.401967099999979, -8.46713869999995 ], [ -35.401962199999964, -8.467155399999962 ], [ -35.401620499999979, -8.467356299999935 ], [ -35.401379499999955, -8.467594299999982 ], [ -35.401668699999959, -8.468022899999934 ], [ -35.402139499999983, -8.468721199999946 ], [ -35.402158399999962, -8.468447299999976 ] ] ], [ [ [ -35.345315899999953, -8.447211099999926 ], [ -35.346976499999982, -8.447824599999935 ], [ -35.348091599999982, -8.448181 ], [ -35.349191499999968, -8.448527199999939 ], [ -35.350067299999978, -8.448853099999974 ], [ -35.350674899999952, -8.449042199999964 ], [ -35.350702299999973, -8.449046799999953 ], [ -35.350968899999948, -8.448797799999959 ], [ -35.35113, -8.4486474 ], [ -35.3554, -8.44466 ], [ -35.347037499999942, -8.44022879999995 ], [ -35.346807599999977, -8.441201199999968 ], [ -35.346450699999934, -8.441816699999947 ], [ -35.346377499999953, -8.441943099999946 ], [ -35.34602689999997, -8.442548399999977 ], [ -35.345362299999977, -8.443337 ], [ -35.345281099999973, -8.443433399999941 ], [ -35.345070699999951, -8.443481199999951 ], [ -35.34457029999993, -8.443594899999928 ], [ -35.344551899999949, -8.443599099999982 ], [ -35.344545799999942, -8.443594899999951 ], [ -35.344224099999963, -8.443371799999948 ], [ -35.343855599999976, -8.44363529999992 ], [ -35.343692199999964, -8.443752099999932 ], [ -35.34343889999996, -8.44393329999998 ], [ -35.3430944, -8.444497499999949 ], [ -35.342829199999983, -8.444932 ], [ -35.341743099999974, -8.445548699999952 ], [ -35.341621199999956, -8.445643299999958 ], [ -35.342217, -8.446016299999933 ], [ -35.342475899999947, -8.446117099999963 ], [ -35.343176399999948, -8.44639 ], [ -35.34389589999995, -8.446633 ], [ -35.345056899999975, -8.447101499999984 ], [ -35.345315899999953, -8.447211099999926 ] ] ] ] } }
]
}
