{
"type": "FeatureCollection",
"name": "2611200",
"crs": { "type": "name", "properties": { "name": "urn:ogc:def:crs:OGC:1.3:CRS84" } },
"features": [
{ "type": "Feature", "properties": { "CD_MUN": "2611200", "NM_MUN": "Poção" }, "geometry": { "type": "MultiPolygon", "coordinates": [ [ [ [ -36.708676399999938, -8.268647899999982 ], [ -36.708504199999936, -8.268046299999989 ], [ -36.708424, -8.267050099999933 ], [ -36.707942199999934, -8.267083 ], [ -36.707871299999965, -8.266666199999955 ], [ -36.707706299999984, -8.266477699999959 ], [ -36.707451499999941, -8.266721699999971 ], [ -36.706463, -8.266823199999981 ], [ -36.705675099999951, -8.266841699999953 ], [ -36.704942799999962, -8.268444399999961 ], [ -36.706168, -8.2688841 ], [ -36.706731799999943, -8.268943 ], [ -36.708676399999938, -8.268647899999982 ] ] ], [ [ [ -36.699871699999953, -8.1950419 ], [ -36.701900899999941, -8.194461699999987 ], [ -36.702657799999947, -8.194801499999912 ], [ -36.70309089999995, -8.194987699999974 ], [ -36.703696, -8.195239599999962 ], [ -36.704021299999972, -8.195292799999931 ], [ -36.704904899999974, -8.195297799999933 ], [ -36.705573299999976, -8.195308 ], [ -36.706051199999919, -8.195306399999959 ], [ -36.706904399999985, -8.195324099999949 ], [ -36.707339, -8.195312899999969 ], [ -36.70735029999998, -8.195183299999954 ], [ -36.708833599999934, -8.193097799999958 ], [ -36.70876769999996, -8.191947399999965 ], [ -36.707382499999937, -8.191958 ], [ -36.707382199999984, -8.191935399999981 ], [ -36.707375, -8.191849899999966 ], [ -36.707284099999974, -8.191341599999937 ], [ -36.707220799999966, -8.190991499999946 ], [ -36.707137899999964, -8.1905333 ], [ -36.707119, -8.190481099999952 ], [ -36.70708129999997, -8.19043479999991 ], [ -36.706505499999942, -8.189849799999941 ], [ -36.706106799999937, -8.189468099999941 ], [ -36.706243099999938, -8.189037399999945 ], [ -36.707198599999984, -8.18901 ], [ -36.707511299999965, -8.189037899999965 ], [ -36.707886, -8.188965699999915 ], [ -36.708022799999981, -8.188973399999956 ], [ -36.708803899999964, -8.189193299999923 ], [ -36.70954339999998, -8.18782169999997 ], [ -36.70966059999995, -8.182657 ], [ -36.709660399999962, -8.182164199999933 ], [ -36.708397699999978, -8.181062899999963 ], [ -36.706469499999962, -8.182207499999949 ], [ -36.705662199999956, -8.180375099999928 ], [ -36.702971699999971, -8.179709 ], [ -36.702632799999954, -8.175373 ], [ -36.701666199999984, -8.174438199999955 ], [ -36.701693499999976, -8.174315 ], [ -36.701738499999976, -8.174144499999942 ], [ -36.701791499999963, -8.173954099999948 ], [ -36.701851899999951, -8.173753899999976 ], [ -36.702160499999934, -8.172844299999944 ], [ -36.698866699999932, -8.175239599999912 ], [ -36.699039199999966, -8.17558569999996 ], [ -36.699102499999981, -8.175692299999977 ], [ -36.699176699999953, -8.175800699999989 ], [ -36.699244199999946, -8.175908799999931 ], [ -36.699380299999966, -8.176147399999927 ], [ -36.6994117, -8.1762065 ], [ -36.69941979999993, -8.176265699999938 ], [ -36.699418399999963, -8.1763448 ], [ -36.699417, -8.1764373 ], [ -36.699420599999939, -8.176518399999953 ], [ -36.699429899999984, -8.176621599999949 ], [ -36.699454399999986, -8.176736399999967 ], [ -36.699484699999964, -8.176846899999932 ], [ -36.6995204, -8.176932199999939 ], [ -36.69959359999995, -8.177072 ], [ -36.699643099999939, -8.177166 ], [ -36.69968479999995, -8.177267799999987 ], [ -36.699720799999966, -8.177371799999937 ], [ -36.699965599999985, -8.178071599999942 ], [ -36.698809199999978, -8.178244 ], [ -36.698775, -8.180030599999943 ], [ -36.698635399999944, -8.187322499999926 ], [ -36.698895399999977, -8.188247 ], [ -36.698932399999933, -8.188474199999957 ], [ -36.698784099999955, -8.189863099999959 ], [ -36.69904889999998, -8.1901473 ], [ -36.699345599999965, -8.194719799999977 ], [ -36.699229299999963, -8.194992599999974 ], [ -36.699871699999953, -8.1950419 ] ] ] ] } }
]
}
