{
"type": "FeatureCollection",
"name": "2612901",
"crs": { "type": "name", "properties": { "name": "urn:ogc:def:crs:OGC:1.3:CRS84" } },
"features": [
{ "type": "Feature", "properties": { "CD_MUN": "2612901", "NM_MUN": "São Benedito do Sul" }, "geometry": { "type": "MultiPolygon", "coordinates": [ [ [ [ -35.873814599999946, -8.808246599999967 ], [ -35.873781699999938, -8.80771459999993 ], [ -35.87351289999998, -8.807571899999976 ], [ -35.873225899999966, -8.807576699999965 ], [ -35.872900399999942, -8.807682499999936 ], [ -35.872780399999961, -8.807622399999937 ], [ -35.872711899999956, -8.807468199999967 ], [ -35.872523399999977, -8.807325399999979 ], [ -35.872289299999984, -8.8071884 ], [ -35.871769599999944, -8.807171199999955 ], [ -35.871538299999948, -8.807056399999958 ], [ -35.870819799999936, -8.807555499999983 ], [ -35.870841799999937, -8.808394699999962 ], [ -35.873452599999951, -8.810539299999958 ], [ -35.874412499999949, -8.809563 ], [ -35.873962699999936, -8.808498899999964 ], [ -35.873814599999946, -8.808246599999967 ] ] ], [ [ [ -35.932837199999938, -8.815908199999951 ], [ -35.93319369999994, -8.81591369999996 ], [ -35.93336369999998, -8.815968499999931 ], [ -35.933714399999928, -8.816152099999968 ], [ -35.933819, -8.816209899999944 ], [ -35.934016499999984, -8.816385399999948 ], [ -35.934093199999957, -8.816517 ], [ -35.934219399999961, -8.816648699999975 ], [ -35.934296199999949, -8.816758399999975 ], [ -35.934526599999963, -8.816791299999984 ], [ -35.93468009999998, -8.816763799999933 ], [ -35.934773399999983, -8.816763799999935 ], [ -35.934833699999949, -8.816857099999941 ], [ -35.934883099999986, -8.816994199999932 ], [ -35.934879599999945, -8.817132199999934 ], [ -35.934858399999953, -8.81735619999993 ], [ -35.936506799999961, -8.816837399999923 ], [ -35.936675, -8.81678719999997 ], [ -35.936733499999939, -8.816767 ], [ -35.937320299999953, -8.814840899999965 ], [ -35.937067799999973, -8.814855599999923 ], [ -35.937044399999934, -8.814705499999938 ], [ -35.936949, -8.814534799999938 ], [ -35.936874399999965, -8.814401099999941 ], [ -35.93680379999995, -8.814307499999931 ], [ -35.936012399999981, -8.813257899999931 ], [ -35.935557699999947, -8.813300099999932 ], [ -35.935224799999958, -8.81335949999991 ], [ -35.934503199999931, -8.813667499999935 ], [ -35.93443689999998, -8.813561499999942 ], [ -35.93456539999994, -8.813257599999956 ], [ -35.934599399999968, -8.813211 ], [ -35.934772, -8.81297409999997 ], [ -35.934920699999964, -8.81268259999994 ], [ -35.93504489999998, -8.812397599999951 ], [ -35.935140899999965, -8.812108399999955 ], [ -35.935214499999972, -8.811825399999973 ], [ -35.934857699999952, -8.811458499999951 ], [ -35.934792899999941, -8.811095099999944 ], [ -35.934861799999972, -8.810915499999961 ], [ -35.934915699999983, -8.810775099999962 ], [ -35.934977, -8.810504299999948 ], [ -35.935219699999955, -8.810271599999961 ], [ -35.935177199999949, -8.810046699999928 ], [ -35.93487109999996, -8.809754199999928 ], [ -35.934933799999961, -8.809589199999932 ], [ -35.93534359999996, -8.809350799999976 ], [ -35.935821599999933, -8.808948199999966 ], [ -35.936047899999949, -8.80884879999997 ], [ -35.936233599999987, -8.808806899999958 ], [ -35.936844499999957, -8.80868739999994 ], [ -35.937515799999971, -8.80877569999997 ], [ -35.937756599999943, -8.808514899999961 ], [ -35.938697799999936, -8.807931199999919 ], [ -35.938966199999982, -8.807653899999936 ], [ -35.939228399999934, -8.807453399999918 ], [ -35.939735599999956, -8.807196099999929 ], [ -35.939966, -8.806853899999972 ], [ -35.94034819999996, -8.806481199999936 ], [ -35.940524699999969, -8.805932 ], [ -35.940401499999957, -8.80574039999993 ], [ -35.940415099999939, -8.80555039999995 ], [ -35.94014819999996, -8.805188199999971 ], [ -35.940297899999962, -8.805047099999976 ], [ -35.940499299999942, -8.8047908 ], [ -35.94078269999995, -8.804403799999944 ], [ -35.940912399999938, -8.804056299999946 ], [ -35.941123699999935, -8.803829899999917 ], [ -35.941363699999961, -8.803745099999976 ], [ -35.941581799999938, -8.803863299999936 ], [ -35.94174349999998, -8.803912499999971 ], [ -35.942108, -8.803908699999969 ], [ -35.942355599999985, -8.803941099999976 ], [ -35.942481, -8.804144 ], [ -35.942316399999982, -8.804351699999925 ], [ -35.942215099999956, -8.804633399999918 ], [ -35.942391499999928, -8.80502279999995 ], [ -35.942997899999959, -8.805864699999981 ], [ -35.944040499999979, -8.80564159999996 ], [ -35.94374159999996, -8.804429399999961 ], [ -35.943677899999962, -8.803433099999937 ], [ -35.943673, -8.802852499999949 ], [ -35.943782699999929, -8.802216199999988 ], [ -35.945323699999953, -8.802074399999967 ], [ -35.945296499999984, -8.801263 ], [ -35.945256899999947, -8.800658 ], [ -35.945202599999959, -8.800702199999936 ], [ -35.945091199999979, -8.800754699999988 ], [ -35.94482969999995, -8.800840299999937 ], [ -35.94466859999995, -8.800878099999974 ], [ -35.944338899999948, -8.800897399999933 ], [ -35.944252199999944, -8.800914899999954 ], [ -35.944157299999972, -8.80096 ], [ -35.944077199999981, -8.801011599999969 ], [ -35.943724599999939, -8.800871599999926 ], [ -35.943484899999937, -8.801287599999982 ], [ -35.943268099999948, -8.801380599999964 ], [ -35.943156699999975, -8.801457 ], [ -35.943017599999962, -8.80151959999994 ], [ -35.942646099999926, -8.801746399999978 ], [ -35.942378199999951, -8.801923199999981 ], [ -35.942095299999949, -8.802122699999934 ], [ -35.941606099999952, -8.802418099999974 ], [ -35.941496499999971, -8.802547699999907 ], [ -35.941298, -8.802611199999934 ], [ -35.940980699999955, -8.8027069 ], [ -35.940610699999986, -8.8023297 ], [ -35.940239, -8.801923699999953 ], [ -35.939820099999963, -8.801466099999979 ], [ -35.939462399999968, -8.801166599999938 ], [ -35.938924799999938, -8.801026799999907 ], [ -35.938557299999964, -8.800873199999954 ], [ -35.938066399999975, -8.800749799999927 ], [ -35.937918299999986, -8.800788199999941 ], [ -35.937850899999944, -8.800876699999952 ], [ -35.937786699999947, -8.800960899999962 ], [ -35.937786699999954, -8.801756299999957 ], [ -35.937821699999972, -8.802170599999965 ], [ -35.937826099999945, -8.802221799999915 ], [ -35.937849799999981, -8.802502199999932 ], [ -35.937795499999929, -8.802656799999955 ], [ -35.937699599999981, -8.802707899999948 ], [ -35.937373399999956, -8.802485699999986 ], [ -35.937133799999984, -8.802437199999918 ], [ -35.936702, -8.802448699999946 ], [ -35.936417499999948, -8.802521499999939 ], [ -35.936163099999931, -8.802746299999951 ], [ -35.936127499999934, -8.803020499999924 ], [ -35.936161799999986, -8.803398499999972 ], [ -35.935954, -8.803313 ], [ -35.935559199999958, -8.803611499999944 ], [ -35.935314, -8.803866299999964 ], [ -35.935342199999972, -8.803914399999931 ], [ -35.935455, -8.80410679999996 ], [ -35.935658699999969, -8.804058599999967 ], [ -35.935855299999957, -8.803929399999971 ], [ -35.936031899999925, -8.804136599999929 ], [ -35.93611489999995, -8.804397199999931 ], [ -35.935897099999977, -8.804813399999963 ], [ -35.93563579999995, -8.804975699999931 ], [ -35.935210199999972, -8.805276599999965 ], [ -35.935047199999929, -8.805427099999964 ], [ -35.934453799999972, -8.80615159999995 ], [ -35.934335499999982, -8.806348199999933 ], [ -35.934278499999948, -8.806553099999954 ], [ -35.933770299999942, -8.806679 ], [ -35.933657899999965, -8.806684499999943 ], [ -35.933523499999978, -8.806624199999924 ], [ -35.933538599999963, -8.806446199999932 ], [ -35.933721899999973, -8.805888 ], [ -35.933490599999978, -8.805634099999962 ], [ -35.932256499999944, -8.804589299999975 ], [ -35.932253599999967, -8.80458629999994 ], [ -35.930192599999948, -8.805034699999949 ], [ -35.930677199999941, -8.806086099999957 ], [ -35.929364799999981, -8.806371599999988 ], [ -35.928136, -8.806123499999979 ], [ -35.927012599999955, -8.805905 ], [ -35.92698709999997, -8.804788599999963 ], [ -35.927038199999977, -8.804513699999958 ], [ -35.927146899999968, -8.804434899999945 ], [ -35.926607499999939, -8.80394079999995 ], [ -35.926509799999963, -8.803940599999986 ], [ -35.926235, -8.803942699999951 ], [ -35.925361399999936, -8.804192 ], [ -35.925261299999931, -8.805061299999988 ], [ -35.924796799999967, -8.804929199999942 ], [ -35.924643399999979, -8.80563869999998 ], [ -35.924920399999969, -8.805726 ], [ -35.924741399999967, -8.806580399999959 ], [ -35.925661799999943, -8.807300599999964 ], [ -35.926322299999981, -8.807415599999953 ], [ -35.926658899999943, -8.8066401 ], [ -35.927673099999936, -8.807053399999978 ], [ -35.9281865, -8.80702129999996 ], [ -35.928151299999975, -8.80787019999995 ], [ -35.927983199999971, -8.808066399999959 ], [ -35.92787629999998, -8.808292099999969 ], [ -35.928000199999929, -8.808844499999966 ], [ -35.928471899999984, -8.80878859999995 ], [ -35.929889, -8.808620599999921 ], [ -35.930461799999939, -8.808114299999941 ], [ -35.930459899999967, -8.80790649999993 ], [ -35.931070299999938, -8.807581099999924 ], [ -35.932031899999977, -8.807390899999964 ], [ -35.93229549999996, -8.807693099999947 ], [ -35.932516099999937, -8.807831899999933 ], [ -35.932640899999967, -8.808027099999931 ], [ -35.932688799999944, -8.808167 ], [ -35.932692799999984, -8.808346199999979 ], [ -35.932819299999949, -8.808770899999944 ], [ -35.933058, -8.8093934 ], [ -35.933118299999933, -8.809903499999942 ], [ -35.932116, -8.811417699999913 ], [ -35.931324699999948, -8.812613099999956 ], [ -35.93041419999998, -8.813156099999969 ], [ -35.9292852, -8.813389499999973 ], [ -35.928472599999964, -8.813404399999984 ], [ -35.9276493, -8.813417299999974 ], [ -35.92727229999997, -8.813580399999983 ], [ -35.926762599999968, -8.81408719999996 ], [ -35.92663779999998, -8.814413699999921 ], [ -35.926581599999963, -8.814816699999923 ], [ -35.926754299999978, -8.81534319999996 ], [ -35.927067, -8.815908199999951 ], [ -35.927302799999957, -8.8168297 ], [ -35.92769229999994, -8.817652399999954 ], [ -35.927802, -8.817630499999932 ], [ -35.92886059999995, -8.816516499999977 ], [ -35.928992199999982, -8.81663219999994 ], [ -35.92915679999993, -8.816703 ], [ -35.929403599999944, -8.816714499999943 ], [ -35.929650599999945, -8.81669709999994 ], [ -35.929942599999947, -8.816663799999951 ], [ -35.930231799999945, -8.816582799999946 ], [ -35.930517, -8.816467699999979 ], [ -35.930758399999952, -8.81644019999994 ], [ -35.931093, -8.8164457 ], [ -35.931300099999937, -8.816431799999984 ], [ -35.932030899999972, -8.816382899999974 ], [ -35.932157, -8.816374399999958 ], [ -35.932392899999968, -8.816116599999937 ], [ -35.932612299999967, -8.8159411 ], [ -35.932837199999938, -8.815908199999951 ] ] ], [ [ [ -35.879990799999973, -8.805340699999944 ], [ -35.880555699999938, -8.804869 ], [ -35.880742199999929, -8.804874499999951 ], [ -35.882025699999936, -8.804605699999978 ], [ -35.88217469999995, -8.804560399999973 ], [ -35.882442599999933, -8.804468599999945 ], [ -35.882535799999978, -8.80435889999997 ], [ -35.882345499999936, -8.803009 ], [ -35.882341599999961, -8.803005499999912 ], [ -35.883365399999938, -8.80233049999992 ], [ -35.883768499999974, -8.80176 ], [ -35.883883699999949, -8.801677799999943 ], [ -35.884048299999961, -8.801655799999955 ], [ -35.88442949999996, -8.801713399999949 ], [ -35.885137, -8.800824799999942 ], [ -35.877518399999929, -8.799151899999957 ], [ -35.8769809, -8.799865 ], [ -35.877321199999983, -8.800553599999956 ], [ -35.877474799999952, -8.801628699999975 ], [ -35.87771609999993, -8.802056499999944 ], [ -35.878122, -8.802407499999951 ], [ -35.877973899999972, -8.802640599999974 ], [ -35.877779199999964, -8.802939599999934 ], [ -35.877713399999955, -8.803156199999924 ], [ -35.877647599999925, -8.803433199999967 ], [ -35.877548899999972, -8.803833599999967 ], [ -35.877494, -8.804055799999951 ], [ -35.877436399999965, -8.80429439999995 ], [ -35.877362399999974, -8.804593299999951 ], [ -35.877282799999932, -8.804960799999941 ], [ -35.877052499999941, -8.806016699999939 ], [ -35.876967399999963, -8.806245599999947 ], [ -35.876556099999959, -8.8067996 ], [ -35.878082, -8.807661899999982 ], [ -35.878206699999957, -8.807357199999965 ], [ -35.87832, -8.806944399999944 ], [ -35.878326499999964, -8.806947099999938 ], [ -35.878523499999972, -8.807010899999968 ], [ -35.878910199999957, -8.807134299999975 ], [ -35.878925199999969, -8.807110399999937 ], [ -35.8798427, -8.805647899999951 ], [ -35.879990799999973, -8.805340699999944 ] ] ] ] } }
]
}
