{
"type": "FeatureCollection",
"name": "2612406",
"crs": { "type": "name", "properties": { "name": "urn:ogc:def:crs:OGC:1.3:CRS84" } },
"features": [
{ "type": "Feature", "properties": { "CD_MUN": "2612406", "NM_MUN": "Sanharó" }, "geometry": { "type": "MultiPolygon", "coordinates": [ [ [ [ -36.523736699999965, -8.429956 ], [ -36.52399749999995, -8.430306699999974 ], [ -36.525209199999949, -8.431915099999989 ], [ -36.52532389999994, -8.432075 ], [ -36.529372399999943, -8.432759499999957 ], [ -36.529677099999958, -8.431767199999952 ], [ -36.531172499999975, -8.430877299999976 ], [ -36.53127649999994, -8.430822699999954 ], [ -36.531257399999951, -8.430487299999976 ], [ -36.531008199999981, -8.430142399999969 ], [ -36.531286099999939, -8.429615299999956 ], [ -36.531266899999942, -8.429385399999953 ], [ -36.531439399999954, -8.42891579999997 ], [ -36.531946, -8.428516499999938 ], [ -36.532254, -8.428063 ], [ -36.53280969999998, -8.427603 ], [ -36.533384699999942, -8.426817199999981 ], [ -36.534285499999953, -8.426050599999918 ], [ -36.535818699999936, -8.424824 ], [ -36.535262899999964, -8.42382739999994 ], [ -36.532867199999949, -8.42225589999993 ], [ -36.532713899999976, -8.4229458 ], [ -36.532476, -8.423567 ], [ -36.531631099999977, -8.423235699999985 ], [ -36.530912399999977, -8.422967399999955 ], [ -36.530577, -8.422938699999984 ], [ -36.530327899999975, -8.42269909999991 ], [ -36.530184099999929, -8.422660799999949 ], [ -36.529621099999943, -8.4229003 ], [ -36.529439099999934, -8.423005699999962 ], [ -36.52929529999993, -8.423499199999984 ], [ -36.529276199999963, -8.423906499999948 ], [ -36.529118, -8.424332899999957 ], [ -36.528974299999959, -8.424663499999969 ], [ -36.528533499999988, -8.424328099999961 ], [ -36.528319099999976, -8.424413199999933 ], [ -36.528247199999953, -8.424595199999949 ], [ -36.528117899999984, -8.424958199999939 ], [ -36.527988499999942, -8.425049199999917 ], [ -36.527729799999975, -8.425078 ], [ -36.527614799999981, -8.425116299999976 ], [ -36.527174, -8.42505879999994 ], [ -36.526676899999984, -8.424953399999938 ], [ -36.526207299999953, -8.425025299999952 ], [ -36.526092299999966, -8.425010899999963 ], [ -36.525953399999935, -8.424910299999981 ], [ -36.525733, -8.424939 ], [ -36.525513799999942, -8.424991699999959 ], [ -36.525370099999975, -8.424967799999921 ], [ -36.525077799999963, -8.424565299999939 ], [ -36.524958, -8.424493399999989 ], [ -36.524780699999958, -8.424249099999937 ], [ -36.524627399999936, -8.424206 ], [ -36.524168599999946, -8.424220299999945 ], [ -36.523938699999974, -8.424210699999943 ], [ -36.522937299999974, -8.425101899999946 ], [ -36.522318799999944, -8.42610059999992 ], [ -36.521805599999944, -8.426798099999921 ], [ -36.521178799999973, -8.427472799999972 ], [ -36.520726499999967, -8.428048499999941 ], [ -36.521864099999966, -8.428673099999964 ], [ -36.522959899999933, -8.428907599999944 ], [ -36.523549399999986, -8.429729599999972 ], [ -36.523736699999965, -8.429956 ] ] ], [ [ [ -36.527017899999983, -8.415752499999938 ], [ -36.524834499999947, -8.41807169999991 ], [ -36.523643599999964, -8.42022 ], [ -36.523795299999961, -8.420764499999949 ], [ -36.524534599999981, -8.42135649999994 ], [ -36.524940199999939, -8.421701899999968 ], [ -36.526315, -8.421907199999962 ], [ -36.526859599999966, -8.421505499999958 ], [ -36.527404099999956, -8.419630799999954 ], [ -36.527641699999947, -8.41690859999993 ], [ -36.527410799999984, -8.41613749999993 ], [ -36.52734369999996, -8.415915399999962 ], [ -36.527017899999983, -8.415752499999938 ] ] ], [ [ [ -36.58618359999997, -8.394779499999972 ], [ -36.586178, -8.394895099999911 ], [ -36.586136099999976, -8.395030599999943 ], [ -36.586224, -8.395204099999924 ], [ -36.586251299999958, -8.395280299999976 ], [ -36.586128499999973, -8.395410699999948 ], [ -36.586097, -8.395557299999936 ], [ -36.586239199999966, -8.39566159999992 ], [ -36.58638289999994, -8.395879799999925 ], [ -36.586557599999935, -8.396005799999935 ], [ -36.586557899999953, -8.396124199999988 ], [ -36.586609099999976, -8.396317699999951 ], [ -36.586639599999955, -8.396689399999966 ], [ -36.586833299999967, -8.396723599999973 ], [ -36.586893199999963, -8.396886099999945 ], [ -36.586791899999987, -8.397008299999932 ], [ -36.586806399999944, -8.397265499999943 ], [ -36.587027099999936, -8.397403699999936 ], [ -36.587334899999973, -8.397510599999961 ], [ -36.587453199999977, -8.397461299999973 ], [ -36.587538899999977, -8.397275699999952 ], [ -36.587783599999973, -8.397179299999957 ], [ -36.587901099999961, -8.397251499999978 ], [ -36.588035499999933, -8.397312899999955 ], [ -36.588243599999949, -8.397290799999961 ], [ -36.588468, -8.397189399999974 ], [ -36.588555799999931, -8.397077 ], [ -36.588934899999977, -8.396766399999921 ], [ -36.588968099999938, -8.396576899999976 ], [ -36.5893124, -8.396449899999931 ], [ -36.589366899999959, -8.396439199999977 ], [ -36.589433799999931, -8.396476899999936 ], [ -36.58961759999994, -8.396610099999982 ], [ -36.589752799999935, -8.396661 ], [ -36.590070899999944, -8.39661049999995 ], [ -36.59023179999997, -8.396638099999951 ], [ -36.590247199999972, -8.396732299999911 ], [ -36.59026549999993, -8.396845499999939 ], [ -36.59035669999998, -8.396968299999964 ], [ -36.590517699999971, -8.397075799999939 ], [ -36.590748, -8.397110199999922 ], [ -36.591103299999929, -8.397021599999947 ], [ -36.591344399999961, -8.397027799999941 ], [ -36.591629, -8.397095299999954 ], [ -36.591779599999938, -8.397163199999964 ], [ -36.591998699999984, -8.397364699999954 ], [ -36.592373799999969, -8.397650199999919 ], [ -36.5926, -8.3977169 ], [ -36.592980799999971, -8.397722499999928 ], [ -36.593318699999948, -8.397692499999957 ], [ -36.593246099999931, -8.396685899999968 ], [ -36.593283199999973, -8.396006099999957 ], [ -36.593097799999953, -8.395066799999933 ], [ -36.593036, -8.394340699999905 ], [ -36.593134899999946, -8.393327199999927 ], [ -36.593011299999944, -8.393178899999961 ], [ -36.592924799999935, -8.392820499999987 ], [ -36.592937099999965, -8.3923756 ], [ -36.593036, -8.391943 ], [ -36.593419099999956, -8.391411499999931 ], [ -36.593629299999975, -8.390707 ], [ -36.593938199999968, -8.39024049999994 ], [ -36.593892399999966, -8.388889299999967 ], [ -36.593909199999985, -8.388636599999948 ], [ -36.594210099999934, -8.387533799999959 ], [ -36.594506799999976, -8.386436899999968 ], [ -36.594652799999949, -8.385839899999965 ], [ -36.594657799999936, -8.384908399999986 ], [ -36.594753399999945, -8.375417799999981 ], [ -36.594707099999937, -8.372793499999934 ], [ -36.594652199999985, -8.369703399999938 ], [ -36.596771, -8.36978 ], [ -36.596868099999945, -8.36951519999997 ], [ -36.596891199999959, -8.369186099999988 ], [ -36.596831299999963, -8.368164299999941 ], [ -36.59695279999994, -8.366663699999947 ], [ -36.597004699999957, -8.365892 ], [ -36.596737399999938, -8.365372899999967 ], [ -36.594087499999951, -8.36443159999992 ], [ -36.593248299999978, -8.36331729999994 ], [ -36.592442, -8.362798299999962 ], [ -36.59099029999993, -8.362597499999923 ], [ -36.588799399999971, -8.362278199999922 ], [ -36.586953199999982, -8.362154299999935 ], [ -36.586409, -8.362180499999974 ], [ -36.585655399999958, -8.361921 ], [ -36.584327499999979, -8.361507499999957 ], [ -36.584026399999971, -8.361279099999917 ], [ -36.583151699999974, -8.361152799999951 ], [ -36.582999499999978, -8.360957199999977 ], [ -36.582480699999962, -8.360728 ], [ -36.581007899999982, -8.360400099999923 ], [ -36.580949099999934, -8.361057599999974 ], [ -36.581049399999984, -8.361241 ], [ -36.580956699999952, -8.361812899999984 ], [ -36.580718, -8.364932399999949 ], [ -36.580707799999978, -8.365068099999986 ], [ -36.580673799999936, -8.365240299999911 ], [ -36.580017299999945, -8.365131499999981 ], [ -36.579653499999942, -8.365082199999948 ], [ -36.579170099999942, -8.364934199999945 ], [ -36.57728039999995, -8.364424599999969 ], [ -36.576747499999968, -8.364281699999939 ], [ -36.575942099999956, -8.364177599999952 ], [ -36.5743854, -8.364083499999923 ], [ -36.574394699999971, -8.363552199999972 ], [ -36.574460699999975, -8.363153199999948 ], [ -36.574518799999957, -8.362688499999946 ], [ -36.574585499999962, -8.362090399999934 ], [ -36.574604199999946, -8.361550599999914 ], [ -36.574625699999963, -8.3608 ], [ -36.574062299999987, -8.36075869999995 ], [ -36.573716499999932, -8.36074719999994 ], [ -36.57324489999997, -8.360724699999922 ], [ -36.572607099999964, -8.360695399999953 ], [ -36.572033899999944, -8.36067 ], [ -36.571592, -8.360634599999964 ], [ -36.571318299999966, -8.360627299999956 ], [ -36.571030499999942, -8.360635799999972 ], [ -36.570775, -8.36062219999998 ], [ -36.570581, -8.359912599999955 ], [ -36.570125199999957, -8.359052899999957 ], [ -36.570004, -8.358816399999959 ], [ -36.569475, -8.358157799999969 ], [ -36.569648, -8.357981499999918 ], [ -36.56970959999996, -8.357584099999947 ], [ -36.569715599999938, -8.357546499999959 ], [ -36.569838199999943, -8.357147099999951 ], [ -36.569869699999963, -8.35582539999996 ], [ -36.569981899999966, -8.355584899999959 ], [ -36.566224299999938, -8.354640099999914 ], [ -36.563115299999936, -8.353853299999958 ], [ -36.563669699999934, -8.351870699999967 ], [ -36.562832099999987, -8.351676599999948 ], [ -36.562533199999962, -8.351388599999932 ], [ -36.56198779999994, -8.351281499999985 ], [ -36.56179659999998, -8.351353 ], [ -36.561299299999966, -8.351163299999921 ], [ -36.560700599999961, -8.351215 ], [ -36.55907609999997, -8.350809399999944 ], [ -36.559077799999947, -8.351135099999986 ], [ -36.559103199999974, -8.351380399999938 ], [ -36.559069299999976, -8.351955599999942 ], [ -36.559111599999937, -8.352573099999949 ], [ -36.559221599999951, -8.35294529999994 ], [ -36.559382299999982, -8.353190599999948 ], [ -36.559416099999972, -8.353689699999949 ], [ -36.55950919999998, -8.354078799999947 ], [ -36.559416099999972, -8.354400299999966 ], [ -36.559373799999946, -8.354857099999936 ], [ -36.559136499999973, -8.355567299999946 ], [ -36.558953199999962, -8.35623569999996 ], [ -36.558458499999972, -8.356054 ], [ -36.558239599999986, -8.355985699999943 ], [ -36.557709099999961, -8.355819299999967 ], [ -36.557317299999973, -8.35569639999996 ], [ -36.557076699999982, -8.355620799999951 ], [ -36.556228199999957, -8.355347099999973 ], [ -36.554744399999947, -8.354742299999945 ], [ -36.553775899999948, -8.354251299999934 ], [ -36.553120299999932, -8.353725099999947 ], [ -36.553300399999962, -8.356307799999984 ], [ -36.553368, -8.357898 ], [ -36.553434699999968, -8.359321199999959 ], [ -36.553124799999985, -8.359561299999955 ], [ -36.552938699999977, -8.359332899999965 ], [ -36.552583499999962, -8.359180599999958 ], [ -36.552177399999955, -8.3586223 ], [ -36.55183059999996, -8.3583432 ], [ -36.551568399999951, -8.358436199999982 ], [ -36.551280199999958, -8.358439299999935 ], [ -36.550262499999974, -8.358239599999944 ], [ -36.549636599999936, -8.358036499999981 ], [ -36.548553899999945, -8.358053499999922 ], [ -36.548273599999959, -8.358021699999927 ], [ -36.547957799999949, -8.357929 ], [ -36.547382299999974, -8.35757979999992 ], [ -36.546574499999956, -8.357131399999973 ], [ -36.545610199999942, -8.356784599999971 ], [ -36.545153399999954, -8.3567 ], [ -36.544821199999951, -8.3565326 ], [ -36.544430099999943, -8.356196699999957 ], [ -36.543102099999942, -8.355604599999953 ], [ -36.542983699999986, -8.3555623 ], [ -36.541674599999972, -8.355816099999981 ], [ -36.539316699999979, -8.357152599999941 ], [ -36.538779599999934, -8.357753199999925 ], [ -36.537997899999944, -8.358094599999948 ], [ -36.537980499999946, -8.358182499999957 ], [ -36.537717499999928, -8.358869199999962 ], [ -36.536753199999964, -8.359021499999937 ], [ -36.539866, -8.360713299999938 ], [ -36.54572509999997, -8.364065899999956 ], [ -36.550397399999952, -8.366659899999931 ], [ -36.552563299999974, -8.367891299999943 ], [ -36.553350799999976, -8.36819369999996 ], [ -36.553624, -8.368299399999961 ], [ -36.553805299999972, -8.368492099999976 ], [ -36.554089, -8.368692099999972 ], [ -36.554423799999938, -8.368808399999978 ], [ -36.554650899999963, -8.369028799999972 ], [ -36.554864799999962, -8.369006199999967 ], [ -36.555132799999974, -8.369019399999932 ], [ -36.555409399999981, -8.369247599999939 ], [ -36.555524699999985, -8.369402 ], [ -36.55574079999996, -8.36948569999994 ], [ -36.555853899999931, -8.369572699999924 ], [ -36.556028, -8.369750299999959 ], [ -36.556037499999945, -8.369916899999966 ], [ -36.55599, -8.370047599999955 ], [ -36.555549799999937, -8.370423699999938 ], [ -36.554316599999943, -8.370404899999922 ], [ -36.553665499999966, -8.37075549999995 ], [ -36.553289899999989, -8.371356399999973 ], [ -36.553302499999972, -8.371498899999942 ], [ -36.553721899999978, -8.372525499999952 ], [ -36.553884899999957, -8.372782199999955 ], [ -36.554600699999988, -8.373150899999908 ], [ -36.554890899999975, -8.373356499999955 ], [ -36.555437799999943, -8.373738099999962 ], [ -36.555587199999941, -8.373969399999954 ], [ -36.55603019999996, -8.373869799999964 ], [ -36.556305699999946, -8.373800899999949 ], [ -36.556587299999933, -8.373794699999957 ], [ -36.556850299999958, -8.373832199999967 ], [ -36.556998199999953, -8.373898 ], [ -36.557206199999946, -8.374081 ], [ -36.557302199999981, -8.374135599999954 ], [ -36.557523699999933, -8.373909299999962 ], [ -36.557635899999987, -8.373909699999949 ], [ -36.557879199999945, -8.3737571 ], [ -36.558511499999959, -8.373522399999974 ], [ -36.55896139999993, -8.373359599999976 ], [ -36.559628099999941, -8.373093599999928 ], [ -36.560109299999965, -8.372844 ], [ -36.560634399999969, -8.37259979999993 ], [ -36.561222799999939, -8.37237129999993 ], [ -36.561751, -8.3721874 ], [ -36.561797899999938, -8.372140499999952 ], [ -36.562007599999959, -8.372074799999973 ], [ -36.562392599999946, -8.372027799999961 ], [ -36.562668099999939, -8.371943299999961 ], [ -36.562979499999983, -8.371815 ], [ -36.563870699999939, -8.37130869999992 ], [ -36.564312099999938, -8.371186599999936 ], [ -36.564628199999966, -8.371114699999948 ], [ -36.564868399999966, -8.370996499999928 ], [ -36.565528, -8.370545799999958 ], [ -36.565938099999983, -8.370527 ], [ -36.566373099999971, -8.370401799999978 ], [ -36.567226799999965, -8.370195199999934 ], [ -36.567636099999952, -8.37008879999998 ], [ -36.56776439999993, -8.37002929999996 ], [ -36.568045799999936, -8.369876499999984 ], [ -36.568361399999965, -8.369670199999975 ], [ -36.568508499999957, -8.369513699999983 ], [ -36.568676, -8.369413399999946 ], [ -36.568680699999959, -8.36941039999995 ], [ -36.569047499999954, -8.369216599999968 ], [ -36.569240099999952, -8.369134 ], [ -36.569250299999958, -8.369128699999978 ], [ -36.569359899999945, -8.369088 ], [ -36.569566499999951, -8.369022299999946 ], [ -36.569723, -8.368940899999942 ], [ -36.569942099999935, -8.368878299999967 ], [ -36.570098499999972, -8.368817899999963 ], [ -36.570231299999932, -8.368722 ], [ -36.570228699999973, -8.368339 ], [ -36.570479499999976, -8.368348 ], [ -36.570575599999984, -8.36835469999993 ], [ -36.571139499999958, -8.36839209999995 ], [ -36.572746, -8.368492699999939 ], [ -36.574098699999986, -8.368591299999956 ], [ -36.579150099999936, -8.36887619999993 ], [ -36.579979899999962, -8.368921499999962 ], [ -36.582886199999962, -8.369087 ], [ -36.582875399999978, -8.369297099999937 ], [ -36.582759499999959, -8.369334 ], [ -36.582438199999956, -8.369297099999908 ], [ -36.582511899999936, -8.370080699999976 ], [ -36.5825488, -8.370491499999957 ], [ -36.58266469999996, -8.370748299999949 ], [ -36.582764699999984, -8.370816799999947 ], [ -36.582864799999989, -8.370827299999959 ], [ -36.58307549999995, -8.370806199999974 ], [ -36.583265099999956, -8.37083259999995 ], [ -36.583286199999975, -8.371038 ], [ -36.583307299999944, -8.371786 ], [ -36.583391599999963, -8.373231799999903 ], [ -36.58379709999997, -8.373189699999942 ], [ -36.583728699999945, -8.374241899999973 ], [ -36.583776099999966, -8.374341899999928 ], [ -36.583963399999959, -8.374324 ], [ -36.584142299999947, -8.374296899999909 ], [ -36.583844599999956, -8.374612299999978 ], [ -36.583542399999949, -8.374861199999941 ], [ -36.583162899999927, -8.375173699999937 ], [ -36.582774399999956, -8.375336699999936 ], [ -36.582142099999949, -8.375657 ], [ -36.580636799999979, -8.376375399999962 ], [ -36.579376, -8.377065599999979 ], [ -36.57869379999994, -8.377463699999961 ], [ -36.578161299999977, -8.37778459999994 ], [ -36.578229499999971, -8.378157399999971 ], [ -36.578103899999974, -8.378347499999972 ], [ -36.57804109999995, -8.378399299999966 ], [ -36.577826399999942, -8.378360099999934 ], [ -36.577633699999986, -8.37846989999997 ], [ -36.577512299999967, -8.378619499999971 ], [ -36.577447399999983, -8.378834699999983 ], [ -36.577472399999984, -8.37900959999995 ], [ -36.577703199999974, -8.379147799999956 ], [ -36.577918499999953, -8.3792357 ], [ -36.578548499999954, -8.379382499999974 ], [ -36.578710599999965, -8.379534099999969 ], [ -36.578635799999972, -8.379692899999934 ], [ -36.578635899999938, -8.379845099999947 ], [ -36.578673099999946, -8.379976699999927 ], [ -36.578733899999975, -8.380067299999942 ], [ -36.578841399999931, -8.380103199999938 ], [ -36.578907199999954, -8.380269799999933 ], [ -36.57882509999996, -8.380355499999947 ], [ -36.578728, -8.38038909999996 ], [ -36.578732299999956, -8.380499599999945 ], [ -36.57882989999996, -8.380550199999952 ], [ -36.578850499999938, -8.380669 ], [ -36.578771899999936, -8.380727599999961 ], [ -36.57863, -8.380879099999973 ], [ -36.578562799999929, -8.381017299999947 ], [ -36.578579599999955, -8.381207699999944 ], [ -36.578560699999969, -8.381379399999975 ], [ -36.578482399999984, -8.381711599999978 ], [ -36.578236299999958, -8.381829199999954 ], [ -36.57814239999994, -8.381992699999968 ], [ -36.578155099999954, -8.382118899999938 ], [ -36.578255899999938, -8.382292199999959 ], [ -36.578330599999958, -8.38264669999996 ], [ -36.578229699999959, -8.382748299999925 ], [ -36.578202599999941, -8.383026699999958 ], [ -36.578373899999981, -8.383445499999945 ], [ -36.578351199999936, -8.383607299999955 ], [ -36.578373599999964, -8.383867899999927 ], [ -36.578419499999946, -8.383949199999979 ], [ -36.57865709999993, -8.384051599999983 ], [ -36.578785, -8.384167 ], [ -36.578802, -8.384298499999955 ], [ -36.578778599999971, -8.384514899999946 ], [ -36.579079, -8.384613399999981 ], [ -36.579497099999969, -8.384659699999951 ], [ -36.579749699999986, -8.384774299999952 ], [ -36.579933, -8.384980099999957 ], [ -36.579935299999939, -8.385139099999936 ], [ -36.580013, -8.385216699999935 ], [ -36.58055, -8.385336099999956 ], [ -36.580897799999946, -8.3854813 ], [ -36.581218, -8.385619799999954 ], [ -36.581869, -8.38598959999994 ], [ -36.582102199999952, -8.386143699999943 ], [ -36.582166699999966, -8.386218799999931 ], [ -36.582163899999955, -8.386375099999951 ], [ -36.582708099999934, -8.386964799999932 ], [ -36.582923899999969, -8.387457899999958 ], [ -36.582925799999948, -8.387459699999962 ], [ -36.58283239999998, -8.3876443 ], [ -36.582711199999956, -8.387683099999954 ], [ -36.582225799999954, -8.3877649 ], [ -36.582050399999957, -8.387809599999969 ], [ -36.582017499999949, -8.387888499999956 ], [ -36.582066899999973, -8.388540399999972 ], [ -36.582065699999937, -8.38866979999994 ], [ -36.582061399999937, -8.388878199999974 ], [ -36.582042899999976, -8.38912289999997 ], [ -36.581863399999982, -8.390245799999963 ], [ -36.582149899999933, -8.391449799999986 ], [ -36.582195399999932, -8.391678499999957 ], [ -36.582221599999968, -8.391901399999934 ], [ -36.582194599999987, -8.393505699999936 ], [ -36.58217, -8.393857399999971 ], [ -36.582124099999938, -8.394075499999941 ], [ -36.582060099999978, -8.394269 ], [ -36.58200769999997, -8.394518299999943 ], [ -36.58306529999993, -8.394569099999954 ], [ -36.583114499999965, -8.393755799999942 ], [ -36.584841899999965, -8.393552799999954 ], [ -36.5848453, -8.393710599999958 ], [ -36.584961099999937, -8.393860499999983 ], [ -36.585097799999971, -8.39414819999994 ], [ -36.585460299999973, -8.394381199999957 ], [ -36.585675299999942, -8.394528499999977 ], [ -36.586110699999949, -8.394722399999969 ], [ -36.58618359999997, -8.394779499999972 ] ] ], [ [ [ -36.520703799999986, -8.27914729999998 ], [ -36.520236099999984, -8.278035399999961 ], [ -36.518802499999943, -8.276374099999957 ], [ -36.51685039999996, -8.274366099999938 ], [ -36.514471799999974, -8.2728486 ], [ -36.512669499999966, -8.272825 ], [ -36.512545499999931, -8.272862299999931 ], [ -36.512353699999956, -8.273391199999958 ], [ -36.512106199999955, -8.274017299999958 ], [ -36.51240319999993, -8.276637699999975 ], [ -36.513256099999978, -8.278157699999941 ], [ -36.515158299999939, -8.280044399999932 ], [ -36.519929099999956, -8.281254299999956 ], [ -36.520703799999986, -8.27914729999998 ] ] ] ] } }
]
}
