{
"type": "FeatureCollection",
"name": "2614709",
"crs": { "type": "name", "properties": { "name": "urn:ogc:def:crs:OGC:1.3:CRS84" } },
"features": [
{ "type": "Feature", "properties": { "CD_MUN": "2614709", "NM_MUN": "Tacaimbó" }, "geometry": { "type": "MultiPolygon", "coordinates": [ [ [ [ -36.219300199999964, -8.371130899999985 ], [ -36.221523299999944, -8.367918699999967 ], [ -36.219046899999974, -8.366082799999944 ], [ -36.2161761, -8.365695199999957 ], [ -36.213914099999954, -8.366070199999966 ], [ -36.214594799999929, -8.367417699999987 ], [ -36.214728499999978, -8.367681199999927 ], [ -36.216192399999962, -8.370576599999914 ], [ -36.21790649999997, -8.371236899999911 ], [ -36.219300199999964, -8.371130899999985 ] ] ], [ [ [ -36.288608, -8.325512199999933 ], [ -36.289140799999984, -8.325652899999985 ], [ -36.289723799999926, -8.325853899999961 ], [ -36.290518, -8.326044899999948 ], [ -36.290879899999936, -8.326075099999978 ], [ -36.291282, -8.326065099999939 ], [ -36.291814799999933, -8.32602479999996 ], [ -36.292196799999942, -8.325994699999946 ], [ -36.292578799999937, -8.325894199999951 ], [ -36.292779799999948, -8.32578359999996 ], [ -36.292930599999977, -8.325703199999964 ], [ -36.293041199999955, -8.325622699999911 ], [ -36.29316179999995, -8.325512199999906 ], [ -36.293232199999984, -8.32541159999994 ], [ -36.293302599999947, -8.325230699999949 ], [ -36.293362899999984, -8.32511 ], [ -36.293453399999976, -8.324919 ], [ -36.293473499999948, -8.324878799999965 ], [ -36.293543799999959, -8.324738099999919 ], [ -36.293714699999953, -8.32458729999996 ], [ -36.293986199999949, -8.324426499999971 ], [ -36.294368199999951, -8.324245499999968 ], [ -36.294622199999935, -8.324088799999963 ], [ -36.294734199999944, -8.323764 ], [ -36.294762599999949, -8.323599699999933 ], [ -36.294756699999937, -8.323508899999984 ], [ -36.294718799999941, -8.3233673 ], [ -36.294638199999945, -8.323193399999973 ], [ -36.294553199999939, -8.323022099999939 ], [ -36.294331399999976, -8.322654799999954 ], [ -36.29410589999997, -8.322311299999974 ], [ -36.293949299999959, -8.322030799999929 ], [ -36.293751099999952, -8.321623399999989 ], [ -36.293602399999941, -8.321214699999921 ], [ -36.293677199999934, -8.321084599999958 ], [ -36.294441499999948, -8.321119499999957 ], [ -36.29494909999994, -8.320152699999946 ], [ -36.293801, -8.319145599999967 ], [ -36.29404089999997, -8.319017899999949 ], [ -36.294244099999958, -8.318913899999945 ], [ -36.294373, -8.318821299999971 ], [ -36.294395099999981, -8.318667299999982 ], [ -36.294413299999974, -8.318571499999951 ], [ -36.294558299999949, -8.318422499999953 ], [ -36.294672199999987, -8.318303599999966 ], [ -36.294675199999972, -8.318200899999953 ], [ -36.294981099999973, -8.3182113 ], [ -36.295344799999953, -8.318058299999974 ], [ -36.296020699999922, -8.31783029999997 ], [ -36.29629859999995, -8.317834299999944 ], [ -36.297031799999957, -8.31808409999995 ], [ -36.297491, -8.318162399999947 ], [ -36.297662299999956, -8.318185 ], [ -36.297920099999935, -8.318313699999964 ], [ -36.298230199999978, -8.318394299999957 ], [ -36.298625, -8.318495 ], [ -36.298829, -8.318563399999944 ], [ -36.298961699999943, -8.318598099999974 ], [ -36.299212, -8.318588899999966 ], [ -36.299372299999959, -8.317584599999989 ], [ -36.298905, -8.317439499999967 ], [ -36.298397399999956, -8.317350899999932 ], [ -36.29761289999994, -8.317134399999938 ], [ -36.29709749999995, -8.317018299999965 ], [ -36.296983399999938, -8.316976299999983 ], [ -36.296874499999952, -8.316895 ], [ -36.296952899999944, -8.315515499999941 ], [ -36.297336899999948, -8.315442099999947 ], [ -36.297539299999983, -8.312475599999958 ], [ -36.298140599999961, -8.312118799999944 ], [ -36.298339799999958, -8.309897099999958 ], [ -36.296260799999978, -8.309926699999966 ], [ -36.296254799999929, -8.310217099999926 ], [ -36.295102699999973, -8.3101526 ], [ -36.293491499999959, -8.309862599999969 ], [ -36.294426099999946, -8.303586299999962 ], [ -36.2946295, -8.296679599999962 ], [ -36.29521509999995, -8.293379099999971 ], [ -36.291032099999939, -8.293195 ], [ -36.289706799999983, -8.304220799999921 ], [ -36.289884, -8.307064799999988 ], [ -36.289137299999936, -8.313526899999934 ], [ -36.289070399999957, -8.314311699999962 ], [ -36.28858, -8.314277 ], [ -36.285814, -8.314411099999967 ], [ -36.284403399999974, -8.315528699999962 ], [ -36.284270599999957, -8.316834599999913 ], [ -36.284115399999969, -8.317172399999931 ], [ -36.284024099999961, -8.31725459999997 ], [ -36.28384149999993, -8.317282 ], [ -36.2835037, -8.317263699999966 ], [ -36.283321099999974, -8.317291099999984 ], [ -36.282883399999946, -8.317386899999949 ], [ -36.282680399999947, -8.317192699999971 ], [ -36.282583599999953, -8.317164799999942 ], [ -36.282119199999947, -8.317020399999922 ], [ -36.281806599999982, -8.317029 ], [ -36.281131499999958, -8.316793199999958 ], [ -36.280650699999974, -8.316767499999974 ], [ -36.280311599999955, -8.316670099999971 ], [ -36.280046099999943, -8.316527899999947 ], [ -36.279528499999962, -8.316133 ], [ -36.278731299999947, -8.317484299999931 ], [ -36.278654699999947, -8.320424399999979 ], [ -36.28001809999995, -8.325171199999936 ], [ -36.273483899999981, -8.332923599999964 ], [ -36.273996099999977, -8.33296 ], [ -36.275466899999977, -8.3330698 ], [ -36.279395699999952, -8.333299899999913 ], [ -36.280058499999946, -8.333380899999963 ], [ -36.280704599999979, -8.333535 ], [ -36.281263299999985, -8.33373439999996 ], [ -36.283087799999969, -8.334413699999972 ], [ -36.283416699999975, -8.333463699999989 ], [ -36.283569399999976, -8.332939199999949 ], [ -36.283832, -8.332325399999954 ], [ -36.284169399999946, -8.331594899999981 ], [ -36.284255799999983, -8.331441899999946 ], [ -36.285401, -8.329363799999935 ], [ -36.285611199999948, -8.328975399999914 ], [ -36.285850699999969, -8.328565299999989 ], [ -36.286093799999946, -8.328097699999926 ], [ -36.286315599999966, -8.327692499999964 ], [ -36.28767959999994, -8.325238299999949 ], [ -36.288256099999955, -8.32543169999996 ], [ -36.288608, -8.325512199999933 ] ] ] ] } }
]
}
