{
"type": "FeatureCollection",
"name": "2616506",
"crs": { "type": "name", "properties": { "name": "urn:ogc:def:crs:OGC:1.3:CRS84" } },
"features": [
{ "type": "Feature", "properties": { "CD_MUN": "2616506", "NM_MUN": "Xexéu" }, "geometry": { "type": "MultiPolygon", "coordinates": [ [ [ [ -35.629112299999967, -8.879321799999971 ], [ -35.628926699999973, -8.879003199999962 ], [ -35.628942299999956, -8.878086 ], [ -35.628953199999962, -8.877248299999941 ], [ -35.628974399999947, -8.87696339999998 ], [ -35.629012, -8.876497899999926 ], [ -35.629061499999978, -8.875907199999958 ], [ -35.629155199999957, -8.875641599999929 ], [ -35.629195399999958, -8.875415299999936 ], [ -35.6292567, -8.875223599999973 ], [ -35.629367, -8.874776699999941 ], [ -35.629455199999938, -8.874035699999975 ], [ -35.629490499999974, -8.873368199999963 ], [ -35.62952869999998, -8.872547799999948 ], [ -35.629628699999948, -8.871965599999967 ], [ -35.629863899999968, -8.87089819999996 ], [ -35.630028599999946, -8.870145499999978 ], [ -35.630149199999948, -8.869328 ], [ -35.629661099999964, -8.869575 ], [ -35.628523099999946, -8.870239599999911 ], [ -35.627567799999952, -8.870853899999952 ], [ -35.627451299999962, -8.87067539999993 ], [ -35.627373899999945, -8.87049769999995 ], [ -35.627306699999963, -8.870300199999972 ], [ -35.627246, -8.87010949999997 ], [ -35.627229399999976, -8.8699013 ], [ -35.627258599999955, -8.869673399999945 ], [ -35.627300199999979, -8.869479 ], [ -35.627399699999962, -8.869131099999928 ], [ -35.627494299999967, -8.868518099999946 ], [ -35.627556499999976, -8.868297599999927 ], [ -35.627626099999937, -8.867998099999969 ], [ -35.627689399999959, -8.867728099999956 ], [ -35.62770009999997, -8.867510899999946 ], [ -35.627157099999977, -8.867314199999955 ], [ -35.627006599999966, -8.867660499999936 ], [ -35.626858, -8.867841099999946 ], [ -35.626653899999951, -8.868159399999955 ], [ -35.626363699999963, -8.867956899999985 ], [ -35.626220399999973, -8.868112899999979 ], [ -35.626051799999964, -8.868386699999959 ], [ -35.625910299999937, -8.868568099999939 ], [ -35.625625499999963, -8.868818399999943 ], [ -35.62530269999997, -8.869237399999951 ], [ -35.625126799999983, -8.869797799999954 ], [ -35.624987099999942, -8.870234899999961 ], [ -35.624829299999938, -8.871069199999946 ], [ -35.624802099999954, -8.871259599999988 ], [ -35.62475859999995, -8.871404699999959 ], [ -35.624620799999953, -8.87151709999995 ], [ -35.623801, -8.871785599999942 ], [ -35.622992099999976, -8.872113799999967 ], [ -35.622619399999962, -8.872241699999961 ], [ -35.622569, -8.87226 ], [ -35.622618899999978, -8.872300799999959 ], [ -35.62256949999994, -8.872793099999962 ], [ -35.622574899999961, -8.872790599999975 ], [ -35.622489, -8.873639799999969 ], [ -35.622915199999966, -8.874541399999922 ], [ -35.622912299999946, -8.87454509999996 ], [ -35.623430899999967, -8.875642599999919 ], [ -35.624471399999941, -8.876316899999951 ], [ -35.624477699999936, -8.876318499999979 ], [ -35.625031, -8.876677099999956 ], [ -35.626256899999916, -8.877471499999961 ], [ -35.629112299999967, -8.879321799999971 ] ] ], [ [ [ -35.632707599999954, -8.8131342 ], [ -35.632358, -8.812932599999959 ], [ -35.632181799999955, -8.812788399999949 ], [ -35.631845799999951, -8.812483099999966 ], [ -35.631661699999945, -8.812343799999958 ], [ -35.631433099999988, -8.811979 ], [ -35.631129199999982, -8.811445099999942 ], [ -35.630607099999963, -8.810523499999944 ], [ -35.630478799999935, -8.810323199999967 ], [ -35.63034579999993, -8.81011439999997 ], [ -35.630241899999938, -8.809972499999976 ], [ -35.630119, -8.809807299999928 ], [ -35.629951399999989, -8.809605299999921 ], [ -35.629817699999933, -8.809478 ], [ -35.629702399999928, -8.809375099999951 ], [ -35.629814, -8.809304 ], [ -35.630074499999985, -8.809282799999931 ], [ -35.630311699999943, -8.809253699999955 ], [ -35.630610499999932, -8.809184799999972 ], [ -35.630988399999978, -8.809041699999973 ], [ -35.631018299999944, -8.808987099999976 ], [ -35.63158779999997, -8.808788299999943 ], [ -35.631653299999975, -8.808760199999922 ], [ -35.63189449999993, -8.808772 ], [ -35.632032699999968, -8.808783699999926 ], [ -35.632306599999943, -8.808828199999921 ], [ -35.632447099999986, -8.808814099999955 ], [ -35.632690699999955, -8.808675899999988 ], [ -35.632851599999988, -8.80861449999998 ], [ -35.632997399999972, -8.80855889999996 ], [ -35.63306069999993, -8.80839259999992 ], [ -35.632938899999957, -8.807858699999938 ], [ -35.632956399999962, -8.807725199999927 ], [ -35.632998599999958, -8.807669 ], [ -35.63310869999998, -8.807441899999958 ], [ -35.633162499999969, -8.807385699999953 ], [ -35.633221099999957, -8.807299099999966 ], [ -35.633280799999973, -8.807220199999946 ], [ -35.633391899999936, -8.807101599999951 ], [ -35.633517299999944, -8.806970099999948 ], [ -35.633561799999946, -8.806802199999934 ], [ -35.63353149999994, -8.806516799999949 ], [ -35.633442499999944, -8.806367099999928 ], [ -35.633341299999984, -8.806274 ], [ -35.633296799999975, -8.80603729999997 ], [ -35.63342629999994, -8.805867299999932 ], [ -35.633517299999944, -8.8057014 ], [ -35.633689299999958, -8.805381699999938 ], [ -35.633911899999937, -8.804904099999929 ], [ -35.633639399999936, -8.804730399999938 ], [ -35.633719699999965, -8.804670199999961 ], [ -35.633832899999952, -8.804532 ], [ -35.633911899999937, -8.80443329999996 ], [ -35.6339632, -8.804337499999976 ], [ -35.634180299999969, -8.803990699999916 ], [ -35.634292499999958, -8.803701799999928 ], [ -35.633483499999954, -8.803680399999967 ], [ -35.633218399999976, -8.80364879999998 ], [ -35.63298709999998, -8.803613099999954 ], [ -35.632782099999929, -8.803569299999914 ], [ -35.632558499999959, -8.803476899999959 ], [ -35.632386199999985, -8.80379929999998 ], [ -35.632317399999977, -8.803973299999955 ], [ -35.63213849999994, -8.804329799999941 ], [ -35.631848, -8.805349299999936 ], [ -35.631691399999958, -8.805418699999947 ], [ -35.631616, -8.805412799999957 ], [ -35.631509199999982, -8.805359399999933 ], [ -35.631393799999955, -8.805122199999952 ], [ -35.631101, -8.805009 ], [ -35.630889499999967, -8.804949099999924 ], [ -35.630865599999943, -8.805004099999968 ], [ -35.630810699999984, -8.805127599999937 ], [ -35.630726799999934, -8.805076899999973 ], [ -35.630702, -8.805071199999935 ], [ -35.630451599999958, -8.805016899999931 ], [ -35.630436299999921, -8.805137 ], [ -35.630483799999979, -8.805319199999921 ], [ -35.630295799999935, -8.805359899999926 ], [ -35.630088, -8.805269499999937 ], [ -35.63005179999994, -8.805029399999958 ], [ -35.630015099999987, -8.80459779999995 ], [ -35.629977099999969, -8.804306599999981 ], [ -35.629969199999948, -8.804271199999963 ], [ -35.629915399999959, -8.804115099999915 ], [ -35.629903299999967, -8.803922299999954 ], [ -35.629773499999942, -8.803803799999946 ], [ -35.629666699999973, -8.803778199999948 ], [ -35.629391099999964, -8.803500399999965 ], [ -35.629070499999948, -8.803487599999924 ], [ -35.629, -8.803526 ], [ -35.628978699999962, -8.802359299999962 ], [ -35.6284103, -8.802333699999961 ], [ -35.62845509999994, -8.802147799999942 ], [ -35.628485599999983, -8.801893199999915 ], [ -35.628502099999935, -8.801754599999956 ], [ -35.628029699999949, -8.801737299999964 ], [ -35.627859, -8.801731099999936 ], [ -35.62730769999996, -8.801716099999977 ], [ -35.627283199999965, -8.80148219999997 ], [ -35.627258499999982, -8.801246 ], [ -35.626858899999945, -8.801250299999953 ], [ -35.626733899999984, -8.801322299999967 ], [ -35.626394199999943, -8.801285599999979 ], [ -35.626298, -8.801354 ], [ -35.62601809999996, -8.801368899999957 ], [ -35.625595, -8.801484299999968 ], [ -35.625368499999979, -8.801610399999964 ], [ -35.625356499999953, -8.801753499999979 ], [ -35.625255199999962, -8.801728299999974 ], [ -35.625193899999942, -8.801701499999952 ], [ -35.625098, -8.801691899999984 ], [ -35.624877899999952, -8.8017341 ], [ -35.624724699999945, -8.801751299999964 ], [ -35.624605499999966, -8.801764799999937 ], [ -35.624434799999968, -8.801791599999946 ], [ -35.6242008, -8.801801199999927 ], [ -35.623959099999979, -8.8018281 ], [ -35.623641199999952, -8.80189 ], [ -35.623532299999972, -8.801997399999955 ], [ -35.623575599999981, -8.802230299999955 ], [ -35.623514899999968, -8.802595899999973 ], [ -35.62334379999993, -8.80291569999995 ], [ -35.623293699999977, -8.803097799999932 ], [ -35.62325849999997, -8.8032454 ], [ -35.623190099999938, -8.803556199999937 ], [ -35.623152599999976, -8.803772099999925 ], [ -35.623154499999934, -8.804187399999941 ], [ -35.62316009999995, -8.804497299999978 ], [ -35.623187399999949, -8.804733799999941 ], [ -35.623226099999954, -8.80478459999995 ], [ -35.623196699999937, -8.80479779999995 ], [ -35.623001, -8.804797799999962 ], [ -35.622235699999976, -8.80504139999992 ], [ -35.621930699999943, -8.805123799999938 ], [ -35.621865499999956, -8.805965899999935 ], [ -35.621990199999978, -8.806813699999962 ], [ -35.622335399999947, -8.807918499999953 ], [ -35.622357, -8.807996899999978 ], [ -35.622412, -8.810020899999939 ], [ -35.622698499999956, -8.809805099999954 ], [ -35.623063899999977, -8.809614899999936 ], [ -35.623331, -8.809766599999953 ], [ -35.623600299999964, -8.809525099999968 ], [ -35.62369, -8.808738799999974 ], [ -35.623775499999965, -8.809023 ], [ -35.623908, -8.809149099999942 ], [ -35.624512699999975, -8.809747399999948 ], [ -35.624607799999978, -8.81019479999998 ], [ -35.624649499999975, -8.81039059999997 ], [ -35.624852499999974, -8.810486699999943 ], [ -35.625006299999946, -8.810649099999972 ], [ -35.625186599999942, -8.810730799999943 ], [ -35.625358299999967, -8.810780499999952 ], [ -35.625866899999956, -8.811116 ], [ -35.626238399999984, -8.811276099999937 ], [ -35.627303499999989, -8.811668299999941 ], [ -35.627323899999965, -8.811674 ], [ -35.627339099999972, -8.811676499999972 ], [ -35.627712199999962, -8.81180849999992 ], [ -35.628023099999965, -8.81193949999993 ], [ -35.628258099999989, -8.811984499999928 ], [ -35.628277799999985, -8.812144499999906 ], [ -35.629990599999921, -8.812733 ], [ -35.630968, -8.813122099999941 ], [ -35.632606, -8.813785099999944 ], [ -35.632707599999954, -8.8131342 ] ] ] ] } }
]
}
