{
"type": "FeatureCollection",
"name": "2700607",
"crs": { "type": "name", "properties": { "name": "urn:ogc:def:crs:OGC:1.3:CRS84" } },
"features": [
{ "type": "Feature", "properties": { "CD_MUN": "2700607", "NM_MUN": "Barra de São Miguel" }, "geometry": { "type": "MultiPolygon", "coordinates": [ [ [ [ -35.905996199999954, -9.846015699999933 ], [ -35.906675499999949, -9.845116599999928 ], [ -35.906709599999942, -9.844755799999982 ], [ -35.906572799999935, -9.84459219999998 ], [ -35.906501099999957, -9.844507799999972 ], [ -35.906406899999986, -9.844133799999968 ], [ -35.906435, -9.843574499999926 ], [ -35.906430599999972, -9.843317899999937 ], [ -35.906206199999936, -9.843166899999968 ], [ -35.9059956, -9.842994499999975 ], [ -35.9060085, -9.842912 ], [ -35.906527499999974, -9.842112599999956 ], [ -35.906822299999931, -9.842012899999929 ], [ -35.906991, -9.841891599999935 ], [ -35.907198899999976, -9.841661199999972 ], [ -35.907419499999953, -9.841291899999918 ], [ -35.907563899999964, -9.841110599999983 ], [ -35.907297399999955, -9.840904899999941 ], [ -35.907349299999964, -9.840796299999973 ], [ -35.90770039999996, -9.840709699999934 ], [ -35.907770299999981, -9.840589199999958 ], [ -35.907682899999941, -9.840390799999978 ], [ -35.907646199999931, -9.840292699999949 ], [ -35.907678199999964, -9.84019079999997 ], [ -35.907814499999965, -9.840269499999968 ], [ -35.908014499999979, -9.839998599999941 ], [ -35.908804099999941, -9.839342899999959 ], [ -35.908876199999945, -9.839298099999954 ], [ -35.909477199999969, -9.839032099999931 ], [ -35.910130099999947, -9.838709599999971 ], [ -35.910567799999967, -9.838347399999979 ], [ -35.910953499999948, -9.837897399999964 ], [ -35.911072699999977, -9.837661399999943 ], [ -35.910907499999958, -9.837603599999962 ], [ -35.91070509999998, -9.837509299999976 ], [ -35.910647899999965, -9.837407199999975 ], [ -35.910451, -9.837325299999975 ], [ -35.910157699999949, -9.837297699999951 ], [ -35.909856099999971, -9.837258099999916 ], [ -35.909638499999964, -9.837193399999922 ], [ -35.909471199999984, -9.837082499999964 ], [ -35.909325599999931, -9.836961399999966 ], [ -35.909194799999973, -9.836782299999971 ], [ -35.909032299999978, -9.836639599999945 ], [ -35.908898699999959, -9.836563899999929 ], [ -35.908830499999972, -9.836529299999947 ], [ -35.908861599999966, -9.836461299999947 ], [ -35.908878099999988, -9.836396299999917 ], [ -35.908905299999958, -9.836234099999942 ], [ -35.908965499999972, -9.835739 ], [ -35.90900239999997, -9.835405 ], [ -35.909016, -9.835307899999984 ], [ -35.90904119999994, -9.835181699999975 ], [ -35.909099499999968, -9.83501079999996 ], [ -35.909171299999976, -9.834822499999985 ], [ -35.909254799999928, -9.834608899999957 ], [ -35.909425699999929, -9.834197299999964 ], [ -35.909569299999937, -9.83383419999995 ], [ -35.909915, -9.832954599999942 ], [ -35.910173199999981, -9.832300199999949 ], [ -35.910338299999971, -9.831873 ], [ -35.910381, -9.831772 ], [ -35.910421799999938, -9.831708 ], [ -35.910482, -9.831632199999946 ], [ -35.91051889999995, -9.831591499999956 ], [ -35.910567399999934, -9.831546799999948 ], [ -35.910627599999941, -9.831506 ], [ -35.91070329999998, -9.831463299999927 ], [ -35.91076349999998, -9.831430299999953 ], [ -35.910843099999973, -9.831399199999968 ], [ -35.910951899999937, -9.831364299999962 ], [ -35.911433399999964, -9.831230299999971 ], [ -35.911965399999929, -9.831073 ], [ -35.912511099999961, -9.830919599999957 ], [ -35.913262499999981, -9.830706 ], [ -35.914015899999981, -9.83048659999997 ], [ -35.914584799999943, -9.830323499999986 ], [ -35.914656699999973, -9.830300199999957 ], [ -35.914711, -9.830273 ], [ -35.914747899999952, -9.830232299999984 ], [ -35.914792599999949, -9.830162399999951 ], [ -35.914837299999931, -9.830028199999957 ], [ -35.914781199999936, -9.83004159999996 ], [ -35.914391499999965, -9.830105599999966 ], [ -35.914162099999949, -9.830129599999957 ], [ -35.913788599999982, -9.83014159999993 ], [ -35.913461799999936, -9.830153599999946 ], [ -35.913019399999939, -9.830169599999973 ], [ -35.91264989999997, -9.830165599999924 ], [ -35.912282499999947, -9.830185599999931 ], [ -35.911669599999989, -9.830221599999968 ], [ -35.910865799999961, -9.830253599999928 ], [ -35.91032789999997, -9.830269599999941 ], [ -35.909615199999969, -9.830296699999977 ], [ -35.909568099999944, -9.830296299999917 ], [ -35.909184099999955, -9.830310199999911 ], [ -35.906444599999936, -9.830421399999956 ], [ -35.905005799999969, -9.830478099999947 ], [ -35.905004199999965, -9.830478499999982 ], [ -35.904675199999922, -9.830474599999929 ], [ -35.904206399999964, -9.830494599999946 ], [ -35.903674599999931, -9.83052659999991 ], [ -35.903325399999964, -9.830546599999938 ], [ -35.902972299999931, -9.830570599999918 ], [ -35.902759099999969, -9.830582599999959 ], [ -35.9024831, -9.830610599999945 ], [ -35.902243599999963, -9.830670599999966 ], [ -35.902032499999962, -9.830742599999962 ], [ -35.901809199999953, -9.830838599999947 ], [ -35.901618399999968, -9.830970599999949 ], [ -35.90140729999996, -9.831158499999948 ], [ -35.901094699999931, -9.831442499999984 ], [ -35.900822699999928, -9.831742499999946 ], [ -35.900569, -9.8319825 ], [ -35.900284899999974, -9.832266499999953 ], [ -35.899956, -9.83260249999995 ], [ -35.899675899999977, -9.832886499999976 ], [ -35.899337, -9.833174499999924 ], [ -35.899052799999943, -9.83336249999998 ], [ -35.898788399999944, -9.833459299999962 ], [ -35.898681299999971, -9.833498499999953 ], [ -35.898474299999982, -9.833534499999933 ], [ -35.898279399999986, -9.833538499999968 ], [ -35.89805209999998, -9.833526499999941 ], [ -35.897816699999964, -9.8334705 ], [ -35.897540599999957, -9.83337849999997 ], [ -35.897378499999938, -9.833285599999964 ], [ -35.896905299999958, -9.83301449999993 ], [ -35.896847799999925, -9.83297969999998 ], [ -35.896442499999971, -9.832734499999962 ], [ -35.896221599999933, -9.832567599999964 ], [ -35.89609309999998, -9.832436399999958 ], [ -35.895952799999975, -9.832266499999951 ], [ -35.895862699999952, -9.832130399999913 ], [ -35.895787199999972, -9.83199159999997 ], [ -35.895615, -9.831609799999956 ], [ -35.895484499999952, -9.831254599999951 ], [ -35.895358699999974, -9.830946599999963 ], [ -35.895232499999963, -9.830701799999918 ], [ -35.895122899999933, -9.830513799999956 ], [ -35.894964799999975, -9.830322599999919 ], [ -35.894753699999974, -9.830106599999969 ], [ -35.894396499999971, -9.829846599999957 ], [ -35.893720099999946, -9.829466899999941 ], [ -35.893722899999943, -9.829444799999989 ], [ -35.893728199999948, -9.829401499999957 ], [ -35.893728199999948, -9.829384399999975 ], [ -35.893728, -9.829290299999982 ], [ -35.893761099999963, -9.829201399999951 ], [ -35.893818199999941, -9.829119399999966 ], [ -35.89387179999995, -9.8290292 ], [ -35.893965899999955, -9.828968099999928 ], [ -35.894093299999952, -9.82886819999991 ], [ -35.894226199999942, -9.828785 ], [ -35.894287199999944, -9.828746099999924 ], [ -35.894337, -9.828718399999957 ], [ -35.894413399999969, -9.828640299999948 ], [ -35.89440029999998, -9.828596699999922 ], [ -35.894382699999937, -9.82848329999997 ], [ -35.894447499999956, -9.828435 ], [ -35.89450839999995, -9.828368299999955 ], [ -35.89457479999993, -9.828307299999945 ], [ -35.894596899999954, -9.82825729999996 ], [ -35.894624599999929, -9.828235099999974 ], [ -35.89468, -9.828224 ], [ -35.894763199999943, -9.828229599999929 ], [ -35.894813099999965, -9.828229699999966 ], [ -35.894857499999937, -9.828224199999962 ], [ -35.894851799999969, -9.828157499999971 ], [ -35.894862799999942, -9.828068499999969 ], [ -35.894901499999946, -9.828035199999938 ], [ -35.895023199999969, -9.827840799999928 ], [ -35.895172699999932, -9.827740899999977 ], [ -35.895183599999953, -9.827574099999927 ], [ -35.895233199999943, -9.8273852 ], [ -35.895244499999933, -9.827297 ], [ -35.89524959999995, -9.827257299999919 ], [ -35.895238399999982, -9.82719059999993 ], [ -35.895188399999938, -9.827118299999949 ], [ -35.895143899999944, -9.827029299999912 ], [ -35.895076199999949, -9.826948899999948 ], [ -35.894983499999967, -9.826851299999932 ], [ -35.895023699999967, -9.826743899999947 ], [ -35.895084499999939, -9.826665399999952 ], [ -35.895082899999977, -9.826613799999974 ], [ -35.895033, -9.826613699999962 ], [ -35.894849499999964, -9.826621599999962 ], [ -35.894795899999963, -9.826588499999962 ], [ -35.894749199999978, -9.826490699999985 ], [ -35.894733199999962, -9.826413299999952 ], [ -35.89470549999993, -9.826364199999949 ], [ -35.894620699999962, -9.826275599999972 ], [ -35.894579099999923, -9.826198299999927 ], [ -35.894505099999947, -9.826167699999921 ], [ -35.894387599999959, -9.826145799999949 ], [ -35.894420699999948, -9.826050299999968 ], [ -35.894420599999933, -9.825962699999947 ], [ -35.894408, -9.825887699999964 ], [ -35.894358, -9.825812599999962 ], [ -35.894237899999958, -9.82566669999995 ], [ -35.891620499999924, -9.824161299999947 ], [ -35.891355399999959, -9.824096799999936 ], [ -35.890178599999963, -9.822756599999941 ], [ -35.891293699999949, -9.821508899999971 ], [ -35.886517399999953, -9.819945799999971 ], [ -35.886330299999933, -9.8197805 ], [ -35.884764899999944, -9.819198899999966 ], [ -35.881044599999939, -9.817962099999946 ], [ -35.880702299999932, -9.818415299999957 ], [ -35.880141099999946, -9.818567799999935 ], [ -35.879909399999967, -9.8187728 ], [ -35.879857, -9.818728 ], [ -35.879779399999961, -9.818661699999959 ], [ -35.879701, -9.818594599999926 ], [ -35.879114399999942, -9.818098599999917 ], [ -35.878259899999939, -9.81740249999998 ], [ -35.877843799999937, -9.817038499999956 ], [ -35.87734039999998, -9.816602499999943 ], [ -35.876723299999981, -9.816078499999946 ], [ -35.876680799999967, -9.816038 ], [ -35.876620299999956, -9.815980399999953 ], [ -35.876542699999973, -9.815906499999919 ], [ -35.876299099999976, -9.815566499999923 ], [ -35.876132699999964, -9.815222499999937 ], [ -35.87609109999994, -9.815096299999922 ], [ -35.87596949999994, -9.815134399999982 ], [ -35.875898099999979, -9.815156699999955 ], [ -35.875871, -9.815165199999964 ], [ -35.875829099999976, -9.815178299999944 ], [ -35.875650299999961, -9.81523429999991 ], [ -35.87353, -9.8157002 ], [ -35.873627099999972, -9.815867299999987 ], [ -35.873702899999962, -9.815997499999975 ], [ -35.873818, -9.816265699999985 ], [ -35.873974299999936, -9.816575 ], [ -35.874241899999966, -9.816974299999956 ], [ -35.874608499999958, -9.817657699999934 ], [ -35.874872, -9.818147 ], [ -35.875117, -9.81864669999994 ], [ -35.875378099999978, -9.819180699999945 ], [ -35.875541, -9.819481699999933 ], [ -35.875660899999964, -9.819802699999952 ], [ -35.875831, -9.820162599999939 ], [ -35.875992499999938, -9.820518799999943 ], [ -35.876169799999964, -9.820861599999931 ], [ -35.87638179999994, -9.821291699999957 ], [ -35.876577599999955, -9.821700099999958 ], [ -35.876867, -9.822124399999952 ], [ -35.877114, -9.8225313 ], [ -35.877294599999971, -9.822846 ], [ -35.877353599999928, -9.822948799999949 ], [ -35.877539299999974, -9.823374 ], [ -35.877867499999986, -9.823944099999961 ], [ -35.87813239999997, -9.824340199999947 ], [ -35.878374699999952, -9.824723 ], [ -35.878585299999948, -9.824943399999936 ], [ -35.87878139999998, -9.82519729999996 ], [ -35.878938599999969, -9.825419099999976 ], [ -35.879154, -9.825767799999952 ], [ -35.879304199999986, -9.826004599999978 ], [ -35.879475399999933, -9.826236199999943 ], [ -35.879677199999946, -9.826531399999968 ], [ -35.879833099999985, -9.826770599999984 ], [ -35.880068599999959, -9.82712669999996 ], [ -35.880405599999953, -9.827545799999958 ], [ -35.880507699999946, -9.82769689999998 ], [ -35.880525699999964, -9.82772339999995 ], [ -35.880809599999964, -9.828143599999979 ], [ -35.881086199999977, -9.828540599999943 ], [ -35.881267, -9.828877899999961 ], [ -35.881518799999988, -9.829404299999959 ], [ -35.881740899999954, -9.829752799999923 ], [ -35.881885699999941, -9.829944499999964 ], [ -35.882117299999948, -9.830236099999988 ], [ -35.88233589999993, -9.830494 ], [ -35.882418099999946, -9.830591 ], [ -35.882751399999968, -9.831021499999958 ], [ -35.88300269999997, -9.831364199999953 ], [ -35.883114699999972, -9.831506599999933 ], [ -35.883288, -9.8317269 ], [ -35.883455399999953, -9.831894099999932 ], [ -35.883721699999974, -9.832159199999975 ], [ -35.883921, -9.832409499999919 ], [ -35.884102, -9.832706 ], [ -35.884274099999978, -9.833001799999971 ], [ -35.884518199999953, -9.833361399999921 ], [ -35.884722299999972, -9.833665499999933 ], [ -35.884878799999967, -9.833971899999943 ], [ -35.885045599999948, -9.834299399999974 ], [ -35.885275499999985, -9.834697599999954 ], [ -35.885562599999957, -9.835037199999926 ], [ -35.885933399999949, -9.835441399999979 ], [ -35.886052099999972, -9.835587399999957 ], [ -35.886239499999931, -9.835840699999935 ], [ -35.886417299999948, -9.836102 ], [ -35.886622299999949, -9.83643109999996 ], [ -35.886863899999987, -9.836784699999944 ], [ -35.887128599999983, -9.837145899999941 ], [ -35.887428399999976, -9.83747469999998 ], [ -35.887751, -9.837834299999958 ], [ -35.888019499999984, -9.838108299999922 ], [ -35.888249199999962, -9.838388099999978 ], [ -35.888552799999957, -9.838743499999973 ], [ -35.888869099999972, -9.839126099999945 ], [ -35.889338499999951, -9.839615899999961 ], [ -35.889763599999981, -9.840006699999938 ], [ -35.890161099999943, -9.840334299999945 ], [ -35.89060139999998, -9.840644599999949 ], [ -35.890616099999932, -9.840655299999971 ], [ -35.890655199999969, -9.840675 ], [ -35.890999, -9.840934399999979 ], [ -35.891169599999962, -9.841042099999987 ], [ -35.891340199999945, -9.841149799999917 ], [ -35.891674899999948, -9.841373399999949 ], [ -35.891986399999951, -9.8415515 ], [ -35.892312699999934, -9.841730799999945 ], [ -35.892536399999983, -9.841858499999942 ], [ -35.892821699999963, -9.8420318 ], [ -35.893097199999943, -9.842229699999965 ], [ -35.893393599999968, -9.842412499999984 ], [ -35.893596099999975, -9.842509499999942 ], [ -35.89384409999996, -9.842592499999983 ], [ -35.894081899999946, -9.842654199999975 ], [ -35.894259299999931, -9.842685 ], [ -35.894350399999958, -9.842700799999932 ], [ -35.894568099999958, -9.842755199999928 ], [ -35.89472829999994, -9.842825699999935 ], [ -35.894923799999951, -9.842860899999945 ], [ -35.895039399999959, -9.842866799999976 ], [ -35.89528629999996, -9.842888399999939 ], [ -35.89552429999997, -9.842909399999957 ], [ -35.895774099999983, -9.842969199999963 ], [ -35.89584879999996, -9.842998099999932 ], [ -35.895923399999965, -9.843027099999958 ], [ -35.896130899999939, -9.843174 ], [ -35.896359399999945, -9.843316699999942 ], [ -35.896552199999981, -9.843462499999919 ], [ -35.896780199999966, -9.843648899999932 ], [ -35.896866699999975, -9.843792499999969 ], [ -35.896974599999972, -9.844001799999944 ], [ -35.89714649999997, -9.844186899999944 ], [ -35.897419199999952, -9.844407799999937 ], [ -35.897587599999945, -9.844525499999984 ], [ -35.897826, -9.844654399999987 ], [ -35.898260899999975, -9.844996399999966 ], [ -35.898372, -9.84514619999994 ], [ -35.898450199999957, -9.8452316 ], [ -35.898569299999977, -9.845361399999923 ], [ -35.898842699999932, -9.845597 ], [ -35.899206899999974, -9.845850399999959 ], [ -35.899574, -9.846067599999962 ], [ -35.899864899999962, -9.846220799999973 ], [ -35.89993, -9.846242699999937 ], [ -35.900120799999961, -9.846231599999962 ], [ -35.900276699999949, -9.846131799999972 ], [ -35.900317599999937, -9.846100399999948 ], [ -35.900329899999974, -9.846085199999937 ], [ -35.900386099999942, -9.84596929999997 ], [ -35.900396599999972, -9.845882799999984 ], [ -35.900596199999931, -9.845911599999983 ], [ -35.900840399999943, -9.846015099999924 ], [ -35.901421699999958, -9.846232899999942 ], [ -35.902489199999934, -9.846733899999942 ], [ -35.903604199999968, -9.846844 ], [ -35.90366279999995, -9.846837899999979 ], [ -35.904306299999973, -9.846783499999967 ], [ -35.904999899999943, -9.846658099999964 ], [ -35.905537199999962, -9.846423899999948 ], [ -35.905996199999954, -9.846015699999933 ] ] ], [ [ [ -35.9288921, -9.819252699999918 ], [ -35.926031499999965, -9.821019 ], [ -35.926987799999949, -9.823148299999946 ], [ -35.930787599999981, -9.820745299999945 ], [ -35.930486299999984, -9.819755299999963 ], [ -35.929561899999953, -9.820311599999963 ], [ -35.9288921, -9.819252699999918 ] ] ] ] } }
]
}
