{
"type": "FeatureCollection",
"name": "2701100",
"crs": { "type": "name", "properties": { "name": "urn:ogc:def:crs:OGC:1.3:CRS84" } },
"features": [
{ "type": "Feature", "properties": { "CD_MUN": "2701100", "NM_MUN": "Branquinha" }, "geometry": { "type": "MultiPolygon", "coordinates": [ [ [ [ -35.995404, -9.257378399999931 ], [ -35.99591259999994, -9.25718159999996 ], [ -35.996079799999961, -9.25707979999993 ], [ -35.996281499999952, -9.256928599999984 ], [ -35.996333099999951, -9.256861199999943 ], [ -35.996615599999984, -9.256127699999988 ], [ -35.996615599999984, -9.256087299999935 ], [ -35.996524199999961, -9.255943599999968 ], [ -35.996494099999957, -9.25590049999996 ], [ -35.99641349999996, -9.255785 ], [ -35.996357399999965, -9.255675699999946 ], [ -35.996327, -9.255555899999942 ], [ -35.996325499999948, -9.255487099999911 ], [ -35.996352799999947, -9.255400299999977 ], [ -35.996494199999972, -9.255042499999938 ], [ -35.996624699999984, -9.25469369999996 ], [ -35.996683799999971, -9.25453059999996 ], [ -35.996707699999952, -9.25422 ], [ -35.996788099999947, -9.253839699999942 ], [ -35.996925499999982, -9.2535028 ], [ -35.996938199999931, -9.253471499999941 ], [ -35.997216199999968, -9.253007499999988 ], [ -35.997535, -9.252594299999938 ], [ -35.997881199999938, -9.252226099999966 ], [ -35.998204599999958, -9.252056899999957 ], [ -35.997604, -9.251045 ], [ -35.997500199999934, -9.250865399999936 ], [ -35.9974395, -9.250790499999926 ], [ -35.997318199999938, -9.250757599999922 ], [ -35.996911699999941, -9.250739599999987 ], [ -35.996684199999947, -9.250754599999958 ], [ -35.996329299999957, -9.2508235 ], [ -35.995834099999975, -9.250910299999925 ], [ -35.995383899999979, -9.251001199999951 ], [ -35.995244899999939, -9.251027099999908 ], [ -35.995150899999949, -9.251042 ], [ -35.994877899999949, -9.251045 ], [ -35.994054399999989, -9.251206699999951 ], [ -35.993790499999939, -9.251245599999935 ], [ -35.993703899999964, -9.251264799999927 ], [ -35.993649599999976, -9.251305699999929 ], [ -35.993630399999972, -9.251372599999961 ], [ -35.993649, -9.2514649 ], [ -35.993978899999945, -9.251970899999932 ], [ -35.994134, -9.252063199999942 ], [ -35.993920899999971, -9.252422199999959 ], [ -35.994266699999969, -9.252616799999956 ], [ -35.994497, -9.2523 ], [ -35.994998099999975, -9.252659799999927 ], [ -35.995371599999942, -9.253311299999963 ], [ -35.994633299999983, -9.253762699999989 ], [ -35.994243199999971, -9.254002199999954 ], [ -35.994063799999928, -9.25415179999994 ], [ -35.993866699999948, -9.2543899 ], [ -35.993840799999937, -9.2544349 ], [ -35.993805599999973, -9.254496099999933 ], [ -35.993613799999935, -9.254951199999931 ], [ -35.993346799999983, -9.25568019999997 ], [ -35.993321099999946, -9.255750799999918 ], [ -35.995041399999934, -9.257646299999982 ], [ -35.995080599999945, -9.257611899999967 ], [ -35.99532419999997, -9.257427 ], [ -35.995404, -9.257378399999931 ] ] ], [ [ [ -35.999753399999982, -9.256117599999937 ], [ -35.999913, -9.256108699999956 ], [ -36.000120799999941, -9.256085099999964 ], [ -36.00049149999996, -9.256006499999938 ], [ -36.00063629999994, -9.255969099999948 ], [ -36.000694299999971, -9.25593869999993 ], [ -36.001266199999975, -9.255277099999919 ], [ -36.001230699999958, -9.255049 ], [ -36.001196, -9.254847199999956 ], [ -36.001096799999978, -9.254209699999929 ], [ -36.000957099999937, -9.253465799999962 ], [ -36.000939399999936, -9.253398599999967 ], [ -36.000884699999979, -9.253370499999965 ], [ -36.000824299999984, -9.253369 ], [ -36.000704799999937, -9.253389199999939 ], [ -36.00056579999994, -9.253410899999936 ], [ -36.000547499999975, -9.253272899999931 ], [ -36.000508299999979, -9.252998799999931 ], [ -36.000434899999952, -9.252550899999981 ], [ -36.000393, -9.252311399999954 ], [ -36.000362099999968, -9.252134799999956 ], [ -36.000337799999954, -9.252045 ], [ -36.000292899999977, -9.251986599999954 ], [ -36.000220899999938, -9.251926699999956 ], [ -36.000146, -9.251888799999977 ], [ -36.000084399999935, -9.251869299999932 ], [ -36.000008899999962, -9.251876299999932 ], [ -35.998924299999942, -9.252075899999964 ], [ -35.999196499999975, -9.253646599999987 ], [ -35.999283299999945, -9.254234299999933 ], [ -35.999293099999925, -9.254371499999934 ], [ -35.999367799999959, -9.254853099999918 ], [ -35.999568699999941, -9.255968699999933 ], [ -35.999594599999973, -9.256069499999986 ], [ -35.999616899999985, -9.256115899999964 ], [ -35.999670499999979, -9.256123499999958 ], [ -35.999753399999982, -9.256117599999937 ] ] ], [ [ [ -36.010771699999964, -9.249800699999986 ], [ -36.011120699999935, -9.249944299999985 ], [ -36.011254299999962, -9.250012499999981 ], [ -36.011788599999932, -9.250056699999961 ], [ -36.012408599999951, -9.250047099999961 ], [ -36.013041499999936, -9.249880699999933 ], [ -36.013261, -9.249555799999944 ], [ -36.013623399999979, -9.249351799999934 ], [ -36.013916699999982, -9.2494905 ], [ -36.014214099999947, -9.24930539999996 ], [ -36.01466749999998, -9.249036799999924 ], [ -36.015047299999935, -9.24892 ], [ -36.01550009999994, -9.248854099999946 ], [ -36.015810299999941, -9.248816 ], [ -36.016181099999983, -9.248724899999971 ], [ -36.016904, -9.24888159999993 ], [ -36.01819219999993, -9.24851829999996 ], [ -36.018809199999978, -9.248158499999933 ], [ -36.019374, -9.247728499999951 ], [ -36.019667, -9.247618499999934 ], [ -36.019396, -9.247070199999946 ], [ -36.019322899999963, -9.246681099999927 ], [ -36.019314299999962, -9.246045699999964 ], [ -36.019232899999963, -9.245248699999948 ], [ -36.018902299999979, -9.245218699999949 ], [ -36.018074299999967, -9.245402199999964 ], [ -36.01776179999996, -9.245182899999966 ], [ -36.017522099999944, -9.2449341 ], [ -36.015087599999951, -9.246295099999951 ], [ -36.014608199999948, -9.245812799999968 ], [ -36.013951399999939, -9.245072099999973 ], [ -36.013718199999978, -9.244827599999944 ], [ -36.013441699999937, -9.244584399999942 ], [ -36.013310299999937, -9.244409699999942 ], [ -36.01322289999996, -9.244243599999956 ], [ -36.013099899999929, -9.244021 ], [ -36.012950699999983, -9.24371329999996 ], [ -36.012800399999939, -9.243377599999986 ], [ -36.012719299999965, -9.243108499999941 ], [ -36.012663, -9.242905199999944 ], [ -36.012612199999978, -9.242724899999915 ], [ -36.012877299999957, -9.242703699999943 ], [ -36.012957399999955, -9.242450699999935 ], [ -36.013129099999958, -9.241860299999939 ], [ -36.013933299999962, -9.24151729999995 ], [ -36.01379309999993, -9.240988899999953 ], [ -36.013106199999974, -9.241095099999947 ], [ -36.01278479999997, -9.241167399999927 ], [ -36.012364599999955, -9.24131349999992 ], [ -36.012206699999979, -9.241395099999986 ], [ -36.012044, -9.241498299999911 ], [ -36.011839599999981, -9.241665699999947 ], [ -36.011616, -9.241899799999937 ], [ -36.0112999, -9.242240499999962 ], [ -36.011211, -9.242332499999968 ], [ -36.010641199999959, -9.24293859999996 ], [ -36.010177299999953, -9.243394599999917 ], [ -36.0097416, -9.243811099999954 ], [ -36.009579, -9.243963099999988 ], [ -36.009188, -9.244371199999918 ], [ -36.008825099999981, -9.244741399999947 ], [ -36.008630899999957, -9.244907299999975 ], [ -36.008434599999937, -9.245054899999959 ], [ -36.008132499999938, -9.245242399999938 ], [ -36.007724199999984, -9.2454284 ], [ -36.007386599999968, -9.2455467 ], [ -36.007094799999948, -9.245609899999952 ], [ -36.006817, -9.245669299999962 ], [ -36.006547599999969, -9.245706 ], [ -36.006109699999968, -9.245707099999951 ], [ -36.005851199999938, -9.24569139999995 ], [ -36.005808699999939, -9.245968599999987 ], [ -36.005838599999954, -9.246012 ], [ -36.005932599999937, -9.246145299999972 ], [ -36.006017199999981, -9.246220299999941 ], [ -36.006133699999971, -9.246308199999934 ], [ -36.006267399999956, -9.246390799999961 ], [ -36.006358599999949, -9.246455399999922 ], [ -36.006303099999975, -9.246524599999917 ], [ -36.006329, -9.246563299999929 ], [ -36.006358299999931, -9.246625199999917 ], [ -36.006395299999959, -9.246726099999954 ], [ -36.006429299999979, -9.246876799999932 ], [ -36.006449, -9.247038 ], [ -36.006450699999959, -9.247148399999972 ], [ -36.006446799999935, -9.247255899999967 ], [ -36.006427699999954, -9.247560199999961 ], [ -36.006423, -9.247635799999955 ], [ -36.006417799999952, -9.247709699999984 ], [ -36.006417099999965, -9.247814699999941 ], [ -36.006446099999948, -9.24804639999995 ], [ -36.006473599999936, -9.248130099999987 ], [ -36.006480199999942, -9.248143699999959 ], [ -36.006527099999978, -9.248248 ], [ -36.006599399999971, -9.248329199999933 ], [ -36.006662699999943, -9.248382699999981 ], [ -36.006764399999952, -9.2484661 ], [ -36.006842399999982, -9.248530599999969 ], [ -36.00689459999996, -9.24857339999992 ], [ -36.006962099999953, -9.248620299999976 ], [ -36.007020299999965, -9.248680899999957 ], [ -36.007054, -9.248754299999977 ], [ -36.007070199999937, -9.248833199999972 ], [ -36.007211499999983, -9.249026199999971 ], [ -36.007364099999961, -9.249154099999945 ], [ -36.007478699999972, -9.249220399999952 ], [ -36.007746699999984, -9.249375199999976 ], [ -36.007840099999953, -9.249401499999969 ], [ -36.007936, -9.249432699999957 ], [ -36.007966499999945, -9.249462899999966 ], [ -36.00798629999997, -9.249498499999969 ], [ -36.008057899999983, -9.249550099999974 ], [ -36.008191199999942, -9.24960529999993 ], [ -36.008301299999964, -9.249692 ], [ -36.008446599999964, -9.249771099999972 ], [ -36.008487599999967, -9.249789099999951 ], [ -36.008563299999935, -9.24982379999993 ], [ -36.008675399999959, -9.249851599999937 ], [ -36.008838899999944, -9.249847499999937 ], [ -36.008965499999938, -9.249881899999938 ], [ -36.009009699999979, -9.250089799999968 ], [ -36.009263399999952, -9.2499339 ], [ -36.009464, -9.249828699999952 ], [ -36.009787099999983, -9.249739899999945 ], [ -36.010424399999977, -9.249625399999939 ], [ -36.010771699999964, -9.249800699999986 ] ] ] ] } }
]
}
