{
"type": "FeatureCollection",
"name": "2702702",
"crs": { "type": "name", "properties": { "name": "urn:ogc:def:crs:OGC:1.3:CRS84" } },
"features": [
{ "type": "Feature", "properties": { "CD_MUN": "2702702", "NM_MUN": "Feliz Deserto" }, "geometry": { "type": "Polygon", "coordinates": [ [ [ -36.304307399999978, -10.295902699999932 ], [ -36.304368399999937, -10.296867899999949 ], [ -36.304657799999973, -10.297494499999978 ], [ -36.307142399999968, -10.301834799999922 ], [ -36.309784499999978, -10.30074259999996 ], [ -36.311394199999945, -10.300065899999932 ], [ -36.312595299999941, -10.299566199999958 ], [ -36.312747299999955, -10.299502699999941 ], [ -36.312802199999965, -10.299479899999941 ], [ -36.313043499999942, -10.299379699999978 ], [ -36.311920499999928, -10.296739399999986 ], [ -36.310745599999962, -10.293982099999939 ], [ -36.309819299999958, -10.291808399999981 ], [ -36.3098, -10.291758599999985 ], [ -36.309797699999926, -10.291752699999973 ], [ -36.3097911, -10.291735099999929 ], [ -36.308193399999936, -10.290672899999942 ], [ -36.30795879999993, -10.290555499999929 ], [ -36.307316, -10.290248099999948 ], [ -36.30131589999997, -10.286920499999962 ], [ -36.298328499999961, -10.285264099999958 ], [ -36.295844899999963, -10.287651499999985 ], [ -36.299875599999943, -10.292387599999927 ], [ -36.300041099999937, -10.292768499999955 ], [ -36.3000651, -10.292823599999958 ], [ -36.300076099999956, -10.292848899999964 ], [ -36.300346599999962, -10.293471299999968 ], [ -36.30089659999993, -10.293324299999943 ], [ -36.300948799999958, -10.293310399999953 ], [ -36.300998099999966, -10.293297199999916 ], [ -36.301083299999959, -10.293259099999938 ], [ -36.304002099999927, -10.291953599999953 ], [ -36.304313799999925, -10.292383299999912 ], [ -36.304471299999932, -10.292901699999979 ], [ -36.304605799999926, -10.293779199999966 ], [ -36.304531799999957, -10.294331799999956 ], [ -36.304388299999971, -10.295105 ], [ -36.304307399999978, -10.295902699999932 ] ] ] } }
]
}
