{
"type": "FeatureCollection",
"name": "2702306",
"crs": { "type": "name", "properties": { "name": "urn:ogc:def:crs:OGC:1.3:CRS84" } },
"features": [
{ "type": "Feature", "properties": { "CD_MUN": "2702306", "NM_MUN": "Coruripe" }, "geometry": { "type": "MultiPolygon", "coordinates": [ [ [ [ -36.331209599999966, -10.208473 ], [ -36.331314899999938, -10.208009199999935 ], [ -36.332631299999946, -10.208597199999931 ], [ -36.333307899999973, -10.206123 ], [ -36.334931699999977, -10.206882799999962 ], [ -36.335548899999935, -10.205511699999928 ], [ -36.335622499999936, -10.20553979999994 ], [ -36.336193, -10.204241099999935 ], [ -36.336255299999948, -10.204187699999983 ], [ -36.337571299999986, -10.201415899999986 ], [ -36.336993699999944, -10.2011166 ], [ -36.335662099999986, -10.200489 ], [ -36.335336399999967, -10.200375899999921 ], [ -36.335257099999978, -10.20036289999997 ], [ -36.334662099999953, -10.200368399999956 ], [ -36.333838699999937, -10.200305199999951 ], [ -36.333931199999945, -10.19953649999996 ], [ -36.333139399999943, -10.199773699999986 ], [ -36.332733699999942, -10.198767299999906 ], [ -36.33185109999993, -10.199026299999959 ], [ -36.331011799999949, -10.19649679999997 ], [ -36.329906499999943, -10.196804499999933 ], [ -36.3302753, -10.197932799999908 ], [ -36.329819599999951, -10.198853 ], [ -36.329341599999964, -10.20007839999993 ], [ -36.328373799999952, -10.199452399999926 ], [ -36.327759599999972, -10.200767699999982 ], [ -36.327673799999957, -10.200747499999975 ], [ -36.327463599999923, -10.20082 ], [ -36.327069899999962, -10.201532099999945 ], [ -36.327972, -10.201968199999964 ], [ -36.326983899999966, -10.204034799999931 ], [ -36.33033, -10.205558699999941 ], [ -36.329936, -10.207289099999965 ], [ -36.330119699999955, -10.207357899999963 ], [ -36.330075199999953, -10.207717 ], [ -36.330485899999928, -10.207860499999988 ], [ -36.33039, -10.208235199999928 ], [ -36.331209599999966, -10.208473 ] ] ], [ [ [ -36.31363239999996, -10.185036299999979 ], [ -36.313908599999941, -10.183974 ], [ -36.314199799999976, -10.184078799999959 ], [ -36.314560899999954, -10.18222 ], [ -36.314692, -10.181652199999968 ], [ -36.311738199999979, -10.181036699999922 ], [ -36.311845699999942, -10.180528399999968 ], [ -36.312021599999966, -10.179577299999947 ], [ -36.3120919, -10.178897799999966 ], [ -36.312143299999946, -10.178182399999951 ], [ -36.311751099999974, -10.178172799999968 ], [ -36.311599099999967, -10.179135899999938 ], [ -36.310560199999941, -10.181788699999975 ], [ -36.310169499999979, -10.1824688 ], [ -36.309548099999972, -10.18501369999996 ], [ -36.309082399999966, -10.187111299999955 ], [ -36.307816699999933, -10.192496799999942 ], [ -36.307614399999977, -10.192994499999941 ], [ -36.308896899999986, -10.193664399999939 ], [ -36.309275899999932, -10.193828799999965 ], [ -36.309509699999978, -10.193356399999972 ], [ -36.310129599999982, -10.193672799999945 ], [ -36.310304699999953, -10.193337699999962 ], [ -36.313705099999929, -10.186258 ], [ -36.314178399999946, -10.185342599999945 ], [ -36.31363239999996, -10.185036299999979 ] ] ], [ [ [ -36.223039299999982, -10.216580699999945 ], [ -36.222837399999946, -10.216261 ], [ -36.221634299999955, -10.2148587 ], [ -36.221152099999983, -10.214297299999936 ], [ -36.220836899999938, -10.213918799999915 ], [ -36.220043499999981, -10.212617599999909 ], [ -36.219045299999941, -10.211540599999982 ], [ -36.217333599999961, -10.209739 ], [ -36.215269599999949, -10.207650499999936 ], [ -36.213016699999976, -10.205462399999933 ], [ -36.212879899999962, -10.205329 ], [ -36.212687699999947, -10.205165899999944 ], [ -36.212430199999972, -10.20501349999995 ], [ -36.212158799999941, -10.204903499999965 ], [ -36.211765699999944, -10.204876799999949 ], [ -36.211291199999948, -10.204889699999972 ], [ -36.210896, -10.204836599999986 ], [ -36.21057379999997, -10.204685099999958 ], [ -36.210341699999958, -10.204542299999948 ], [ -36.205451599999954, -10.201307299999931 ], [ -36.204999099999952, -10.200922 ], [ -36.20441349999993, -10.200352799999974 ], [ -36.201441799999941, -10.198238199999919 ], [ -36.201050799999962, -10.197864699999956 ], [ -36.200739799999951, -10.197458499999923 ], [ -36.200498, -10.197026 ], [ -36.199423299999985, -10.194026599999964 ], [ -36.198953299999964, -10.193022499999934 ], [ -36.198972, -10.192808199999943 ], [ -36.198668699999985, -10.191534299999937 ], [ -36.198163099999938, -10.189079 ], [ -36.198067899999955, -10.188617199999941 ], [ -36.197921599999979, -10.187990099999984 ], [ -36.197778699999958, -10.187818799999947 ], [ -36.19753, -10.187726099999974 ], [ -36.195985599999979, -10.187709199999972 ], [ -36.194151099999949, -10.187710299999939 ], [ -36.193647499999933, -10.187628599999915 ], [ -36.193, -10.187343499999935 ], [ -36.192706699999974, -10.187129099999943 ], [ -36.189459799999959, -10.184512899999945 ], [ -36.187861299999952, -10.182780299999916 ], [ -36.186558199999979, -10.18149569999998 ], [ -36.185899499999955, -10.180866599999941 ], [ -36.183726899999954, -10.17924 ], [ -36.182803699999972, -10.178401299999965 ], [ -36.182368099999962, -10.177897599999945 ], [ -36.181377699999985, -10.176412399999963 ], [ -36.179720799999984, -10.174838599999941 ], [ -36.178970199999981, -10.174196099999955 ], [ -36.178456, -10.173852299999966 ], [ -36.177622299999939, -10.173257 ], [ -36.173471899999981, -10.169114099999963 ], [ -36.170356199999965, -10.166069099999957 ], [ -36.166923399999973, -10.162698 ], [ -36.166822, -10.162527499999936 ], [ -36.166771399999959, -10.162298899999954 ], [ -36.166765599999955, -10.1620847 ], [ -36.166825199999948, -10.161883299999928 ], [ -36.166957399999944, -10.161624499999958 ], [ -36.167034099999974, -10.161551499999975 ], [ -36.166842499999973, -10.16138379999996 ], [ -36.16652629999993, -10.161107199999947 ], [ -36.163976199999979, -10.158623899999933 ], [ -36.1624169, -10.156991599999976 ], [ -36.162292299999933, -10.156967299999978 ], [ -36.161907699999972, -10.156801699999942 ], [ -36.161887099999937, -10.156416 ], [ -36.161852199999942, -10.156108099999926 ], [ -36.161819699999967, -10.155861699999926 ], [ -36.161770399999973, -10.155603399999947 ], [ -36.161755899999953, -10.155466599999935 ], [ -36.161601699999949, -10.155003299999978 ], [ -36.161496799999959, -10.154534499999933 ], [ -36.161503299999936, -10.154207699999958 ], [ -36.161556399999938, -10.154031599999936 ], [ -36.16178929999996, -10.15349 ], [ -36.161875199999947, -10.153302199999915 ], [ -36.16201209999997, -10.153034099999941 ], [ -36.162133699999977, -10.152681499999968 ], [ -36.162253799999974, -10.152258299999989 ], [ -36.162345, -10.15199 ], [ -36.162510599999969, -10.151641199999982 ], [ -36.162570699999947, -10.151515099999939 ], [ -36.162725699999953, -10.151232399999966 ], [ -36.163134499999956, -10.15059409999998 ], [ -36.163408, -10.150130599999974 ], [ -36.16372419999994, -10.149575899999927 ], [ -36.164025099999947, -10.149164 ], [ -36.164538799999953, -10.148506 ], [ -36.165257599999961, -10.147468 ], [ -36.165421699999975, -10.147144299999976 ], [ -36.165660299999971, -10.146610799999968 ], [ -36.1657173, -10.146494599999915 ], [ -36.165827499999978, -10.146347899999979 ], [ -36.1659514, -10.146214899999981 ], [ -36.166037199999948, -10.14614119999994 ], [ -36.166208199999978, -10.146030299999948 ], [ -36.166338199999984, -10.145981599999958 ], [ -36.166439199999957, -10.145950499999962 ], [ -36.166534199999944, -10.145933799999973 ], [ -36.167241699999977, -10.145938299999965 ], [ -36.167446099999943, -10.145928399999956 ], [ -36.167658799999963, -10.145893499999945 ], [ -36.168133, -10.145737699999925 ], [ -36.168455899999969, -10.145590299999972 ], [ -36.168650499999956, -10.145487699999938 ], [ -36.169794899999943, -10.144528699999963 ], [ -36.17079559999997, -10.143642699999939 ], [ -36.1716072, -10.14294359999996 ], [ -36.172558499999987, -10.142168499999958 ], [ -36.173135699999939, -10.141761599999933 ], [ -36.173417099999938, -10.141571599999951 ], [ -36.17389419999995, -10.14127869999993 ], [ -36.174149599999971, -10.141164699999925 ], [ -36.174579599999959, -10.141002099999975 ], [ -36.175035599999944, -10.140915499999949 ], [ -36.175561399999935, -10.140853199999986 ], [ -36.17609189999996, -10.140737099999983 ], [ -36.176324899999948, -10.140648899999984 ], [ -36.176324299999976, -10.140608799999958 ], [ -36.176302699999958, -10.140431099999926 ], [ -36.176296499999978, -10.140371499999954 ], [ -36.176277499999969, -10.140159299999953 ], [ -36.176272099999956, -10.140099 ], [ -36.17615509999996, -10.13879039999995 ], [ -36.175877299999975, -10.135093099999958 ], [ -36.175874699999952, -10.135027699999972 ], [ -36.175818399999976, -10.134108499999956 ], [ -36.17584339999997, -10.134024299999968 ], [ -36.176010499999961, -10.133601099999975 ], [ -36.176124099999988, -10.133335799999937 ], [ -36.178155699999934, -10.129926899999926 ], [ -36.178437199999955, -10.129422899999927 ], [ -36.178510499999959, -10.129325099999955 ], [ -36.17882879999997, -10.128902 ], [ -36.179181199999967, -10.128572599999904 ], [ -36.179861499999966, -10.127938099999932 ], [ -36.180276399999968, -10.127550899999969 ], [ -36.180703899999969, -10.127156099999974 ], [ -36.181071499999973, -10.126794399999916 ], [ -36.181945399999961, -10.125639099999937 ], [ -36.1820757, -10.125420799999963 ], [ -36.182172399999956, -10.125201 ], [ -36.182241, -10.124925399999956 ], [ -36.18223039999998, -10.124532199999964 ], [ -36.182079399999957, -10.123985899999987 ], [ -36.182024799999965, -10.123791799999927 ], [ -36.181069299999933, -10.120979699999955 ], [ -36.181152, -10.12087269999995 ], [ -36.18253469999997, -10.119066099999927 ], [ -36.182558899999954, -10.119133899999955 ], [ -36.182812399999939, -10.11977409999996 ], [ -36.183234499999969, -10.120922799999967 ], [ -36.183729799999981, -10.122266399999965 ], [ -36.184619199999929, -10.121930799999959 ], [ -36.186337699999974, -10.121291 ], [ -36.186019399999964, -10.120485 ], [ -36.185642099999939, -10.119502299999983 ], [ -36.185639, -10.119499399999929 ], [ -36.185499899999975, -10.119179099999933 ], [ -36.185172299999977, -10.118320899999942 ], [ -36.184932199999935, -10.117719699999947 ], [ -36.184772099999975, -10.117313 ], [ -36.184656699999934, -10.116986299999962 ], [ -36.184376499999985, -10.11625849999994 ], [ -36.184169899999972, -10.115733499999982 ], [ -36.184086399999956, -10.11554939999996 ], [ -36.183301899999954, -10.116529299999971 ], [ -36.183267699999938, -10.116574799999976 ], [ -36.183039699999931, -10.116854699999976 ], [ -36.181831099999961, -10.114578399999971 ], [ -36.180903399999977, -10.115228899999975 ], [ -36.181436899999937, -10.116074 ], [ -36.181089099999951, -10.116419699999938 ], [ -36.181086699999987, -10.116374099999964 ], [ -36.177172199999987, -10.112168 ], [ -36.177169399999968, -10.112171599999938 ], [ -36.175389499999937, -10.114085699999984 ], [ -36.174450499999985, -10.113184799999935 ], [ -36.174447899999969, -10.113184 ], [ -36.17406589999996, -10.112841899999966 ], [ -36.173289899999922, -10.113487599999933 ], [ -36.170145, -10.109966199999951 ], [ -36.169507299999964, -10.110673599999922 ], [ -36.167739699999977, -10.108714699999956 ], [ -36.166668399999935, -10.109677 ], [ -36.164632099999949, -10.107135499999968 ], [ -36.161933499999975, -10.109190899999914 ], [ -36.161876899999982, -10.109431 ], [ -36.161551399999958, -10.109024 ], [ -36.160752699999932, -10.1080378 ], [ -36.160738599999945, -10.108043399999938 ], [ -36.160675599999941, -10.108058899999943 ], [ -36.160636299999965, -10.108074399999964 ], [ -36.160612699999938, -10.108082099999931 ], [ -36.160565499999962, -10.108105399999948 ], [ -36.160541899999942, -10.108144099999945 ], [ -36.160518299999985, -10.108175099999917 ], [ -36.160494699999958, -10.108190599999945 ], [ -36.160471199999961, -10.10822159999997 ], [ -36.160455399999933, -10.10825259999997 ], [ -36.160431799999969, -10.108283599999927 ], [ -36.160416099999964, -10.108314599999982 ], [ -36.160392499999944, -10.108361 ], [ -36.160384699999952, -10.108384299999939 ], [ -36.160353199999975, -10.108430799999953 ], [ -36.160337399999946, -10.108469499999954 ], [ -36.160332, -10.108481099999963 ], [ -36.160329099999956, -10.108489899999944 ], [ -36.160313799999976, -10.108547 ], [ -36.16029809999997, -10.108593499999927 ], [ -36.160290199999963, -10.108616699999954 ], [ -36.160282299999949, -10.108671 ], [ -36.160282299999956, -10.108694199999942 ], [ -36.16026659999995, -10.108740699999961 ], [ -36.160266499999977, -10.10874849999993 ], [ -36.160258699999936, -10.108810499999935 ], [ -36.160250799999979, -10.108880199999943 ], [ -36.160243, -10.108895699999945 ], [ -36.160216399999968, -10.109006499999962 ], [ -36.16020849999996, -10.109076199999944 ], [ -36.16020849999996, -10.109114899999936 ], [ -36.160208499999946, -10.109169199999924 ], [ -36.160200599999939, -10.109231099999942 ], [ -36.160200599999939, -10.109238899999985 ], [ -36.160200599999939, -10.109285399999974 ], [ -36.160200599999939, -10.109331899999981 ], [ -36.160192799999955, -10.109355099999952 ], [ -36.160192799999955, -10.109409399999928 ], [ -36.160177, -10.109455799999964 ], [ -36.160177, -10.10948679999996 ], [ -36.160169199999984, -10.109533299999946 ], [ -36.16016129999997, -10.109572099999983 ], [ -36.16016129999997, -10.109603099999957 ], [ -36.160161299999963, -10.109634099999935 ], [ -36.160153499999986, -10.109672799999933 ], [ -36.160145599999964, -10.109703799999975 ], [ -36.160145599999957, -10.1097425 ], [ -36.160137699999957, -10.109789 ], [ -36.160129899999959, -10.10983549999996 ], [ -36.160129899999959, -10.109866499999962 ], [ -36.160122, -10.109905199999959 ], [ -36.16011409999993, -10.109951699999968 ], [ -36.160098399999988, -10.109982699999918 ], [ -36.160090499999967, -10.110021499999959 ], [ -36.160074799999961, -10.110060199999973 ], [ -36.160059099999955, -10.110091199999966 ], [ -36.160027599999978, -10.11013769999993 ], [ -36.160019699999964, -10.1101687 ], [ -36.159996099999944, -10.110199699999972 ], [ -36.159980399999938, -10.110230699999914 ], [ -36.159956799999975, -10.110261699999972 ], [ -36.159933199999948, -10.11029269999994 ], [ -36.159917399999983, -10.110315899999936 ], [ -36.159878099999958, -10.110354699999959 ], [ -36.159854499999938, -10.110385699999945 ], [ -36.159815099999953, -10.110408899999976 ], [ -36.159775799999984, -10.110432199999927 ], [ -36.159744299999936, -10.110439899999957 ], [ -36.159705, -10.110439899999969 ], [ -36.15967349999994, -10.110424399999944 ], [ -36.159649799999954, -10.110401199999954 ], [ -36.159626199999934, -10.110378 ], [ -36.159594699999957, -10.110347 ], [ -36.159571099999937, -10.110308299999925 ], [ -36.159563199999987, -10.110292799999955 ], [ -36.159531699999953, -10.110246299999952 ], [ -36.159516, -10.110223099999917 ], [ -36.159492299999954, -10.110176599999926 ], [ -36.159468699999934, -10.110137899999929 ], [ -36.159457099999941, -10.110120699999968 ], [ -36.159453, -10.110114599999966 ], [ -36.159429399999965, -10.110083599999948 ], [ -36.159405799999945, -10.110044899999927 ], [ -36.159382199999982, -10.110029399999979 ], [ -36.159350699999948, -10.109998399999938 ], [ -36.159327099999985, -10.10996739999996 ], [ -36.15929559999995, -10.109944099999936 ], [ -36.159248399999967, -10.109913099999948 ], [ -36.159224799999954, -10.10989759999997 ], [ -36.15919329999997, -10.109889899999928 ], [ -36.159161899999958, -10.109889899999919 ], [ -36.159122499999967, -10.109889899999928 ], [ -36.159075299999976, -10.109905399999962 ], [ -36.159035899999935, -10.109913099999963 ], [ -36.159007599999939, -10.109918699999977 ], [ -36.158996599999973, -10.109920899999951 ], [ -36.158957199999975, -10.10993639999996 ], [ -36.158933599999955, -10.109944099999948 ], [ -36.158902099999985, -10.109959599999964 ], [ -36.158862799999966, -10.109990599999943 ], [ -36.158839199999939, -10.110013899999956 ], [ -36.158807699999954, -10.110052599999975 ], [ -36.158784099999934, -10.110083699999953 ], [ -36.15875259999995, -10.1101224 ], [ -36.158729, -10.110161199999927 ], [ -36.158705399999974, -10.11017669999994 ], [ -36.15867389999994, -10.110215399999971 ], [ -36.158650299999977, -10.110246399999943 ], [ -36.158626699999949, -10.110269599999977 ], [ -36.158603099999937, -10.110300599999974 ], [ -36.158571599999959, -10.110331599999938 ], [ -36.158548, -10.110362599999974 ], [ -36.158524399999983, -10.110401299999962 ], [ -36.158508799999936, -10.11041679999993 ], [ -36.158493, -10.110432299999971 ], [ -36.158491799999986, -10.110433499999941 ], [ -36.158469399999944, -10.110455599999979 ], [ -36.158453699999946, -10.11048649999996 ], [ -36.15843789999996, -10.110525299999948 ], [ -36.158422199999961, -10.110556299999933 ], [ -36.158406499999955, -10.11058729999996 ], [ -36.158390699999984, -10.110618299999949 ], [ -36.158375, -10.110657 ], [ -36.158367099999957, -10.110688 ], [ -36.158351399999965, -10.110742199999947 ], [ -36.158352499999978, -10.1108288 ], [ -36.158368299999957, -10.110867599999947 ], [ -36.158376199999964, -10.110898599999917 ], [ -36.15839189999997, -10.110921799999964 ], [ -36.158407599999975, -10.110960499999985 ], [ -36.158423399999954, -10.110999299999948 ], [ -36.15843909999996, -10.111030299999971 ], [ -36.158439099999946, -10.111069 ], [ -36.158447, -10.1111 ], [ -36.158447, -10.111146499999959 ], [ -36.158447, -10.111169699999961 ], [ -36.158439199999975, -10.111224 ], [ -36.158439199999982, -10.111270499999925 ], [ -36.158431299999961, -10.111316899999959 ], [ -36.158431299999961, -10.11134789999995 ], [ -36.158431299999961, -10.111386699999988 ], [ -36.158431299999961, -10.111417699999949 ], [ -36.158431299999961, -10.111448699999936 ], [ -36.158439199999968, -10.111487399999936 ], [ -36.158439199999968, -10.11152009999995 ], [ -36.160226099999932, -10.113264899999923 ], [ -36.162793599999929, -10.11581209999996 ], [ -36.16374749999995, -10.116735599999977 ], [ -36.16133229999997, -10.118034599999921 ], [ -36.162174599999958, -10.11928279999997 ], [ -36.159803299999965, -10.120760399999925 ], [ -36.161002599999961, -10.121552 ], [ -36.161069199999936, -10.121596 ], [ -36.159217299999959, -10.123065299999961 ], [ -36.159099199999957, -10.123158599999948 ], [ -36.15706519999997, -10.124795299999963 ], [ -36.156600699999963, -10.12530059999993 ], [ -36.155806799999937, -10.1266727 ], [ -36.154457099999952, -10.129034 ], [ -36.154336599999965, -10.129226399999943 ], [ -36.154227799999958, -10.129514 ], [ -36.153870199999972, -10.130093099999952 ], [ -36.153662199999928, -10.130446799999943 ], [ -36.15349219999996, -10.130818 ], [ -36.153950799999969, -10.1308802 ], [ -36.154155899999978, -10.13091329999998 ], [ -36.155163099999982, -10.131082299999941 ], [ -36.155357399999957, -10.131123199999946 ], [ -36.155813, -10.131219599999959 ], [ -36.156069899999977, -10.131393599999958 ], [ -36.15641259999996, -10.131674099999922 ], [ -36.156543499999934, -10.131997499999946 ], [ -36.156694, -10.132439299999932 ], [ -36.156737, -10.132513 ], [ -36.156842799999936, -10.132599199999962 ], [ -36.156939599999937, -10.13265709999996 ], [ -36.157004399999956, -10.132739499999936 ], [ -36.15702239999996, -10.132771 ], [ -36.157112499999975, -10.133044599999954 ], [ -36.157124899999936, -10.133208699999967 ], [ -36.157231599999932, -10.13346879999993 ], [ -36.156915099999928, -10.133588599999946 ], [ -36.156244099999981, -10.134025199999936 ], [ -36.156043199999942, -10.133864 ], [ -36.1557926, -10.134146699999967 ], [ -36.156043199999949, -10.134379299999964 ], [ -36.155545199999956, -10.135611499999976 ], [ -36.155113599999929, -10.13674889999993 ], [ -36.154783399999928, -10.138224299999919 ], [ -36.155629, -10.138295099999935 ], [ -36.15559479999996, -10.137442199999937 ], [ -36.155708899999986, -10.137341799999939 ], [ -36.155846599999961, -10.137315699999936 ], [ -36.156223, -10.137462099999929 ], [ -36.156400399999939, -10.137388899999952 ], [ -36.156477299999949, -10.13725 ], [ -36.156494599999981, -10.137083799999976 ], [ -36.156440099999941, -10.136894 ], [ -36.156236599999943, -10.136390499999932 ], [ -36.156204399999986, -10.136189499999936 ], [ -36.156358199999943, -10.1355508 ], [ -36.156549199999979, -10.135201599999961 ], [ -36.156601299999977, -10.134980899999974 ], [ -36.156680699999988, -10.134792299999946 ], [ -36.156834499999952, -10.134649099999915 ], [ -36.157187299999983, -10.13456779999998 ], [ -36.157240699999925, -10.134471099999942 ], [ -36.157420499999944, -10.13423169999994 ], [ -36.157456499999959, -10.134065799999988 ], [ -36.157490899999971, -10.133968799999915 ], [ -36.157525499999963, -10.133889699999925 ], [ -36.157525499999963, -10.133884799999962 ], [ -36.157527, -10.133885699999956 ], [ -36.157586199999969, -10.133817899999936 ], [ -36.157665099999967, -10.133741399999968 ], [ -36.157761599999951, -10.133674 ], [ -36.157862799999982, -10.13364309999997 ], [ -36.157914299999959, -10.133639499999964 ], [ -36.157993499999982, -10.133634 ], [ -36.158145, -10.133671799999936 ], [ -36.158263, -10.133764599999928 ], [ -36.158345499999946, -10.133901799999929 ], [ -36.158470099999931, -10.134036499999977 ], [ -36.158608799999975, -10.13413279999998 ], [ -36.158790699999933, -10.1341649 ], [ -36.159057, -10.134222899999923 ], [ -36.159312299999954, -10.134242099999931 ], [ -36.15972759999994, -10.134284799999952 ], [ -36.160125899999976, -10.134414899999982 ], [ -36.160364499999957, -10.134575 ], [ -36.16054429999997, -10.134753899999968 ], [ -36.160614399999936, -10.134895399999955 ], [ -36.16065889999993, -10.135139399999956 ], [ -36.1607456, -10.135411899999943 ], [ -36.160928499999962, -10.13585029999995 ], [ -36.161248199999932, -10.135994699999966 ], [ -36.161779799999977, -10.135945899999982 ], [ -36.162101799999959, -10.135717299999953 ], [ -36.162218199999984, -10.135561599999965 ], [ -36.162219299999947, -10.13524729999995 ], [ -36.162112299999933, -10.134959299999933 ], [ -36.162058199999933, -10.134862 ], [ -36.162066099999954, -10.13473659999995 ], [ -36.162188699999938, -10.134460499999946 ], [ -36.162454599999926, -10.134111599999926 ], [ -36.162469899999969, -10.133984 ], [ -36.162453699999958, -10.133666 ], [ -36.162429599999939, -10.133433599999934 ], [ -36.162524399999938, -10.133279199999963 ], [ -36.162604299999948, -10.133061899999989 ], [ -36.162752399999931, -10.132879799999953 ], [ -36.162831599999947, -10.132818499999951 ], [ -36.162967799999933, -10.132858699999909 ], [ -36.16317719999995, -10.132974699999979 ], [ -36.163347299999948, -10.133013 ], [ -36.163552399999965, -10.133094699999965 ], [ -36.163724799999954, -10.133282899999925 ], [ -36.163888399999962, -10.133408499999961 ], [ -36.164129099999975, -10.133487799999953 ], [ -36.164280099999985, -10.133488299999946 ], [ -36.164320599999932, -10.133546199999977 ], [ -36.164335899999976, -10.133609599999941 ], [ -36.16436079999994, -10.133672299999953 ], [ -36.164428899999962, -10.133753799999974 ], [ -36.1645458, -10.133865199999946 ], [ -36.164997399999947, -10.133946799999924 ], [ -36.165115399999927, -10.13396309999996 ], [ -36.165747599999975, -10.133990299999944 ], [ -36.166426299999948, -10.133983399999984 ], [ -36.167100499999947, -10.134059599999947 ], [ -36.167515799999933, -10.134109199999944 ], [ -36.16775089999993, -10.134198399999963 ], [ -36.168028499999934, -10.134165199999913 ], [ -36.170161399999984, -10.134296 ], [ -36.171455399999964, -10.134422499999959 ], [ -36.170830099999932, -10.134942199999946 ], [ -36.169658699999957, -10.135521399999973 ], [ -36.168593399999963, -10.136124899999965 ], [ -36.167658499999966, -10.136560199999959 ], [ -36.166953099999944, -10.136879899999949 ], [ -36.166453699999977, -10.137240799999983 ], [ -36.166218, -10.13758559999996 ], [ -36.166016, -10.138651799999939 ], [ -36.165322599999968, -10.139306599999918 ], [ -36.16471869999998, -10.140063399999969 ], [ -36.164024799999929, -10.140757199999928 ], [ -36.163525799999945, -10.141307099999938 ], [ -36.162846399999978, -10.141906 ], [ -36.162246199999977, -10.142613799999937 ], [ -36.161437099999951, -10.143292699999975 ], [ -36.161044399999973, -10.143466599999947 ], [ -36.160425099999941, -10.144010399999958 ], [ -36.159449499999937, -10.144509399999952 ], [ -36.158628599999936, -10.145187899999939 ], [ -36.157642599999974, -10.145741899999964 ], [ -36.156808299999973, -10.146397099999934 ], [ -36.156375799999978, -10.147080199999948 ], [ -36.156126, -10.14831229999993 ], [ -36.155035299999959, -10.150894799999964 ], [ -36.154513399999978, -10.152238899999931 ], [ -36.15392449999996, -10.154306399999914 ], [ -36.153833299999974, -10.154569599999956 ], [ -36.153754499999941, -10.154797299999917 ], [ -36.153566099999978, -10.154938599999987 ], [ -36.153283699999967, -10.15494 ], [ -36.152783299999946, -10.15494 ], [ -36.151715499999966, -10.15494 ], [ -36.150781299999956, -10.154773099999952 ], [ -36.150247399999955, -10.154539599999978 ], [ -36.149913899999937, -10.154199699999934 ], [ -36.149671699999949, -10.153854 ], [ -36.149530399999946, -10.153594299999956 ], [ -36.149214899999947, -10.153416 ], [ -36.148870199999983, -10.1533123 ], [ -36.148672199999972, -10.15318229999996 ], [ -36.14855259999996, -10.152883699999963 ], [ -36.148538499999972, -10.15262659999995 ], [ -36.148566599999974, -10.152392199999957 ], [ -36.148513599999937, -10.152160399999946 ], [ -36.148354799999943, -10.152054799999952 ], [ -36.148163899999929, -10.152041399999987 ], [ -36.147851599999974, -10.152147299999974 ], [ -36.147657, -10.152184 ], [ -36.14737619999994, -10.152215399999925 ], [ -36.147212599999932, -10.152162399999943 ], [ -36.147080799999976, -10.152160699999961 ], [ -36.146914199999976, -10.152204499999925 ], [ -36.14671, -10.152222899999948 ], [ -36.1465707, -10.152134099999952 ], [ -36.146444699999968, -10.152110699999959 ], [ -36.146213299999943, -10.152131199999916 ], [ -36.146128399999952, -10.152157599999969 ], [ -36.146126399999957, -10.152158199999981 ], [ -36.1460259, -10.15231 ], [ -36.145913, -10.15243939999994 ], [ -36.145762199999979, -10.152591099999922 ], [ -36.145523799999978, -10.152694599999958 ], [ -36.145235199999952, -10.152604 ], [ -36.144972499999945, -10.152510099999967 ], [ -36.144778299999984, -10.152298599999925 ], [ -36.144634099999969, -10.151988699999945 ], [ -36.144571899999953, -10.151764599999975 ], [ -36.14459869999996, -10.151559399999931 ], [ -36.144757499999976, -10.151373399999949 ], [ -36.145003799999984, -10.151155399999945 ], [ -36.145036, -10.150772099999928 ], [ -36.1449277, -10.150564 ], [ -36.14495009999996, -10.15033 ], [ -36.144872, -10.150073799999983 ], [ -36.144711699999966, -10.149932599999953 ], [ -36.144626099999982, -10.149745499999927 ], [ -36.144635599999958, -10.149541099999951 ], [ -36.144629799999969, -10.149322299999936 ], [ -36.144497, -10.149171 ], [ -36.144397399999946, -10.148935499999931 ], [ -36.144452699999931, -10.148747599999982 ], [ -36.144529299999931, -10.148507499999939 ], [ -36.144452099999974, -10.148289699999969 ], [ -36.144351499999964, -10.14813 ], [ -36.144255299999934, -10.147928299999942 ], [ -36.143999899999983, -10.147591299999927 ], [ -36.14398029999996, -10.147565199999983 ], [ -36.143019799999934, -10.148175199999965 ], [ -36.142234899999949, -10.148838399999944 ], [ -36.141815799999961, -10.149224599999984 ], [ -36.141696299999971, -10.149341299999957 ], [ -36.141315899999931, -10.150097699999947 ], [ -36.140585299999941, -10.151066299999963 ], [ -36.140141399999948, -10.151500699999934 ], [ -36.139863799999944, -10.15166239999995 ], [ -36.13948919999995, -10.151777599999928 ], [ -36.139123299999952, -10.151798699999958 ], [ -36.138879899999957, -10.151842499999946 ], [ -36.138619, -10.151961299999924 ], [ -36.138515599999955, -10.151865099999931 ], [ -36.138664499999948, -10.151722199999934 ], [ -36.139495699999948, -10.150179 ], [ -36.139704, -10.149353299999966 ], [ -36.139801599999942, -10.14849769999994 ], [ -36.139811699999939, -10.1477351 ], [ -36.139644299999929, -10.146204899999924 ], [ -36.139614099999967, -10.145025499999958 ], [ -36.1395553, -10.144256199999985 ], [ -36.139433, -10.143580199999978 ], [ -36.139387499999941, -10.14332 ], [ -36.139265, -10.142663899999954 ], [ -36.13906789999993, -10.141480499999947 ], [ -36.138901199999964, -10.140620499999944 ], [ -36.138854599999945, -10.140262899999927 ], [ -36.138771, -10.139234899999966 ], [ -36.138761299999949, -10.138716 ], [ -36.138749599999983, -10.138127099999977 ], [ -36.138739899999969, -10.13725449999991 ], [ -36.138720499999984, -10.136356599999932 ], [ -36.138758399999972, -10.135760799999948 ], [ -36.13879239999995, -10.135462599999917 ], [ -36.138881799999979, -10.13514969999993 ], [ -36.140344499999976, -10.13181379999998 ], [ -36.140635, -10.131135799999969 ], [ -36.140895599999965, -10.13057229999994 ], [ -36.141444899999954, -10.12923779999994 ], [ -36.140869599999981, -10.128906099999936 ], [ -36.141705899999984, -10.127293399999925 ], [ -36.142123699999964, -10.126947499999986 ], [ -36.14235129999998, -10.126613799999983 ], [ -36.142316899999976, -10.12662739999997 ], [ -36.142258599999934, -10.126638899999939 ], [ -36.142223699999938, -10.126650399999964 ], [ -36.142188699999963, -10.126661799999971 ], [ -36.14209539999996, -10.126696299999942 ], [ -36.142048799999934, -10.126719199999965 ], [ -36.142002099999964, -10.126742199999963 ], [ -36.141943899999944, -10.126753699999949 ], [ -36.141937, -10.126755399999961 ], [ -36.141897199999967, -10.126765099999929 ], [ -36.141850599999948, -10.126776599999966 ], [ -36.141792299999963, -10.126776599999976 ], [ -36.141734, -10.126776599999971 ], [ -36.141675699999958, -10.126765199999971 ], [ -36.141629099999932, -10.126753699999943 ], [ -36.141570799999954, -10.12673069999995 ], [ -36.14152409999997, -10.126719299999936 ], [ -36.14146589999995, -10.126696299999921 ], [ -36.141419199999973, -10.126673399999943 ], [ -36.141372599999961, -10.126661899999936 ], [ -36.141314299999976, -10.126650399999965 ], [ -36.141267699999958, -10.126616 ], [ -36.141221, -10.126593 ], [ -36.141174399999962, -10.126558599999974 ], [ -36.141127699999977, -10.126547099999929 ], [ -36.141057799999942, -10.126501199999936 ], [ -36.141011099999965, -10.1264783 ], [ -36.140964499999939, -10.126455299999989 ], [ -36.140929499999977, -10.126420899999964 ], [ -36.14090669999996, -10.126402899999968 ], [ -36.140871199999935, -10.126375 ], [ -36.140812899999965, -10.12634049999996 ], [ -36.140777899999925, -10.126317599999954 ], [ -36.140731299999977, -10.126283199999939 ], [ -36.140696299999945, -10.126248699999966 ], [ -36.140649699999976, -10.126214299999978 ], [ -36.140614699999958, -10.126191399999943 ], [ -36.14055639999998, -10.126145499999943 ], [ -36.140533099999971, -10.126122499999955 ], [ -36.140486499999959, -10.126099599999984 ], [ -36.140451499999983, -10.126065099999954 ], [ -36.140404899999965, -10.126042199999974 ], [ -36.140358199999987, -10.126007799999957 ], [ -36.140299899999945, -10.125984799999955 ], [ -36.140241599999968, -10.125961899999952 ], [ -36.140206699999972, -10.125950399999953 ], [ -36.140136699999978, -10.125950399999958 ], [ -36.140078399999936, -10.125950399999953 ], [ -36.140031799999981, -10.125950399999986 ], [ -36.139985199999963, -10.125961899999949 ], [ -36.139938499999978, -10.125984799999973 ], [ -36.139880199999943, -10.126007799999952 ], [ -36.139833099999976, -10.126035699999935 ], [ -36.139822, -10.126042199999985 ], [ -36.139763699999946, -10.126053699999948 ], [ -36.139705399999961, -10.126076699999951 ], [ -36.139647099999941, -10.126111099999944 ], [ -36.139612099999965, -10.126122599999965 ], [ -36.139530499999978, -10.126168499999928 ], [ -36.139483899999959, -10.126202899999953 ], [ -36.13946059999995, -10.126225899999957 ], [ -36.139402299999972, -10.126248799999926 ], [ -36.139344, -10.126283299999967 ], [ -36.139297399999975, -10.126306199999945 ], [ -36.139239099999948, -10.126317699999971 ], [ -36.139192399999956, -10.126340699999941 ], [ -36.139145799999937, -10.126363599999941 ], [ -36.139099199999976, -10.126375099999954 ], [ -36.139064199999943, -10.126386599999941 ], [ -36.139005899999965, -10.126386599999943 ], [ -36.138936, -10.126398099999962 ], [ -36.138866, -10.126398099999976 ], [ -36.13878439999997, -10.126409599999933 ], [ -36.138737799999952, -10.126409599999937 ], [ -36.138644499999941, -10.126421099999968 ], [ -36.138597899999986, -10.12643249999997 ], [ -36.138527899999936, -10.126432499999973 ], [ -36.138434699999941, -10.126444 ], [ -36.13837639999997, -10.12645549999997 ], [ -36.138329799999958, -10.126478399999959 ], [ -36.138259799999965, -10.126478399999939 ], [ -36.138166499999961, -10.126489899999969 ], [ -36.138084899999967, -10.126512899999973 ], [ -36.138038299999948, -10.126524399999925 ], [ -36.137991699999937, -10.126535799999928 ], [ -36.137956699999961, -10.126535899999981 ], [ -36.137875099999974, -10.126547299999979 ], [ -36.137781799999978, -10.126558799999948 ], [ -36.137735199999959, -10.126581799999936 ], [ -36.137700199999983, -10.126593299999987 ], [ -36.137630299999962, -10.126616299999972 ], [ -36.137548699999975, -10.126639199999934 ], [ -36.137490399999933, -10.126662199999961 ], [ -36.137443699999942, -10.126685199999955 ], [ -36.137397099999937, -10.126708099999973 ], [ -36.137350499999968, -10.126719599999939 ], [ -36.137292199999933, -10.126742499999976 ], [ -36.137152299999968, -10.126765499999987 ], [ -36.137094, -10.126788499999966 ], [ -36.137047399999986, -10.126811399999951 ], [ -36.136989099999944, -10.126822899999986 ], [ -36.136907499999957, -10.12684579999994 ], [ -36.136872499999988, -10.126857299999926 ], [ -36.136814199999947, -10.126868799999958 ], [ -36.1367676, -10.126880299999936 ], [ -36.136686, -10.126903199999969 ], [ -36.13662769999997, -10.126903199999967 ], [ -36.1365694, -10.126903199999955 ], [ -36.136534399999967, -10.126903199999953 ], [ -36.136487799999948, -10.12689179999996 ], [ -36.136429499999963, -10.126880299999922 ], [ -36.136371199999985, -10.126868799999949 ], [ -36.136312899999943, -10.12685739999994 ], [ -36.136277899999982, -10.126857399999956 ], [ -36.136208, -10.126845899999987 ], [ -36.136114699999958, -10.126834399999948 ], [ -36.136103099999957, -10.126834399999954 ], [ -36.136056399999987, -10.126823 ], [ -36.135998099999938, -10.126823 ], [ -36.135916499999944, -10.1268 ], [ -36.135881499999989, -10.1268 ], [ -36.135823199999948, -10.126788599999923 ], [ -36.135776599999929, -10.126777099999957 ], [ -36.135718299999951, -10.12676559999996 ], [ -36.135683299999975, -10.126754199999926 ], [ -36.135601699999945, -10.126742699999978 ], [ -36.135566699999977, -10.126742699999957 ], [ -36.135508399999935, -10.126742699999976 ], [ -36.135450099999964, -10.126742699999973 ], [ -36.135391799999979, -10.126731199999947 ], [ -36.135321899999944, -10.126719799999938 ], [ -36.135286899999983, -10.126719799999941 ], [ -36.135240299999964, -10.126719799999931 ], [ -36.13517029999997, -10.126719799999924 ], [ -36.135112, -10.126719799999936 ], [ -36.135065399999974, -10.12671979999995 ], [ -36.134995399999973, -10.126719799999938 ], [ -36.134948799999961, -10.12671979999994 ], [ -36.134902199999942, -10.126719799999936 ], [ -36.134867199999967, -10.126708299999969 ], [ -36.134808899999946, -10.126708299999976 ], [ -36.134738899999945, -10.126685399999914 ], [ -36.134704, -10.126685399999907 ], [ -36.134634, -10.126673899999943 ], [ -36.134587399999937, -10.126673899999954 ], [ -36.134540699999953, -10.126651 ], [ -36.134482399999968, -10.126651 ], [ -36.13442409999994, -10.126628 ], [ -36.134365799999955, -10.126628 ], [ -36.134319199999929, -10.126628 ], [ -36.134272599999974, -10.126628 ], [ -36.134214299999947, -10.126616599999972 ], [ -36.134167699999978, -10.126616599999981 ], [ -36.134132699999952, -10.1266166 ], [ -36.134086099999926, -10.126593599999975 ], [ -36.134039399999956, -10.126570699999945 ], [ -36.134004399999974, -10.126559199999953 ], [ -36.133957799999962, -10.1265362 ], [ -36.133899499999977, -10.126501799999978 ], [ -36.133852899999965, -10.12646739999996 ], [ -36.13381789999994, -10.126433 ], [ -36.133771299999971, -10.126387099999933 ], [ -36.133736299999946, -10.126352599999949 ], [ -36.1337013, -10.12630669999993 ], [ -36.133666299999952, -10.126260799999946 ], [ -36.133592199999953, -10.1261575 ], [ -36.133580499999951, -10.126146 ], [ -36.133545499999968, -10.126100099999974 ], [ -36.133510499999936, -10.126054199999945 ], [ -36.13347559999994, -10.126031299999951 ], [ -36.133440599999972, -10.125996799999944 ], [ -36.13339389999993, -10.125962399999937 ], [ -36.133359, -10.125939499999967 ], [ -36.13330069999995, -10.125893599999941 ], [ -36.133254, -10.125870599999935 ], [ -36.133195699999938, -10.125847599999954 ], [ -36.13313739999996, -10.12581319999998 ], [ -36.133079099999975, -10.1257788 ], [ -36.133020799999947, -10.125767299999934 ], [ -36.132962499999955, -10.125732899999964 ], [ -36.132915899999944, -10.125721399999975 ], [ -36.132880899999982, -10.125698399999969 ], [ -36.13282259999994, -10.125664 ], [ -36.132776, -10.125629599999977 ], [ -36.132752699999969, -10.125595199999957 ], [ -36.132706, -10.125549299999921 ], [ -36.13264769999995, -10.125514799999976 ], [ -36.132624399999948, -10.125468899999916 ], [ -36.132577799999986, -10.125423 ], [ -36.132519499999944, -10.125365599999943 ], [ -36.132472899999975, -10.125331199999955 ], [ -36.132402899999938, -10.125262399999921 ], [ -36.132344599999954, -10.125227899999951 ], [ -36.132309699999944, -10.125205 ], [ -36.132239699999964, -10.125136099999953 ], [ -36.132216399999955, -10.125113199999925 ], [ -36.13215809999997, -10.125078799999933 ], [ -36.132111499999951, -10.125044299999976 ], [ -36.132064799999966, -10.125021399999984 ], [ -36.132006499999932, -10.124987 ], [ -36.13193659999996, -10.124964 ], [ -36.131901599999935, -10.124952499999941 ], [ -36.131866599999967, -10.124941099999951 ], [ -36.131808299999925, -10.12492959999997 ], [ -36.131726699999945, -10.1249066 ], [ -36.131703399999935, -10.124895199999987 ], [ -36.13166839999996, -10.12488369999995 ], [ -36.13158679999998, -10.124860699999928 ], [ -36.131551899999984, -10.12484929999993 ], [ -36.131493599999949, -10.12482629999994 ], [ -36.131446899999965, -10.124791899999924 ], [ -36.131400299999939, -10.124757499999918 ], [ -36.13136529999997, -10.124723 ], [ -36.131318699999952, -10.124688599999946 ], [ -36.131260399999974, -10.124654199999954 ], [ -36.131213799999962, -10.124631199999948 ], [ -36.131155499999977, -10.124596799999964 ], [ -36.131050499999958, -10.124539399999955 ], [ -36.131027199999949, -10.124527899999986 ], [ -36.13098059999993, -10.124505 ], [ -36.130887299999983, -10.1244591 ], [ -36.130840699999965, -10.124436099999977 ], [ -36.130794, -10.124401699999979 ], [ -36.130747399999962, -10.124367299999937 ], [ -36.130665799999974, -10.124321399999932 ], [ -36.130642499999965, -10.124298399999915 ], [ -36.13060749999994, -10.124264 ], [ -36.130549199999969, -10.124218099999963 ], [ -36.130525899999952, -10.124195099999959 ], [ -36.130479299999934, -10.124172199999961 ], [ -36.130444299999972, -10.124137799999954 ], [ -36.130397599999981, -10.124103299999959 ], [ -36.130304399999936, -10.124045899999931 ], [ -36.130246099999965, -10.124011499999927 ], [ -36.130187799999923, -10.123977099999934 ], [ -36.13012949999996, -10.123954099999924 ], [ -36.130059499999959, -10.123931199999957 ], [ -36.130001199999981, -10.123919699999947 ], [ -36.129966299999978, -10.123908199999947 ], [ -36.129919599999937, -10.12388529999992 ], [ -36.129826399999956, -10.123862299999931 ], [ -36.129779699999979, -10.1238509 ], [ -36.129709799999944, -10.123827899999961 ], [ -36.129628199999956, -10.123793499999968 ], [ -36.129593199999931, -10.123770499999978 ], [ -36.12953489999996, -10.123747599999957 ], [ -36.129488299999934, -10.123724599999957 ], [ -36.12944159999995, -10.123701699999964 ], [ -36.129406699999954, -10.1236787 ], [ -36.12936, -10.123655799999943 ], [ -36.129301699999985, -10.123644299999951 ], [ -36.129255099999973, -10.123609899999959 ], [ -36.129208499999947, -10.123575399999929 ], [ -36.129173499999986, -10.123541 ], [ -36.129103499999921, -10.123506599999944 ], [ -36.1290686, -10.123483599999943 ], [ -36.129021899999948, -10.123449199999968 ], [ -36.128998599999939, -10.123426299999936 ], [ -36.128940299999954, -10.123403299999959 ], [ -36.128893699999935, -10.123368899999951 ], [ -36.128847099999973, -10.12335739999997 ], [ -36.12875379999997, -10.123311499999959 ], [ -36.128730499999968, -10.123288599999961 ], [ -36.128660499999967, -10.123265599999987 ], [ -36.128602199999932, -10.123231199999962 ], [ -36.128543899999947, -10.123196699999946 ], [ -36.128485599999983, -10.123173799999952 ], [ -36.128439, -10.12315079999995 ], [ -36.128392399999946, -10.123116399999942 ], [ -36.128334099999968, -10.123082 ], [ -36.128275799999983, -10.123059 ], [ -36.128229099999949, -10.123036099999982 ], [ -36.12818249999998, -10.123013099999984 ], [ -36.128112599999952, -10.122978699999971 ], [ -36.128054299999974, -10.122967199999955 ], [ -36.127996, -10.122932799999923 ], [ -36.127961, -10.122921299999986 ], [ -36.127914399999945, -10.122898399999947 ], [ -36.127867699999975, -10.122875399999938 ], [ -36.127821099999949, -10.122852499999969 ], [ -36.127762799999971, -10.122841 ], [ -36.127681199999977, -10.122818 ], [ -36.127587899999988, -10.12280659999994 ], [ -36.127541299999955, -10.122795099999967 ], [ -36.127494599999977, -10.122795099999973 ], [ -36.127436299999943, -10.122772099999958 ], [ -36.127413, -10.122772099999944 ], [ -36.127354699999962, -10.122749199999925 ], [ -36.127296399999977, -10.122726199999939 ], [ -36.127238199999972, -10.122703299999946 ], [ -36.127179899999931, -10.122668899999969 ], [ -36.127133199999946, -10.122634399999972 ], [ -36.127074899999968, -10.122611499999946 ], [ -36.127039899999943, -10.122588499999958 ], [ -36.126981699999924, -10.122554099999952 ], [ -36.126946699999962, -10.122531099999957 ], [ -36.126911699999944, -10.122519699999931 ], [ -36.126876699999968, -10.122485199999979 ], [ -36.126818399999941, -10.122439299999924 ], [ -36.126783399999972, -10.122416399999954 ], [ -36.12674849999997, -10.122382 ], [ -36.126713499999937, -10.122359 ], [ -36.126678499999976, -10.122313099999921 ], [ -36.126646799999946, -10.122271399999951 ], [ -36.125761499999953, -10.122002499999942 ], [ -36.125008099999953, -10.121487799999944 ], [ -36.12498949999997, -10.121469399999963 ], [ -36.124940499999987, -10.121433299999985 ], [ -36.12490379999997, -10.121397199999942 ], [ -36.12485479999998, -10.121349 ], [ -36.12481809999997, -10.121300699999932 ], [ -36.124781399999968, -10.121264599999972 ], [ -36.124756899999973, -10.121216399999984 ], [ -36.124720199999956, -10.121156199999959 ], [ -36.124683499999939, -10.121095899999959 ], [ -36.124646799999944, -10.12103569999992 ], [ -36.124634499999971, -10.12098749999994 ], [ -36.124622299999942, -10.120915099999927 ], [ -36.12461, -10.120879 ], [ -36.124585499999966, -10.120830799999952 ], [ -36.124585499999974, -10.120758499999958 ], [ -36.124573299999959, -10.120722299999967 ], [ -36.124561099999937, -10.120662099999938 ], [ -36.124561099999937, -10.12061389999996 ], [ -36.124561099999944, -10.120529599999934 ], [ -36.124573299999952, -10.120493399999951 ], [ -36.124585499999974, -10.12043309999995 ], [ -36.124597799999947, -10.120372899999934 ], [ -36.124597799999947, -10.120324699999971 ], [ -36.124597799999933, -10.120264499999966 ], [ -36.124622299999942, -10.120180099999986 ], [ -36.124622299999942, -10.120144 ], [ -36.124634499999956, -10.120107799999978 ], [ -36.124646699999964, -10.120059599999914 ], [ -36.124683499999954, -10.119987299999917 ], [ -36.124720199999956, -10.11993909999998 ], [ -36.124732399999978, -10.119890899999985 ], [ -36.12476909999998, -10.119842699999941 ], [ -36.124793599999975, -10.11979449999996 ], [ -36.124818099999963, -10.119734299999962 ], [ -36.124830299999928, -10.119674 ], [ -36.12485479999998, -10.119613699999947 ], [ -36.1248548, -10.119577599999941 ], [ -36.124891499999933, -10.11950529999994 ], [ -36.124928199999943, -10.119445 ], [ -36.124952699999938, -10.119384799999979 ], [ -36.124977199999933, -10.119312499999973 ], [ -36.124977199999933, -10.119276299999974 ], [ -36.124964899999952, -10.119216099999957 ], [ -36.124952699999938, -10.119143799999948 ], [ -36.124952699999938, -10.119119699999956 ], [ -36.12492819999995, -10.119047399999928 ], [ -36.124903699999955, -10.118987099999977 ], [ -36.124891499999933, -10.11892689999997 ], [ -36.124879199999953, -10.118878699999938 ], [ -36.124867, -10.1188425 ], [ -36.12485479999998, -10.118770199999965 ], [ -36.124842499999957, -10.118734099999905 ], [ -36.124830299999935, -10.11868589999996 ], [ -36.12480579999994, -10.118625599999959 ], [ -36.124793599999968, -10.118577399999943 ], [ -36.124769099999973, -10.118517199999943 ], [ -36.124756799999936, -10.118456899999979 ], [ -36.124744599999921, -10.11840869999998 ], [ -36.124720099999941, -10.118360499999932 ], [ -36.124720099999941, -10.11830029999993 ], [ -36.124707899999969, -10.11824 ], [ -36.124695599999946, -10.11819179999997 ], [ -36.124671099999944, -10.118143599999925 ], [ -36.12463439999992, -10.118095399999968 ], [ -36.124597699999988, -10.118035199999959 ], [ -36.124561, -10.117999 ], [ -36.124512, -10.11796289999994 ], [ -36.124475299999972, -10.117926699999922 ], [ -36.124426299999982, -10.117902699999958 ], [ -36.124340599999989, -10.117854499999959 ], [ -36.124303899999973, -10.11783039999996 ], [ -36.124218199999987, -10.117830399999942 ], [ -36.124169299999956, -10.117818299999936 ], [ -36.124083599999956, -10.117794199999931 ], [ -36.123997899999949, -10.117770099999959 ], [ -36.123887699999955, -10.117770099999978 ], [ -36.123814299999943, -10.11777009999998 ], [ -36.123753099999931, -10.117770099999989 ], [ -36.123691899999976, -10.1177701 ], [ -36.123618399999941, -10.117782199999969 ], [ -36.123545, -10.117794199999926 ], [ -36.123496, -10.117794199999935 ], [ -36.123459299999979, -10.117806299999939 ], [ -36.123410399999955, -10.117818299999946 ], [ -36.1233491, -10.117842399999981 ], [ -36.12328789999998, -10.117854499999956 ], [ -36.123263499999943, -10.117866499999941 ], [ -36.123202299999939, -10.117878599999926 ], [ -36.123128799999968, -10.117902699999938 ], [ -36.123043099999961, -10.117950899999922 ], [ -36.122994199999944, -10.117975 ], [ -36.122945199999954, -10.11801109999991 ], [ -36.122896299999972, -10.118023199999989 ], [ -36.122835, -10.118035199999936 ], [ -36.122773799999948, -10.118059299999961 ], [ -36.122737099999945, -10.118071399999948 ], [ -36.122688199999978, -10.118083399999948 ], [ -36.122614699999936, -10.118119599999941 ], [ -36.122590199999934, -10.118131599999968 ], [ -36.122480099999962, -10.118155699999946 ], [ -36.122418899999957, -10.118167799999982 ], [ -36.122369899999967, -10.118191899999925 ], [ -36.122308699999955, -10.118216 ], [ -36.122247499999965, -10.118240099999969 ], [ -36.122161799999958, -10.118264199999938 ], [ -36.122039399999949, -10.118324399999944 ], [ -36.122002699999939, -10.118360599999976 ], [ -36.121953699999949, -10.118372599999926 ], [ -36.121892499999944, -10.118408799999951 ], [ -36.121831299999947, -10.118432899999936 ], [ -36.121757899999984, -10.118481099999952 ], [ -36.121708899999931, -10.118505199999957 ], [ -36.121672199999971, -10.118517199999934 ], [ -36.121598699999936, -10.118553399999946 ], [ -36.121549799999968, -10.11857749999996 ], [ -36.121513099999966, -10.118601599999982 ], [ -36.121475799999985, -10.11862 ], [ -36.121153599999964, -10.118636 ], [ -36.11860379999996, -10.11985809999994 ], [ -36.117372399999972, -10.12013819999993 ], [ -36.116352899999974, -10.12058139999993 ], [ -36.11527609999996, -10.121497799999938 ], [ -36.114848, -10.121441899999963 ], [ -36.113206899999966, -10.120470599999976 ], [ -36.110400299999988, -10.117992 ], [ -36.110367499999931, -10.117517899999953 ], [ -36.110143899999976, -10.116853099999981 ], [ -36.109199, -10.116306499999959 ], [ -36.10911829999997, -10.116259799999961 ], [ -36.109076799999961, -10.116280399999923 ], [ -36.107451699999956, -10.117088599999938 ], [ -36.105865599999959, -10.116632499999989 ], [ -36.104485899999922, -10.117164799999967 ], [ -36.104574699999951, -10.117289199999943 ], [ -36.104700899999962, -10.117515099999947 ], [ -36.104831099999963, -10.11781 ], [ -36.1049096, -10.117996299999959 ], [ -36.1050231, -10.118204599999954 ], [ -36.105197599999947, -10.118461899999941 ], [ -36.105395199999975, -10.118712499999939 ], [ -36.105515199999964, -10.118910199999936 ], [ -36.105641399999975, -10.119100099999971 ], [ -36.105731399999975, -10.119320499999967 ], [ -36.105804, -10.119536599999957 ], [ -36.105884899999971, -10.1197286 ], [ -36.106016699999934, -10.119991 ], [ -36.106136899999967, -10.120149899999966 ], [ -36.106269799999943, -10.120325799999923 ], [ -36.106373799999972, -10.120511199999937 ], [ -36.106483199999964, -10.12073579999997 ], [ -36.106584399999974, -10.120957099999957 ], [ -36.106728399999945, -10.12128139999993 ], [ -36.10685159999997, -10.121546599999933 ], [ -36.106939899999929, -10.121789099999939 ], [ -36.106993199999984, -10.121973499999983 ], [ -36.107047799999975, -10.122141299999946 ], [ -36.107175799999936, -10.122381199999952 ], [ -36.107322099999976, -10.122603 ], [ -36.107437799999971, -10.122906399999952 ], [ -36.107544699999949, -10.123273299999953 ], [ -36.107617199999929, -10.123536799999961 ], [ -36.107701, -10.123837199999967 ], [ -36.107804299999941, -10.124250099999907 ], [ -36.107931099999966, -10.124687299999945 ], [ -36.108018099999981, -10.125014 ], [ -36.108088, -10.12532629999993 ], [ -36.108091399999978, -10.125341399999973 ], [ -36.108164199999969, -10.125710299999989 ], [ -36.108228899999979, -10.126075299999961 ], [ -36.108411099999955, -10.126524599999922 ], [ -36.108554599999941, -10.126782299999961 ], [ -36.10867889999998, -10.127033 ], [ -36.108694199999945, -10.127068699999953 ], [ -36.108786299999963, -10.127284099999937 ], [ -36.108921, -10.127473399999944 ], [ -36.109051699999959, -10.127714499999959 ], [ -36.109162899999944, -10.128061399999975 ], [ -36.109217599999972, -10.128337399999941 ], [ -36.10921859999997, -10.128614899999933 ], [ -36.109179299999937, -10.128867199999938 ], [ -36.109144799999967, -10.129131 ], [ -36.109095699999955, -10.129399699999974 ], [ -36.1090708, -10.129575399999977 ], [ -36.109088399999955, -10.129784799999966 ], [ -36.109155499999922, -10.129900899999946 ], [ -36.109228, -10.130020099999975 ], [ -36.109340599999939, -10.130095099999949 ], [ -36.109514799999943, -10.130174799999963 ], [ -36.109716799999944, -10.130259299999956 ], [ -36.109918399999977, -10.130349399999963 ], [ -36.110141299999945, -10.130454899999947 ], [ -36.110342099999968, -10.130556 ], [ -36.110525299999949, -10.130664099999946 ], [ -36.110768099999973, -10.130804499999947 ], [ -36.111064, -10.130988699999929 ], [ -36.111183599999947, -10.131068699999949 ], [ -36.111390899999947, -10.131207399999944 ], [ -36.111699699999981, -10.131441499999934 ], [ -36.111939799999959, -10.131653799999976 ], [ -36.112210399999981, -10.131907199999961 ], [ -36.112674299999988, -10.132367899999965 ], [ -36.11292919999994, -10.132634199999911 ], [ -36.113132799999953, -10.132879799999932 ], [ -36.113299199999979, -10.13324189999997 ], [ -36.113434, -10.133684899999942 ], [ -36.113549699999972, -10.134223599999943 ], [ -36.113752599999948, -10.134696699999948 ], [ -36.114021099999952, -10.135049799999958 ], [ -36.114312499999983, -10.135290899999958 ], [ -36.114756, -10.1354962 ], [ -36.115221399999939, -10.13559609999994 ], [ -36.115674099999985, -10.13568289999994 ], [ -36.11622849999997, -10.135777199999955 ], [ -36.116929299999981, -10.135971399999942 ], [ -36.117590299999961, -10.136170899999961 ], [ -36.118092, -10.136388899999934 ], [ -36.118535299999962, -10.136585899999943 ], [ -36.118779799999977, -10.136704099999985 ], [ -36.119043099999942, -10.136834899999963 ], [ -36.119378399999967, -10.13701819999994 ], [ -36.119674599999939, -10.137195899999938 ], [ -36.119996199999939, -10.137411399999966 ], [ -36.120355199999956, -10.137652099999976 ], [ -36.120604099999987, -10.137859399999961 ], [ -36.120890899999957, -10.138086299999953 ], [ -36.121197599999967, -10.13834789999993 ], [ -36.12151369999998, -10.1386277 ], [ -36.121797399999927, -10.138932 ], [ -36.122067, -10.139235199999971 ], [ -36.122317899999985, -10.139526 ], [ -36.122698399999926, -10.139962399999941 ], [ -36.122976299999948, -10.140341699999986 ], [ -36.123226799999934, -10.140674 ], [ -36.123511599999979, -10.141072699999917 ], [ -36.123781699999938, -10.141442599999932 ], [ -36.124039699999969, -10.141786599999913 ], [ -36.124348199999929, -10.142206499999936 ], [ -36.124759899999958, -10.142785599999966 ], [ -36.125018299999965, -10.143160099999934 ], [ -36.125219399999935, -10.143438799999943 ], [ -36.12537929999997, -10.143667299999947 ], [ -36.125621799999976, -10.144029499999913 ], [ -36.125813599999965, -10.144318599999952 ], [ -36.125939599999974, -10.144538199999921 ], [ -36.126080699999932, -10.144754199999948 ], [ -36.126268199999977, -10.145026299999929 ], [ -36.126464099999964, -10.145299 ], [ -36.126632799999982, -10.145522499999959 ], [ -36.12685179999994, -10.145788699999985 ], [ -36.127017299999977, -10.146017499999987 ], [ -36.12716249999994, -10.146253199999927 ], [ -36.127323, -10.146509399999969 ], [ -36.127434599999951, -10.146742499999965 ], [ -36.127602899999943, -10.147117399999976 ], [ -36.127778099999951, -10.147493 ], [ -36.127864, -10.14769359999997 ], [ -36.1279517, -10.147908299999905 ], [ -36.128031799999974, -10.148147399999967 ], [ -36.128091199999972, -10.14832659999996 ], [ -36.128171899999984, -10.148521399999947 ], [ -36.128295699999967, -10.148698699999976 ], [ -36.128365599999945, -10.14881489999992 ], [ -36.128468299999959, -10.148944699999936 ], [ -36.128579599999973, -10.149108499999961 ], [ -36.128702199999971, -10.149309099999929 ], [ -36.128839399999947, -10.149538899999973 ], [ -36.128982, -10.149771599999962 ], [ -36.129129899999953, -10.150046299999909 ], [ -36.1292572, -10.15033049999994 ], [ -36.129404199999954, -10.150652299999948 ], [ -36.129560199999965, -10.151006699999915 ], [ -36.129629299999969, -10.151134 ], [ -36.129723599999984, -10.15129919999992 ], [ -36.129825199999978, -10.151442799999923 ], [ -36.129962899999953, -10.151666799999933 ], [ -36.130134, -10.151896 ], [ -36.130231299999934, -10.152058699999943 ], [ -36.130306099999984, -10.152185299999916 ], [ -36.130384399999961, -10.152302099999934 ], [ -36.130478499999981, -10.152434 ], [ -36.130511299999974, -10.152519699999981 ], [ -36.130570399999954, -10.152629599999962 ], [ -36.130599799999963, -10.152723399999969 ], [ -36.130651399999977, -10.1528216 ], [ -36.130692199999942, -10.152913399999946 ], [ -36.130738599999972, -10.153041799999928 ], [ -36.130787, -10.153145299999958 ], [ -36.130844, -10.153246699999947 ], [ -36.130881099999954, -10.153313299999967 ], [ -36.130948799999942, -10.153421 ], [ -36.130991799999947, -10.153521399999915 ], [ -36.130991599999959, -10.153524099999956 ], [ -36.131051399999926, -10.153625699999974 ], [ -36.1311075, -10.153702099999972 ], [ -36.13115449999998, -10.153786099999925 ], [ -36.131221399999951, -10.153904899999926 ], [ -36.131277499999953, -10.154017299999959 ], [ -36.131322199999943, -10.154131599999955 ], [ -36.131393699999926, -10.154264599999978 ], [ -36.131437099999971, -10.1543594 ], [ -36.131478699999946, -10.154476299999956 ], [ -36.131486499999944, -10.154485199999947 ], [ -36.131514799999934, -10.154556699999924 ], [ -36.13154909999998, -10.15465919999998 ], [ -36.131613, -10.154744399999958 ], [ -36.131661799999954, -10.154806399999948 ], [ -36.131739799999941, -10.154889899999937 ], [ -36.131827199999982, -10.154963099999989 ], [ -36.131888299999957, -10.155048099999906 ], [ -36.131949299999981, -10.155133199999975 ], [ -36.131986899999966, -10.155230299999952 ], [ -36.132046, -10.155340199999966 ], [ -36.132048399999974, -10.155345899999944 ], [ -36.132086599999987, -10.155434799999957 ], [ -36.132112699999936, -10.15549779999998 ], [ -36.132152899999944, -10.155597899999973 ], [ -36.132209, -10.155710299999956 ], [ -36.132246699999939, -10.15580609999995 ], [ -36.132297899999969, -10.155909799999945 ], [ -36.132332, -10.155979 ], [ -36.132388299999946, -10.156088599999988 ], [ -36.132444899999939, -10.156195499999964 ], [ -36.132485499999973, -10.156290199999962 ], [ -36.132518699999935, -10.1564064 ], [ -36.132539899999983, -10.156496799999955 ], [ -36.132570799999947, -10.156607299999971 ], [ -36.13258639999998, -10.15669729999995 ], [ -36.132649199999939, -10.156861699999963 ], [ -36.132707299999936, -10.157057599999964 ], [ -36.132800399999951, -10.157311499999944 ], [ -36.132902, -10.157455099999925 ], [ -36.132958, -10.1576282 ], [ -36.1330033, -10.157734299999944 ], [ -36.133089799999944, -10.157818499999973 ], [ -36.133141599999931, -10.157877799999923 ], [ -36.133217099999975, -10.157958399999933 ], [ -36.13326329999996, -10.158053499999932 ], [ -36.133292499999982, -10.15815 ], [ -36.133325299999967, -10.158271799999968 ], [ -36.133355299999941, -10.158393299999947 ], [ -36.133378899999968, -10.158489399999961 ], [ -36.133394499999952, -10.158579399999951 ], [ -36.133404299999945, -10.158671699999942 ], [ -36.133417699999939, -10.158789199999957 ], [ -36.133444899999979, -10.158910599999961 ], [ -36.133462299999962, -10.159014499999957 ], [ -36.133486199999943, -10.159105099999978 ], [ -36.133499699999959, -10.159186599999936 ], [ -36.133542, -10.159295199999983 ], [ -36.133610399999952, -10.15939469999997 ], [ -36.133674499999984, -10.159477199999952 ], [ -36.133711399999981, -10.159546499999953 ], [ -36.133750499999962, -10.159624 ], [ -36.133795199999952, -10.159702299999925 ], [ -36.133849799999943, -10.159797899999962 ], [ -36.133915299999956, -10.159861099999956 ], [ -36.134007, -10.159915199999965 ], [ -36.134149099999945, -10.160009099999982 ], [ -36.13425859999996, -10.160050599999973 ], [ -36.134340399999985, -10.160123299999935 ], [ -36.134422299999976, -10.160193299999953 ], [ -36.134485799999936, -10.160248 ], [ -36.1345932, -10.160317099999913 ], [ -36.134652899999942, -10.160363799999969 ], [ -36.134734699999967, -10.160508699999976 ], [ -36.134774899999975, -10.160608799999956 ], [ -36.134810499999965, -10.160730799999971 ], [ -36.134877199999949, -10.160816199999932 ], [ -36.134966899999938, -10.160859 ], [ -36.135058499999957, -10.160877 ], [ -36.135129, -10.160912799999952 ], [ -36.135212099999933, -10.160948 ], [ -36.135265699999927, -10.160967499999975 ], [ -36.135317899999954, -10.160985299999933 ], [ -36.135377199999951, -10.161020199999939 ], [ -36.135430399999962, -10.161059799999974 ], [ -36.135499, -10.16111 ], [ -36.135572499999967, -10.16117629999995 ], [ -36.135639199999957, -10.161235899999943 ], [ -36.13569149999995, -10.16132959999994 ], [ -36.135787099999959, -10.161442199999945 ], [ -36.135909399999953, -10.161501299999923 ], [ -36.13600809999997, -10.161536499999952 ], [ -36.136124099999968, -10.161603499999948 ], [ -36.136178499999971, -10.161665799999986 ], [ -36.136274699999952, -10.161698 ], [ -36.13633539999995, -10.161677599999972 ], [ -36.136372299999941, -10.161638699999962 ], [ -36.136344599999973, -10.161559 ], [ -36.136300799999965, -10.161433599999928 ], [ -36.136275699999949, -10.161320699999983 ], [ -36.136269199999958, -10.161223099999983 ], [ -36.136269099999929, -10.161114899999975 ], [ -36.13621529999994, -10.16100819999996 ], [ -36.136113899999941, -10.160898 ], [ -36.136000699999961, -10.160795099999987 ], [ -36.135884499999975, -10.160694199999963 ], [ -36.135881899999958, -10.160619099999941 ], [ -36.135926, -10.160522499999953 ], [ -36.135979399999947, -10.160451599999945 ], [ -36.136004499999963, -10.160345299999957 ], [ -36.135994099999948, -10.160261299999949 ], [ -36.135927, -10.160181299999975 ], [ -36.13588429999993, -10.160114299999984 ], [ -36.135827, -10.160020099999954 ], [ -36.13579429999993, -10.15982839999997 ], [ -36.13576269999993, -10.159651299999974 ], [ -36.135733799999969, -10.159493899999985 ], [ -36.135743599999962, -10.1592841 ], [ -36.135805099999978, -10.159159 ], [ -36.135868899999934, -10.159061699999942 ], [ -36.13595069999996, -10.158953 ], [ -36.136021699999958, -10.158873199999945 ], [ -36.136135299999985, -10.158745699999942 ], [ -36.136280899999981, -10.158595 ], [ -36.136418599999949, -10.158435099999966 ], [ -36.136555699999967, -10.158311499999975 ], [ -36.136684499999944, -10.15818389999991 ], [ -36.136847499999931, -10.158035699999967 ], [ -36.136900599999933, -10.157987399999961 ], [ -36.137200899999989, -10.157737699999934 ], [ -36.137516699999928, -10.157453099999943 ], [ -36.137564499999939, -10.157410599999947 ], [ -36.137693099999979, -10.157296199999962 ], [ -36.137793, -10.157205799999939 ], [ -36.137892199999946, -10.157124 ], [ -36.137937, -10.157076699999955 ], [ -36.137938199999958, -10.157032199999939 ], [ -36.13792629999994, -10.15699079999996 ], [ -36.137916899999944, -10.156945499999949 ], [ -36.137926299999954, -10.156907899999947 ], [ -36.138266399999971, -10.156616499999931 ], [ -36.138293, -10.156580299999957 ], [ -36.13829149999998, -10.156544 ], [ -36.138290199999972, -10.156505599999955 ], [ -36.13829329999993, -10.15646539999995 ], [ -36.138318299999973, -10.15642049999996 ], [ -36.138528599999972, -10.156300199999986 ], [ -36.138794399999938, -10.156168 ], [ -36.139175099999939, -10.156000099999975 ], [ -36.139555, -10.155842399999925 ], [ -36.139977599999959, -10.15567769999997 ], [ -36.140454, -10.155630699999961 ], [ -36.141008399999976, -10.155527499999948 ], [ -36.141559499999971, -10.155465399999958 ], [ -36.142112299999951, -10.155382799999906 ], [ -36.142947899999967, -10.155357099999938 ], [ -36.143531499999945, -10.155427199999956 ], [ -36.144022499999949, -10.155464099999977 ], [ -36.14456249999995, -10.155545899999936 ], [ -36.145006099999939, -10.155651599999944 ], [ -36.145460199999945, -10.155758099999948 ], [ -36.145940799999948, -10.155928599999969 ], [ -36.146361899999931, -10.156053299999918 ], [ -36.146775099999957, -10.156280699999948 ], [ -36.14715769999998, -10.156495599999968 ], [ -36.147459199999957, -10.156673399999942 ], [ -36.147756599999987, -10.156902499999932 ], [ -36.148061299999938, -10.157173599999956 ], [ -36.148339499999963, -10.157380599999957 ], [ -36.148538099999939, -10.15753 ], [ -36.148759899999959, -10.15765 ], [ -36.149009099999944, -10.157689399999962 ], [ -36.14928059999994, -10.157663399999924 ], [ -36.149477599999955, -10.157587599999943 ], [ -36.149669099999983, -10.157490599999949 ], [ -36.149771299999941, -10.157358899999965 ], [ -36.1498448, -10.157232099999929 ], [ -36.149905299999951, -10.157090399999971 ], [ -36.149965199999947, -10.156955599999936 ], [ -36.150065699999971, -10.156663599999957 ], [ -36.150107, -10.156481099999938 ], [ -36.150162, -10.156381899999941 ], [ -36.15028719999998, -10.15632419999997 ], [ -36.150416899999975, -10.156277099999949 ], [ -36.150530099999969, -10.156239099999945 ], [ -36.150690599999962, -10.156199499999978 ], [ -36.150813, -10.156177799999984 ], [ -36.150943899999959, -10.156182499999931 ], [ -36.151078799999937, -10.156203 ], [ -36.151212899999955, -10.156233699999984 ], [ -36.151336499999957, -10.15626369999994 ], [ -36.151465, -10.156299199999987 ], [ -36.151575799999932, -10.15635929999994 ], [ -36.151608399999944, -10.156413399999947 ], [ -36.151623699999966, -10.156486899999965 ], [ -36.151658199999929, -10.156582499999972 ], [ -36.151687599999946, -10.156677699999936 ], [ -36.151719399999941, -10.156747899999974 ], [ -36.151721599999981, -10.156753 ], [ -36.151787199999944, -10.156911099999942 ], [ -36.151877099999979, -10.157029299999982 ], [ -36.152022699999975, -10.157159299999917 ], [ -36.152238799999964, -10.157384399999946 ], [ -36.152352099999973, -10.157567 ], [ -36.152489099999968, -10.157807199999988 ], [ -36.152555899999989, -10.158042 ], [ -36.152598299999966, -10.158316899999951 ], [ -36.152608699999973, -10.158547499999953 ], [ -36.152613299999985, -10.158854299999962 ], [ -36.152559399999973, -10.159094 ], [ -36.152435, -10.159237899999948 ], [ -36.152275499999973, -10.159379199999929 ], [ -36.152122399999939, -10.159437399999931 ], [ -36.1520958, -10.159323899999931 ], [ -36.152112499999937, -10.159199799999945 ], [ -36.152113399999969, -10.159004899999942 ], [ -36.152066699999978, -10.158785399999941 ], [ -36.151922699999943, -10.158725899999963 ], [ -36.151756599999935, -10.15876909999997 ], [ -36.15165879999995, -10.158935899999959 ], [ -36.151678399999987, -10.159139399999971 ], [ -36.151698599999975, -10.159335899999972 ], [ -36.151654399999984, -10.159632099999961 ], [ -36.151816899999979, -10.159818399999956 ], [ -36.152103299999965, -10.160048899999934 ], [ -36.152456399999949, -10.160423599999957 ], [ -36.152633599999945, -10.160694599999953 ], [ -36.152890299999974, -10.160943699999969 ], [ -36.153108399999958, -10.161050599999955 ], [ -36.153676299999972, -10.161302099999949 ], [ -36.15434149999993, -10.161574899999966 ], [ -36.155181199999966, -10.162062799999935 ], [ -36.155843299999958, -10.162467599999967 ], [ -36.156483799999926, -10.162888399999925 ], [ -36.157043599999952, -10.16324379999997 ], [ -36.157947499999977, -10.163840899999975 ], [ -36.159137599999958, -10.164738099999973 ], [ -36.16041, -10.165669599999951 ], [ -36.16140519999994, -10.166433799999945 ], [ -36.163041, -10.167698699999987 ], [ -36.164247299999936, -10.168634499999952 ], [ -36.16541159999997, -10.169683 ], [ -36.166117799999938, -10.170342699999932 ], [ -36.167165099999984, -10.171347599999933 ], [ -36.167933599999969, -10.172115599999914 ], [ -36.169042399999974, -10.173424499999948 ], [ -36.170318599999973, -10.174948 ], [ -36.171443299999964, -10.176385599999952 ], [ -36.172998, -10.178334699999928 ], [ -36.174262399999989, -10.179919899999959 ], [ -36.175138599999961, -10.181034199999942 ], [ -36.175868399999963, -10.182119699999914 ], [ -36.17672309999994, -10.183514099999989 ], [ -36.177335399999954, -10.184501299999951 ], [ -36.178035799999982, -10.18560079999996 ], [ -36.178734099999929, -10.186684599999971 ], [ -36.179276599999987, -10.187630699999943 ], [ -36.179702199999952, -10.188533199999934 ], [ -36.180439699999965, -10.190068799999947 ], [ -36.181264499999941, -10.191681499999959 ], [ -36.182322599999964, -10.193648299999946 ], [ -36.183387699999969, -10.195717299999954 ], [ -36.184058, -10.196933699999928 ], [ -36.18460639999995, -10.197838599999937 ], [ -36.184641699999929, -10.197896799999969 ], [ -36.185503599999947, -10.1989225 ], [ -36.186628099999957, -10.200030599999932 ], [ -36.187958499999979, -10.201167599999961 ], [ -36.190040399999937, -10.202890599999925 ], [ -36.191941799999945, -10.204267399999916 ], [ -36.194064799999985, -10.205766799999932 ], [ -36.195533599999969, -10.2067744 ], [ -36.195899599999969, -10.207025499999917 ], [ -36.198003899999954, -10.208339799999965 ], [ -36.199383799999964, -10.209258 ], [ -36.200693699999931, -10.210073499999966 ], [ -36.202048099999963, -10.210954899999914 ], [ -36.203535099999954, -10.211898 ], [ -36.205304699999942, -10.213052 ], [ -36.20720989999996, -10.214315899999958 ], [ -36.209194199999956, -10.215586499999976 ], [ -36.210731799999962, -10.216662699999972 ], [ -36.212304, -10.217839 ], [ -36.213720699999961, -10.218969899999946 ], [ -36.215075699999936, -10.220066199999948 ], [ -36.216784799999978, -10.221580099999926 ], [ -36.218436499999946, -10.223103599999954 ], [ -36.219288699999943, -10.223886699999976 ], [ -36.21976479999995, -10.2243243 ], [ -36.22021859999996, -10.224746799999938 ], [ -36.226067599999965, -10.219981099999924 ], [ -36.225874499999982, -10.219798499999955 ], [ -36.224902599999943, -10.218987199999971 ], [ -36.224197799999963, -10.218284099999938 ], [ -36.223834199999949, -10.217857099999948 ], [ -36.223401799999984, -10.217307 ], [ -36.223039299999982, -10.216580699999945 ] ] ], [ [ [ -36.316254699999952, -10.175918099999913 ], [ -36.316641, -10.174081 ], [ -36.315785099999964, -10.173622199999969 ], [ -36.316470199999969, -10.173768299999953 ], [ -36.316902099999936, -10.171983599999983 ], [ -36.317366899999968, -10.168725599999959 ], [ -36.319132899999943, -10.169125099999977 ], [ -36.319401199999959, -10.167851299999926 ], [ -36.316885599999978, -10.166708799999975 ], [ -36.316891699999928, -10.166653699999941 ], [ -36.316098799999963, -10.165913899999945 ], [ -36.31605339999993, -10.165852099999942 ], [ -36.315426199999941, -10.165944899999943 ], [ -36.313895399999979, -10.165670099999934 ], [ -36.313416699999948, -10.165641 ], [ -36.310618699999964, -10.165351499999918 ], [ -36.308358, -10.166126599999929 ], [ -36.308332199999946, -10.166276499999968 ], [ -36.308248199999987, -10.166764199999932 ], [ -36.307446899999945, -10.168344099999958 ], [ -36.306974499999967, -10.170392599999939 ], [ -36.306840399999942, -10.171043599999967 ], [ -36.307867699999967, -10.171270499999936 ], [ -36.307725599999969, -10.171887299999979 ], [ -36.308909799999988, -10.172147799999935 ], [ -36.310342799999944, -10.172466199999985 ], [ -36.310268599999972, -10.172913599999966 ], [ -36.312647399999946, -10.173416 ], [ -36.3126142, -10.173789499999922 ], [ -36.31258859999997, -10.17407189999993 ], [ -36.312556599999944, -10.174399099999967 ], [ -36.312522199999933, -10.174764699999978 ], [ -36.312506199999959, -10.174931899999937 ], [ -36.312483, -10.175085399999949 ], [ -36.315478799999944, -10.175756599999934 ], [ -36.316254699999952, -10.175918099999913 ] ] ], [ [ [ -36.340835499999976, -10.154765299999935 ], [ -36.341997599999964, -10.153444499999987 ], [ -36.343555199999962, -10.152729099999945 ], [ -36.343292099999921, -10.151417899999945 ], [ -36.343657199999946, -10.150048099999937 ], [ -36.343199699999964, -10.14920749999993 ], [ -36.344061799999963, -10.148052199999917 ], [ -36.343607099999929, -10.147775899999944 ], [ -36.341221699999956, -10.146966199999943 ], [ -36.338552499999935, -10.145694499999928 ], [ -36.338985, -10.145206599999936 ], [ -36.338122699999928, -10.144766299999969 ], [ -36.337882499999978, -10.144803499999952 ], [ -36.333821299999954, -10.14343679999998 ], [ -36.333740799999937, -10.143403699999983 ], [ -36.332839899999954, -10.142871 ], [ -36.331960799999926, -10.142293299999965 ], [ -36.331234399999971, -10.141816 ], [ -36.330795599999931, -10.141527599999952 ], [ -36.329271699999936, -10.140526199999965 ], [ -36.329111099999984, -10.140591199999973 ], [ -36.328112099999942, -10.141884299999949 ], [ -36.327007799999933, -10.142768799999951 ], [ -36.327258, -10.14324559999995 ], [ -36.326547799999958, -10.143645799999939 ], [ -36.326659799999952, -10.143984499999922 ], [ -36.326985599999951, -10.144744299999942 ], [ -36.325083899999981, -10.147348099999942 ], [ -36.324831, -10.147181399999948 ], [ -36.324310099999934, -10.147591499999974 ], [ -36.323869099999968, -10.148725599999988 ], [ -36.323659899999946, -10.148589899999926 ], [ -36.323468099999957, -10.14861769999994 ], [ -36.323388899999948, -10.148730499999935 ], [ -36.321955899999978, -10.149579699999958 ], [ -36.321393699999931, -10.149891099999927 ], [ -36.320074499999976, -10.150551799999969 ], [ -36.319843299999945, -10.150208399999954 ], [ -36.31946419999997, -10.150401699999957 ], [ -36.319415599999964, -10.150528199999934 ], [ -36.320588899999969, -10.152281499999951 ], [ -36.322644399999945, -10.151414499999911 ], [ -36.323402199999968, -10.15263569999996 ], [ -36.323756299999964, -10.152502899999957 ], [ -36.323856699999965, -10.152632899999956 ], [ -36.324903, -10.154297599999966 ], [ -36.325023499999929, -10.154490899999914 ], [ -36.326025899999941, -10.156077399999949 ], [ -36.326104399999963, -10.156229899999966 ], [ -36.326413699999925, -10.156686799999937 ], [ -36.326433899999977, -10.156718199999949 ], [ -36.326464399999956, -10.156739499999976 ], [ -36.326507499999948, -10.156755199999962 ], [ -36.32654869999994, -10.156749499999945 ], [ -36.326593899999985, -10.156727799999929 ], [ -36.327450799999944, -10.156329399999962 ], [ -36.327582499999949, -10.156299499999934 ], [ -36.327671199999941, -10.156319299999948 ], [ -36.327783499999953, -10.156356199999946 ], [ -36.327955, -10.156423899999933 ], [ -36.328077, -10.156478 ], [ -36.328203, -10.156533199999943 ], [ -36.328264099999956, -10.156572599999954 ], [ -36.328326799999971, -10.156617799999918 ], [ -36.328371699999934, -10.156692099999912 ], [ -36.328438, -10.156811199999947 ], [ -36.328642799999955, -10.157129099999944 ], [ -36.328848199999989, -10.15752749999994 ], [ -36.329073799999946, -10.157848699999931 ], [ -36.329622, -10.157581099999955 ], [ -36.330678199999973, -10.15693349999998 ], [ -36.332630799999947, -10.159659099999947 ], [ -36.333420299999943, -10.1605848 ], [ -36.333703799999974, -10.160198699999986 ], [ -36.333706599999971, -10.160197399999973 ], [ -36.338006499999956, -10.158254399999969 ], [ -36.339173599999988, -10.157693899999956 ], [ -36.340223, -10.156774099999932 ], [ -36.340419, -10.156358 ], [ -36.340306699999942, -10.156347 ], [ -36.340323, -10.155985599999951 ], [ -36.340835499999976, -10.154765299999935 ] ] ], [ [ [ -36.051012199999953, -10.056221099999947 ], [ -36.051466, -10.056418 ], [ -36.052313899999938, -10.05684 ], [ -36.052808799999987, -10.05712489999998 ], [ -36.053312699999935, -10.057561599999934 ], [ -36.053651699999932, -10.057072599999957 ], [ -36.054999099999975, -10.0568274 ], [ -36.055931499999929, -10.056684 ], [ -36.057933599999956, -10.056375899999976 ], [ -36.057938899999954, -10.056272 ], [ -36.057957099999953, -10.056067399999971 ], [ -36.057970699999956, -10.055944699999923 ], [ -36.057984399999953, -10.055776499999981 ], [ -36.057952599999965, -10.055594699999979 ], [ -36.057902599999984, -10.055440099999943 ], [ -36.057902599999984, -10.055392199999961 ], [ -36.057902599999984, -10.055350299999917 ], [ -36.057902599999984, -10.055226499999963 ], [ -36.057943499999972, -10.055076399999969 ], [ -36.05796619999996, -10.054962799999949 ], [ -36.057966199999953, -10.054915099999972 ], [ -36.057966199999953, -10.054881199999961 ], [ -36.057966199999953, -10.054831 ], [ -36.057979799999941, -10.05467189999994 ], [ -36.057979799999941, -10.054503699999929 ], [ -36.057943499999965, -10.05429 ], [ -36.057916199999973, -10.054153599999953 ], [ -36.057884399999978, -10.054049099999927 ], [ -36.057898, -10.053935399999936 ], [ -36.057929799999961, -10.05377629999998 ], [ -36.057925299999958, -10.053639899999968 ], [ -36.057902599999977, -10.053503599999935 ], [ -36.057893499999984, -10.053380799999953 ], [ -36.05787069999996, -10.053194399999931 ], [ -36.057866199999978, -10.05307629999991 ], [ -36.057893499999984, -10.052949 ], [ -36.057898, -10.052867099999945 ], [ -36.057929799999947, -10.052694399999954 ], [ -36.057929799999947, -10.052544399999919 ], [ -36.057929799999947, -10.052398899999975 ], [ -36.057938899999954, -10.052285299999948 ], [ -36.057943499999965, -10.052189799999953 ], [ -36.057966199999953, -10.052003399999938 ], [ -36.057948, -10.051903399999947 ], [ -36.057916199999973, -10.051758 ], [ -36.057898, -10.051567 ], [ -36.057907099999959, -10.051421599999966 ], [ -36.057952599999965, -10.051276099999926 ], [ -36.057970699999942, -10.051194299999951 ], [ -36.058002599999959, -10.051026099999925 ], [ -36.058016199999948, -10.050907899999972 ], [ -36.057984399999953, -10.050762399999957 ], [ -36.057975299999946, -10.050644199999962 ], [ -36.057988899999941, -10.050503299999935 ], [ -36.057993499999952, -10.050457799999934 ], [ -36.058011699999952, -10.050371499999926 ], [ -36.058020799999959, -10.050226 ], [ -36.058016199999933, -10.0501169 ], [ -36.058007099999941, -10.050003199999937 ], [ -36.057966199999953, -10.049885 ], [ -36.057966199999967, -10.049721399999948 ], [ -36.058011699999959, -10.049594099999968 ], [ -36.058029799999936, -10.049480499999953 ], [ -36.058041, -10.049343 ], [ -36.058043499999933, -10.049312299999947 ], [ -36.058007099999948, -10.049185 ], [ -36.058007099999941, -10.049039499999923 ], [ -36.058034399999933, -10.048912199999952 ], [ -36.058043499999947, -10.04872579999995 ], [ -36.058048, -10.048607699999934 ], [ -36.058043499999933, -10.048453099999968 ], [ -36.058011699999952, -10.048325799999946 ], [ -36.057988899999948, -10.048153099999983 ], [ -36.057970699999942, -10.048030299999951 ], [ -36.05797519999993, -10.04795069999995 ], [ -36.057980199999982, -10.047931399999969 ], [ -36.058011699999952, -10.047821199999934 ], [ -36.058011699999952, -10.047703 ], [ -36.058002599999959, -10.047607599999942 ], [ -36.057998299999959, -10.047475 ], [ -36.057999499999937, -10.047452699999962 ], [ -36.058001, -10.047435299999977 ], [ -36.058007099999941, -10.047380299999936 ], [ -36.058002599999952, -10.047284799999925 ], [ -36.05795709999996, -10.047189299999953 ], [ -36.057957899999963, -10.047099 ], [ -36.057701099999974, -10.04707349999995 ], [ -36.05754909999996, -10.047062299999928 ], [ -36.0574228, -10.046983699999926 ], [ -36.057243299999982, -10.047158699999953 ], [ -36.057138899999984, -10.047260599999952 ], [ -36.054931199999949, -10.049414 ], [ -36.054160499999973, -10.050079599999947 ], [ -36.053886299999938, -10.050503399999977 ], [ -36.053080099999939, -10.052566499999951 ], [ -36.052262799999944, -10.052071799999965 ], [ -36.051704299999983, -10.052593699999944 ], [ -36.052125899999972, -10.053158899999978 ], [ -36.050569499999938, -10.055576699999966 ], [ -36.050336899999941, -10.055388099999956 ], [ -36.05012719999997, -10.055578599999937 ], [ -36.050392699999975, -10.055864899999962 ], [ -36.050710899999949, -10.056086099999966 ], [ -36.051012199999953, -10.056221099999947 ] ] ] ] } }
]
}
