{
"type": "FeatureCollection",
"name": "2702108",
"crs": { "type": "name", "properties": { "name": "urn:ogc:def:crs:OGC:1.3:CRS84" } },
"features": [
{ "type": "Feature", "properties": { "CD_MUN": "2702108", "NM_MUN": "Colônia Leopoldina" }, "geometry": { "type": "Polygon", "coordinates": [ [ [ -35.719453299999941, -8.918504 ], [ -35.719572399999947, -8.918367 ], [ -35.719667399999942, -8.91825379999996 ], [ -35.722541099999951, -8.915113099999928 ], [ -35.722215199999937, -8.916070399999986 ], [ -35.723213799999947, -8.916309499999954 ], [ -35.724675, -8.916719699999932 ], [ -35.724704599999939, -8.916665799999961 ], [ -35.724737, -8.916606499999952 ], [ -35.724780099999975, -8.916509499999968 ], [ -35.724808399999972, -8.91641659999992 ], [ -35.724829899999975, -8.916337099999966 ], [ -35.724850099999983, -8.916244099999963 ], [ -35.724864899999943, -8.916168699999961 ], [ -35.724871699999937, -8.916112099999964 ], [ -35.724870299999971, -8.91606089999992 ], [ -35.724866299999974, -8.916000299999938 ], [ -35.724859599999945, -8.91595719999998 ], [ -35.724836599999954, -8.915904699999929 ], [ -35.724811099999954, -8.915841399999969 ], [ -35.724777399999944, -8.915778 ], [ -35.724734299999966, -8.915716099999932 ], [ -35.724711499999955, -8.915694399999939 ], [ -35.727905599999936, -8.916549899999959 ], [ -35.727962599999962, -8.91656679999994 ], [ -35.727963299999942, -8.916523699999964 ], [ -35.727975399999934, -8.916367399999963 ], [ -35.72798679999994, -8.916254899999933 ], [ -35.727988899999957, -8.91622669999996 ], [ -35.727990899999952, -8.9162 ], [ -35.727994199999955, -8.916174399999953 ], [ -35.727996899999951, -8.916157599999982 ], [ -35.728001, -8.916139399999951 ], [ -35.728006399999977, -8.916121199999969 ], [ -35.728015799999987, -8.91610169999996 ], [ -35.728022899999985, -8.91608419999994 ], [ -35.728026899999975, -8.916075699999981 ], [ -35.72802809999996, -8.916073199999985 ], [ -35.728019299999964, -8.916074199999978 ], [ -35.727946399999951, -8.916059299999956 ], [ -35.727949, -8.916031599999966 ], [ -35.727950399999941, -8.915936 ], [ -35.727983699999989, -8.915691599999924 ], [ -35.727983699999989, -8.915341399999949 ], [ -35.727972899999941, -8.915090799999971 ], [ -35.727940599999968, -8.914791799999943 ], [ -35.727935199999926, -8.914735199999951 ], [ -35.727932499999945, -8.914689399999947 ], [ -35.72792979999997, -8.914646299999962 ], [ -35.727919, -8.914595099999932 ], [ -35.7278975, -8.914552 ], [ -35.727898, -8.914364899999946 ], [ -35.727898099999948, -8.914314199999987 ], [ -35.727873899999963, -8.914036699999947 ], [ -35.727857699999952, -8.913573299999948 ], [ -35.727836199999949, -8.913126099999928 ], [ -35.727787699999965, -8.912646599999977 ], [ -35.727755399999971, -8.912161599999914 ], [ -35.727760099999962, -8.911992599999975 ], [ -35.727750299999968, -8.911879199999927 ], [ -35.72775229999997, -8.911813699999929 ], [ -35.72778469999998, -8.911578699999945 ], [ -35.727800799999962, -8.911462799999969 ], [ -35.727824799999951, -8.911374699999966 ], [ -35.727855799999929, -8.911312799999967 ], [ -35.727920099999956, -8.91122979999993 ], [ -35.727947399999955, -8.911219799999953 ], [ -35.727985099999962, -8.911195599999951 ], [ -35.728051199999989, -8.911137599999977 ], [ -35.728097, -8.911094499999935 ], [ -35.728125199999965, -8.911067599999981 ], [ -35.728156199999944, -8.9110406 ], [ -35.728180499999958, -8.911019099999974 ], [ -35.728216799999984, -8.910993499999979 ], [ -35.728249199999937, -8.910970599999942 ], [ -35.728278799999948, -8.910958499999914 ], [ -35.728300399999966, -8.9109463 ], [ -35.728323299999943, -8.910930199999916 ], [ -35.728335399999935, -8.910916699999971 ], [ -35.728350199999952, -8.910891099999946 ], [ -35.72841219999998, -8.9107241 ], [ -35.72844589999994, -8.9106318 ], [ -35.728472799999963, -8.910565099999916 ], [ -35.728484899999955, -8.91052339999993 ], [ -35.728494299999973, -8.910495699999972 ], [ -35.728504699999974, -8.910473499999988 ], [ -35.728507099999952, -8.910468099999935 ], [ -35.728515899999941, -8.910456 ], [ -35.728525799999936, -8.910447 ], [ -35.724857199999981, -8.909762 ], [ -35.723994399999988, -8.909600899999958 ], [ -35.723861099999965, -8.909576099999967 ], [ -35.723309399999948, -8.909473 ], [ -35.723307199999972, -8.909471299999954 ], [ -35.723305399999958, -8.909470699999913 ], [ -35.723301299999946, -8.90947 ], [ -35.722544, -8.909052199999964 ], [ -35.722332699999981, -8.908935699999949 ], [ -35.722159099999942, -8.908840099999974 ], [ -35.721679699999989, -8.908576199999985 ], [ -35.721372899999949, -8.908478599999963 ], [ -35.720497499999972, -8.908088199999954 ], [ -35.720062899999967, -8.907962199999934 ], [ -35.7138, -8.907962199999936 ], [ -35.713340299999977, -8.909612199999957 ], [ -35.713163899999984, -8.911021399999981 ], [ -35.713150399999961, -8.912947699999958 ], [ -35.713148499999939, -8.913120199999963 ], [ -35.71486189999996, -8.913179799999975 ], [ -35.715047799999979, -8.913189599999956 ], [ -35.715046499999971, -8.913435599999936 ], [ -35.716658399999972, -8.916509399999926 ], [ -35.716831, -8.916637199999979 ], [ -35.718247, -8.917644299999971 ], [ -35.719453299999941, -8.918504 ] ] ] } }
]
}
