{
"type": "FeatureCollection",
"name": "2703809",
"crs": { "type": "name", "properties": { "name": "urn:ogc:def:crs:OGC:1.3:CRS84" } },
"features": [
{ "type": "Feature", "properties": { "CD_MUN": "2703809", "NM_MUN": "Joaquim Gomes" }, "geometry": { "type": "Polygon", "coordinates": [ [ [ -35.764812599999971, -9.144023199999948 ], [ -35.764905499999934, -9.143968399999959 ], [ -35.765030299999978, -9.143953699999953 ], [ -35.765161299999932, -9.143910499999949 ], [ -35.765287499999943, -9.143803099999971 ], [ -35.765431, -9.143692299999946 ], [ -35.765587499999988, -9.143635499999981 ], [ -35.765715299999954, -9.143653499999965 ], [ -35.765832499999938, -9.14376269999995 ], [ -35.765876499999941, -9.143839799999956 ], [ -35.765989599999955, -9.143908399999926 ], [ -35.766094099999982, -9.143908799999954 ], [ -35.766140899999975, -9.14391179999995 ], [ -35.766274299999957, -9.143920499999982 ], [ -35.76637089999997, -9.143922 ], [ -35.766529, -9.143897799999937 ], [ -35.766664499999926, -9.143880899999957 ], [ -35.766813699999943, -9.143936099999975 ], [ -35.766928399999983, -9.144037399999949 ], [ -35.76698649999998, -9.144174899999948 ], [ -35.767015399999934, -9.1443032 ], [ -35.767031399999958, -9.144430399999974 ], [ -35.767015699999938, -9.144544399999971 ], [ -35.767007899999953, -9.144600799999953 ], [ -35.766921899999943, -9.144732899999971 ], [ -35.766856899999929, -9.144872099999922 ], [ -35.766833799999972, -9.144983699999974 ], [ -35.766883499999942, -9.145046599999935 ], [ -35.76694549999997, -9.145051 ], [ -35.767020799999955, -9.145012599999971 ], [ -35.767110299999956, -9.144936899999966 ], [ -35.767182299999945, -9.144829199999958 ], [ -35.767210199999965, -9.144762699999962 ], [ -35.767237899999934, -9.144696299999955 ], [ -35.767271099999967, -9.144556199999958 ], [ -35.767346099999941, -9.144483899999955 ], [ -35.767420299999969, -9.144478199999984 ], [ -35.767552799999976, -9.144516 ], [ -35.767671099999973, -9.144630499999971 ], [ -35.76773849999995, -9.144769599999941 ], [ -35.767762199999943, -9.144862 ], [ -35.767779599999983, -9.144944799999987 ], [ -35.767808099999968, -9.145052699999946 ], [ -35.767906499999981, -9.145171799999957 ], [ -35.767936199999951, -9.145285 ], [ -35.767977799999983, -9.145398499999946 ], [ -35.768000499999971, -9.145496499999968 ], [ -35.768028099999981, -9.145637099999927 ], [ -35.768053799999969, -9.145750199999977 ], [ -35.768141, -9.145842799999958 ], [ -35.768188799999969, -9.145930099999935 ], [ -35.768196199999977, -9.145943699999957 ], [ -35.768292499999973, -9.146130399999949 ], [ -35.768352799999938, -9.146196099999923 ], [ -35.768526699999939, -9.146355299999938 ], [ -35.768647, -9.146445 ], [ -35.768681499999964, -9.146483799999954 ], [ -35.768672699999968, -9.146155299999984 ], [ -35.768666699999976, -9.145947099999958 ], [ -35.76865249999998, -9.145795099999919 ], [ -35.768651899999952, -9.145652499999928 ], [ -35.768653499999971, -9.145521 ], [ -35.76865929999996, -9.145429299999934 ], [ -35.768669899999971, -9.145315799999912 ], [ -35.768687699999937, -9.145193799999952 ], [ -35.768730299999959, -9.144971399999987 ], [ -35.768773599999982, -9.144773699999979 ], [ -35.768843399999987, -9.144482 ], [ -35.768920599999944, -9.144254599999973 ], [ -35.768928499999951, -9.144226699999946 ], [ -35.76896679999993, -9.144090699999941 ], [ -35.768971299999983, -9.144074899999959 ], [ -35.769055299999934, -9.143827399999973 ], [ -35.769072299999948, -9.14377909999995 ], [ -35.769129299999975, -9.143617699999934 ], [ -35.769217499999975, -9.143315199999979 ], [ -35.769323199999981, -9.142978099999937 ], [ -35.769411099999964, -9.142689799999978 ], [ -35.769493499999946, -9.142416899999951 ], [ -35.769561499999945, -9.142189399999973 ], [ -35.769571699999972, -9.142158299999934 ], [ -35.769644099999937, -9.141937499999926 ], [ -35.769693299999979, -9.141784799999911 ], [ -35.769760899999952, -9.141568 ], [ -35.769820699999975, -9.141366299999971 ], [ -35.769892899999952, -9.141149299999924 ], [ -35.769957599999948, -9.140931199999949 ], [ -35.770022299999944, -9.14072569999996 ], [ -35.770033199999951, -9.140691 ], [ -35.770039199999928, -9.140657799999937 ], [ -35.770012799999968, -9.140641499999949 ], [ -35.769847899999945, -9.140527899999929 ], [ -35.769763299999966, -9.14050339999994 ], [ -35.769623699999961, -9.140491 ], [ -35.769547599999946, -9.140475799999948 ], [ -35.769398699999961, -9.140424599999953 ], [ -35.769092199999932, -9.140269099999955 ], [ -35.768822099999973, -9.140078799999968 ], [ -35.768625099999952, -9.139918099999928 ], [ -35.768375299999946, -9.139724 ], [ -35.768239899999976, -9.139671299999952 ], [ -35.768011799999954, -9.1395932 ], [ -35.767875499999946, -9.139519199999922 ], [ -35.767570899999953, -9.139405199999935 ], [ -35.76728959999997, -9.139318399999986 ], [ -35.767192399999942, -9.139306199999963 ], [ -35.767125699999966, -9.139312699999939 ], [ -35.76705329999993, -9.139329399999966 ], [ -35.766970799999974, -9.13936569999994 ], [ -35.766906499999948, -9.139385599999962 ], [ -35.766823899999963, -9.139384399999923 ], [ -35.766722099999988, -9.139367099999971 ], [ -35.766499099999983, -9.139330299999921 ], [ -35.766387799999968, -9.13932009999996 ], [ -35.766327099999955, -9.139276799999925 ], [ -35.766250099999979, -9.139254099999963 ], [ -35.76582819999993, -9.1391346 ], [ -35.765528599999982, -9.13904 ], [ -35.764734799999928, -9.1382235 ], [ -35.763693599999947, -9.137842399999949 ], [ -35.762511799999977, -9.137347799999928 ], [ -35.761627199999971, -9.137472599999965 ], [ -35.759140099999968, -9.136396199999977 ], [ -35.759060799999929, -9.133754499999949 ], [ -35.759073399999984, -9.132915799999951 ], [ -35.759991599999978, -9.132936599999926 ], [ -35.760072199999975, -9.131911799999953 ], [ -35.760281899999946, -9.129872499999966 ], [ -35.7603453, -9.129161799999983 ], [ -35.759942899999942, -9.1285559 ], [ -35.75844839999997, -9.127933 ], [ -35.758061899999973, -9.129524899999963 ], [ -35.757564299999956, -9.129546099999985 ], [ -35.757326499999984, -9.129643399999964 ], [ -35.757183899999973, -9.129779499999918 ], [ -35.757117699999981, -9.129908599999959 ], [ -35.7570353, -9.130123299999989 ], [ -35.756943199999967, -9.130483899999936 ], [ -35.75697729999996, -9.130711899999943 ], [ -35.756940399999962, -9.13085629999993 ], [ -35.756795499999953, -9.131241299999937 ], [ -35.756678099999931, -9.131551799999949 ], [ -35.756615099999976, -9.131751799999952 ], [ -35.756614099999986, -9.131876399999967 ], [ -35.756643899999972, -9.132039599999938 ], [ -35.756636799999967, -9.132385199999916 ], [ -35.75655729999994, -9.132745399999967 ], [ -35.756508499999939, -9.132897699999953 ], [ -35.756382699999968, -9.13324439999996 ], [ -35.756303099999975, -9.133562699999981 ], [ -35.755457299999932, -9.133559799999954 ], [ -35.754324099999963, -9.133763 ], [ -35.752429399999983, -9.135029099999937 ], [ -35.752209499999935, -9.134967499999961 ], [ -35.752127099999939, -9.134855599999966 ], [ -35.75197559999998, -9.134810599999962 ], [ -35.751659799999977, -9.134561399999937 ], [ -35.75145729999997, -9.134484699999966 ], [ -35.751276299999972, -9.13444949999996 ], [ -35.751213199999945, -9.134356199999969 ], [ -35.751184199999955, -9.134269199999959 ], [ -35.751080599999959, -9.13406659999991 ], [ -35.751050299999974, -9.133907599999912 ], [ -35.750993599999958, -9.1337839 ], [ -35.750859099999964, -9.133591299999978 ], [ -35.750708599999939, -9.133520599999947 ], [ -35.750658199999982, -9.133434399999958 ], [ -35.750616199999968, -9.133323599999926 ], [ -35.750625799999966, -9.133190699999931 ], [ -35.750714699999946, -9.133080299999945 ], [ -35.750944299999958, -9.132967 ], [ -35.751001699999961, -9.132915799999981 ], [ -35.751042499999983, -9.132853199999939 ], [ -35.751057299999957, -9.132765 ], [ -35.751033399999983, -9.13247959999995 ], [ -35.750985199999953, -9.132448099999969 ], [ -35.750901299999953, -9.132603399999947 ], [ -35.750805699999951, -9.13255819999995 ], [ -35.750757499999963, -9.132251299999965 ], [ -35.750820299999937, -9.132145599999939 ], [ -35.75094619999993, -9.131989 ], [ -35.751000099999942, -9.131946299999973 ], [ -35.751079799999964, -9.131899699999959 ], [ -35.751227399999948, -9.131753799999959 ], [ -35.751480499999964, -9.131459099999974 ], [ -35.751649599999951, -9.131233099999971 ], [ -35.751725799999974, -9.130985399999918 ], [ -35.751744099999939, -9.130819499999983 ], [ -35.751755899999978, -9.130741 ], [ -35.751633899999952, -9.12991 ], [ -35.751124499999946, -9.129854 ], [ -35.749027899999938, -9.130141499999967 ], [ -35.748910799999983, -9.130338599999959 ], [ -35.748743399999974, -9.130517699999922 ], [ -35.748547199999969, -9.130647299999969 ], [ -35.748399, -9.130848299999968 ], [ -35.748244599999964, -9.131064899999943 ], [ -35.748048099999941, -9.131208299999967 ], [ -35.747986499999968, -9.131306599999977 ], [ -35.747957299999939, -9.13152069999996 ], [ -35.747924499999961, -9.131681299999965 ], [ -35.747749699999929, -9.131975 ], [ -35.747603899999952, -9.132211 ], [ -35.747503, -9.132428599999969 ], [ -35.747446, -9.132521599999951 ], [ -35.747278499999929, -9.132693299999969 ], [ -35.747058399999965, -9.132856699999934 ], [ -35.746725699999963, -9.133126199999944 ], [ -35.746293099999946, -9.133558299999931 ], [ -35.746342899999945, -9.133745 ], [ -35.746456099999932, -9.133967099999955 ], [ -35.746480799999972, -9.134099399999972 ], [ -35.746439, -9.134352499999979 ], [ -35.746331, -9.134514599999932 ], [ -35.746211699999954, -9.134694 ], [ -35.746097299999981, -9.134936799999933 ], [ -35.745815499999942, -9.135377699999955 ], [ -35.746110499999929, -9.135548499999979 ], [ -35.746457799999973, -9.135696 ], [ -35.746656599999937, -9.135804599999966 ], [ -35.747164499999947, -9.1360996 ], [ -35.74712789999996, -9.136262899999963 ], [ -35.747117899999985, -9.136414799999944 ], [ -35.747142699999984, -9.136487799999932 ], [ -35.747275599999966, -9.136624 ], [ -35.747392799999943, -9.1366791 ], [ -35.747553499999974, -9.13683 ], [ -35.747653199999952, -9.136950699999922 ], [ -35.747686, -9.136990599999935 ], [ -35.747937699999959, -9.137116 ], [ -35.748163499999983, -9.137170699999949 ], [ -35.748285, -9.137200199999942 ], [ -35.748716899999977, -9.137322899999971 ], [ -35.749031, -9.13744 ], [ -35.749349099999968, -9.137608799999953 ], [ -35.749382, -9.137626199999936 ], [ -35.749420799999939, -9.137635599999969 ], [ -35.749592899999975, -9.137676799999952 ], [ -35.749810099999934, -9.137734 ], [ -35.749967199999958, -9.137863499999984 ], [ -35.750020099999972, -9.137939299999962 ], [ -35.750086499999952, -9.138034399999965 ], [ -35.750196699999947, -9.138154099999957 ], [ -35.750360799999953, -9.138192699999941 ], [ -35.750562599999959, -9.138190099999973 ], [ -35.750577399999933, -9.138190599999968 ], [ -35.750727199999979, -9.138196199999967 ], [ -35.750884, -9.138301199999939 ], [ -35.750912399999947, -9.138320199999967 ], [ -35.751048099999934, -9.138444899999987 ], [ -35.751211899999923, -9.138638199999946 ], [ -35.751426, -9.138799 ], [ -35.751697599999943, -9.138872599999939 ], [ -35.751861099999935, -9.138860399999931 ], [ -35.752086, -9.138799099999966 ], [ -35.752179399999932, -9.138776499999951 ], [ -35.752226499999949, -9.138765 ], [ -35.752424, -9.13876229999995 ], [ -35.752622, -9.138816699999955 ], [ -35.75285219999995, -9.1388658 ], [ -35.752855699999948, -9.138865899999917 ], [ -35.753094499999975, -9.13887279999995 ], [ -35.753281099999981, -9.138804099999957 ], [ -35.753470199999981, -9.138722699999972 ], [ -35.753599299999962, -9.138711599999967 ], [ -35.753696199999979, -9.138769499999972 ], [ -35.75372439999996, -9.138903799999978 ], [ -35.753711, -9.139050199999931 ], [ -35.753719499999939, -9.139089399999934 ], [ -35.753745, -9.1392059 ], [ -35.753799799999975, -9.139453199999926 ], [ -35.753916099999977, -9.139729899999947 ], [ -35.75402449999995, -9.139908799999942 ], [ -35.754158699999948, -9.140014399999922 ], [ -35.754257199999984, -9.140019399999954 ], [ -35.754408, -9.139928399999961 ], [ -35.754531299999947, -9.139824 ], [ -35.754659499999953, -9.1396963 ], [ -35.754743399999946, -9.139616099999969 ], [ -35.754845599999953, -9.139572499999922 ], [ -35.754965799999987, -9.139577199999954 ], [ -35.755137099999963, -9.139597899999959 ], [ -35.755173199999952, -9.139602299999973 ], [ -35.755539699999929, -9.139687 ], [ -35.755760499999944, -9.139767599999972 ], [ -35.756123099999975, -9.139975199999986 ], [ -35.756283899999971, -9.140123899999915 ], [ -35.756598899999972, -9.140355499999922 ], [ -35.756722699999955, -9.140450199999966 ], [ -35.756911099999975, -9.140603599999956 ], [ -35.756932, -9.140620599999956 ], [ -35.757100799999932, -9.14079069999997 ], [ -35.757328599999944, -9.140994299999939 ], [ -35.757535, -9.141125299999944 ], [ -35.757736199999954, -9.141282599999958 ], [ -35.757903899999974, -9.141342499999951 ], [ -35.758085199999982, -9.141307499999927 ], [ -35.758275, -9.141222199999971 ], [ -35.758647299999957, -9.141184299999965 ], [ -35.758897, -9.141157599999925 ], [ -35.759099799999944, -9.141195299999934 ], [ -35.759511899999943, -9.141262299999934 ], [ -35.759904399999982, -9.141403599999917 ], [ -35.76031769999998, -9.141646499999972 ], [ -35.760630199999987, -9.141746599999959 ], [ -35.760896899999977, -9.141870899999944 ], [ -35.760901299999951, -9.141871699999953 ], [ -35.761039499999974, -9.141897799999976 ], [ -35.7611649, -9.141921399999941 ], [ -35.761364099999973, -9.141931499999945 ], [ -35.76162439999996, -9.142055499999964 ], [ -35.761667399999958, -9.142196599999963 ], [ -35.761640299999954, -9.142269599999958 ], [ -35.761623099999959, -9.142316 ], [ -35.76148139999998, -9.142318299999918 ], [ -35.761279, -9.1422679 ], [ -35.761162699999943, -9.142355699999934 ], [ -35.761094699999937, -9.142550699999946 ], [ -35.761155599999938, -9.142738899999907 ], [ -35.761307599999952, -9.143028199999961 ], [ -35.761435599999963, -9.143125199999949 ], [ -35.761755499999936, -9.143263699999981 ], [ -35.76206029999998, -9.143257699999952 ], [ -35.762287399999941, -9.143198599999929 ], [ -35.762635099999962, -9.143195899999967 ], [ -35.76292019999994, -9.143132099999956 ], [ -35.763292, -9.143045399999952 ], [ -35.763434699999955, -9.143019099999954 ], [ -35.763440899999971, -9.143018 ], [ -35.763561499999987, -9.14307439999993 ], [ -35.763565799999981, -9.143074599999983 ], [ -35.763678, -9.143196399999953 ], [ -35.763722099999946, -9.143373599999975 ], [ -35.763701, -9.14357839999996 ], [ -35.763691699999988, -9.143747699999937 ], [ -35.763828799999942, -9.143974099999962 ], [ -35.763953499999964, -9.144181099999953 ], [ -35.764192099999946, -9.14436 ], [ -35.764329299999936, -9.144416199999954 ], [ -35.764446299999975, -9.144403299999965 ], [ -35.764451399999984, -9.144402699999951 ], [ -35.764580299999977, -9.144308399999961 ], [ -35.764692, -9.144163399999973 ], [ -35.764812599999971, -9.144023199999948 ] ] ] } }
]
}
