{
"type": "FeatureCollection",
"name": "2705507",
"crs": { "type": "name", "properties": { "name": "urn:ogc:def:crs:OGC:1.3:CRS84" } },
"features": [
{ "type": "Feature", "properties": { "CD_MUN": "2705507", "NM_MUN": "Murici" }, "geometry": { "type": "Polygon", "coordinates": [ [ [ -35.940249299999955, -9.316917699999978 ], [ -35.940377599999977, -9.317012 ], [ -35.941108899999968, -9.317549199999961 ], [ -35.941652599999941, -9.318113699999962 ], [ -35.941799, -9.318317599999933 ], [ -35.942105599999941, -9.318652399999966 ], [ -35.942186, -9.318748899999964 ], [ -35.942303699999975, -9.318768399999948 ], [ -35.942713499999968, -9.319167299999934 ], [ -35.942925599999967, -9.319293599999975 ], [ -35.943137699999966, -9.319202499999975 ], [ -35.943524599999932, -9.319255799999944 ], [ -35.943669399999983, -9.319557799999938 ], [ -35.943739499999936, -9.319668899999968 ], [ -35.943797499999967, -9.319758799999923 ], [ -35.943837199999955, -9.319823199999975 ], [ -35.943897499999942, -9.319896 ], [ -35.944065499999972, -9.320040299999949 ], [ -35.944336299999975, -9.320281399999924 ], [ -35.944714399999945, -9.319998799999961 ], [ -35.945514499999952, -9.319523499999931 ], [ -35.945819599999936, -9.319435 ], [ -35.946127099999956, -9.319355499999981 ], [ -35.946433599999978, -9.319315 ], [ -35.947304899999956, -9.3189197 ], [ -35.94792479999996, -9.318558699999935 ], [ -35.948503299999977, -9.318242 ], [ -35.949172499999975, -9.317924499999947 ], [ -35.94956029999998, -9.317694199999938 ], [ -35.949791799999964, -9.317278199999977 ], [ -35.950047099999949, -9.316640599999982 ], [ -35.950353599999978, -9.315669699999956 ], [ -35.950575299999969, -9.314821399999959 ], [ -35.950756799999958, -9.314278199999928 ], [ -35.950847599999982, -9.31407709999997 ], [ -35.950755699999945, -9.31403919999997 ], [ -35.950923899999964, -9.313622 ], [ -35.951641199999983, -9.312110199999958 ], [ -35.952242, -9.311543499999964 ], [ -35.95296, -9.311103899999985 ], [ -35.954389799999937, -9.310532599999945 ], [ -35.95484289999996, -9.310198799999975 ], [ -35.955318099999943, -9.309809499999961 ], [ -35.956107, -9.308920199999916 ], [ -35.956534099999949, -9.308656899999951 ], [ -35.957277399999953, -9.308361499999945 ], [ -35.958383599999934, -9.307955299999936 ], [ -35.959060099999938, -9.307713899999939 ], [ -35.959477399999969, -9.307173899999963 ], [ -35.95961769999996, -9.306321 ], [ -35.960349099999981, -9.305157899999932 ], [ -35.961075699999974, -9.304406 ], [ -35.962287499999952, -9.303454499999912 ], [ -35.96334509999997, -9.302961499999981 ], [ -35.964949, -9.301412699999963 ], [ -35.965618199999945, -9.300709399999938 ], [ -35.965542299999974, -9.300656699999935 ], [ -35.964563899999973, -9.300195199999944 ], [ -35.9635, -9.299319799999964 ], [ -35.962877099999965, -9.299455 ], [ -35.962574899999943, -9.300048699999953 ], [ -35.960129899999963, -9.301693499999969 ], [ -35.953632899999945, -9.307890199999967 ], [ -35.951705199999935, -9.308724299999943 ], [ -35.949587199999947, -9.309523899999924 ], [ -35.949409, -9.309429399999942 ], [ -35.949323, -9.309448 ], [ -35.949199, -9.309391299999973 ], [ -35.949086199999947, -9.30924129999995 ], [ -35.948986, -9.30919069999994 ], [ -35.948921199999972, -9.309091399999934 ], [ -35.948814599999942, -9.309104 ], [ -35.948148299999964, -9.309743199999957 ], [ -35.947121599999939, -9.309164699999924 ], [ -35.946441599999957, -9.308777399999926 ], [ -35.945612899999965, -9.308295 ], [ -35.945728899999949, -9.308063099999984 ], [ -35.946242899999959, -9.307003399999925 ], [ -35.947354599999983, -9.307567 ], [ -35.947505, -9.307272099999967 ], [ -35.945646099999976, -9.306422399999978 ], [ -35.945654899999965, -9.306402599999947 ], [ -35.945948399999978, -9.305753499999961 ], [ -35.946206599999982, -9.305183599999944 ], [ -35.946224299999983, -9.3050929 ], [ -35.946246699999961, -9.304982599999953 ], [ -35.946280099999967, -9.304645899999956 ], [ -35.94625, -9.304328 ], [ -35.946235, -9.30416669999992 ], [ -35.946044699999966, -9.303818199999958 ], [ -35.945839199999966, -9.303492399999911 ], [ -35.945597499999963, -9.30322739999996 ], [ -35.945484799999967, -9.303154099999954 ], [ -35.944991499999958, -9.302758499999964 ], [ -35.944258499999933, -9.302120499999958 ], [ -35.943126299999967, -9.301216399999918 ], [ -35.942700899999984, -9.30142089999992 ], [ -35.941014399999972, -9.3023307 ], [ -35.940475499999934, -9.302614299999954 ], [ -35.938871699999936, -9.303448399999979 ], [ -35.937807299999974, -9.304018399999981 ], [ -35.937708399999963, -9.304112199999965 ], [ -35.937392799999941, -9.304431599999948 ], [ -35.936759099999975, -9.305106099999936 ], [ -35.935413799999942, -9.306514499999937 ], [ -35.935480599999948, -9.306577199999944 ], [ -35.935760099999989, -9.306859899999925 ], [ -35.936650099999959, -9.307642099999944 ], [ -35.936885399999944, -9.307901899999928 ], [ -35.937276599999969, -9.308287499999935 ], [ -35.937591399999974, -9.308499599999962 ], [ -35.937225799999965, -9.308781599999961 ], [ -35.936524799999972, -9.3093863 ], [ -35.936132, -9.309769 ], [ -35.934544899999935, -9.311649699999974 ], [ -35.934111499999986, -9.312155399999929 ], [ -35.933967799999948, -9.312362699999918 ], [ -35.932772599999957, -9.3136762 ], [ -35.930669899999941, -9.316144399999931 ], [ -35.93110379999996, -9.316538199999982 ], [ -35.932368099999962, -9.316536099999952 ], [ -35.932509299999936, -9.316530699999928 ], [ -35.932594099999967, -9.316501699999932 ], [ -35.932761199999966, -9.316404299999931 ], [ -35.932863199999936, -9.316343799999947 ], [ -35.932969299999975, -9.316307 ], [ -35.933289699999925, -9.316288299999929 ], [ -35.933364799999936, -9.316237399999974 ], [ -35.933539299999957, -9.315981699999943 ], [ -35.933610399999971, -9.315893399999933 ], [ -35.933822899999932, -9.315734499999964 ], [ -35.934048899999937, -9.315636599999964 ], [ -35.934162199999953, -9.315551499999975 ], [ -35.934300699999945, -9.315452399999968 ], [ -35.934549299999958, -9.315219199999934 ], [ -35.934627299999931, -9.315151299999981 ], [ -35.934826599999958, -9.315056699999944 ], [ -35.934845099999961, -9.315368 ], [ -35.93512139999995, -9.316079399999962 ], [ -35.934698799999978, -9.316373099999957 ], [ -35.933756599999981, -9.317063799999953 ], [ -35.933726799999924, -9.317216699999959 ], [ -35.933714799999969, -9.317351899999933 ], [ -35.933727799999929, -9.317457799999952 ], [ -35.933762899999977, -9.317625299999989 ], [ -35.933892, -9.31805469999996 ], [ -35.933982599999986, -9.318230799999982 ], [ -35.934167699999925, -9.318429499999972 ], [ -35.93517339999994, -9.319217799999915 ], [ -35.934624299999946, -9.319582499999964 ], [ -35.934213, -9.319866499999939 ], [ -35.934032899999984, -9.3199931 ], [ -35.932552599999958, -9.321035799999949 ], [ -35.932976399999973, -9.321552299999958 ], [ -35.932450899999942, -9.321991799999974 ], [ -35.932719, -9.322350099999952 ], [ -35.933271899999966, -9.321896399999959 ], [ -35.933916599999982, -9.32258459999996 ], [ -35.933946, -9.322655699999924 ], [ -35.934007699999945, -9.323175 ], [ -35.934064599999942, -9.323666499999939 ], [ -35.934102299999957, -9.324031599999962 ], [ -35.934200799999935, -9.324133799999952 ], [ -35.934360599999934, -9.324227699999932 ], [ -35.934547299999977, -9.324276099999981 ], [ -35.934727, -9.324299699999937 ], [ -35.935239499999973, -9.324289499999944 ], [ -35.935662899999954, -9.324223399999935 ], [ -35.937505399999964, -9.32293689999994 ], [ -35.938432399999954, -9.322004599999948 ], [ -35.938531, -9.321773199999919 ], [ -35.938555099999974, -9.321550399999971 ], [ -35.938585199999977, -9.320665799999979 ], [ -35.938567799999937, -9.319488799999931 ], [ -35.938576699999949, -9.319012399999959 ], [ -35.938505599999985, -9.318565199999977 ], [ -35.93842159999997, -9.318124799999973 ], [ -35.93834089999995, -9.3176263 ], [ -35.939810599999923, -9.316671899999969 ], [ -35.940249299999955, -9.316917699999978 ] ] ] } }
]
}
