{
"type": "FeatureCollection",
"name": "2709400",
"crs": { "type": "name", "properties": { "name": "urn:ogc:def:crs:OGC:1.3:CRS84" } },
"features": [
{ "type": "Feature", "properties": { "CD_MUN": "2709400", "NM_MUN": "Viçosa" }, "geometry": { "type": "MultiPolygon", "coordinates": [ [ [ [ -36.247326499999922, -9.384428 ], [ -36.248643399999935, -9.384933899999963 ], [ -36.249040799999925, -9.38538169999994 ], [ -36.24974919999994, -9.386065499999972 ], [ -36.250867699999958, -9.386298099999982 ], [ -36.251033899999982, -9.386408599999962 ], [ -36.251377299999952, -9.386673499999961 ], [ -36.251405299999931, -9.38674549999997 ], [ -36.251459299999972, -9.386893699999984 ], [ -36.251503399999933, -9.387105199999944 ], [ -36.25151939999995, -9.38724149999997 ], [ -36.251527399999929, -9.387401499999937 ], [ -36.251531399999983, -9.387458799999939 ], [ -36.25156949999996, -9.38748849999995 ], [ -36.251633599999941, -9.387488499999979 ], [ -36.251821799999966, -9.3874944 ], [ -36.25200609999996, -9.387488499999948 ], [ -36.252220399999949, -9.387482599999943 ], [ -36.252346499999938, -9.387474699999929 ], [ -36.252444699999963, -9.387435099999959 ], [ -36.252496699999938, -9.387391699999968 ], [ -36.252538799999968, -9.387332399999918 ], [ -36.252568799999956, -9.387269199999928 ], [ -36.252588899999985, -9.387211899999972 ], [ -36.252612899999974, -9.387124899999941 ], [ -36.252628899999934, -9.387053799999929 ], [ -36.252634899999975, -9.386992499999961 ], [ -36.252626899999939, -9.386939199999979 ], [ -36.252594899999956, -9.386923399999938 ], [ -36.252546799999948, -9.386923399999944 ], [ -36.252464699999969, -9.386929299999975 ], [ -36.252338499999958, -9.386953 ], [ -36.252178299999969, -9.386982699999969 ], [ -36.252028099999961, -9.387016199999955 ], [ -36.251873899999964, -9.38702609999994 ], [ -36.251771799999972, -9.387020199999961 ], [ -36.251663, -9.386442699999982 ], [ -36.251624599999957, -9.385928099999941 ], [ -36.251897, -9.385691599999987 ], [ -36.253325499999953, -9.386032 ], [ -36.253466299999964, -9.386035 ], [ -36.253537899999969, -9.385915899999929 ], [ -36.253588, -9.38562639999998 ], [ -36.253638199999955, -9.384944899999939 ], [ -36.253694499999938, -9.384772699999933 ], [ -36.253676, -9.384421 ], [ -36.253136599999941, -9.383767199999971 ], [ -36.252887599999944, -9.383698599999953 ], [ -36.252751799999935, -9.383643899999965 ], [ -36.252557599999932, -9.383661099999934 ], [ -36.252453499999952, -9.383719799999925 ], [ -36.251276099999977, -9.384653 ], [ -36.250865399999952, -9.384165499999948 ], [ -36.252237899999955, -9.382957799999931 ], [ -36.251737, -9.382410499999921 ], [ -36.25073389999995, -9.382180199999933 ], [ -36.250449699999926, -9.381813699999965 ], [ -36.251623, -9.381486899999983 ], [ -36.251685, -9.381403 ], [ -36.251917599999956, -9.38109859999998 ], [ -36.251213099999973, -9.380785899999969 ], [ -36.250345399999958, -9.380422399999953 ], [ -36.249676099999931, -9.380033399999956 ], [ -36.250670799999959, -9.379259299999957 ], [ -36.249738899999961, -9.378581499999944 ], [ -36.247208, -9.376823599999961 ], [ -36.245725499999928, -9.375743499999961 ], [ -36.245630199999937, -9.375468199999935 ], [ -36.245953199999974, -9.374991599999925 ], [ -36.248055199999961, -9.37597119999997 ], [ -36.248475599999949, -9.37493739999997 ], [ -36.254656299999965, -9.377495199999952 ], [ -36.257355, -9.373945799999927 ], [ -36.257305699999968, -9.373879599999974 ], [ -36.257382299999954, -9.373828199999949 ], [ -36.257391199999979, -9.373835499999904 ], [ -36.257455499999935, -9.373865899999933 ], [ -36.257614699999976, -9.373924 ], [ -36.257787299999968, -9.373982099999974 ], [ -36.25792249999995, -9.374028299999974 ], [ -36.258024199999966, -9.374067899999929 ], [ -36.258153899999961, -9.374129399999974 ], [ -36.2582283, -9.374164699999945 ], [ -36.258424799999943, -9.374258199999938 ], [ -36.258659799999975, -9.374367899999962 ], [ -36.258773799999979, -9.374408099999901 ], [ -36.258923, -9.374458099999957 ], [ -36.259049599999976, -9.374488699999977 ], [ -36.259115699999946, -9.374501199999939 ], [ -36.25916639999997, -9.374501199999939 ], [ -36.25939539999996, -9.374482799999939 ], [ -36.259608599999986, -9.374462899999955 ], [ -36.259719899999936, -9.374445699999976 ], [ -36.259777499999984, -9.374436499999948 ], [ -36.259852599999938, -9.374406099999929 ], [ -36.26027739999995, -9.374174899999975 ], [ -36.260452899999962, -9.374078099999968 ], [ -36.260682299999978, -9.373966399999974 ], [ -36.260890899999936, -9.373845 ], [ -36.261022699999948, -9.373752099999944 ], [ -36.261098699999934, -9.373686699999949 ], [ -36.261196799999937, -9.373576299999952 ], [ -36.261275599999976, -9.3734972 ], [ -36.261325299999953, -9.373450899999964 ], [ -36.261361199999968, -9.373431799999928 ], [ -36.261424799999936, -9.373419499999951 ], [ -36.261502599999979, -9.373406699999979 ], [ -36.261507699999989, -9.373405899999961 ], [ -36.261574, -9.373395 ], [ -36.261899599999936, -9.373371199999928 ], [ -36.261899599999936, -9.373339699999988 ], [ -36.261894599999948, -9.373283499999955 ], [ -36.261886199999928, -9.373230499999968 ], [ -36.261882799999967, -9.37317829999996 ], [ -36.261881199999948, -9.373097199999975 ], [ -36.261896299999933, -9.372994499999958 ], [ -36.261914699999977, -9.37287039999995 ], [ -36.26193319999993, -9.372767799999943 ], [ -36.261936499999933, -9.3726652 ], [ -36.261926499999966, -9.3725775 ], [ -36.261910099999952, -9.372456599999968 ], [ -36.261898499999973, -9.372394699999983 ], [ -36.261863899999987, -9.372290499999957 ], [ -36.261827499999981, -9.37218459999997 ], [ -36.261816, -9.372099899999958 ], [ -36.261811, -9.372033099999962 ], [ -36.261816, -9.371959899999966 ], [ -36.261816, -9.371852299999956 ], [ -36.261821, -9.371720399999976 ], [ -36.261824299999944, -9.371666599999948 ], [ -36.261847399999972, -9.371595 ], [ -36.261873799999933, -9.371544499999986 ], [ -36.261903499999967, -9.371492299999936 ], [ -36.26191179999995, -9.371438599999973 ], [ -36.26191179999995, -9.371393 ], [ -36.261911799999957, -9.371342499999971 ], [ -36.261931599999976, -9.371285499999939 ], [ -36.261958, -9.371228499999955 ], [ -36.262040499999962, -9.371079299999952 ], [ -36.262099899999953, -9.370994599999953 ], [ -36.262113099999979, -9.370937599999923 ], [ -36.262106499999966, -9.37088379999992 ], [ -36.262085099999979, -9.370839899999964 ], [ -36.262070199999982, -9.370743799999952 ], [ -36.262045499999942, -9.370626499999972 ], [ -36.262029, -9.370564899999962 ], [ -36.262016299999971, -9.37051649999994 ], [ -36.261984599999955, -9.370472699999958 ], [ -36.261935499999943, -9.370402399999929 ], [ -36.26191179999995, -9.370355499999965 ], [ -36.261892799999941, -9.370250799999948 ], [ -36.261880099999985, -9.370161699999924 ], [ -36.261872199999978, -9.3700805 ], [ -36.261864299999957, -9.369989799999912 ], [ -36.261859799999975, -9.369949399999928 ], [ -36.261814499999957, -9.369911099999969 ], [ -36.261778799999952, -9.369888699999931 ], [ -36.261749699999939, -9.369883399999944 ], [ -36.261711899999973, -9.36987909999994 ], [ -36.261667699999983, -9.369883399999951 ], [ -36.261607199999958, -9.369897899999966 ], [ -36.261528, -9.369907299999971 ], [ -36.261514399999953, -9.369822799999975 ], [ -36.2615019, -9.369731 ], [ -36.261459, -9.369580499999927 ], [ -36.261406099999931, -9.369402599999937 ], [ -36.261373699999979, -9.369302599999987 ], [ -36.261345499999955, -9.369236599999946 ], [ -36.261294299999975, -9.369126299999973 ], [ -36.261264, -9.369064399999981 ], [ -36.261226399999948, -9.36901489999997 ], [ -36.261153199999974, -9.368924199999977 ], [ -36.261087299999936, -9.368866699999959 ], [ -36.261011, -9.368808899999989 ], [ -36.260938899999935, -9.368762499999949 ], [ -36.260851099999968, -9.36868929999998 ], [ -36.260734599999985, -9.368571499999952 ], [ -36.260675, -9.368504399999948 ], [ -36.260630799999952, -9.368449899999971 ], [ -36.260591399999953, -9.368401299999945 ], [ -36.2605205, -9.368315399999977 ], [ -36.260467899999981, -9.368348299999987 ], [ -36.260437499999959, -9.368378299999948 ], [ -36.260413199999959, -9.368405299999941 ], [ -36.260394899999945, -9.368427299999937 ], [ -36.260380699999985, -9.368437299999911 ], [ -36.260378899999971, -9.368441799999971 ], [ -36.260375799999956, -9.368449399999983 ], [ -36.260370599999931, -9.368462299999971 ], [ -36.260367599999931, -9.368475299999952 ], [ -36.260360499999933, -9.368482299999908 ], [ -36.260344299999936, -9.368481299999907 ], [ -36.260334199999924, -9.368482299999926 ], [ -36.260318099999942, -9.368502299999937 ], [ -36.260316799999949, -9.368503899999949 ], [ -36.260299699999969, -9.368508899999927 ], [ -36.260267499999934, -9.36852379999995 ], [ -36.260233299999982, -9.36853269999993 ], [ -36.260207099999953, -9.368533699999935 ], [ -36.260162799999925, -9.368523799999949 ], [ -36.260129599999971, -9.36851679999994 ], [ -36.260103499999957, -9.368512899999942 ], [ -36.26008429999996, -9.368513899999918 ], [ -36.260064199999931, -9.368525799999917 ], [ -36.260034, -9.368549599999945 ], [ -36.26002519999998, -9.368561499999936 ], [ -36.260007799999983, -9.368548599999956 ], [ -36.260000799999943, -9.368524799999948 ], [ -36.259994799999959, -9.368487099999983 ], [ -36.259996799999954, -9.368427599999952 ], [ -36.259986699999963, -9.368386 ], [ -36.259974699999937, -9.368345299999921 ], [ -36.259948499999958, -9.368298699999949 ], [ -36.259939499999973, -9.368278899999945 ], [ -36.25992309999998, -9.368243299999946 ], [ -36.259919099999941, -9.36821449999997 ], [ -36.259910099999964, -9.368178799999951 ], [ -36.259901, -9.368131199999942 ], [ -36.25989, -9.368085599999988 ], [ -36.25987589999994, -9.368060799999947 ], [ -36.259853799999988, -9.368034099999916 ], [ -36.259836699999937, -9.368014199999944 ], [ -36.25982369999997, -9.367992399999963 ], [ -36.259808599999928, -9.3679696 ], [ -36.259798499999938, -9.367939899999948 ], [ -36.259789499999954, -9.367902199999959 ], [ -36.259789499999954, -9.367876399999949 ], [ -36.259784499999974, -9.367848599999945 ], [ -36.259769399999989, -9.367815899999925 ], [ -36.259756099999947, -9.367784 ], [ -36.259733099999949, -9.367826499999978 ], [ -36.259724899999981, -9.367849799999929 ], [ -36.259720799999968, -9.367868 ], [ -36.259709499999929, -9.367894299999929 ], [ -36.259695199999953, -9.367925699999935 ], [ -36.25968389999997, -9.367946 ], [ -36.259655099999982, -9.367981399999946 ], [ -36.25964589999996, -9.367999599999957 ], [ -36.259642799999945, -9.368026 ], [ -36.25963669999993, -9.368049199999968 ], [ -36.259626399999945, -9.368088699999925 ], [ -36.259613, -9.368116099999975 ], [ -36.259586399999932, -9.368147499999953 ], [ -36.259568699999939, -9.368173399999938 ], [ -36.25954709999997, -9.368200799999943 ], [ -36.259531699999968, -9.368230099999959 ], [ -36.259516299999973, -9.368239299999967 ], [ -36.2594989, -9.368246299999953 ], [ -36.25948759999995, -9.368255499999979 ], [ -36.25948039999998, -9.368267599999974 ], [ -36.259478299999955, -9.368287899999912 ], [ -36.259469099999933, -9.368313199999948 ], [ -36.259449599999982, -9.368339499999948 ], [ -36.25943419999993, -9.368348599999923 ], [ -36.259414699999979, -9.368365799999921 ], [ -36.25939829999993, -9.368381 ], [ -36.259396199999969, -9.368401299999963 ], [ -36.259383899999932, -9.36842659999996 ], [ -36.259364399999981, -9.368451899999965 ], [ -36.259354199999962, -9.368465099999982 ], [ -36.259328499999974, -9.368485299999959 ], [ -36.259312099999931, -9.36849649999994 ], [ -36.259296699999943, -9.368514699999928 ], [ -36.259284399999956, -9.368529899999933 ], [ -36.259263799999928, -9.368543 ], [ -36.259249499999953, -9.36854709999993 ], [ -36.259227899999985, -9.368536 ], [ -36.259208399999984, -9.368521799999954 ], [ -36.259193, -9.368518699999967 ], [ -36.259187499999939, -9.368519399999959 ], [ -36.25847669999996, -9.367324199999919 ], [ -36.257923, -9.366264399999961 ], [ -36.257914299999982, -9.366260799999981 ], [ -36.256851499999989, -9.366148499999941 ], [ -36.256744199999964, -9.366296899999934 ], [ -36.25652069999996, -9.366562799999963 ], [ -36.256429299999979, -9.367063799999928 ], [ -36.256266799999935, -9.367425799999969 ], [ -36.256225499999964, -9.367696099999945 ], [ -36.256156399999952, -9.367905599999967 ], [ -36.255998599999941, -9.367951799999972 ], [ -36.255829599999977, -9.367931399999957 ], [ -36.255675799999949, -9.367925599999973 ], [ -36.25565359999996, -9.368065199999934 ], [ -36.255794399999957, -9.3680821 ], [ -36.256001099999935, -9.368233899999964 ], [ -36.256027799999977, -9.368374399999951 ], [ -36.256061899999963, -9.368562299999939 ], [ -36.256278199999933, -9.368692099999972 ], [ -36.256332499999985, -9.368818799999923 ], [ -36.256486299999949, -9.368906899999962 ], [ -36.256649599999953, -9.369015 ], [ -36.256589399999946, -9.369166299999982 ], [ -36.256532, -9.369289399999959 ], [ -36.256356399999966, -9.369423099999928 ], [ -36.256351399999971, -9.369552099999959 ], [ -36.256408699999952, -9.369815799999985 ], [ -36.256369199999938, -9.369939699999968 ], [ -36.25647749999996, -9.370085699999947 ], [ -36.256497699999962, -9.370301499999938 ], [ -36.256330399999968, -9.370397699999939 ], [ -36.256439399999977, -9.3705634 ], [ -36.256462299999953, -9.370680199999979 ], [ -36.25646769999998, -9.370780699999937 ], [ -36.256446499999981, -9.370951299999925 ], [ -36.256545499999966, -9.371084599999964 ], [ -36.256486899999977, -9.371229599999939 ], [ -36.256470099999937, -9.371366899999927 ], [ -36.256581899999958, -9.37150469999996 ], [ -36.256687099999972, -9.371773099999931 ], [ -36.256233, -9.372336299999978 ], [ -36.256158899999939, -9.372601 ], [ -36.255894199999936, -9.372950499999956 ], [ -36.255853099999968, -9.373122599999915 ], [ -36.255186, -9.373371399999922 ], [ -36.254349399999974, -9.37337139999992 ], [ -36.253507499999962, -9.373281399999916 ], [ -36.252310899999941, -9.372995499999957 ], [ -36.25162789999996, -9.372841899999967 ], [ -36.25095539999996, -9.372799599999947 ], [ -36.25013469999994, -9.37268309999998 ], [ -36.249308699999972, -9.372307199999954 ], [ -36.249255799999958, -9.3720901 ], [ -36.24910749999998, -9.371661199999927 ], [ -36.248874599999972, -9.371544699999941 ], [ -36.248858699999971, -9.37135409999995 ], [ -36.24886929999996, -9.370687 ], [ -36.248816299999937, -9.370131 ], [ -36.248228599999948, -9.370115099999976 ], [ -36.248101499999962, -9.370888199999964 ], [ -36.248000399999967, -9.371280599999967 ], [ -36.247292099999981, -9.371136199999965 ], [ -36.24733139999995, -9.371011899999942 ], [ -36.247042599999943, -9.370284599999927 ], [ -36.246507799999961, -9.369765699999952 ], [ -36.246719599999949, -9.369268 ], [ -36.2461742, -9.368812599999943 ], [ -36.245867099999948, -9.368955599999937 ], [ -36.245443499999972, -9.36882849999993 ], [ -36.24524229999998, -9.368770199999966 ], [ -36.245078199999973, -9.368452499999925 ], [ -36.244792299999972, -9.367970699999931 ], [ -36.244564599999933, -9.36757889999995 ], [ -36.244490499999984, -9.367261199999964 ], [ -36.244659899999938, -9.367001799999958 ], [ -36.244808199999966, -9.366504099999911 ], [ -36.245078199999959, -9.36647759999993 ], [ -36.245697699999937, -9.366657599999945 ], [ -36.24600479999998, -9.366647 ], [ -36.246126599999968, -9.366382299999946 ], [ -36.246306599999969, -9.365805099999926 ], [ -36.246936299999959, -9.365509799999924 ], [ -36.247003199999938, -9.364666599999939 ], [ -36.246982, -9.363804399999944 ], [ -36.246717399999973, -9.362647099999954 ], [ -36.246497399999953, -9.361944 ], [ -36.246425399999964, -9.361713799999947 ], [ -36.245362199999924, -9.36138769999995 ], [ -36.244677899999935, -9.361934199999942 ], [ -36.244634, -9.362550099999952 ], [ -36.244872, -9.364374699999916 ], [ -36.245256799999943, -9.365395499999959 ], [ -36.242751499999933, -9.36529669999992 ], [ -36.24044489999995, -9.365205699999954 ], [ -36.240112899999922, -9.365450599999964 ], [ -36.239234599999975, -9.3656549 ], [ -36.23808889999998, -9.365601499999952 ], [ -36.2369935, -9.365550499999928 ], [ -36.236048, -9.365507399999972 ], [ -36.23524759999998, -9.365469599999919 ], [ -36.235097699999983, -9.365462699999959 ], [ -36.234950799999972, -9.365455899999985 ], [ -36.234479199999953, -9.365433899999985 ], [ -36.233635899999967, -9.365395199999979 ], [ -36.233394499999974, -9.365334699999973 ], [ -36.233278599999956, -9.365287 ], [ -36.233180299999958, -9.365261299999927 ], [ -36.232986099999948, -9.365259399999953 ], [ -36.232706199999932, -9.365317899999985 ], [ -36.232456899999931, -9.365332599999917 ], [ -36.23244179999994, -9.365739399999947 ], [ -36.23252169999995, -9.365802699999961 ], [ -36.233667299999986, -9.366422099999951 ], [ -36.236278199999958, -9.36752769999992 ], [ -36.238069899999964, -9.36827369999998 ], [ -36.239472, -9.368836499999917 ], [ -36.239471099999946, -9.368838199999971 ], [ -36.238676, -9.37046169999995 ], [ -36.239430299999988, -9.370859699999938 ], [ -36.239994799999984, -9.371392499999965 ], [ -36.240703299999957, -9.371967799999936 ], [ -36.240785699999947, -9.373264199999941 ], [ -36.240777699999974, -9.373265399999962 ], [ -36.240500599999969, -9.373047199999966 ], [ -36.240214599999945, -9.372924099999979 ], [ -36.240135099999982, -9.372728799999962 ], [ -36.240144599999944, -9.372419799999919 ], [ -36.239814199999955, -9.372213499999928 ], [ -36.23899629999994, -9.37263419999992 ], [ -36.238751899999954, -9.373467199999936 ], [ -36.239636599999983, -9.373552499999963 ], [ -36.239641799999958, -9.373977399999923 ], [ -36.240560099999982, -9.374162799999946 ], [ -36.240561299999982, -9.374281599999941 ], [ -36.240122899999953, -9.37440819999996 ], [ -36.23939629999996, -9.374384 ], [ -36.238650599999978, -9.374359599999938 ], [ -36.237820199999938, -9.374338099999923 ], [ -36.23733139999996, -9.374262499999922 ], [ -36.23680929999994, -9.374133199999944 ], [ -36.236424399999976, -9.374051 ], [ -36.235655499999943, -9.373575099999925 ], [ -36.234546199999961, -9.372920899999951 ], [ -36.233559499999963, -9.372438499999934 ], [ -36.232821299999948, -9.372089899999944 ], [ -36.231801799999971, -9.371863 ], [ -36.231387399999953, -9.371804699999911 ], [ -36.230776299999945, -9.37181279999994 ], [ -36.229633899999953, -9.371887899999937 ], [ -36.228854, -9.372057099999955 ], [ -36.228812899999987, -9.372066699999936 ], [ -36.228812, -9.372063199999968 ], [ -36.228579, -9.372057799999947 ], [ -36.227865899999983, -9.372048199999918 ], [ -36.227865599999966, -9.372052499999938 ], [ -36.227855499999983, -9.372209599999955 ], [ -36.227853099999948, -9.372246699999957 ], [ -36.227376599999964, -9.372106199999964 ], [ -36.227055199999938, -9.371848799999968 ], [ -36.226560499999948, -9.371443399999967 ], [ -36.226454899999965, -9.371376199999917 ], [ -36.226390099999946, -9.371345899999936 ], [ -36.226148, -9.371311299999951 ], [ -36.225944099999936, -9.372019699999969 ], [ -36.2260381, -9.372051099999981 ], [ -36.226039099999973, -9.37214 ], [ -36.225649799999935, -9.372162399999972 ], [ -36.225873299999932, -9.373598699999944 ], [ -36.225657799999965, -9.373754399999926 ], [ -36.226011899999946, -9.37415549999997 ], [ -36.226035199999956, -9.374141 ], [ -36.226363099999958, -9.374489 ], [ -36.226394699999965, -9.374440899999962 ], [ -36.226708899999956, -9.3742248 ], [ -36.227193699999937, -9.37411079999992 ], [ -36.227847299999965, -9.37413739999994 ], [ -36.228721099999973, -9.374396099999933 ], [ -36.230518, -9.374692599999969 ], [ -36.232124499999941, -9.375063399999924 ], [ -36.231368199999963, -9.377629699999948 ], [ -36.230661, -9.380002199999979 ], [ -36.230809399999941, -9.380629399999968 ], [ -36.232862199999936, -9.381269799999941 ], [ -36.235369499999933, -9.382100499999984 ], [ -36.239150699999982, -9.383350199999946 ], [ -36.239367199999947, -9.383349 ], [ -36.244339299999986, -9.383311699999973 ], [ -36.245050899999967, -9.38337449999996 ], [ -36.245467, -9.38346119999993 ], [ -36.245529099999935, -9.383184499999977 ], [ -36.24587379999997, -9.383088499999936 ], [ -36.246231099999925, -9.383541699999958 ], [ -36.246386499999971, -9.383790099999924 ], [ -36.246655899999958, -9.38422 ], [ -36.247326499999922, -9.384428 ] ] ], [ [ [ -36.254139799999962, -9.359803599999969 ], [ -36.254024699999945, -9.359579499999951 ], [ -36.25364779999996, -9.359717799999938 ], [ -36.2534558, -9.359711199999936 ], [ -36.253168099999982, -9.359601299999955 ], [ -36.252841399999973, -9.359422899999975 ], [ -36.252570099999964, -9.359202499999965 ], [ -36.25261159999998, -9.358835599999958 ], [ -36.251692099999957, -9.357604 ], [ -36.249877599999941, -9.356787499999914 ], [ -36.249647799999934, -9.357192899999964 ], [ -36.24928419999997, -9.356875499999937 ], [ -36.248697899999968, -9.356430199999981 ], [ -36.248519, -9.356265399999936 ], [ -36.248426699999982, -9.356336399999961 ], [ -36.24836659999994, -9.356484499999981 ], [ -36.248293899999958, -9.3567983 ], [ -36.247368899999977, -9.356486 ], [ -36.247278399999963, -9.356631599999959 ], [ -36.247690599999942, -9.35743019999993 ], [ -36.248558499999945, -9.357348 ], [ -36.248987499999949, -9.358523399999966 ], [ -36.248312899999974, -9.358728299999926 ], [ -36.248241399999976, -9.358716299999976 ], [ -36.247326499999929, -9.35808159999995 ], [ -36.247036799999925, -9.358730399999956 ], [ -36.249147099999966, -9.359724299999911 ], [ -36.249829, -9.358818699999969 ], [ -36.250121, -9.358806499999959 ], [ -36.25056729999995, -9.358846899999937 ], [ -36.250787599999967, -9.358970899999973 ], [ -36.251070599999935, -9.359778499999951 ], [ -36.251725099999931, -9.360313899999936 ], [ -36.251388099999936, -9.360644699999984 ], [ -36.251657199999947, -9.360869199999986 ], [ -36.252460199999973, -9.360350799999937 ], [ -36.253433599999937, -9.361646299999945 ], [ -36.253879499999982, -9.3613905 ], [ -36.254109299999982, -9.361259899999947 ], [ -36.253664799999967, -9.360566499999958 ], [ -36.253615499999967, -9.360417899999947 ], [ -36.253671799999957, -9.36025649999992 ], [ -36.253797899999938, -9.360163599999956 ], [ -36.254225599999984, -9.359970599999937 ], [ -36.254139799999962, -9.359803599999969 ] ] ], [ [ [ -36.303837899999969, -9.336594399999958 ], [ -36.303778699999953, -9.336626899999922 ], [ -36.302928899999976, -9.337196299999958 ], [ -36.301644099999983, -9.33807059999997 ], [ -36.301445499999943, -9.338198699999976 ], [ -36.301446799999958, -9.338200599999935 ], [ -36.301014699999939, -9.338496699999963 ], [ -36.301762099999962, -9.33946929999996 ], [ -36.301768, -9.339486499999964 ], [ -36.302114099999976, -9.339538699999936 ], [ -36.302179699999954, -9.339288199999926 ], [ -36.303825799999977, -9.3387802 ], [ -36.304323699999948, -9.338693799999932 ], [ -36.304486499999946, -9.33871049999993 ], [ -36.30463739999994, -9.338757899999974 ], [ -36.304981699999985, -9.338902399999945 ], [ -36.3055204, -9.339172499999956 ], [ -36.305830199999953, -9.33932779999998 ], [ -36.306016099999965, -9.339363199999974 ], [ -36.306215599999973, -9.339379499999948 ], [ -36.306382, -9.339374 ], [ -36.306515299999951, -9.339344199999951 ], [ -36.30697349999997, -9.339507799999987 ], [ -36.306975, -9.339506099999941 ], [ -36.307573399999967, -9.339748899999952 ], [ -36.307792599999978, -9.339420199999934 ], [ -36.307274699999937, -9.339149599999928 ], [ -36.307273, -9.339148 ], [ -36.306970799999938, -9.33890519999993 ], [ -36.307127099999953, -9.338322199999944 ], [ -36.307562399999938, -9.338874699999954 ], [ -36.307921, -9.33835039999998 ], [ -36.308275699999975, -9.3385388 ], [ -36.308468399999981, -9.338138299999951 ], [ -36.306719299999941, -9.3371787 ], [ -36.306565099999943, -9.336899299999978 ], [ -36.306965099999964, -9.336729 ], [ -36.306884899999957, -9.336587099999969 ], [ -36.307218499999976, -9.336432099999973 ], [ -36.307322399999983, -9.336325699999962 ], [ -36.307381299999975, -9.336172599999925 ], [ -36.307395799999938, -9.336011599999946 ], [ -36.30732529999996, -9.335833499999982 ], [ -36.307231899999977, -9.335706199999951 ], [ -36.307231, -9.335706699999951 ], [ -36.306938199999927, -9.335184299999966 ], [ -36.305785899999933, -9.335072899999956 ], [ -36.305623, -9.335140099999936 ], [ -36.305622399999947, -9.335136799999942 ], [ -36.30526169999996, -9.33509309999995 ], [ -36.305142699999976, -9.335168299999943 ], [ -36.304722399999953, -9.335548499999948 ], [ -36.304721749999942, -9.3355496 ], [ -36.304543399999943, -9.336412499999929 ], [ -36.304528599999976, -9.336410399999973 ], [ -36.304372899999983, -9.336420899999963 ], [ -36.304222, -9.336439599999958 ], [ -36.304100699999942, -9.336473799999961 ], [ -36.304002799999978, -9.336511 ], [ -36.303837899999969, -9.336594399999958 ] ] ] ] } }
]
}
