{
"type": "FeatureCollection",
"name": "2709301",
"crs": { "type": "name", "properties": { "name": "urn:ogc:def:crs:OGC:1.3:CRS84" } },
"features": [
{ "type": "Feature", "properties": { "CD_MUN": "2709301", "NM_MUN": "União dos Palmares" }, "geometry": { "type": "MultiPolygon", "coordinates": [ [ [ [ -36.030670199999982, -9.168247399999936 ], [ -36.030764499999975, -9.168355499999951 ], [ -36.030875699999967, -9.168427899999925 ], [ -36.030972099999936, -9.168481699999958 ], [ -36.031184799999949, -9.168595399999937 ], [ -36.031270099999979, -9.1686405 ], [ -36.031373399999957, -9.168749299999957 ], [ -36.031544199999985, -9.168822199999967 ], [ -36.031595599999946, -9.168894599999934 ], [ -36.031573099999953, -9.16902129999994 ], [ -36.031646499999972, -9.169081799999971 ], [ -36.031723399999983, -9.169103699999924 ], [ -36.031821, -9.16916409999992 ], [ -36.03194679999995, -9.169141799999975 ], [ -36.032068099999947, -9.169143699999953 ], [ -36.032162699999958, -9.169193799999947 ], [ -36.032233899999937, -9.169349499999969 ], [ -36.032286799999952, -9.169465399999989 ], [ -36.032485299999969, -9.169534399999957 ], [ -36.03265579999993, -9.169640399999949 ], [ -36.032788299999936, -9.169746399999935 ], [ -36.032809799999939, -9.169844599999987 ], [ -36.032778199999946, -9.169974399999932 ], [ -36.032703499999961, -9.170120099999952 ], [ -36.032647399999973, -9.170224799999989 ], [ -36.032550899999933, -9.170279099999956 ], [ -36.032502699999952, -9.170415099999943 ], [ -36.032461099999985, -9.170516499999968 ], [ -36.032426899999969, -9.170605499999969 ], [ -36.032482, -9.170693899999964 ], [ -36.032519699999966, -9.17076739999993 ], [ -36.03252329999998, -9.17081619999993 ], [ -36.032475099999942, -9.1709046 ], [ -36.032449899999968, -9.17097449999995 ], [ -36.032441299999959, -9.171048699999972 ], [ -36.032487, -9.17108389999993 ], [ -36.032544, -9.171101799999972 ], [ -36.032626599999965, -9.171081399999935 ], [ -36.032729899999936, -9.17098619999997 ], [ -36.03283829999998, -9.170907099999953 ], [ -36.032984199999937, -9.170995499999933 ], [ -36.03313859999998, -9.171118499999963 ], [ -36.033267099999939, -9.171210599999933 ], [ -36.03339109999996, -9.171360199999965 ], [ -36.033465699999965, -9.171490299999977 ], [ -36.033518299999969, -9.171455899999968 ], [ -36.033565399999929, -9.171422599999984 ], [ -36.033620499999984, -9.1713966 ], [ -36.033727499999941, -9.171345099999961 ], [ -36.033798599999962, -9.171295499999925 ], [ -36.033838399999972, -9.171252399999968 ], [ -36.033890699999986, -9.171212499999962 ], [ -36.03397, -9.1711703 ], [ -36.033985399999956, -9.1711703 ], [ -36.034041299999963, -9.171129 ], [ -36.034125399999937, -9.171092499999926 ], [ -36.034208899999953, -9.171054399999933 ], [ -36.034261399999927, -9.171019099999965 ], [ -36.034785, -9.170735299999951 ], [ -36.035153699999967, -9.170584699999967 ], [ -36.035543299999972, -9.170439099999946 ], [ -36.035649399999961, -9.170415499999917 ], [ -36.035767699999951, -9.170378899999942 ], [ -36.035876, -9.170333099999926 ], [ -36.03605029999995, -9.170280399999957 ], [ -36.036158799999953, -9.170231899999965 ], [ -36.036328199999957, -9.170156299999988 ], [ -36.03646759999998, -9.170116199999946 ], [ -36.036665599999942, -9.170042599999928 ], [ -36.036826899999937, -9.169983599999968 ], [ -36.037044499999979, -9.169914499999944 ], [ -36.037154299999948, -9.169874299999965 ], [ -36.037367199999942, -9.169816 ], [ -36.037494299999928, -9.169805799999951 ], [ -36.037641199999939, -9.169785799999925 ], [ -36.037799899999989, -9.16979589999996 ], [ -36.03796059999997, -9.169744099999944 ], [ -36.038102399999957, -9.1697 ], [ -36.038220099999933, -9.169656499999954 ], [ -36.038361599999966, -9.169596599999975 ], [ -36.038519299999962, -9.169536899999963 ], [ -36.038635699999936, -9.169477299999917 ], [ -36.038811499999952, -9.169406 ], [ -36.038999299999936, -9.169347099999985 ], [ -36.03914529999998, -9.169303299999955 ], [ -36.03933829999994, -9.169245799999954 ], [ -36.039586299999932, -9.169147899999908 ], [ -36.03976, -9.169076399999929 ], [ -36.040014199999966, -9.169010199999946 ], [ -36.040229399999937, -9.168907299999926 ], [ -36.040332299999932, -9.168880399999988 ], [ -36.040532899999967, -9.168851 ], [ -36.040687199999986, -9.168765699999945 ], [ -36.040859299999966, -9.168651299999953 ], [ -36.040943399999954, -9.168589 ], [ -36.04101019999996, -9.168546599999958 ], [ -36.041131899999975, -9.168429599999962 ], [ -36.041184, -9.168357899999947 ], [ -36.041243, -9.168284 ], [ -36.041335699999934, -9.168224799999965 ], [ -36.041388899999966, -9.168168899999944 ], [ -36.041434699999968, -9.168126199999973 ], [ -36.041500699999972, -9.168057799999909 ], [ -36.041637, -9.167964399999967 ], [ -36.041684, -9.167911399999973 ], [ -36.041808799999956, -9.167805099999944 ], [ -36.041909399999952, -9.167716499999939 ], [ -36.04200579999997, -9.167664199999924 ], [ -36.042085799999946, -9.1675999 ], [ -36.042179799999936, -9.167520099999937 ], [ -36.042255299999965, -9.167454099999953 ], [ -36.042360599999938, -9.167372099999978 ], [ -36.042404799999929, -9.167328799999957 ], [ -36.042470899999955, -9.167263699999982 ], [ -36.042559299999937, -9.167155299999949 ], [ -36.04264759999996, -9.167046899999935 ], [ -36.042693199999981, -9.166914799999974 ], [ -36.042725299999972, -9.166817499999977 ], [ -36.042747699999957, -9.16673329999997 ], [ -36.042770499999961, -9.166617499999973 ], [ -36.042776099999969, -9.166500499999946 ], [ -36.042782, -9.166435299999915 ], [ -36.042762599999953, -9.166366299999934 ], [ -36.042737599999953, -9.166232299999931 ], [ -36.042737299999949, -9.166129599999987 ], [ -36.042741399999962, -9.166062599999968 ], [ -36.042735199999981, -9.165966 ], [ -36.042679199999952, -9.16582809999994 ], [ -36.042635399999938, -9.165733599999957 ], [ -36.042601199999986, -9.165632499999941 ], [ -36.042573, -9.165513599999947 ], [ -36.042542, -9.165402199999944 ], [ -36.042556199999986, -9.165282 ], [ -36.042550899999988, -9.165211299999957 ], [ -36.042555499999935, -9.165110699999973 ], [ -36.04256189999996, -9.16496 ], [ -36.042562099999941, -9.164873 ], [ -36.042562199999963, -9.164807699999923 ], [ -36.042584599999941, -9.164677199999975 ], [ -36.042584799999929, -9.164546599999955 ], [ -36.042606899999953, -9.164437699999961 ], [ -36.042607, -9.1643506 ], [ -36.042616399999936, -9.164244899999986 ], [ -36.042627399999958, -9.164134399999954 ], [ -36.042632199999957, -9.164044199999962 ], [ -36.042654299999988, -9.1639135 ], [ -36.042659299999968, -9.163852699999934 ], [ -36.042677899999944, -9.163793599999961 ], [ -36.042701499999964, -9.163677199999928 ], [ -36.042718899999954, -9.16352629999996 ], [ -36.04272839999993, -9.163470099999932 ], [ -36.042733299999945, -9.16337379999994 ], [ -36.04273029999996, -9.163271199999942 ], [ -36.042758799999937, -9.163190299999956 ], [ -36.0427797, -9.163093099999966 ], [ -36.042778399999982, -9.1630451 ], [ -36.04282429999995, -9.162957499999965 ], [ -36.042865099999972, -9.162870199999928 ], [ -36.042902599999941, -9.162764599999933 ], [ -36.042918099999959, -9.162674499999961 ], [ -36.042949299999975, -9.162559899999975 ], [ -36.042980899999982, -9.162497399999951 ], [ -36.043021899999935, -9.162376299999941 ], [ -36.043059699999958, -9.162239499999931 ], [ -36.043113199999937, -9.162087199999982 ], [ -36.043135299999967, -9.162021899999944 ], [ -36.043157299999969, -9.161891299999967 ], [ -36.043201499999959, -9.16176069999994 ], [ -36.043223599999969, -9.161695399999942 ], [ -36.043223499999961, -9.161608399999965 ], [ -36.043245499999955, -9.161477899999968 ], [ -36.043267499999956, -9.161390799999953 ], [ -36.043289499999958, -9.161238599999926 ], [ -36.043346199999966, -9.161146099999938 ], [ -36.043352499999969, -9.161034099999956 ], [ -36.043384, -9.160906399999934 ], [ -36.043418599999939, -9.160782499999907 ], [ -36.043478399999977, -9.160682899999932 ], [ -36.043500299999948, -9.160574399999962 ], [ -36.043506299999933, -9.160469 ], [ -36.043543899999982, -9.160341899999912 ], [ -36.043556299999977, -9.16021159999997 ], [ -36.043552899999952, -9.16008689999995 ], [ -36.043552799999929, -9.16 ], [ -36.043596799999925, -9.159891399999935 ], [ -36.043574899999953, -9.159673699999928 ], [ -36.043574799999938, -9.159565199999971 ], [ -36.043580799999987, -9.159413899999958 ], [ -36.043577599999942, -9.159326699999946 ], [ -36.043554899999947, -9.159209699999977 ], [ -36.043465699999956, -9.159028799999952 ], [ -36.0433652, -9.158932 ], [ -36.043299099999949, -9.158857299999973 ], [ -36.043211299999932, -9.158704899999982 ], [ -36.043039599999929, -9.158525599999967 ], [ -36.042791499999964, -9.158292899999941 ], [ -36.042713699999979, -9.158221599999946 ], [ -36.042470699999967, -9.157995299999925 ], [ -36.042323599999982, -9.157875599999938 ], [ -36.041956599999935, -9.157672599999978 ], [ -36.041780299999978, -9.157582599999937 ], [ -36.041709599999947, -9.157530199999957 ], [ -36.041409799999947, -9.157375099999944 ], [ -36.041146799999986, -9.157242 ], [ -36.040819899999974, -9.157077899999924 ], [ -36.040460899999978, -9.156656599999952 ], [ -36.038504199999977, -9.153830799999968 ], [ -36.038085799999976, -9.153226499999954 ], [ -36.039007899999945, -9.148550199999946 ], [ -36.039454199999959, -9.145223199999975 ], [ -36.039732399999927, -9.143149499999952 ], [ -36.039616399999943, -9.142793699999986 ], [ -36.039083499999947, -9.141792799999951 ], [ -36.041550099999938, -9.14159309999995 ], [ -36.043229899999972, -9.141574 ], [ -36.044761899999976, -9.141716399999936 ], [ -36.044936899999982, -9.141734699999978 ], [ -36.045301199999976, -9.141753799999965 ], [ -36.045689499999973, -9.141757399999962 ], [ -36.04620209999996, -9.141793799999945 ], [ -36.046452699999975, -9.141826199999979 ], [ -36.046590499999986, -9.141838 ], [ -36.046476899999959, -9.142651499999934 ], [ -36.048228399999978, -9.142938499999934 ], [ -36.048270899999984, -9.142989199999931 ], [ -36.050115099999978, -9.143241 ], [ -36.050275299999953, -9.143222599999959 ], [ -36.052747699999941, -9.143597199999936 ], [ -36.054246299999932, -9.143502599999989 ], [ -36.053978499999964, -9.142605799999966 ], [ -36.05455859999995, -9.142643 ], [ -36.054646399999974, -9.142498699999955 ], [ -36.054791899999941, -9.142389599999955 ], [ -36.055039299999976, -9.142222299999947 ], [ -36.055312099999981, -9.141971299999975 ], [ -36.055403, -9.141865799999959 ], [ -36.055435699999983, -9.141647599999922 ], [ -36.055417599999942, -9.141429299999952 ], [ -36.055264799999975, -9.141021899999929 ], [ -36.05516659999995, -9.140865499999947 ], [ -36.054937199999983, -9.140631699999977 ], [ -36.055000799999959, -9.140582899999975 ], [ -36.055222499999964, -9.140503899999961 ], [ -36.055416599999937, -9.140417099999985 ], [ -36.05535459999993, -9.140344499999973 ], [ -36.055242499999963, -9.140197599999953 ], [ -36.055218299999979, -9.140166 ], [ -36.055130399999939, -9.140050699999959 ], [ -36.05506429999997, -9.139953099999975 ], [ -36.054981199999929, -9.139830499999976 ], [ -36.054869499999938, -9.1396837 ], [ -36.054832799999929, -9.139573699999975 ], [ -36.054796299999971, -9.139426899999934 ], [ -36.054759199999978, -9.138748699999958 ], [ -36.054691299999952, -9.138362 ], [ -36.054729499999951, -9.13828849999992 ], [ -36.054726, -9.1381413 ], [ -36.054765, -9.137957399999948 ], [ -36.054822099999967, -9.137787099999949 ], [ -36.054886299999971, -9.137585899999973 ], [ -36.055063, -9.137441499999984 ], [ -36.055113, -9.137330899999931 ], [ -36.05531979999995, -9.137179399999974 ], [ -36.05541489999996, -9.13707 ], [ -36.055528899999963, -9.136951399999946 ], [ -36.055631499999947, -9.13683269999996 ], [ -36.05570339999997, -9.136717699999981 ], [ -36.055828399999939, -9.136610599999919 ], [ -36.055944099999984, -9.136449 ], [ -36.056118099999935, -9.1362832 ], [ -36.056305499999958, -9.136135599999932 ], [ -36.056413199999945, -9.136013399999975 ], [ -36.056563, -9.135865899999944 ], [ -36.0566755, -9.135753699999951 ], [ -36.056875499999933, -9.135614499999964 ], [ -36.05700329999997, -9.135561299999955 ], [ -36.057149399999965, -9.135429 ], [ -36.057327899999969, -9.135255899999926 ], [ -36.057651, -9.135062799999963 ], [ -36.05777, -9.134934799999934 ], [ -36.05792729999996, -9.134785299999972 ], [ -36.058038799999956, -9.134675 ], [ -36.058150299999966, -9.134564699999926 ], [ -36.05826159999998, -9.13441759999994 ], [ -36.058401599999968, -9.134321199999924 ], [ -36.058429599999954, -9.134217099999946 ], [ -36.058485099999984, -9.134103599999943 ], [ -36.058523599999944, -9.13397569999996 ], [ -36.058592099999942, -9.1338378 ], [ -36.058622299999961, -9.133669199999936 ], [ -36.05864279999998, -9.133535499999924 ], [ -36.058679899999966, -9.133457299999975 ], [ -36.058682599999941, -9.133358799999938 ], [ -36.058708599999925, -9.13319569999992 ], [ -36.058683199999962, -9.133057399999922 ], [ -36.058695499999942, -9.132875 ], [ -36.058694599999974, -9.132736899999948 ], [ -36.058689799999968, -9.132586799999942 ], [ -36.058686799999982, -9.132404599999965 ], [ -36.058689699999938, -9.132251099999976 ], [ -36.058669699999939, -9.132074499999915 ], [ -36.05865579999994, -9.131944299999944 ], [ -36.058645699999943, -9.131779699999965 ], [ -36.058603099999978, -9.13152649999995 ], [ -36.058456, -9.131380299999929 ], [ -36.058351599999988, -9.1312359 ], [ -36.058228099999951, -9.131133599999924 ], [ -36.058073899999954, -9.131012199999928 ], [ -36.057957699999982, -9.130951499999973 ], [ -36.057793299999965, -9.13086009999995 ], [ -36.057666599999948, -9.13077349999997 ], [ -36.057545, -9.130666299999982 ], [ -36.057389, -9.130564199999965 ], [ -36.057246699999958, -9.130424799999949 ], [ -36.057104299999942, -9.130327499999982 ], [ -36.056929099999934, -9.130227199999986 ], [ -36.056706899999945, -9.130096 ], [ -36.05663149999998, -9.13005989999996 ], [ -36.056367299999977, -9.129896699999941 ], [ -36.056163399999946, -9.129809399999942 ], [ -36.056001599999945, -9.1296902 ], [ -36.0558511, -9.129562699999941 ], [ -36.055628499999948, -9.129487699999961 ], [ -36.05547, -9.129382699999942 ], [ -36.055288, -9.129303899999972 ], [ -36.054995299999973, -9.12921789999996 ], [ -36.054871099999964, -9.129220699999959 ], [ -36.054680699999949, -9.129187399999983 ], [ -36.054476399999942, -9.129148399999966 ], [ -36.054225099999947, -9.12910489999998 ], [ -36.054074599999971, -9.129088899999967 ], [ -36.053769199999984, -9.129039499999969 ], [ -36.053469, -9.128989399999952 ], [ -36.053360199999929, -9.129004299999952 ], [ -36.053057599999946, -9.128993699999961 ], [ -36.052797199999929, -9.12901379999993 ], [ -36.05258919999995, -9.129024099999967 ], [ -36.052317199999955, -9.129059499999924 ], [ -36.052151299999935, -9.12907359999998 ], [ -36.05199349999998, -9.129138199999945 ], [ -36.051783299999961, -9.129255599999974 ], [ -36.051642, -9.12939819999996 ], [ -36.051534099999969, -9.129504299999933 ], [ -36.051389, -9.1296025 ], [ -36.05121569999995, -9.129686099999947 ], [ -36.051051, -9.129818 ], [ -36.050828, -9.129942 ], [ -36.050603199999955, -9.130054099999938 ], [ -36.050432, -9.13023 ], [ -36.050207199999932, -9.130416099999932 ], [ -36.050063099999925, -9.130531399999962 ], [ -36.049764099999948, -9.130679799999943 ], [ -36.049634099999935, -9.130774399999948 ], [ -36.04941029999997, -9.130884099999946 ], [ -36.049277599999989, -9.130951199999972 ], [ -36.0490157, -9.131100299999936 ], [ -36.048944199999937, -9.131135 ], [ -36.048645199999953, -9.131320699999955 ], [ -36.048488199999959, -9.131409699999947 ], [ -36.048201199999937, -9.131546899999952 ], [ -36.048034699999967, -9.13162149999993 ], [ -36.047889199999936, -9.131705299999965 ], [ -36.047698699999955, -9.131798 ], [ -36.047518, -9.131844699999931 ], [ -36.047359, -9.131794699999931 ], [ -36.047214599999961, -9.131682199999965 ], [ -36.047052799999967, -9.131568399999933 ], [ -36.046901699999978, -9.131460899999967 ], [ -36.046775399999959, -9.131413599999959 ], [ -36.046648, -9.131367699999943 ], [ -36.046520699999974, -9.131294899999943 ], [ -36.046381799999956, -9.131243899999957 ], [ -36.046191299999975, -9.131088799999933 ], [ -36.046020699999929, -9.130998199999969 ], [ -36.045836699999938, -9.130881 ], [ -36.045672699999955, -9.130756199999936 ], [ -36.045515499999972, -9.13068159999993 ], [ -36.045391199999983, -9.130527599999949 ], [ -36.045277499999933, -9.130365199999966 ], [ -36.045277199999937, -9.130289499999941 ], [ -36.045239199999969, -9.130138 ], [ -36.045163799999962, -9.129986199999943 ], [ -36.045088199999945, -9.129796299999972 ], [ -36.044881199999963, -9.129551799999964 ], [ -36.04450369999995, -9.12928919999994 ], [ -36.044199099999958, -9.128999499999974 ], [ -36.04356619999993, -9.128777599999969 ], [ -36.042887299999968, -9.128478099999931 ], [ -36.042625899999955, -9.128367399999954 ], [ -36.042551299999957, -9.12833049999994 ], [ -36.042364499999969, -9.128219799999959 ], [ -36.042220099999959, -9.128088499999953 ], [ -36.042025399999943, -9.128002399999945 ], [ -36.041521699999976, -9.127746199999921 ], [ -36.041389, -9.127716099999938 ], [ -36.041249, -9.127658899999961 ], [ -36.041065099999969, -9.127604799999977 ], [ -36.040942399999949, -9.127585699999921 ], [ -36.040582399999955, -9.12747919999992 ], [ -36.04045749999996, -9.127439499999978 ], [ -36.040272299999977, -9.127444799999967 ], [ -36.04002719999994, -9.12741409999995 ], [ -36.039910499999962, -9.12742 ], [ -36.039769899999953, -9.127411699999946 ], [ -36.039295199999977, -9.127395599999945 ], [ -36.039220399999984, -9.127395499999976 ], [ -36.038914199999972, -9.127427299999949 ], [ -36.038720299999966, -9.127452399999987 ], [ -36.038482, -9.127475099999973 ], [ -36.038163199999929, -9.127527699999957 ], [ -36.0379248, -9.127522699999904 ], [ -36.037761299999943, -9.127536299999981 ], [ -36.037531199999925, -9.127563499999955 ], [ -36.037394, -9.127563399999937 ], [ -36.037176399999964, -9.127593099999942 ], [ -36.03707669999995, -9.127664599999964 ], [ -36.036872899999935, -9.127742699999926 ], [ -36.036750899999966, -9.127908599999945 ], [ -36.036563799999961, -9.128019099999957 ], [ -36.036414099999945, -9.128129699999924 ], [ -36.036339399999974, -9.128314299999953 ], [ -36.036223599999971, -9.128508699999948 ], [ -36.036172599999936, -9.128612699999952 ], [ -36.036125699999957, -9.128766599999954 ], [ -36.036077599999942, -9.128848599999946 ], [ -36.036041399999931, -9.129016799999937 ], [ -36.036000399999978, -9.12913569999996 ], [ -36.035965399999952, -9.129237199999974 ], [ -36.035965299999937, -9.129301599999957 ], [ -36.035965099999935, -9.129347699999938 ], [ -36.035964699999973, -9.129531799999926 ], [ -36.035964499999977, -9.129679399999933 ], [ -36.03596529999993, -9.129901599999922 ], [ -36.035966, -9.130086799999955 ], [ -36.035928599999977, -9.130160599999948 ], [ -36.035928199999951, -9.130418699999932 ], [ -36.035890199999983, -9.130565799999925 ], [ -36.035896499999978, -9.13078 ], [ -36.035893699999988, -9.130971399999977 ], [ -36.035852099999943, -9.131119099999989 ], [ -36.035846399999976, -9.131310499999909 ], [ -36.035815899999925, -9.131435 ], [ -36.035739699999965, -9.131561899999943 ], [ -36.035718699999961, -9.131617199999932 ], [ -36.035627299999931, -9.131857099999925 ], [ -36.035589799999968, -9.1320416 ], [ -36.035553599999957, -9.132202699999924 ], [ -36.035548799999958, -9.132223899999916 ], [ -36.035542899999932, -9.13223149999992 ], [ -36.035426599999937, -9.132546099999942 ], [ -36.035173699999973, -9.133307199999917 ], [ -36.035162699999944, -9.133362499999965 ], [ -36.03516349999996, -9.133510799999947 ], [ -36.035089699999951, -9.13369619999998 ], [ -36.035052899999982, -9.133807399999956 ], [ -36.035016599999956, -9.133992699999974 ], [ -36.035015599999952, -9.13399419999997 ], [ -36.034204299999935, -9.135963599999966 ], [ -36.033923299999977, -9.135615499999979 ], [ -36.033487499999971, -9.135267399999973 ], [ -36.032814299999984, -9.134861299999942 ], [ -36.032182899999952, -9.13459149999994 ], [ -36.032135199999978, -9.134237099999934 ], [ -36.0320043, -9.133863099999948 ], [ -36.031683699999981, -9.133385199999955 ], [ -36.031459699999971, -9.133104599999976 ], [ -36.030926499999964, -9.132581899999934 ], [ -36.030364099999936, -9.132284199999946 ], [ -36.029937899999943, -9.131926099999921 ], [ -36.029512699999934, -9.13162309999997 ], [ -36.02931069999994, -9.131868399999989 ], [ -36.028930199999934, -9.131560799999933 ], [ -36.0284918, -9.131188299999948 ], [ -36.028159799999969, -9.131491099999955 ], [ -36.027908199999956, -9.1317213 ], [ -36.027637099999943, -9.131984899999985 ], [ -36.027346399999942, -9.132259799999904 ], [ -36.027218599999969, -9.132382499999951 ], [ -36.027075, -9.132512899999927 ], [ -36.026913099999952, -9.132664499999976 ], [ -36.026669799999979, -9.132881199999927 ], [ -36.026424499999969, -9.133095499999964 ], [ -36.026071299999963, -9.133381399999969 ], [ -36.025739499999936, -9.133616299999971 ], [ -36.025494499999979, -9.133795199999948 ], [ -36.025363699999957, -9.133880199999947 ], [ -36.02512669999993, -9.134039699999954 ], [ -36.024866799999984, -9.134217899999973 ], [ -36.024543299999955, -9.134423199999976 ], [ -36.024245399999984, -9.134608199999933 ], [ -36.023984399999954, -9.134764299999977 ], [ -36.025501899999938, -9.136262399999973 ], [ -36.02619679999998, -9.135577399999926 ], [ -36.026770799999959, -9.136116599999969 ], [ -36.027255, -9.136580099999934 ], [ -36.025914899999982, -9.147294799999923 ], [ -36.025835, -9.147236399999947 ], [ -36.024652599999968, -9.146400699999946 ], [ -36.022038699999939, -9.144834499999956 ], [ -36.020840199999959, -9.143810799999944 ], [ -36.020606099999952, -9.143582099999941 ], [ -36.019742299999962, -9.144670799999989 ], [ -36.019644299999982, -9.144857799999967 ], [ -36.01839049999996, -9.1480003 ], [ -36.018246499999975, -9.148119599999982 ], [ -36.017673, -9.148622099999956 ], [ -36.01636989999998, -9.149512499999959 ], [ -36.015725099999948, -9.149947699999924 ], [ -36.014354599999926, -9.148069 ], [ -36.014281399999959, -9.148283 ], [ -36.013998399999934, -9.148968399999935 ], [ -36.013908799999975, -9.149247899999988 ], [ -36.013733199999933, -9.14980889999992 ], [ -36.01351829999993, -9.150416799999968 ], [ -36.013293, -9.150332299999945 ], [ -36.013185, -9.150262399999988 ], [ -36.01286719999996, -9.150055699999943 ], [ -36.011634099999981, -9.149155899999919 ], [ -36.011283399999975, -9.1489716 ], [ -36.010757199999944, -9.1487792 ], [ -36.009826399999952, -9.148513599999939 ], [ -36.008565099999942, -9.148247 ], [ -36.007825399999945, -9.148097199999956 ], [ -36.007336, -9.147976499999984 ], [ -36.006753, -9.147785199999927 ], [ -36.006089, -9.147397799999958 ], [ -36.005274199999974, -9.14676189999996 ], [ -36.004489899999946, -9.14601079999994 ], [ -36.003496699999978, -9.145128399999958 ], [ -36.002888299999931, -9.144589399999983 ], [ -36.002845899999954, -9.144549799999933 ], [ -36.002679, -9.14439009999994 ], [ -36.002122799999938, -9.144002599999952 ], [ -36.00153, -9.143771899999939 ], [ -36.000542799999948, -9.143488099999963 ], [ -35.999215499999941, -9.14314509999997 ], [ -35.999086699999957, -9.143074499999965 ], [ -35.999073599999974, -9.143103199999942 ], [ -35.999053, -9.143170699999933 ], [ -35.9989748, -9.14342719999995 ], [ -35.998630199999987, -9.1445573 ], [ -35.997438799999941, -9.144787299999985 ], [ -35.99739059999996, -9.144858799999955 ], [ -35.997276099999951, -9.145927699999964 ], [ -35.997483299999942, -9.145858199999978 ], [ -35.997653499999956, -9.145967399999941 ], [ -35.997835399999929, -9.146261799999923 ], [ -35.998276899999951, -9.146827799999921 ], [ -35.998428399999959, -9.146866 ], [ -35.998977499999967, -9.147109299999945 ], [ -35.999546899999984, -9.147134499999938 ], [ -35.999888099999964, -9.14741979999995 ], [ -36.000575899999951, -9.147807199999939 ], [ -36.00124569999997, -9.148108499999958 ], [ -36.002001599999971, -9.1486922 ], [ -36.002513099999931, -9.149061 ], [ -36.00268989999995, -9.1491493 ], [ -36.003568199999968, -9.149918499999941 ], [ -36.00386119999996, -9.150004899999946 ], [ -36.00401339999997, -9.150104 ], [ -36.004373199999982, -9.150253899999935 ], [ -36.004766399999944, -9.150344799999971 ], [ -36.00493809999994, -9.150307499999952 ], [ -36.005106799999957, -9.150355799999954 ], [ -36.005401399999982, -9.150560499999932 ], [ -36.005664699999961, -9.150676 ], [ -36.005900499999932, -9.150937099999958 ], [ -36.006168899999977, -9.150806499999954 ], [ -36.007243699999961, -9.152186799999988 ], [ -36.008061, -9.152737 ], [ -36.012153599999976, -9.15322919999992 ], [ -36.012840299999937, -9.152964199999927 ], [ -36.012985, -9.152972699999983 ], [ -36.012983799999972, -9.153122199999926 ], [ -36.013000599999941, -9.15412 ], [ -36.013020799999936, -9.154472199999937 ], [ -36.013040499999931, -9.15466139999997 ], [ -36.013125199999934, -9.15520329999992 ], [ -36.013150299999943, -9.155365499999942 ], [ -36.013246099999954, -9.155914899999976 ], [ -36.013313299999929, -9.156187399999986 ], [ -36.013095799999967, -9.156081099999925 ], [ -36.012605299999962, -9.155840399999922 ], [ -36.011962099999955, -9.155490399999959 ], [ -36.010490699999934, -9.154650099999969 ], [ -36.008915399999985, -9.153464099999955 ], [ -36.007496499999938, -9.153086099999953 ], [ -36.006830399999963, -9.152812699999975 ], [ -36.006658699999946, -9.152771899999966 ], [ -36.006422799999946, -9.152423499999932 ], [ -36.00628439999997, -9.152154199999936 ], [ -36.0040006, -9.151977599999954 ], [ -36.002867699999975, -9.156225199999923 ], [ -36.005016499999954, -9.157109299999929 ], [ -36.006646699999976, -9.157798199999945 ], [ -36.006684799999967, -9.158008499999919 ], [ -36.006833399999948, -9.158374799999923 ], [ -36.006882799999978, -9.158525699999917 ], [ -36.006919299999936, -9.15865 ], [ -36.006951699999938, -9.15908319999995 ], [ -36.004131199999968, -9.158792299999956 ], [ -36.004262, -9.158083 ], [ -36.002099099999953, -9.157680599999944 ], [ -36.000343599999944, -9.162066799999954 ], [ -36.004652399999941, -9.162777599999965 ], [ -36.005091399999969, -9.164915799999948 ], [ -36.006067399999949, -9.1652397 ], [ -36.010338, -9.164557399999975 ], [ -36.00995839999996, -9.164935099999971 ], [ -36.00898849999993, -9.1659347 ], [ -36.008932399999928, -9.166024099999978 ], [ -36.008901299999934, -9.166073899999946 ], [ -36.008569199999961, -9.166902899999974 ], [ -36.008457799999974, -9.167092299999977 ], [ -36.00844009999998, -9.167105699999967 ], [ -36.008345799999979, -9.167177399999954 ], [ -36.0081067, -9.167223199999967 ], [ -36.007745099999973, -9.167336 ], [ -36.00747129999997, -9.167428399999951 ], [ -36.006706399999985, -9.167677699999944 ], [ -36.00585609999996, -9.168010599999931 ], [ -36.005520299999944, -9.168146799999919 ], [ -36.00512029999993, -9.168378599999917 ], [ -36.004937799999936, -9.168508499999964 ], [ -36.005485199999953, -9.169083 ], [ -36.005859699999959, -9.169261299999972 ], [ -36.006168799999955, -9.169374299999978 ], [ -36.006299599999977, -9.169481299999978 ], [ -36.006483899999978, -9.169623899999962 ], [ -36.006763299999932, -9.169719 ], [ -36.007256699999971, -9.169826 ], [ -36.007613299999946, -9.169944899999969 ], [ -36.008041299999945, -9.170141099999977 ], [ -36.008409899999947, -9.170337299999954 ], [ -36.008701199999969, -9.170581 ], [ -36.009206499999955, -9.170937699999959 ], [ -36.009664199999989, -9.171240799999959 ], [ -36.010121899999945, -9.171490499999958 ], [ -36.010686599999929, -9.171823399999949 ], [ -36.011150299999947, -9.17206119999997 ], [ -36.011269199999951, -9.172168199999941 ], [ -36.011501, -9.172405899999951 ], [ -36.01167339999995, -9.172697199999947 ], [ -36.011976599999961, -9.172964699999975 ], [ -36.012160899999969, -9.173178699999918 ], [ -36.012404599999975, -9.173297599999962 ], [ -36.013189299999972, -9.172132499999952 ], [ -36.01361129999998, -9.171573699999964 ], [ -36.013819399999925, -9.171240799999952 ], [ -36.014176, -9.170628499999955 ], [ -36.014437599999958, -9.170254 ], [ -36.014663499999983, -9.170010299999968 ], [ -36.014936899999952, -9.16984389999994 ], [ -36.018004299999973, -9.168542 ], [ -36.021545499999952, -9.167002599999918 ], [ -36.023500099999978, -9.169319 ], [ -36.02383, -9.169698599999931 ], [ -36.030305699999928, -9.168094099999971 ], [ -36.030388699999939, -9.1681169 ], [ -36.030534299999943, -9.1681207 ], [ -36.030670199999982, -9.168247399999936 ] ] ], [ [ [ -36.065067099999965, -9.103905299999932 ], [ -36.065507599999926, -9.103768499999942 ], [ -36.067506599999945, -9.103137899999957 ], [ -36.068048099999949, -9.102965799999927 ], [ -36.070285699999943, -9.1022546 ], [ -36.070496399999961, -9.102212399999932 ], [ -36.070669699999954, -9.102186199999956 ], [ -36.07073239999994, -9.102251399999961 ], [ -36.07078469999994, -9.102291199999959 ], [ -36.073671699999977, -9.101894399999953 ], [ -36.074087899999938, -9.101836 ], [ -36.074134899999933, -9.101937399999931 ], [ -36.075121699999961, -9.104065799999947 ], [ -36.075759199999936, -9.103895099999914 ], [ -36.075705899999946, -9.103458499999922 ], [ -36.075731499999968, -9.103239199999949 ], [ -36.07580059999998, -9.102988799999943 ], [ -36.075873299999955, -9.102757499999932 ], [ -36.075945899999958, -9.102390699999955 ], [ -36.075937899999929, -9.102087599999935 ], [ -36.075889399999937, -9.101824499999976 ], [ -36.07584479999997, -9.101547599999959 ], [ -36.075832799999944, -9.101473599999951 ], [ -36.075817, -9.10143 ], [ -36.075808599999959, -9.101106699999933 ], [ -36.075800499999957, -9.100739899999967 ], [ -36.075873199999933, -9.100397 ], [ -36.076003499999949, -9.100115899999951 ], [ -36.076074399999982, -9.0998059 ], [ -36.07613989999993, -9.099328399999916 ], [ -36.076200799999988, -9.098824 ], [ -36.076241499999988, -9.098749899999982 ], [ -36.076323, -9.098520399999922 ], [ -36.076431199999938, -9.098266599999937 ], [ -36.076542099999983, -9.097944399999962 ], [ -36.076588, -9.097807 ], [ -36.076674599999933, -9.097488799999944 ], [ -36.076805599999943, -9.096974299999937 ], [ -36.076337699999961, -9.096825699999973 ], [ -36.075872399999987, -9.09691389999994 ], [ -36.074906299999945, -9.097761799999935 ], [ -36.074755299999936, -9.098174199999963 ], [ -36.074634699999933, -9.098389699999931 ], [ -36.074469799999974, -9.098572799999944 ], [ -36.07429, -9.098888899999979 ], [ -36.074255599999972, -9.099065899999973 ], [ -36.074270499999955, -9.099200099999985 ], [ -36.074374399999954, -9.099466799999984 ], [ -36.074469799999974, -9.099683799999973 ], [ -36.07451709999998, -9.0998165 ], [ -36.074505699999968, -9.099934 ], [ -36.074465499999981, -9.100038 ], [ -36.074402799999973, -9.100149199999962 ], [ -36.074113699999948, -9.100295899999947 ], [ -36.074039899999946, -9.100330099999944 ], [ -36.073673299999939, -9.100453199999938 ], [ -36.073352299999954, -9.100602499999987 ], [ -36.073086299999943, -9.100767699999951 ], [ -36.07296459999997, -9.100782699999954 ], [ -36.072766, -9.100731499999922 ], [ -36.072600399999949, -9.10071 ], [ -36.072513899999933, -9.100754599999963 ], [ -36.07241839999994, -9.100820099999961 ], [ -36.072369899999956, -9.1008482 ], [ -36.071880299999968, -9.100885399999987 ], [ -36.071719799999975, -9.100881699999956 ], [ -36.071109899999946, -9.100942599999966 ], [ -36.070795399999952, -9.100963699999975 ], [ -36.070613599999952, -9.100976899999965 ], [ -36.070367699999956, -9.100956399999962 ], [ -36.070242499999949, -9.10057949999997 ], [ -36.068794899999951, -9.1010798 ], [ -36.068866599999978, -9.101331899999924 ], [ -36.067664799999939, -9.101707099999949 ], [ -36.066411199999948, -9.102098499999951 ], [ -36.066203399999949, -9.101441299999964 ], [ -36.065267199999944, -9.10172 ], [ -36.064654099999977, -9.102399099999964 ], [ -36.064088399999953, -9.104180499999908 ], [ -36.065067099999965, -9.103905299999932 ] ] ] ] } }
]
}
