{
"type": "FeatureCollection",
"name": "2800308",
"crs": { "type": "name", "properties": { "name": "urn:ogc:def:crs:OGC:1.3:CRS84" } },
"features": [
{ "type": "Feature", "properties": { "CD_MUN": "2800308", "NM_MUN": "Aracaju" }, "geometry": { "type": "Polygon", "coordinates": [ [ [ -37.138542299999983, -11.107976199999923 ], [ -37.138730599999981, -11.107870799999953 ], [ -37.139013, -11.107656199999953 ], [ -37.139265599999938, -11.107972299999979 ], [ -37.148639499999945, -11.111827 ], [ -37.151982099999948, -11.109428499999986 ], [ -37.152207499999982, -11.109557799999941 ], [ -37.152601499999939, -11.109714799999939 ], [ -37.153052099999968, -11.109845699999937 ], [ -37.15435789999998, -11.110222799999985 ], [ -37.155758, -11.110620299999937 ], [ -37.157919799999952, -11.111249 ], [ -37.158129199999969, -11.111326099999939 ], [ -37.158331, -11.111376399999941 ], [ -37.158492599999931, -11.111389799999914 ], [ -37.158819899999969, -11.111210699999953 ], [ -37.159392699999955, -11.11077309999996 ], [ -37.16036669999994, -11.110076699999977 ], [ -37.160448499999966, -11.110018099999948 ], [ -37.160623199999968, -11.1099015 ], [ -37.160359699999958, -11.109680799999973 ], [ -37.15940989999995, -11.109049499999955 ], [ -37.158092499999952, -11.108237799999925 ], [ -37.157265299999956, -11.107606399999957 ], [ -37.156223599999969, -11.106884899999962 ], [ -37.15493679999998, -11.10580259999996 ], [ -37.153895099999943, -11.104840499999971 ], [ -37.152822799999974, -11.103728199999974 ], [ -37.151903599999976, -11.102736 ], [ -37.151199, -11.101743899999956 ], [ -37.150341099999928, -11.100481199999942 ], [ -37.149759, -11.099338699999976 ], [ -37.149146199999961, -11.098196299999922 ], [ -37.148993, -11.097324399999932 ], [ -37.148839799999976, -11.09624209999992 ], [ -37.14880919999996, -11.095219899999979 ], [ -37.148780599999952, -11.094228899999949 ], [ -37.148747899999933, -11.093716599999951 ], [ -37.148993, -11.092844699999931 ], [ -37.149452599999961, -11.091732299999938 ], [ -37.15021859999996, -11.090589799999972 ], [ -37.150923199999973, -11.089687799999986 ], [ -37.151719799999967, -11.08893619999998 ], [ -37.153527399999973, -11.087523099999926 ], [ -37.155335099999952, -11.086741399999944 ], [ -37.15680569999995, -11.086079899999966 ], [ -37.157816699999955, -11.085749199999951 ], [ -37.158797099999951, -11.085508599999978 ], [ -37.160083899999961, -11.085057599999976 ], [ -37.161217499999957, -11.084666799999974 ], [ -37.162075399999928, -11.084456299999935 ], [ -37.162933199999948, -11.084095499999927 ], [ -37.164679599999943, -11.083554299999937 ], [ -37.166088899999984, -11.082983099999968 ], [ -37.169091499999972, -11.081479699999926 ], [ -37.170439499999922, -11.080848299999946 ], [ -37.171419899999925, -11.080517599999952 ], [ -37.171573099999939, -11.080397299999952 ], [ -37.171695699999937, -11.080247 ], [ -37.171787599999959, -11.079976399999953 ], [ -37.171818199999962, -11.079525399999964 ], [ -37.17169569999993, -11.079014299999924 ], [ -37.171573099999939, -11.078443 ], [ -37.171297399999958, -11.077841699999968 ], [ -37.170991, -11.077420699999941 ], [ -37.170684599999959, -11.076879499999974 ], [ -37.170010599999955, -11.076067699999959 ], [ -37.169397799999963, -11.075286 ], [ -37.16869319999995, -11.074474199999948 ], [ -37.168203, -11.073632299999922 ], [ -37.167345099999977, -11.072549799999923 ], [ -37.166830699999934, -11.071676 ], [ -37.166487199999949, -11.07134709999996 ], [ -37.165874499999973, -11.070655599999938 ], [ -37.165231099999971, -11.069903899999922 ], [ -37.164066799999944, -11.068580899999956 ], [ -37.163790199999944, -11.068191899999924 ], [ -37.163788, -11.068188799999962 ], [ -37.166266199999939, -11.06657029999997 ], [ -37.166364399999956, -11.066506 ], [ -37.166319, -11.06644249999994 ], [ -37.165912899999967, -11.065878699999923 ], [ -37.164812899999966, -11.064345099999958 ], [ -37.163235699999973, -11.061912899999978 ], [ -37.161749899999968, -11.059508399999959 ], [ -37.161052399999967, -11.058365099999939 ], [ -37.159816699999972, -11.0569384 ], [ -37.158415399999974, -11.055655199999924 ], [ -37.157073799999978, -11.055077499999989 ], [ -37.155886, -11.054790099999931 ], [ -37.155575399999975, -11.054697799999923 ], [ -37.15436729999994, -11.0547175 ], [ -37.153369599999955, -11.054765699999953 ], [ -37.151738799999976, -11.055063 ], [ -37.15061129999998, -11.055372499999965 ], [ -37.149144499999977, -11.055797399999966 ], [ -37.147978899999941, -11.056332699999926 ], [ -37.146968199999947, -11.05697729999997 ], [ -37.146039499999972, -11.057694799999968 ], [ -37.145316399999963, -11.058336499999935 ], [ -37.145172699999932, -11.058464 ], [ -37.144798, -11.058796599999944 ], [ -37.144613099999958, -11.058960599999974 ], [ -37.143903699999953, -11.059715599999953 ], [ -37.142849699999942, -11.06142659999996 ], [ -37.142791399999965, -11.061693099999975 ], [ -37.142453399999965, -11.063237299999953 ], [ -37.142290399999986, -11.063982 ], [ -37.141731899999975, -11.06410079999994 ], [ -37.141180399999939, -11.064221 ], [ -37.140598299999958, -11.064251099999971 ], [ -37.139863, -11.064040599999936 ], [ -37.139434, -11.063739899999977 ], [ -37.139158299999963, -11.063349 ], [ -37.138758, -11.063133 ], [ -37.138423, -11.06292809999997 ], [ -37.13823919999993, -11.062747699999939 ], [ -37.137963399999933, -11.062447 ], [ -37.137534499999965, -11.062056099999953 ], [ -37.137258799999984, -11.061905799999973 ], [ -37.136707299999962, -11.061544899999937 ], [ -37.136400899999963, -11.061244199999965 ], [ -37.136217099999953, -11.060853299999955 ], [ -37.1361558, -11.060342199999978 ], [ -37.136071, -11.059975099999978 ], [ -37.135972, -11.059831 ], [ -37.135788099999957, -11.059530299999949 ], [ -37.135512399999975, -11.059259699999936 ], [ -37.135305799999976, -11.05888749999996 ], [ -37.135249899999955, -11.058848899999926 ], [ -37.132910599999946, -11.057234299999964 ], [ -37.129267499999969, -11.050160899999989 ], [ -37.129095799999959, -11.049825399999969 ], [ -37.125172699999951, -11.042198799999934 ], [ -37.124465499999928, -11.040845699999986 ], [ -37.122322899999979, -11.03706479999993 ], [ -37.121200299999948, -11.0380522 ], [ -37.119729599999978, -11.039091599999958 ], [ -37.118382, -11.039481 ], [ -37.116018699999984, -11.039882099999948 ], [ -37.114866899999981, -11.039694099999975 ], [ -37.113624799999968, -11.039324799999985 ], [ -37.112376099999949, -11.038557699999945 ], [ -37.111464099999978, -11.037702 ], [ -37.111151, -11.036924199999939 ], [ -37.111513199999941, -11.035755 ], [ -37.112627499999981, -11.034042299999959 ], [ -37.113022899999976, -11.032722 ], [ -37.112799299999949, -11.032216599999966 ], [ -37.112864699999932, -11.031522 ], [ -37.113022699999931, -11.029717899999973 ], [ -37.112214699999981, -11.028441799999952 ], [ -37.111950499999971, -11.027331899999984 ], [ -37.111618199999953, -11.026002899999975 ], [ -37.111270899999965, -11.025927399999937 ], [ -37.110289299999984, -11.026516399999927 ], [ -37.109186799999982, -11.027935899999914 ], [ -37.108507199999963, -11.028313499999946 ], [ -37.107540699999959, -11.028162499999956 ], [ -37.106166499999965, -11.028645699999965 ], [ -37.105471799999982, -11.027286499999956 ], [ -37.106196699999948, -11.026969399999928 ], [ -37.105924799999976, -11.026108599999914 ], [ -37.106272199999985, -11.025429 ], [ -37.106666799999971, -11.0241928 ], [ -37.106449599999962, -11.023541299999975 ], [ -37.105845499999944, -11.02272579999992 ], [ -37.10539249999993, -11.022197199999958 ], [ -37.104939399999985, -11.022076399999946 ], [ -37.104501499999969, -11.0222123 ], [ -37.10422959999994, -11.022997599999929 ], [ -37.103837, -11.023148599999971 ], [ -37.103459499999936, -11.022756 ], [ -37.102674199999967, -11.022680499999986 ], [ -37.102206, -11.022665399999928 ], [ -37.102039899999959, -11.02258989999997 ], [ -37.10201, -11.022515099999955 ], [ -37.101759099999988, -11.021786 ], [ -37.101834799999949, -11.020893099999952 ], [ -37.102152599999954, -11.020287699999939 ], [ -37.102440099999967, -11.019258599999949 ], [ -37.102258499999941, -11.01829 ], [ -37.101895299999967, -11.017926799999948 ], [ -37.100533199999973, -11.017866199999961 ], [ -37.099292199999972, -11.018274899999954 ], [ -37.097627499999938, -11.018365699999967 ], [ -37.097264199999984, -11.017639199999964 ], [ -37.096265399999936, -11.016746299999955 ], [ -37.095629699999961, -11.015611199999984 ], [ -37.095644899999975, -11.014778899999962 ], [ -37.096795099999952, -11.01322 ], [ -37.097672899999971, -11.012009299999928 ], [ -37.097884699999959, -11.011298 ], [ -37.098611199999944, -11.010919599999974 ], [ -37.099670599999975, -11.01082879999996 ], [ -37.10015489999995, -11.011570399999922 ], [ -37.101380699999943, -11.012160599999939 ], [ -37.102515799999935, -11.013114099999932 ], [ -37.104256199999959, -11.013855699999953 ], [ -37.106390199999964, -11.013734599999959 ], [ -37.107449599999931, -11.013916199999914 ], [ -37.108433299999952, -11.014839399999971 ], [ -37.108963, -11.015838199999969 ], [ -37.109901299999926, -11.016564699999952 ], [ -37.110674299999971, -11.01661519999994 ], [ -37.110934899999968, -11.016790799999956 ], [ -37.111478499999976, -11.017107899999912 ], [ -37.112203399999942, -11.017938499999957 ], [ -37.112837699999936, -11.018421799999942 ], [ -37.113502199999971, -11.018346299999957 ], [ -37.113849499999958, -11.017651599999965 ], [ -37.114091099999939, -11.016398099999952 ], [ -37.114030699999951, -11.01519 ], [ -37.113859399999967, -11.013201 ], [ -37.1137849, -11.012500699999975 ], [ -37.113988699999936, -11.012055199999962 ], [ -37.11406419999998, -11.011375599999973 ], [ -37.1138, -11.010696 ], [ -37.113686699999967, -11.010318499999919 ], [ -37.114124599999975, -11.009918299999971 ], [ -37.11413969999996, -11.009646399999943 ], [ -37.114041599999958, -11.009065 ], [ -37.114034, -11.008861099999926 ], [ -37.114102, -11.008793199999937 ], [ -37.1143072, -11.008809199999954 ], [ -37.115012099999944, -11.00930849999996 ], [ -37.11569, -11.010516699999934 ], [ -37.116086, -11.011281799999937 ], [ -37.117213599999957, -11.013026899999943 ], [ -37.118824499999967, -11.014074 ], [ -37.11863649999998, -11.015792199999972 ], [ -37.115951799999948, -11.018181699999943 ], [ -37.115763799999968, -11.019712 ], [ -37.115441699999963, -11.021134899999941 ], [ -37.116488699999934, -11.02153769999995 ], [ -37.120086299999969, -11.022182 ], [ -37.121589799999981, -11.022584699999989 ], [ -37.123039499999955, -11.02357809999997 ], [ -37.123496, -11.0246251 ], [ -37.123388599999942, -11.026048099999963 ], [ -37.121160199999963, -11.025538 ], [ -37.118636499999973, -11.024464099999941 ], [ -37.116435, -11.024732499999974 ], [ -37.114689899999981, -11.0252963 ], [ -37.115777199999968, -11.029390599999957 ], [ -37.116596099999981, -11.030088599999942 ], [ -37.11885129999996, -11.031874 ], [ -37.120247399999975, -11.033753399999958 ], [ -37.120438599999936, -11.034692399999917 ], [ -37.121082, -11.034902899999965 ], [ -37.121679399999955, -11.035218699999975 ], [ -37.122123699999975, -11.035444199999967 ], [ -37.122333, -11.035598799999947 ], [ -37.123747099999946, -11.035178599999929 ], [ -37.12382649999995, -11.035155 ], [ -37.127581599999985, -11.033201199999946 ], [ -37.12530309999994, -11.027401899999974 ], [ -37.122872, -11.021194799999934 ], [ -37.120340899999981, -11.014887599999948 ], [ -37.118879099999958, -11.0111434 ], [ -37.117333799999983, -11.007185399999951 ], [ -37.114876099999954, -11.000878599999968 ], [ -37.114811299999936, -11.000713199999952 ], [ -37.112751399999979, -10.99545079999997 ], [ -37.112103299999937, -10.993783499999932 ], [ -37.111895, -10.993252799999933 ], [ -37.111752799999977, -10.992890499999936 ], [ -37.110534599999944, -10.989786599999933 ], [ -37.109959099999969, -10.988320399999955 ], [ -37.109591299999977, -10.987404099999942 ], [ -37.106611199999982, -10.979846599999982 ], [ -37.105429, -10.977078599999951 ], [ -37.105281099999956, -10.976457499999984 ], [ -37.105106899999946, -10.976013 ], [ -37.10454969999995, -10.97459089999996 ], [ -37.104317599999938, -10.973992799999985 ], [ -37.1037937, -10.972642699999954 ], [ -37.102704399999944, -10.969878899999969 ], [ -37.102659599999988, -10.969766099999962 ], [ -37.102654599999937, -10.969753699999966 ], [ -37.102560299999936, -10.969516399999975 ], [ -37.101246, -10.96617269999996 ], [ -37.099940799999956, -10.962847 ], [ -37.09965909999994, -10.962123499999951 ], [ -37.099630799999943, -10.962050799999931 ], [ -37.099625799999956, -10.962037699999932 ], [ -37.099157699999978, -10.960835399999958 ], [ -37.098883, -10.960132599999966 ], [ -37.098491699999954, -10.959131799999973 ], [ -37.098266799999976, -10.958533799999939 ], [ -37.098216899999954, -10.958421099999949 ], [ -37.098203099999971, -10.958389799999965 ], [ -37.098196199999968, -10.958374199999977 ], [ -37.098189, -10.958357799999925 ], [ -37.098171099999938, -10.958317399999943 ], [ -37.098160399999983, -10.958293199999959 ], [ -37.09808639999995, -10.958125899999981 ], [ -37.097997499999963, -10.957887 ], [ -37.097981899999986, -10.957845 ], [ -37.097954599999987, -10.957771699999949 ], [ -37.097923399999956, -10.957687899999939 ], [ -37.097815799999978, -10.957398699999949 ], [ -37.09773569999993, -10.957183599999945 ], [ -37.097712499999943, -10.957123799999984 ], [ -37.0976879, -10.957060499999939 ], [ -37.097267699999975, -10.95597849999996 ], [ -37.096448499999944, -10.953903299999979 ], [ -37.096052499999985, -10.952897499999931 ], [ -37.095656499999954, -10.951873499999978 ], [ -37.095452499999965, -10.951362099999917 ], [ -37.095179299999984, -10.950677399999968 ], [ -37.094967899999972, -10.950136399999959 ], [ -37.094531299999971, -10.949019099999926 ], [ -37.09448469999996, -10.948901099999954 ], [ -37.094433399999957, -10.948771399999943 ], [ -37.093901199999955, -10.947424199999945 ], [ -37.093865299999948, -10.947315499999931 ], [ -37.093853399999944, -10.94728439999996 ], [ -37.093644, -10.946736099999947 ], [ -37.093550399999963, -10.946491 ], [ -37.093431099999982, -10.946202299999985 ], [ -37.093262099999954, -10.945793099999946 ], [ -37.093125699999973, -10.945440699999937 ], [ -37.093052099999966, -10.945250499999934 ], [ -37.093011, -10.945144199999953 ], [ -37.09278519999998, -10.944560799999978 ], [ -37.092321199999958, -10.943364699999963 ], [ -37.092051399999946, -10.942668899999934 ], [ -37.091509899999949, -10.941272899999927 ], [ -37.09149229999997, -10.941227499999972 ], [ -37.091390399999973, -10.940963399999942 ], [ -37.091576099999948, -10.94053069999995 ], [ -37.092133099999955, -10.939250599999966 ], [ -37.093422499999974, -10.936447399999967 ], [ -37.093663699999986, -10.935903 ], [ -37.093843899999968, -10.935496199999918 ], [ -37.093848799999925, -10.935485299999915 ], [ -37.093885599999965, -10.93540209999996 ], [ -37.09442649999994, -10.934181399999934 ], [ -37.094440899999938, -10.934148799999944 ], [ -37.096262399999944, -10.930038099999921 ], [ -37.09642439999994, -10.929674799999926 ], [ -37.096441199999951, -10.929637 ], [ -37.097226499999984, -10.927876299999969 ], [ -37.097496499999977, -10.927270599999925 ], [ -37.098507899999966, -10.925017099999922 ], [ -37.099751299999987, -10.922231599999979 ], [ -37.100077399999968, -10.921508299999973 ], [ -37.10081629999997, -10.919855899999959 ], [ -37.101124499999962, -10.919166699999966 ], [ -37.102062399999973, -10.917132099999968 ], [ -37.102138099999934, -10.916968 ], [ -37.10228379999996, -10.91665189999997 ], [ -37.102711499999941, -10.915551799999941 ], [ -37.104724399999952, -10.911116799999956 ], [ -37.107127699999978, -10.905671799999928 ], [ -37.107322499999952, -10.905248199999971 ], [ -37.107517399999949, -10.904797399999962 ], [ -37.107257799999957, -10.904062699999949 ], [ -37.107238899999963, -10.904009299999938 ], [ -37.107219099999952, -10.90392669999993 ], [ -37.107016099999946, -10.903076799999953 ], [ -37.107017499999984, -10.902850799999937 ], [ -37.106954599999945, -10.90266969999994 ], [ -37.10688209999995, -10.9025698 ], [ -37.106800699999958, -10.902433699999952 ], [ -37.106728099999941, -10.902333799999957 ], [ -37.106692, -10.902261299999971 ], [ -37.10660119999995, -10.902152199999929 ], [ -37.106565399999965, -10.902034499999944 ], [ -37.106520199999984, -10.901952799999949 ], [ -37.106438199999957, -10.901889099999932 ], [ -37.106356199999944, -10.901843399999963 ], [ -37.106338199999982, -10.901798099999928 ], [ -37.106356799999958, -10.901753 ], [ -37.106329599999988, -10.901716599999915 ], [ -37.106320799999942, -10.901662399999966 ], [ -37.106312, -10.901599 ], [ -37.106294, -10.901562699999937 ], [ -37.106248599999958, -10.901508199999959 ], [ -37.106230799999942, -10.901435799999948 ], [ -37.106223199999938, -10.90118269999995 ], [ -37.106197, -10.900992699999962 ], [ -37.106106099999977, -10.900901699999974 ], [ -37.106042299999949, -10.900865199999954 ], [ -37.106015199999938, -10.900810699999973 ], [ -37.105951799999957, -10.90072 ], [ -37.105878899999936, -10.900665299999964 ], [ -37.105824299999945, -10.90061969999995 ], [ -37.105806499999979, -10.90055629999995 ], [ -37.105797699999975, -10.900493 ], [ -37.105788499999967, -10.900429699999959 ], [ -37.105752799999955, -10.900357099999946 ], [ -37.105689699999971, -10.900212099999976 ], [ -37.105633399999931, -10.900083499999935 ], [ -37.105590599999971, -10.899985499999937 ], [ -37.105545299999953, -10.899903899999975 ], [ -37.105518399999937, -10.899822399999934 ], [ -37.105473299999979, -10.899722699999925 ], [ -37.105455499999948, -10.899641199999971 ], [ -37.105447, -10.899550699999949 ], [ -37.105456499999946, -10.899487499999951 ], [ -37.105392799999947, -10.899432899999963 ], [ -37.105365499999955, -10.899414599999929 ], [ -37.105347599999952, -10.899360299999966 ], [ -37.105311199999967, -10.899333 ], [ -37.10527459999998, -10.899332699999951 ], [ -37.105219799999929, -10.899323299999937 ], [ -37.105194499999989, -10.899294899999964 ], [ -37.105147099999954, -10.899241499999965 ], [ -37.105101899999966, -10.899150899999929 ], [ -37.104974799999979, -10.89900549999993 ], [ -37.104838699999959, -10.898832899999958 ], [ -37.104639099999929, -10.898578499999944 ], [ -37.104475799999939, -10.898378599999958 ], [ -37.104203599999948, -10.898033499999942 ], [ -37.103659099999959, -10.89735209999998 ], [ -37.103523, -10.897188599999923 ], [ -37.103450399999929, -10.897088699999921 ], [ -37.103350799999937, -10.896934399999974 ], [ -37.103242, -10.896789099999985 ], [ -37.103142199999986, -10.896652899999921 ], [ -37.103078799999935, -10.896562099999935 ], [ -37.102987799999937, -10.896480199999928 ], [ -37.102904599999931, -10.896363499999966 ], [ -37.102863799999973, -10.896335 ], [ -37.102831599999952, -10.896312399999944 ], [ -37.102824399999967, -10.896289299999971 ], [ -37.102806399999963, -10.896244 ], [ -37.102770199999952, -10.89618049999995 ], [ -37.102715899999964, -10.896089799999968 ], [ -37.102634599999931, -10.895935599999973 ], [ -37.102551299999959, -10.895802 ], [ -37.102544099999939, -10.895790399999953 ], [ -37.102526099999984, -10.895736099999965 ], [ -37.102498799999978, -10.895717799999945 ], [ -37.102471599999944, -10.895681499999979 ], [ -37.102462699999933, -10.895636199999936 ], [ -37.102408499999974, -10.895536499999952 ], [ -37.102299899999942, -10.895355 ], [ -37.102101, -10.894992199999914 ], [ -37.102027199999952, -10.894850799999984 ], [ -37.102001599999944, -10.894801799999977 ], [ -37.10197549999998, -10.894725899999967 ], [ -37.101927299999943, -10.894680199999936 ], [ -37.101892799999966, -10.89464739999994 ], [ -37.101877799999954, -10.894123 ], [ -37.101888599999938, -10.89387 ], [ -37.101881599999963, -10.893526399999919 ], [ -37.101873499999961, -10.893354599999943 ], [ -37.101883899999962, -10.893164899999915 ], [ -37.101903099999959, -10.893011299999969 ], [ -37.102005099999928, -10.892804099999974 ], [ -37.102143899999938, -10.892551799999962 ], [ -37.102328099999966, -10.892345 ], [ -37.102530399999978, -10.892165499999969 ], [ -37.102640599999972, -10.892102899999943 ], [ -37.102686399999989, -10.892094199999981 ], [ -37.102768499999968, -10.892112699999908 ], [ -37.102782, -10.892117799999951 ], [ -37.102791399999951, -10.892121399999944 ], [ -37.102805699999976, -10.892126799999973 ], [ -37.102841499999954, -10.892140299999948 ], [ -37.102874299999939, -10.892154399999958 ], [ -37.102905399999948, -10.892167799999966 ], [ -37.103042699999946, -10.892141599999935 ], [ -37.10317109999994, -10.892097199999965 ], [ -37.103510199999967, -10.891972699999942 ], [ -37.103785199999955, -10.891875 ], [ -37.103950299999958, -10.89180369999997 ], [ -37.104080599999975, -10.891716299999935 ], [ -37.104097299999971, -10.891705099999974 ], [ -37.104262699999936, -10.891570599999955 ], [ -37.10438209999996, -10.89149 ], [ -37.1044189, -10.891463099999953 ], [ -37.104713899999972, -10.891229699999954 ], [ -37.104809899999964, -10.890956699999952 ], [ -37.104787799999954, -10.890642199999936 ], [ -37.104688499999959, -10.890490399999962 ], [ -37.104655299999934, -10.890327799999985 ], [ -37.104647199999931, -10.89022859999996 ], [ -37.104633199999967, -10.89005669999993 ], [ -37.104544899999958, -10.88962289999994 ], [ -37.104467599999964, -10.889232499999931 ], [ -37.104489699999931, -10.888918 ], [ -37.10442339999998, -10.888646899999971 ], [ -37.104423399999973, -10.888560199999972 ], [ -37.104478599999943, -10.888451799999933 ], [ -37.104412399999951, -10.888159 ], [ -37.104390299999977, -10.88796379999998 ], [ -37.104379299999955, -10.887768599999958 ], [ -37.104235699999947, -10.887540899999976 ], [ -37.104014799999959, -10.887356499999958 ], [ -37.103727699999972, -10.887215499999959 ], [ -37.103341199999932, -10.887139599999971 ], [ -37.103009899999954, -10.887172199999943 ], [ -37.102590299999974, -10.887139599999964 ], [ -37.102292199999972, -10.887161299999965 ], [ -37.102093399999944, -10.887248099999974 ], [ -37.101983, -10.887324 ], [ -37.101817299999929, -10.88734569999998 ], [ -37.101695799999959, -10.887291399999983 ], [ -37.101441899999934, -10.887302299999929 ], [ -37.101364599999954, -10.887334799999959 ], [ -37.101353499999966, -10.887410699999963 ], [ -37.101397699999957, -10.887497499999931 ], [ -37.101169699999957, -10.887536199999939 ], [ -37.101013499999972, -10.887638499999962 ], [ -37.10095089999993, -10.887736699999943 ], [ -37.100948599999974, -10.88780579999997 ], [ -37.100916099999949, -10.887820899999941 ], [ -37.100860299999972, -10.887776199999957 ], [ -37.100802, -10.887728299999946 ], [ -37.100724099999979, -10.88771439999992 ], [ -37.100671499999976, -10.887667499999969 ], [ -37.100589099999979, -10.887646499999947 ], [ -37.100517299999979, -10.88765479999995 ], [ -37.100456599999973, -10.887665699999939 ], [ -37.100452499999967, -10.887699099999955 ], [ -37.100398, -10.887703599999959 ], [ -37.100369099999966, -10.887672399999934 ], [ -37.100299399999983, -10.887636099999957 ], [ -37.100224599999933, -10.887620599999938 ], [ -37.100138399999935, -10.887617899999935 ], [ -37.100083699999978, -10.887639099999934 ], [ -37.100053199999948, -10.887660799999939 ], [ -37.100033599999961, -10.887684499999976 ], [ -37.100011299999949, -10.887686 ], [ -37.099989199999989, -10.887651599999966 ], [ -37.099935899999934, -10.887627899999933 ], [ -37.09988409999994, -10.887621699999967 ], [ -37.099828699999939, -10.887626699999936 ], [ -37.099780299999956, -10.88763859999996 ], [ -37.09974509999995, -10.887654799999947 ], [ -37.099728, -10.887647199999952 ], [ -37.09972079999995, -10.887624799999953 ], [ -37.099697099999958, -10.887603 ], [ -37.09969289999998, -10.887577799999976 ], [ -37.099676099999954, -10.887544499999928 ], [ -37.099646799999967, -10.887526199999961 ], [ -37.099618, -10.887531299999965 ], [ -37.099573199999959, -10.887515399999925 ], [ -37.099561899999969, -10.887491299999983 ], [ -37.09956939999995, -10.88748 ], [ -37.09956509999995, -10.887465599999933 ], [ -37.099541399999964, -10.887456499999926 ], [ -37.099515099999969, -10.88745989999995 ], [ -37.099490099999969, -10.887441399999947 ], [ -37.099461399999939, -10.887439 ], [ -37.099403099999961, -10.887453399999982 ], [ -37.099379399999982, -10.887468799999953 ], [ -37.099366, -10.887491199999948 ], [ -37.099337399999975, -10.887466299999968 ], [ -37.099288499999943, -10.887429 ], [ -37.099247099999957, -10.887410699999974 ], [ -37.099190299999968, -10.8873991 ], [ -37.099118799999928, -10.887411499999933 ], [ -37.099065899999978, -10.887417599999948 ], [ -37.099029499999972, -10.887449 ], [ -37.098993099999966, -10.887444399999955 ], [ -37.098972899999985, -10.887410899999946 ], [ -37.098955, -10.887378699999932 ], [ -37.098918699999963, -10.887360899999962 ], [ -37.098879, -10.887356499999962 ], [ -37.098864, -10.88733509999998 ], [ -37.09883229999997, -10.887323899999949 ], [ -37.098796299999947, -10.88732219999998 ], [ -37.098769499999953, -10.887335699999932 ], [ -37.098742799999968, -10.887344399999961 ], [ -37.098714499999964, -10.887331699999972 ], [ -37.098684799999951, -10.887313 ], [ -37.098646299999984, -10.887299399999963 ], [ -37.098610199999939, -10.887292199999935 ], [ -37.098578499999974, -10.887303299999934 ], [ -37.09855959999993, -10.887327299999969 ], [ -37.098559, -10.887353599999908 ], [ -37.098545099999967, -10.887368599999929 ], [ -37.098527, -10.887376299999962 ], [ -37.098511599999945, -10.887386499999927 ], [ -37.098504799999944, -10.887398599999946 ], [ -37.0984802, -10.887378399999934 ], [ -37.098450799999966, -10.887361299999954 ], [ -37.098411099999971, -10.88734579999992 ], [ -37.098376199999969, -10.887348799999915 ], [ -37.09833059999994, -10.887370699999966 ], [ -37.098296299999959, -10.887386499999945 ], [ -37.098206399999981, -10.887347799999946 ], [ -37.098040199999964, -10.887365199999978 ], [ -37.098024, -10.887338899999971 ], [ -37.09799959999998, -10.8873182 ], [ -37.097950599999933, -10.887306899999952 ], [ -37.097920699999982, -10.887320299999933 ], [ -37.097875, -10.887362099999956 ], [ -37.097833199999975, -10.887369799999933 ], [ -37.097803099999972, -10.887380799999971 ], [ -37.097773099999984, -10.887400799999984 ], [ -37.097752, -10.887432899999958 ], [ -37.097742699999969, -10.887387499999921 ], [ -37.097724099999944, -10.887356 ], [ -37.097694499999939, -10.887330399999936 ], [ -37.09766419999994, -10.887321499999935 ], [ -37.097636699999953, -10.8873144 ], [ -37.097609699999964, -10.88727539999997 ], [ -37.097562599999954, -10.887246299999971 ], [ -37.097550099999971, -10.887222899999939 ], [ -37.097531599999968, -10.887205199999936 ], [ -37.097495699999975, -10.887214 ], [ -37.09747729999998, -10.88721029999992 ], [ -37.097458, -10.887213299999914 ], [ -37.097426, -10.887233 ], [ -37.097405499999979, -10.887250199999945 ], [ -37.097368399999937, -10.887252299999943 ], [ -37.097334099999962, -10.887236199999972 ], [ -37.097288899999967, -10.887202099999962 ], [ -37.097259599999973, -10.887191499999979 ], [ -37.097238499999953, -10.887169599999933 ], [ -37.097193499999946, -10.887152399999925 ], [ -37.097146199999941, -10.887151 ], [ -37.097095799999977, -10.887161299999944 ], [ -37.097054599999986, -10.887149 ], [ -37.097008599999981, -10.887154799999958 ], [ -37.096970299999953, -10.8871713 ], [ -37.096954, -10.887195899999941 ], [ -37.096942899999938, -10.887236599999941 ], [ -37.096897099999978, -10.8872507 ], [ -37.09687619999994, -10.887258299999937 ], [ -37.096870199999955, -10.887260499999972 ], [ -37.096784399999933, -10.887204399999973 ], [ -37.096742399999982, -10.887249299999947 ], [ -37.096714099999929, -10.887294 ], [ -37.096558499999965, -10.887204799999934 ], [ -37.096558, -10.88715 ], [ -37.0964848, -10.887188 ], [ -37.096445799999977, -10.887230599999961 ], [ -37.096379599999977, -10.887189899999949 ], [ -37.096345099999958, -10.887249399999988 ], [ -37.096335799999963, -10.887287499999964 ], [ -37.09629469999993, -10.887289399999936 ], [ -37.096277599999944, -10.887234799999936 ], [ -37.096295499999933, -10.887187299999937 ], [ -37.096303099999943, -10.887140799999933 ], [ -37.096274199999982, -10.887090299999965 ], [ -37.096221199999945, -10.887046199999926 ], [ -37.096193299999982, -10.887024099999953 ], [ -37.096163399999966, -10.887020299999973 ], [ -37.096129499999961, -10.887021399999981 ], [ -37.096100099999951, -10.887028099999942 ], [ -37.096059099999941, -10.887009199999971 ], [ -37.096019199999951, -10.88701009999993 ], [ -37.09601349999997, -10.886986 ], [ -37.096015899999941, -10.886958299999952 ], [ -37.096007399999962, -10.886938199999969 ], [ -37.09604969999998, -10.886891699999989 ], [ -37.096025, -10.88687 ], [ -37.096039699999949, -10.886859599999967 ], [ -37.09604969999998, -10.886839399999916 ], [ -37.096040099999982, -10.886817799999966 ], [ -37.096016899999938, -10.886804 ], [ -37.096040499999965, -10.88676909999997 ], [ -37.096062199999956, -10.88673089999997 ], [ -37.096070499999939, -10.886700899999957 ], [ -37.096056399999952, -10.886689899999963 ], [ -37.096036, -10.886687699999982 ], [ -37.096033199999965, -10.886671 ], [ -37.096026299999942, -10.886659299999948 ], [ -37.09604139999994, -10.886625 ], [ -37.096000799999949, -10.886604499999972 ], [ -37.095979199999931, -10.886643899999958 ], [ -37.095942399999956, -10.886636099999965 ], [ -37.095956, -10.886592399999941 ], [ -37.095945499999978, -10.886556299999953 ], [ -37.095890199999921, -10.88658319999996 ], [ -37.095821299999955, -10.886617199999934 ], [ -37.09578, -10.886702799999972 ], [ -37.095737, -10.886691699999975 ], [ -37.09570419999995, -10.886676599999921 ], [ -37.095699399999951, -10.886658199999937 ], [ -37.095659099999978, -10.886652399999946 ], [ -37.095631099999942, -10.886731899999967 ], [ -37.09557929999994, -10.886714399999947 ], [ -37.095520299999983, -10.886698099999919 ], [ -37.095495599999929, -10.8866715 ], [ -37.095512399999969, -10.886606299999904 ], [ -37.095463399999979, -10.886593799999966 ], [ -37.095447599999943, -10.886619299999934 ], [ -37.09543519999994, -10.886614899999918 ], [ -37.095435299999963, -10.886588299999966 ], [ -37.095376299999941, -10.886576299999945 ], [ -37.095390499999951, -10.886494499999984 ], [ -37.095319599999982, -10.886481 ], [ -37.095328499999937, -10.886450299999977 ], [ -37.09535469999998, -10.886453299999973 ], [ -37.095371599999972, -10.886377299999952 ], [ -37.095262299999945, -10.886356399999968 ], [ -37.095253299999968, -10.886327299999968 ], [ -37.095259299999945, -10.886300799999962 ], [ -37.095277599999982, -10.886278 ], [ -37.095294799999984, -10.886279799999935 ], [ -37.095309899999961, -10.886274699999946 ], [ -37.095312399999962, -10.886261399999986 ], [ -37.095310399999967, -10.886246899999936 ], [ -37.095301699999936, -10.886221499999957 ], [ -37.095290199999965, -10.886199899999941 ], [ -37.095269, -10.886182299999961 ], [ -37.095219199999981, -10.886172099999948 ], [ -37.095182099999931, -10.88618529999996 ], [ -37.095159, -10.886204099999935 ], [ -37.095155199999965, -10.886230599999989 ], [ -37.095135399999954, -10.886236899999965 ], [ -37.095128, -10.8862511 ], [ -37.09512859999996, -10.886263 ], [ -37.095134099999939, -10.886277599999964 ], [ -37.095154499999978, -10.88628819999998 ], [ -37.095134099999939, -10.886317599999936 ], [ -37.095114899999949, -10.886345199999917 ], [ -37.095109199999968, -10.886376699999982 ], [ -37.095109199999975, -10.88640989999994 ], [ -37.095056199999931, -10.886399 ], [ -37.095044799999982, -10.886347599999961 ], [ -37.095046599999932, -10.886299499999945 ], [ -37.095012399999973, -10.886282399999953 ], [ -37.0949907, -10.886301099999985 ], [ -37.094972399999968, -10.886297 ], [ -37.094974, -10.886271199999946 ], [ -37.094956, -10.886269099999947 ], [ -37.094946099999973, -10.886293799999986 ], [ -37.094913899999938, -10.88628749999998 ], [ -37.094888499999968, -10.886287899999965 ], [ -37.094862199999966, -10.886304299999949 ], [ -37.094846099999984, -10.886332499999982 ], [ -37.094806599999977, -10.886322199999945 ], [ -37.094801199999957, -10.886273099999917 ], [ -37.094786899999974, -10.886224599999922 ], [ -37.09474739999996, -10.886177899999945 ], [ -37.094680599999954, -10.886138199999936 ], [ -37.094610299999935, -10.886154899999939 ], [ -37.094565799999934, -10.886157899999946 ], [ -37.094531899999936, -10.88609109999992 ], [ -37.094508799999971, -10.886052599999964 ], [ -37.094466599999976, -10.886025599999922 ], [ -37.094428499999935, -10.885989699999962 ], [ -37.094388799999933, -10.885949599999957 ], [ -37.09433649999994, -10.885961199999944 ], [ -37.094319399999954, -10.885979299999978 ], [ -37.0943, -10.885957099999933 ], [ -37.094288699999936, -10.885930899999938 ], [ -37.094296299999939, -10.885866499999979 ], [ -37.094279699999959, -10.88584039999995 ], [ -37.094247599999967, -10.885815899999947 ], [ -37.09425159999995, -10.88577939999994 ], [ -37.094237299999975, -10.885749399999948 ], [ -37.094211299999984, -10.885735699999964 ], [ -37.094225699999981, -10.885709899999934 ], [ -37.0942247, -10.885676599999959 ], [ -37.094207399999959, -10.885642599999922 ], [ -37.094181299999946, -10.885622 ], [ -37.094156099999971, -10.885618099999917 ], [ -37.094133399999969, -10.88561749999996 ], [ -37.094130099999973, -10.885611899999962 ], [ -37.094131, -10.885600799999958 ], [ -37.094129399999929, -10.885589699999969 ], [ -37.094116199999981, -10.885555699999925 ], [ -37.09409729999993, -10.885528199999946 ], [ -37.094078299999985, -10.885502099999952 ], [ -37.094054199999952, -10.8854805 ], [ -37.094035, -10.885468199999943 ], [ -37.094033299999985, -10.885431199999976 ], [ -37.093992299999975, -10.885407699999963 ], [ -37.093947799999974, -10.885398199999953 ], [ -37.093877599999985, -10.885408399999978 ], [ -37.093822299999943, -10.885426199999918 ], [ -37.093762599999941, -10.885465399999932 ], [ -37.093727399999985, -10.885519099999945 ], [ -37.09365569999995, -10.885588899999961 ], [ -37.0936149, -10.88567 ], [ -37.093547699999938, -10.885668299999962 ], [ -37.093471399999949, -10.88568 ], [ -37.093429799999974, -10.885615099999928 ], [ -37.093272199999937, -10.885872 ], [ -37.093049199999939, -10.88642639999993 ], [ -37.092749099999942, -10.887124 ], [ -37.092730099999983, -10.887232699999981 ], [ -37.092703499999971, -10.887338899999975 ], [ -37.092677599999945, -10.8874615 ], [ -37.092626699999983, -10.887489799999978 ], [ -37.092562699999974, -10.88749139999995 ], [ -37.092508899999984, -10.887523899999954 ], [ -37.092457699999947, -10.88750249999992 ], [ -37.092453899999953, -10.88746469999997 ], [ -37.092366499999969, -10.887475099999977 ], [ -37.092320699999966, -10.887571099999953 ], [ -37.092147199999943, -10.887581399999938 ], [ -37.091827799999976, -10.887640799999925 ], [ -37.091716799999965, -10.887645799999961 ], [ -37.091725599999961, -10.887391899999956 ], [ -37.091671899999938, -10.887254599999956 ], [ -37.091576699999969, -10.887140499999926 ], [ -37.091335799999968, -10.887005899999966 ], [ -37.091241799999978, -10.886969299999972 ], [ -37.091216899999964, -10.886986399999953 ], [ -37.091179899999929, -10.887091799999942 ], [ -37.091055299999937, -10.887228299999942 ], [ -37.090931299999966, -10.887302299999913 ], [ -37.090756299999953, -10.887381199999945 ], [ -37.090554299999944, -10.887442199999953 ], [ -37.090367299999961, -10.887480199999954 ], [ -37.090317299999974, -10.887506199999978 ], [ -37.090217299999956, -10.887680199999977 ], [ -37.090090399999951, -10.887762199999939 ], [ -37.090029399999935, -10.887912199999944 ], [ -37.089957399999946, -10.887998199999975 ], [ -37.089880399999984, -10.888259199999949 ], [ -37.089735399999945, -10.888413199999935 ], [ -37.08960639999998, -10.888869099999964 ], [ -37.089803399999944, -10.888996099999924 ], [ -37.08988439999996, -10.88900609999998 ], [ -37.089930399999965, -10.889054099999944 ], [ -37.089960399999946, -10.889122099999943 ], [ -37.089909399999954, -10.889306099999953 ], [ -37.089806399999937, -10.889259099999968 ], [ -37.089723399999968, -10.8892281 ], [ -37.089654399999979, -10.889240099999935 ], [ -37.089571399999969, -10.889281099999959 ], [ -37.08950939999994, -10.889359099999982 ], [ -37.089130399999931, -10.88948509999995 ], [ -37.089003899999966, -10.889574399999951 ], [ -37.089105, -10.889198499999971 ], [ -37.086698599999977, -10.889162799999951 ], [ -37.086851199999955, -10.888887699999954 ], [ -37.08692049999997, -10.888690299999945 ], [ -37.087012699999946, -10.888509199999943 ], [ -37.087075099999943, -10.888386699999963 ], [ -37.087119299999983, -10.888039699999988 ], [ -37.08720759999995, -10.887822799999977 ], [ -37.08742849999993, -10.887649299999962 ], [ -37.087538899999977, -10.887513699999952 ], [ -37.0876052, -10.887432399999961 ], [ -37.087737699999941, -10.887280599999926 ], [ -37.087936499999955, -10.886977 ], [ -37.088223599999928, -10.88680349999993 ], [ -37.088444399999965, -10.886695 ], [ -37.088797799999952, -10.886564899999938 ], [ -37.089040699999948, -10.88645639999992 ], [ -37.08930579999997, -10.886304599999962 ], [ -37.089615, -10.886239599999941 ], [ -37.08988, -10.886152799999953 ], [ -37.090189199999941, -10.886087699999974 ], [ -37.090520499999975, -10.886087699999958 ], [ -37.090829699999965, -10.886087699999948 ], [ -37.091050499999938, -10.886109399999945 ], [ -37.091293499999942, -10.885892499999954 ], [ -37.091691, -10.8856757 ], [ -37.091911899999964, -10.885502199999966 ], [ -37.091978099999949, -10.885393699999947 ], [ -37.091713099999943, -10.885111799999942 ], [ -37.091470199999939, -10.884959899999952 ], [ -37.091375299999982, -10.884701099999969 ], [ -37.09141459999995, -10.884703099999971 ], [ -37.091493899999939, -10.884603299999966 ], [ -37.091433199999983, -10.884504399999988 ], [ -37.091505, -10.884438799999941 ], [ -37.091584199999936, -10.884344399999961 ], [ -37.091747899999973, -10.88420259999997 ], [ -37.091821099999947, -10.884049399999965 ], [ -37.091892399999956, -10.883919699999979 ], [ -37.091880299999957, -10.883807499999941 ], [ -37.091848899999952, -10.883714199999918 ], [ -37.091744099999971, -10.883651199999985 ], [ -37.091720599999981, -10.883465699999944 ], [ -37.091734, -10.88337089999993 ], [ -37.091800499999977, -10.883412899999955 ], [ -37.091871, -10.88339429999996 ], [ -37.091855399999929, -10.883260499999936 ], [ -37.091917, -10.883217399999976 ], [ -37.091997099999965, -10.883274 ], [ -37.092055599999981, -10.883279799999965 ], [ -37.09214309999993, -10.883183599999949 ], [ -37.092064, -10.88310079999996 ], [ -37.092123, -10.883039699999919 ], [ -37.092083399999979, -10.882933699999949 ], [ -37.092043299999951, -10.882914499999975 ], [ -37.092022399999969, -10.882883599999959 ], [ -37.092018499999938, -10.882786 ], [ -37.091923099999974, -10.882686899999952 ], [ -37.091798799999935, -10.882674299999946 ], [ -37.091755099999958, -10.882639699999963 ], [ -37.091786599999985, -10.882578399999948 ], [ -37.091941299999981, -10.882548699999962 ], [ -37.092004799999984, -10.8824966 ], [ -37.092069599999945, -10.88245869999998 ], [ -37.092121599999984, -10.882387099999969 ], [ -37.092152299999952, -10.882314099999959 ], [ -37.092170099999976, -10.882241899999919 ], [ -37.092207699999967, -10.882231199999975 ], [ -37.092244199999975, -10.882244099999978 ], [ -37.092300799999975, -10.882256199999961 ], [ -37.092342, -10.882243799999982 ], [ -37.092374199999938, -10.882219599999928 ], [ -37.092391599999985, -10.88221249999998 ], [ -37.092431, -10.882202799999961 ], [ -37.092465, -10.882182199999924 ], [ -37.092538299999951, -10.882151899999954 ], [ -37.092592499999967, -10.882125199999953 ], [ -37.092629299999949, -10.882076599999946 ], [ -37.092657899999949, -10.882043299999962 ], [ -37.092694599999959, -10.882028199999988 ], [ -37.092733, -10.882023 ], [ -37.092768799999938, -10.882008699999982 ], [ -37.092811199999964, -10.881961099999948 ], [ -37.092833399999968, -10.881908799999955 ], [ -37.092870099999978, -10.881891 ], [ -37.092924899999957, -10.881911199999935 ], [ -37.092979599999978, -10.881930499999966 ], [ -37.093082399999957, -10.881879599999941 ], [ -37.093133799999976, -10.881851899999949 ], [ -37.093187899999975, -10.881822399999972 ], [ -37.093275499999955, -10.8817127 ], [ -37.093300699999936, -10.881638699999947 ], [ -37.093291699999952, -10.881584399999943 ], [ -37.093286599999949, -10.881553399999969 ], [ -37.093330199999976, -10.881581599999953 ], [ -37.093877499999962, -10.881663299999966 ], [ -37.094230899999957, -10.881641599999973 ], [ -37.0945622, -10.881511499999942 ], [ -37.094783, -10.881338 ], [ -37.095048099999929, -10.881099399999938 ], [ -37.095291, -10.88088249999994 ], [ -37.095533899999964, -10.880709 ], [ -37.095821099999966, -10.880665599999919 ], [ -37.096108199999932, -10.880643899999955 ], [ -37.09637319999996, -10.880578899999939 ], [ -37.096969499999943, -10.880427099999968 ], [ -37.097234499999963, -10.880362 ], [ -37.097587899999951, -10.880188499999971 ], [ -37.097698299999934, -10.880166799999909 ], [ -37.097927299999974, -10.8800932 ], [ -37.098692199999959, -10.879928199999913 ], [ -37.099178099999953, -10.879798099999967 ], [ -37.099553499999956, -10.879667899999943 ], [ -37.09986269999996, -10.879559499999976 ], [ -37.100194, -10.879451099999944 ], [ -37.100812399999946, -10.879125699999971 ], [ -37.101320399999963, -10.878583499999925 ], [ -37.101541199999936, -10.878344899999936 ], [ -37.10156329999996, -10.878128 ], [ -37.101651699999934, -10.87788949999997 ], [ -37.101828399999938, -10.877629199999935 ], [ -37.101850399999933, -10.8773472 ], [ -37.101717899999983, -10.8770436 ], [ -37.101475, -10.876783299999955 ], [ -37.101165799999926, -10.876523099999938 ], [ -37.100613599999974, -10.876306199999922 ], [ -37.099973199999972, -10.876132699999978 ], [ -37.099067599999955, -10.875959199999947 ], [ -37.098758399999952, -10.875980799999976 ], [ -37.098515499999962, -10.875959199999947 ], [ -37.098383, -10.876067599999931 ], [ -37.098294599999967, -10.876067599999947 ], [ -37.097941299999945, -10.875937499999965 ], [ -37.097830799999947, -10.876024199999975 ], [ -37.097742499999981, -10.876045899999934 ], [ -37.097521599999936, -10.875959199999942 ], [ -37.097079899999983, -10.876002499999982 ], [ -37.096527799999933, -10.875959199999958 ], [ -37.095865199999935, -10.875872399999952 ], [ -37.095445599999948, -10.875829 ], [ -37.094805099999974, -10.875764 ], [ -37.094451699999972, -10.875764 ], [ -37.09401, -10.875785599999967 ], [ -37.093789199999947, -10.875698899999973 ], [ -37.093634599999987, -10.875655499999924 ], [ -37.093507799999941, -10.875549399999942 ], [ -37.093104499999981, -10.875460299999919 ], [ -37.092883699999966, -10.875438599999956 ], [ -37.092662799999971, -10.875221699999949 ], [ -37.092353599999974, -10.875091599999946 ], [ -37.092088599999968, -10.874983099999957 ], [ -37.091947199999943, -10.874968599999928 ], [ -37.091889299999934, -10.875041199999924 ], [ -37.091650499999957, -10.874777199999908 ], [ -37.091352299999976, -10.874454599999973 ], [ -37.091163399999978, -10.874308099999951 ], [ -37.091138899999976, -10.874289099999963 ], [ -37.090895899999964, -10.874007099999966 ], [ -37.090586699999967, -10.873595 ], [ -37.090410099999922, -10.873248 ], [ -37.089946299999951, -10.872987699999941 ], [ -37.089615, -10.872619 ], [ -37.089261599999922, -10.872423799999977 ], [ -37.089018699999947, -10.872228599999962 ], [ -37.088665299999953, -10.871816499999953 ], [ -37.088245699999959, -10.87133939999995 ], [ -37.087914399999939, -10.870970599999968 ], [ -37.087671399999977, -10.870818799999931 ], [ -37.087361899999962, -10.870525499999932 ], [ -37.087163499999974, -10.870385 ], [ -37.087030899999952, -10.870103099999943 ], [ -37.086743799999965, -10.869647599999965 ], [ -37.086412499999945, -10.869105399999977 ], [ -37.08594869999996, -10.868454699999962 ], [ -37.085264099999961, -10.867673799999977 ], [ -37.084888599999935, -10.867023199999961 ], [ -37.08453529999997, -10.866394199999936 ], [ -37.084226099999974, -10.865917 ], [ -37.083916899999963, -10.865309699999944 ], [ -37.083497199999954, -10.864615599999965 ], [ -37.083099699999934, -10.864160099999918 ], [ -37.082547499999983, -10.86357449999997 ], [ -37.081929199999934, -10.86318409999995 ], [ -37.081642, -10.863162399999958 ], [ -37.081244499999968, -10.863140699999962 ], [ -37.080802799999965, -10.86324909999994 ], [ -37.080540699999965, -10.863248599999956 ], [ -37.080318299999938, -10.864103 ], [ -37.080074899999943, -10.865287499999967 ], [ -37.079974899999975, -10.865733299999935 ], [ -37.079668299999973, -10.86710509999995 ], [ -37.079503199999984, -10.867279599999961 ], [ -37.079149799999989, -10.867471099999928 ], [ -37.077542199999982, -10.868112299999961 ], [ -37.077462499999974, -10.868143399999926 ], [ -37.07741249999998, -10.867926399999911 ], [ -37.077180299999945, -10.867713499999967 ], [ -37.077064199999931, -10.867566899999925 ], [ -37.07680449999998, -10.867770099999968 ], [ -37.07659979999994, -10.867943899999954 ], [ -37.076435299999964, -10.867821799999952 ], [ -37.076648199999973, -10.867507699999988 ], [ -37.076093699999952, -10.867263599999932 ], [ -37.075541499999929, -10.868525899999945 ], [ -37.07546559999998, -10.869033399999983 ], [ -37.074937099999936, -10.868981299999971 ], [ -37.0749211, -10.869403399999937 ], [ -37.075643399999933, -10.869686499999947 ], [ -37.075790499999982, -10.869754399999973 ], [ -37.075735499999951, -10.869750599999973 ], [ -37.075661199999956, -10.869719299999938 ], [ -37.07496649999996, -10.871269399999953 ], [ -37.07490909999995, -10.871838199999969 ], [ -37.074900599999978, -10.871831199999971 ], [ -37.074766099999984, -10.872320499999935 ], [ -37.074718, -10.872536499999953 ], [ -37.074649199999953, -10.872658 ], [ -37.074498, -10.872691799999936 ], [ -37.074477399999978, -10.87275929999994 ], [ -37.074085599999933, -10.872739 ], [ -37.074037499999982, -10.872928 ], [ -37.07401, -10.873366799999923 ], [ -37.073975599999983, -10.873501799999925 ], [ -37.074071799999956, -10.873562599999939 ], [ -37.074030599999958, -10.873846099999982 ], [ -37.073968699999966, -10.87425109999996 ], [ -37.073714399999972, -10.87431189999994 ], [ -37.073686899999984, -10.874399599999949 ], [ -37.073794499999963, -10.874451099999929 ], [ -37.073955, -10.874527899999967 ], [ -37.073851899999966, -10.874892399999956 ], [ -37.073666299999964, -10.874878899999937 ], [ -37.073515099999952, -10.875263699999929 ], [ -37.073425699999973, -10.87554719999997 ], [ -37.073157599999945, -10.875952199999984 ], [ -37.072952699999973, -10.876569199999956 ], [ -37.072958299999982, -10.876715 ], [ -37.072798199999973, -10.876875799999926 ], [ -37.072624099999977, -10.877238799999938 ], [ -37.072400499999958, -10.877652599999989 ], [ -37.072319, -10.877734299999949 ], [ -37.072112499999946, -10.878165899999924 ], [ -37.072171699999963, -10.878373399999928 ], [ -37.072147199999961, -10.878530799999957 ], [ -37.072085299999969, -10.878814299999943 ], [ -37.072207599999956, -10.879070599999981 ], [ -37.07223079999995, -10.879312699999973 ], [ -37.072092199999929, -10.879415099999944 ], [ -37.071858499999955, -10.879401599999957 ], [ -37.071762199999974, -10.879752599999945 ], [ -37.071673699999955, -10.880069 ], [ -37.071437499999952, -10.880089799999949 ], [ -37.071414299999958, -10.880245 ], [ -37.071752499999953, -10.880465 ], [ -37.071961, -10.880467399999906 ], [ -37.072102199999968, -10.880460399999965 ], [ -37.072138099999961, -10.88066419999995 ], [ -37.0721243, -10.880816 ], [ -37.072029299999947, -10.880863399999937 ], [ -37.071882199999948, -10.880948 ], [ -37.07166449999994, -10.881027899999943 ], [ -37.071556, -10.8810622 ], [ -37.071425899999959, -10.881206199999964 ], [ -37.071121299999959, -10.881183099999932 ], [ -37.07098869999993, -10.881169499999954 ], [ -37.070902699999984, -10.881179899999958 ], [ -37.070656599999957, -10.881197799999939 ], [ -37.070381, -10.881347199999951 ], [ -37.070306799999969, -10.881571899999932 ], [ -37.070184099999956, -10.881653 ], [ -37.070035799999964, -10.881650699999975 ], [ -37.069913199999974, -10.881541399999945 ], [ -37.069707, -10.881365899999935 ], [ -37.069796299999958, -10.881102699999934 ], [ -37.069734499999988, -10.880954199999973 ], [ -37.069473299999977, -10.880751699999973 ], [ -37.069432, -10.880690899999919 ], [ -37.069548899999972, -10.880549199999981 ], [ -37.069383899999934, -10.88032639999995 ], [ -37.069213799999943, -10.880333 ], [ -37.068882599999938, -10.880295899999966 ], [ -37.068470299999944, -10.88020559999994 ], [ -37.068364899999949, -10.880081699999938 ], [ -37.068121699999949, -10.87989639999995 ], [ -37.06767229999997, -10.87988759999995 ], [ -37.06757609999994, -10.879806599999938 ], [ -37.067205199999933, -10.879740499999965 ], [ -37.067001899999987, -10.877748599999945 ], [ -37.066667899999977, -10.87769429999997 ], [ -37.066226199999967, -10.877585799999954 ], [ -37.065595199999962, -10.877280799999941 ], [ -37.065593799999931, -10.877280099999949 ], [ -37.065320699999972, -10.877065299999964 ], [ -37.06509989999995, -10.87684839999997 ], [ -37.064746499999963, -10.876002499999974 ], [ -37.064481499999943, -10.8752 ], [ -37.064282699999978, -10.874744599999941 ], [ -37.064150199999972, -10.874462599999944 ], [ -37.063948699999969, -10.8741656 ], [ -37.063337299999937, -10.873375599999967 ], [ -37.063031, -10.872894199999967 ], [ -37.062671899999941, -10.872397499999986 ], [ -37.062667099999942, -10.872390899999978 ], [ -37.062173099999939, -10.871510099999959 ], [ -37.06137649999993, -10.870547299999947 ], [ -37.060947599999963, -10.869825199999974 ], [ -37.060089699999942, -10.868742 ], [ -37.059477, -10.8680199 ], [ -37.058802899999932, -10.867237599999937 ], [ -37.058251499999983, -10.866455299999931 ], [ -37.0577, -10.866154399999967 ], [ -37.05727109999998, -10.86573319999996 ], [ -37.056831399999957, -10.865520699999948 ], [ -37.055984299999977, -10.865071199999916 ], [ -37.055126399999942, -10.86465 ], [ -37.054207299999973, -10.864409299999977 ], [ -37.053226899999963, -10.864048199999955 ], [ -37.052430299999969, -10.86380749999997 ], [ -37.051695, -10.863687199999978 ], [ -37.050714599999935, -10.863867699999947 ], [ -37.049550299999972, -10.864228699999945 ], [ -37.04844739999993, -10.864710199999946 ], [ -37.047405699999949, -10.864890699999931 ], [ -37.046118899999961, -10.865131399999921 ], [ -37.044893399999985, -10.865251799999939 ], [ -37.043729099999943, -10.865372099999961 ], [ -37.042197199999976, -10.865673 ], [ -37.040971699999936, -10.866154399999955 ], [ -37.040236399999969, -10.866696 ], [ -37.039133499999934, -10.867237599999964 ], [ -37.038779099999942, -10.86767609999993 ], [ -37.037662799999971, -10.868080099999924 ], [ -37.037050099999931, -10.868260599999937 ], [ -37.036682399999968, -10.868742 ], [ -37.036559899999929, -10.869103099999965 ], [ -37.036498599999959, -10.869584499999979 ], [ -37.036743699999931, -10.870186299999949 ], [ -37.038214299999943, -10.872533099999938 ], [ -37.038582, -10.873375599999973 ], [ -37.039010899999937, -10.874458699999932 ], [ -37.039562399999973, -10.875481699999968 ], [ -37.03999129999994, -10.876143599999969 ], [ -37.040236399999969, -10.876805599999942 ], [ -37.040481499999942, -10.877587799999967 ], [ -37.041094299999941, -10.878309899999989 ], [ -37.041768299999944, -10.878791299999936 ], [ -37.042503599999975, -10.879453199999954 ], [ -37.043116399999974, -10.880115199999985 ], [ -37.043667899999953, -10.880656699999966 ], [ -37.04403549999995, -10.881258499999932 ], [ -37.04507719999998, -10.882401799999966 ], [ -37.045383699999945, -10.882823499999962 ], [ -37.045919699999956, -10.883334499999927 ], [ -37.046256799999988, -10.883876 ], [ -37.046379299999963, -10.884357399999942 ], [ -37.046440599999983, -10.884868899999951 ], [ -37.046409899999965, -10.885350299999965 ], [ -37.046471199999985, -10.885831599999955 ], [ -37.046869499999964, -10.886944799999974 ], [ -37.047206499999959, -10.888088099999939 ], [ -37.047451599999931, -10.888840299999965 ], [ -37.047727399999935, -10.889532299999948 ], [ -37.047819299999958, -10.890434799999969 ], [ -37.047941799999933, -10.890946299999948 ], [ -37.048197499999958, -10.891507399999956 ], [ -37.048309499999966, -10.891969199999931 ], [ -37.048278899999957, -10.89230019999996 ], [ -37.048095, -10.892450599999961 ], [ -37.04815629999996, -10.8927214 ], [ -37.048401399999932, -10.892751499999976 ], [ -37.048615899999959, -10.893142599999971 ], [ -37.048707799999931, -10.893744299999979 ], [ -37.048769099999959, -10.894255799999931 ], [ -37.048751599999946, -10.894771399999966 ], [ -37.04874929999994, -10.894837699999902 ], [ -37.048748799999935, -10.894853099999986 ], [ -37.04874639999997, -10.894924199999933 ], [ -37.048738399999934, -10.895158299999927 ], [ -37.048707799999931, -10.895639699999951 ], [ -37.048585199999934, -10.896241399999941 ], [ -37.048615899999959, -10.896662599999956 ], [ -37.048646499999968, -10.897384599999949 ], [ -37.048493299999961, -10.898166899999973 ], [ -37.048248199999939, -10.898467699999967 ], [ -37.048553099999936, -10.899128799999961 ], [ -37.048706799999941, -10.899130299999973 ], [ -37.048707799999931, -10.90003209999996 ], [ -37.048707799999931, -10.902198299999965 ], [ -37.048493299999954, -10.902258399999955 ], [ -37.048278899999964, -10.902408899999942 ], [ -37.04784989999996, -10.902890199999929 ], [ -37.047727399999935, -10.90337159999995 ], [ -37.047788599999933, -10.903702499999953 ], [ -37.047941799999933, -10.903822799999936 ], [ -37.047911199999938, -10.904183899999975 ], [ -37.047512899999965, -10.904334299999967 ], [ -37.047543499999961, -10.904725399999965 ], [ -37.047635499999963, -10.905146599999972 ], [ -37.047633699999949, -10.905550499999929 ], [ -37.047681799999971, -10.905551699999927 ], [ -37.047620099999961, -10.906229599999969 ], [ -37.047804, -10.906319899999977 ], [ -37.0479572, -10.906590599999943 ], [ -37.047957199999985, -10.907072 ], [ -37.047895899999951, -10.90737279999996 ], [ -37.047802799999943, -10.907729099999916 ], [ -37.047834599999931, -10.908215199999983 ], [ -37.047804, -10.908576199999976 ], [ -37.047620099999961, -10.908726599999959 ], [ -37.047681399999931, -10.909328299999981 ], [ -37.047712099999956, -10.909869799999967 ], [ -37.047652099999944, -10.910398099999938 ], [ -37.047620099999961, -10.911193499999982 ], [ -37.047620099999961, -10.911825299999979 ], [ -37.047650799999928, -10.912607399999962 ], [ -37.04765139999995, -10.913135699999946 ], [ -37.047639899999979, -10.913347299999941 ], [ -37.04762309999996, -10.913657899999976 ], [ -37.047650799999936, -10.914502699999941 ], [ -37.047623799999947, -10.914973499999954 ], [ -37.047405699999956, -10.915886599999958 ], [ -37.047221799999932, -10.916548399999957 ], [ -37.047017099999948, -10.91718079999993 ], [ -37.04679289999995, -10.917902099999944 ], [ -37.046701, -10.918142799999952 ], [ -37.046613, -10.91838519999993 ], [ -37.046608799999952, -10.918388 ], [ -37.0461433, -10.919501799999971 ], [ -37.04569, -10.920579499999976 ], [ -37.045444899999957, -10.921121 ], [ -37.045294699999936, -10.9213569 ], [ -37.04513849999995, -10.921873099999965 ], [ -37.04486269999996, -10.922354399999969 ], [ -37.044739499999935, -10.922517499999975 ], [ -37.044338499999988, -10.923305 ], [ -37.043847199999959, -10.924136899999953 ], [ -37.043717699999945, -10.92442619999998 ], [ -37.043724799999943, -10.924461099999982 ], [ -37.043330799999978, -10.925061899999944 ], [ -37.042901899999961, -10.92575379999993 ], [ -37.042580199999975, -10.926054599999912 ], [ -37.042610899999943, -10.926686299999977 ], [ -37.042672099999955, -10.927288 ], [ -37.042794699999945, -10.927889599999952 ], [ -37.042978499999947, -10.928431099999953 ], [ -37.043101099999944, -10.928641699999947 ], [ -37.043507399999953, -10.929048599999923 ], [ -37.044234699999947, -10.929634399999943 ], [ -37.045061899999958, -10.930356399999944 ], [ -37.045735899999961, -10.930867699999951 ], [ -37.046343899999954, -10.931400699999928 ], [ -37.046394499999963, -10.931391899999921 ], [ -37.046678, -10.931785199999972 ], [ -37.046678, -10.932161299999967 ], [ -37.046478899999961, -10.932537299999957 ], [ -37.046417599999977, -10.932913299999925 ], [ -37.0464176, -10.933289299999952 ], [ -37.046463599999981, -10.933665399999949 ], [ -37.046557199999945, -10.934199699999946 ], [ -37.046555499999954, -10.934492599999954 ], [ -37.046662699999963, -10.934988899999938 ], [ -37.046785299999961, -10.9352446 ], [ -37.046923099999965, -10.93548529999992 ], [ -37.04710689999996, -10.935683499999977 ], [ -37.047198899999955, -10.936071899999925 ], [ -37.047107, -10.936478 ], [ -37.046969099999956, -10.936884099999947 ], [ -37.047015, -10.937275099999979 ], [ -37.047125299999948, -10.93745969999997 ], [ -37.047275499999962, -10.93771129999994 ], [ -37.047643099999959, -10.938282899999942 ], [ -37.047949499999959, -10.938839399999951 ], [ -37.048317099999963, -10.939441 ], [ -37.048669499999967, -10.939771899999911 ], [ -37.048975899999959, -10.940147899999952 ], [ -37.049324199999944, -10.940482299999942 ], [ -37.049575799999964, -10.941413099999981 ], [ -37.049900699999966, -10.942093099999957 ], [ -37.049972199999957, -10.942337599999977 ], [ -37.050116699999933, -10.942872199999968 ], [ -37.050356299999976, -10.943750199999965 ], [ -37.050385399999982, -10.944130599999948 ], [ -37.050579, -10.946065699999968 ], [ -37.050864599999954, -10.949954299999952 ], [ -37.050561399999935, -10.951552299999953 ], [ -37.0507765, -10.953632699999961 ], [ -37.0508713, -10.954519199999938 ], [ -37.05107229999993, -10.955966699999971 ], [ -37.051291599999963, -10.957396299999965 ], [ -37.051357499999938, -10.957905699999964 ], [ -37.051462299999969, -10.959268499999936 ], [ -37.051484399999943, -10.960082199999945 ], [ -37.051580799999954, -10.960724599999917 ], [ -37.051700699999962, -10.962780799999967 ], [ -37.051767299999931, -10.963647899999973 ], [ -37.051803, -10.964197299999972 ], [ -37.0518704, -10.964818699999975 ], [ -37.051913399999933, -10.965120899999919 ], [ -37.051975, -10.965632899999946 ], [ -37.051705199999958, -10.965674699999967 ], [ -37.049966599999941, -10.965943899999962 ], [ -37.049871399999972, -10.965950799999968 ], [ -37.04983279999994, -10.965953699999933 ], [ -37.049535799999937, -10.966019399999945 ], [ -37.049380699999972, -10.96602789999997 ], [ -37.049176199999977, -10.966098499999928 ], [ -37.048986399999933, -10.966149599999932 ], [ -37.048884199999982, -10.966200699999945 ], [ -37.048742699999934, -10.966257199999975 ], [ -37.048596199999963, -10.96618 ], [ -37.048478699999983, -10.96617359999993 ], [ -37.048284699999954, -10.966229299999942 ], [ -37.048050899999964, -10.966302 ], [ -37.04754619999995, -10.966455299999947 ], [ -37.046693599999969, -10.966706799999937 ], [ -37.046592699999955, -10.966724 ], [ -37.046105899999922, -10.966770199999919 ], [ -37.045936099999956, -10.966786199999953 ], [ -37.0459317, -10.966763299999956 ], [ -37.045866099999955, -10.966422499999965 ], [ -37.045794799999953, -10.966272599999979 ], [ -37.045742, -10.965959399999965 ], [ -37.045988699999945, -10.965550199999937 ], [ -37.046051, -10.965212099999983 ], [ -37.046153899999986, -10.96485149999995 ], [ -37.046201, -10.964686499999976 ], [ -37.046201699999983, -10.964683799999934 ], [ -37.046383699999978, -10.964367699999961 ], [ -37.046739299999963, -10.96380569999997 ], [ -37.046708699999954, -10.96257239999994 ], [ -37.046881799999937, -10.96204649999992 ], [ -37.046992499999938, -10.961736499999981 ], [ -37.047046099999932, -10.961586299999965 ], [ -37.047116199999948, -10.961389899999974 ], [ -37.047183299999972, -10.961201799999984 ], [ -37.04741329999996, -10.960647399999983 ], [ -37.047472199999959, -10.959910699999973 ], [ -37.047505199999932, -10.959684899999974 ], [ -37.04767789999994, -10.959419399999952 ], [ -37.048118, -10.958963 ], [ -37.048322799999937, -10.958484599999958 ], [ -37.04857759999993, -10.957699599999952 ], [ -37.048761399999933, -10.956767199999927 ], [ -37.048822699999967, -10.955955 ], [ -37.048724099999959, -10.955721799999942 ], [ -37.048712799999976, -10.955704799999985 ], [ -37.048868599999935, -10.955142899999924 ], [ -37.049083099999962, -10.954150299999988 ], [ -37.049328199999934, -10.953278 ], [ -37.049420099999971, -10.952826799999949 ], [ -37.049328199999941, -10.952225199999926 ], [ -37.049523099999931, -10.951400899999943 ], [ -37.049427399999963, -10.950862799999969 ], [ -37.049223, -10.950581599999968 ], [ -37.0489075, -10.950549099999938 ], [ -37.048768799999955, -10.950773399999941 ], [ -37.048501, -10.951563399999952 ], [ -37.048210399999959, -10.952034799999989 ], [ -37.047713199999976, -10.952225699999925 ], [ -37.047193299999954, -10.952176899999918 ], [ -37.046724899999965, -10.951707899999967 ], [ -37.046540199999988, -10.95120239999995 ], [ -37.0462644, -10.950450399999971 ], [ -37.046203099999957, -10.949668399999943 ], [ -37.046325699999954, -10.948856199999971 ], [ -37.046448199999929, -10.948194399999977 ], [ -37.046693299999966, -10.947653 ], [ -37.046846499999958, -10.947253899999971 ], [ -37.047168699999929, -10.947039299999973 ], [ -37.047550299999955, -10.946899499999979 ], [ -37.047877199999959, -10.946973399999933 ], [ -37.048265399999934, -10.94718969999996 ], [ -37.048503499999981, -10.947599399999953 ], [ -37.048703099999955, -10.948144899999944 ], [ -37.048798499999982, -10.948553 ], [ -37.048966199999931, -10.948754599999972 ], [ -37.049236299999961, -10.948735899999972 ], [ -37.049328199999934, -10.948585499999989 ], [ -37.049565399999949, -10.948170199999955 ], [ -37.049659899999938, -10.94673109999996 ], [ -37.049591, -10.945350799999968 ], [ -37.049564199999963, -10.944299799999971 ], [ -37.049342099999933, -10.943473699999965 ], [ -37.049159599999939, -10.942714299999965 ], [ -37.048960499999964, -10.942449099999966 ], [ -37.04885279999997, -10.942343299999941 ], [ -37.048819299999934, -10.942310399999927 ], [ -37.04880159999994, -10.942293099999953 ], [ -37.048768, -10.94226 ], [ -37.04853159999994, -10.942027899999982 ], [ -37.047673799999984, -10.941486499999934 ], [ -37.047122299999963, -10.940914899999925 ], [ -37.046724, -10.940554 ], [ -37.046203099999957, -10.940162899999965 ], [ -37.04591319999998, -10.939695799999988 ], [ -37.045584399999946, -10.939200899999953 ], [ -37.045485399999961, -10.938895299999951 ], [ -37.045392599999957, -10.938668399999942 ], [ -37.045284699999975, -10.938485399999919 ], [ -37.045171099999948, -10.938347399999934 ], [ -37.045066099999936, -10.938247499999932 ], [ -37.044970699999972, -10.938172599999969 ], [ -37.044881299999929, -10.93811229999995 ], [ -37.044813099999949, -10.938027199999969 ], [ -37.044763199999984, -10.937967 ], [ -37.044317499999984, -10.937781599999944 ], [ -37.044133299999949, -10.937671 ], [ -37.043891399999943, -10.937544199999923 ], [ -37.043610299999955, -10.937418399999974 ], [ -37.043004199999977, -10.937222899999957 ], [ -37.042153899999967, -10.937164399999965 ], [ -37.042206299999975, -10.937918199999949 ], [ -37.042649199999978, -10.938358099999961 ], [ -37.043047399999978, -10.938779199999956 ], [ -37.043507, -10.939531199999957 ], [ -37.043813399999976, -10.940072699999964 ], [ -37.043966599999983, -10.940854799999947 ], [ -37.043997199999978, -10.941426299999923 ], [ -37.044150399999978, -10.943231199999957 ], [ -37.044242299999951, -10.943832799999946 ], [ -37.044456799999978, -10.944524599999971 ], [ -37.04454869999995, -10.94491569999998 ], [ -37.044518099999955, -10.945366899999952 ], [ -37.044273, -10.945938399999934 ], [ -37.043690799999979, -10.946720499999969 ], [ -37.043690799999979, -10.947111599999959 ], [ -37.044027899999946, -10.949397599999928 ], [ -37.044027899999953, -10.949878899999939 ], [ -37.043905299999949, -10.951413 ], [ -37.043935899999951, -10.952465799999963 ], [ -37.043813399999976, -10.953037299999952 ], [ -37.043200599999977, -10.95445109999995 ], [ -37.042557199999976, -10.955955 ], [ -37.040627099999938, -10.960196199999924 ], [ -37.039983699999937, -10.961549699999974 ], [ -37.039585399999964, -10.962091199999977 ], [ -37.039438399999945, -10.96235 ], [ -37.038985899999936, -10.962919399999967 ], [ -37.037916499999938, -10.96445179999996 ], [ -37.036346199999976, -10.966350399999968 ], [ -37.035816899999936, -10.967204499999985 ], [ -37.035755599999959, -10.967655699999963 ], [ -37.035701199999956, -10.96774259999996 ], [ -37.035686199999937, -10.967766499999978 ], [ -37.035265399999957, -10.968437699999987 ], [ -37.034744599999954, -10.968618199999984 ], [ -37.0343769, -10.969099399999958 ], [ -37.034252, -10.969328799999959 ], [ -37.034221199999941, -10.969335399999986 ], [ -37.034173299999964, -10.96942 ], [ -37.033644699999968, -10.970583599999948 ], [ -37.033470799999975, -10.97129829999993 ], [ -37.033645499999984, -10.972340699999968 ], [ -37.033667399999956, -10.972537 ], [ -37.033865399999961, -10.974315499999937 ], [ -37.033912899999969, -10.975326899999949 ], [ -37.033912799999939, -10.975340699999942 ], [ -37.033966299999975, -10.976002399999953 ], [ -37.033989199999951, -10.976059099999933 ], [ -37.033994099999973, -10.976071299999941 ], [ -37.034048699999971, -10.976457299999945 ], [ -37.034492099999959, -10.977836399999953 ], [ -37.034910599999947, -10.97844489999996 ], [ -37.034997099999948, -10.978709599999936 ], [ -37.035369199999927, -10.979847299999967 ], [ -37.035538399999957, -10.980087699999947 ], [ -37.036331199999957, -10.981214899999927 ], [ -37.036698, -10.981672799999963 ], [ -37.037483899999977, -10.9826543 ], [ -37.038241599999942, -10.983494 ], [ -37.039673499999928, -10.98508079999994 ], [ -37.040026499999961, -10.985472 ], [ -37.040876799999985, -10.98641429999997 ], [ -37.043410699999981, -10.989339299999918 ], [ -37.044181799999933, -10.9902294 ], [ -37.044679799999983, -10.99079149999994 ], [ -37.04619519999995, -10.992501899999988 ], [ -37.047485799999961, -10.99401059999995 ], [ -37.048474599999956, -10.995166499999922 ], [ -37.049480499999959, -10.996342499999956 ], [ -37.049531499999951, -10.996401499999919 ], [ -37.051450199999977, -10.998620099999908 ], [ -37.052549399999975, -10.999729699999913 ], [ -37.052844399999977, -11.000027499999927 ], [ -37.054480099999985, -11.001905299999969 ], [ -37.055046499999946, -11.002583599999983 ], [ -37.056829099999959, -11.00471849999998 ], [ -37.058117199999977, -11.006187399999938 ], [ -37.05927649999996, -11.007716699999952 ], [ -37.061791199999959, -11.010945 ], [ -37.06331849999998, -11.012853699999933 ], [ -37.066158899999948, -11.016759099999945 ], [ -37.066390899999938, -11.017078099999944 ], [ -37.067515499999956, -11.018679 ], [ -37.068614299999979, -11.020176599999955 ], [ -37.069512099999947, -11.021428199999935 ], [ -37.07145369999995, -11.024135299999957 ], [ -37.072861799999941, -11.026236799999948 ], [ -37.073419199999933, -11.027068599999946 ], [ -37.076305699999978, -11.0312 ], [ -37.079324499999984, -11.035319199999964 ], [ -37.082937499999957, -11.040586899999946 ], [ -37.08429869999997, -11.04262 ], [ -37.088600299999946, -11.049045 ], [ -37.08877869999997, -11.049311399999972 ], [ -37.091784799999971, -11.053707499999966 ], [ -37.092473499999983, -11.0547147 ], [ -37.096639899999957, -11.060747 ], [ -37.099375299999963, -11.064874199999947 ], [ -37.100398, -11.066417399999976 ], [ -37.101442, -11.067992599999982 ], [ -37.10591739999996, -11.074405099999982 ], [ -37.109689099999969, -11.079893699999937 ], [ -37.111721599999953, -11.082839599999954 ], [ -37.114500799999973, -11.086867599999938 ], [ -37.119787, -11.094372399999942 ], [ -37.119882599999983, -11.094509299999983 ], [ -37.122134799999969, -11.097735 ], [ -37.123944899999969, -11.10037189999996 ], [ -37.125403, -11.102571099999968 ], [ -37.125732099999937, -11.103067399999906 ], [ -37.128425799999953, -11.107608399999936 ], [ -37.129141099999977, -11.10869 ], [ -37.13034319999997, -11.110507799999933 ], [ -37.132116699999983, -11.112986299999918 ], [ -37.132932099999955, -11.11412579999994 ], [ -37.134952099999964, -11.117332499999954 ], [ -37.136921699999967, -11.120819599999942 ], [ -37.140524499999977, -11.119624199999972 ], [ -37.137305499999975, -11.114765599999934 ], [ -37.136897099999942, -11.111570599999936 ], [ -37.138089099999952, -11.110841599999954 ], [ -37.136647599999947, -11.109052099999918 ], [ -37.137480399999959, -11.108620199999958 ], [ -37.137559499999945, -11.108567499999946 ], [ -37.13789079999998, -11.108383 ], [ -37.138131899999962, -11.108247399999986 ], [ -37.138542299999983, -11.107976199999923 ] ] ] } }
]
}
