{
"type": "FeatureCollection",
"name": "2901155",
"crs": { "type": "name", "properties": { "name": "urn:ogc:def:crs:OGC:1.3:CRS84" } },
"features": [
{ "type": "Feature", "properties": { "CD_MUN": "2901155", "NM_MUN": "América Dourada" }, "geometry": { "type": "MultiPolygon", "coordinates": [ [ [ [ -41.517293099999968, -11.477561599999941 ], [ -41.517528199999965, -11.476874299999951 ], [ -41.517888599999935, -11.476418399999954 ], [ -41.518659799999966, -11.475753099999954 ], [ -41.51918389999998, -11.47472269999996 ], [ -41.521443199999958, -11.474281599999935 ], [ -41.521378199999958, -11.473505599999951 ], [ -41.521634699999936, -11.472793399999951 ], [ -41.521653499999964, -11.472058099999973 ], [ -41.521274799999965, -11.472188399999915 ], [ -41.520910899999933, -11.47213 ], [ -41.520398799999953, -11.471684499999984 ], [ -41.518112099999939, -11.469619599999916 ], [ -41.516898699999956, -11.468737099999919 ], [ -41.515724199999966, -11.469254899999944 ], [ -41.514003499999951, -11.469872 ], [ -41.513823799999955, -11.469608299999935 ], [ -41.513152899999973, -11.469921399999967 ], [ -41.512718499999949, -11.470143699999923 ], [ -41.511620799999946, -11.470525699999932 ], [ -41.510485299999964, -11.470918299999944 ], [ -41.510422799999958, -11.471379 ], [ -41.508574499999952, -11.473354399999952 ], [ -41.508351899999973, -11.473394199999971 ], [ -41.508411899999942, -11.474081699999934 ], [ -41.509328299999936, -11.474712099999977 ], [ -41.512705499999981, -11.480173199999982 ], [ -41.516607499999957, -11.477765899999964 ], [ -41.517293099999968, -11.477561599999941 ] ] ], [ [ [ -41.694033099999963, -11.476415399999933 ], [ -41.694041399999946, -11.476296 ], [ -41.694060099999945, -11.476025699999967 ], [ -41.694006799999947, -11.475337299999975 ], [ -41.692933599999947, -11.475641099999955 ], [ -41.693023399999959, -11.475927799999951 ], [ -41.691896099999951, -11.476310599999952 ], [ -41.691651599999943, -11.475994599999968 ], [ -41.691164299999969, -11.476344299999933 ], [ -41.691074299999968, -11.476357899999925 ], [ -41.689886, -11.476582899999924 ], [ -41.689925399999943, -11.476767499999919 ], [ -41.68986879999995, -11.47685039999992 ], [ -41.688087, -11.477065299999921 ], [ -41.68806079999996, -11.476939899999923 ], [ -41.687547299999956, -11.476876199999934 ], [ -41.686495699999973, -11.476585099999943 ], [ -41.686744699999956, -11.478883499999927 ], [ -41.687324599999954, -11.478667299999927 ], [ -41.688760199999933, -11.478886399999944 ], [ -41.690513099999976, -11.479559499999933 ], [ -41.691987, -11.480174 ], [ -41.692502099999963, -11.479293599999929 ], [ -41.693399399999983, -11.479148499999946 ], [ -41.693635599999929, -11.478710899999937 ], [ -41.693701399999952, -11.47806419999994 ], [ -41.693589099999947, -11.477336099999935 ], [ -41.69396, -11.476742899999977 ], [ -41.694032599999957, -11.476422299999953 ], [ -41.694033099999963, -11.476415399999933 ] ] ], [ [ [ -41.438699099999944, -11.458053199999942 ], [ -41.439636499999949, -11.457368799999914 ], [ -41.442132, -11.455607099999934 ], [ -41.440520099999958, -11.451346599999951 ], [ -41.438989699999979, -11.447780899999939 ], [ -41.430413699999981, -11.44135969999995 ], [ -41.430333599999983, -11.441264799999951 ], [ -41.430264399999942, -11.441024699999948 ], [ -41.430121899999961, -11.440576099999912 ], [ -41.429976599999975, -11.440140299999944 ], [ -41.429830599999953, -11.439770299999955 ], [ -41.429811599999944, -11.439722099999917 ], [ -41.429628299999941, -11.439349599999961 ], [ -41.426935699999945, -11.440243699999931 ], [ -41.426847499999958, -11.439953099999968 ], [ -41.426785799999948, -11.439850299999943 ], [ -41.426710499999956, -11.4397681 ], [ -41.426676199999974, -11.4396791 ], [ -41.426559799999943, -11.439569499999964 ], [ -41.426518699999974, -11.439528399999984 ], [ -41.426463899999931, -11.439480399999983 ], [ -41.426422799999962, -11.439459899999962 ], [ -41.426340599999946, -11.4393914 ], [ -41.426275499999974, -11.439388 ], [ -41.426210399999952, -11.439384499999976 ], [ -41.426094, -11.439364 ], [ -41.425909, -11.439398199999985 ], [ -41.425840499999943, -11.439398199999989 ], [ -41.425607599999978, -11.439418799999924 ], [ -41.425580199999956, -11.439405099999925 ], [ -41.425285699999961, -11.439405099999929 ], [ -41.425025399999974, -11.439439299999963 ], [ -41.42483359999995, -11.439439299999938 ], [ -41.424628099999957, -11.439418799999936 ], [ -41.424443099999962, -11.439405099999918 ], [ -41.424313, -11.439370799999972 ], [ -41.424254799999972, -11.43934 ], [ -41.424196599999966, -11.439309199999974 ], [ -41.424114399999958, -11.439227 ], [ -41.423963699999945, -11.439138 ], [ -41.423860899999966, -11.439096799999971 ], [ -41.423634899999975, -11.439035199999967 ], [ -41.423511599999983, -11.439021499999971 ], [ -41.423333499999956, -11.438994099999944 ], [ -41.423210199999971, -11.438966699999966 ], [ -41.423032099999944, -11.43892559999993 ], [ -41.422874499999978, -11.438898199999931 ], [ -41.422785499999975, -11.438857099999945 ], [ -41.422634799999969, -11.438788599999942 ], [ -41.422463499999935, -11.438665299999977 ], [ -41.422353899999969, -11.438583099999951 ], [ -41.422271699999961, -11.438521499999988 ], [ -41.422175799999934, -11.438425599999949 ], [ -41.422059399999974, -11.438268 ], [ -41.42200459999998, -11.438158399999953 ], [ -41.421936099999982, -11.438028299999926 ], [ -41.421915499999955, -11.437959799999936 ], [ -41.421874399999979, -11.437857 ], [ -41.421812799999941, -11.43769949999996 ], [ -41.421696299999951, -11.4375214 ], [ -41.421573, -11.437418599999951 ], [ -41.421470299999953, -11.437357 ], [ -41.421347, -11.437302199999976 ], [ -41.42114829999997, -11.437302199999964 ], [ -41.420936, -11.437384399999917 ], [ -41.420566099999981, -11.437699499999937 ], [ -41.420483899999958, -11.438028299999935 ], [ -41.420300699999984, -11.438163299999923 ], [ -41.419415299999976, -11.438816 ], [ -41.419175499999945, -11.439035199999967 ], [ -41.419159599999944, -11.439051499999961 ], [ -41.4190986, -11.439006499999961 ], [ -41.418956299999934, -11.438901599999937 ], [ -41.418915499999969, -11.438872099999964 ], [ -41.418716199999949, -11.438738 ], [ -41.418631499999947, -11.438680299999927 ], [ -41.418569299999945, -11.438637899999954 ], [ -41.418182299999955, -11.438374199999945 ], [ -41.417732599999958, -11.438148399999932 ], [ -41.413775699999981, -11.445687699999963 ], [ -41.4137846, -11.445770599999934 ], [ -41.413811499999959, -11.445944399999961 ], [ -41.413821399999968, -11.44600889999996 ], [ -41.413826199999967, -11.446045399999941 ], [ -41.413937, -11.446891399999959 ], [ -41.414018299999952, -11.447511699999966 ], [ -41.414178099999951, -11.448380399999975 ], [ -41.414178699999979, -11.448383299999914 ], [ -41.414459099999938, -11.449043399999946 ], [ -41.414892, -11.449641599999969 ], [ -41.415057199999985, -11.449847199999956 ], [ -41.415222499999977, -11.450052699999938 ], [ -41.415803299999943, -11.450816899999964 ], [ -41.41624969999998, -11.451168399999972 ], [ -41.416527699999961, -11.45133049999993 ], [ -41.416998299999925, -11.451408 ], [ -41.417414199999939, -11.451404499999953 ], [ -41.417689399999972, -11.451238699999987 ], [ -41.417936399999974, -11.450990899999972 ], [ -41.418099899999959, -11.450716599999959 ], [ -41.418083599999932, -11.450415899999946 ], [ -41.418024699999947, -11.450061199999938 ], [ -41.417801199999985, -11.44973589999997 ], [ -41.417297799999979, -11.449139199999932 ], [ -41.416879399999978, -11.448733299999963 ], [ -41.416627, -11.448353199999939 ], [ -41.416568299999938, -11.448025599999941 ], [ -41.416703599999948, -11.447669399999928 ], [ -41.417060799999945, -11.447338399999984 ], [ -41.417488299999953, -11.447198399999914 ], [ -41.417876, -11.447223199999943 ], [ -41.418237199999965, -11.447356699999935 ], [ -41.418628099999978, -11.44776279999996 ], [ -41.419244199999987, -11.448577299999931 ], [ -41.419858399999946, -11.449281599999956 ], [ -41.420248199999946, -11.449551299999944 ], [ -41.42073419999997, -11.44971169999998 ], [ -41.421191, -11.449789199999946 ], [ -41.421578299999972, -11.449758899999933 ], [ -41.422102399999972, -11.449563899999928 ], [ -41.422527599999967, -11.449150099999931 ], [ -41.422787899999946, -11.448848 ], [ -41.423144199999967, -11.448407699999976 ], [ -41.42347529999995, -11.448241399999985 ], [ -41.423972399999975, -11.448210199999963 ], [ -41.424360599999943, -11.448289199999984 ], [ -41.42470869999994, -11.448504099999976 ], [ -41.425114099999973, -11.448992299999928 ], [ -41.425743199999943, -11.449724399999978 ], [ -41.425977799999949, -11.449945699999944 ], [ -41.426273399999957, -11.45024229999995 ], [ -41.426648099999959, -11.45045789999995 ], [ -41.426926299999934, -11.450536899999962 ], [ -41.427230399999978, -11.4505344 ], [ -41.427603, -11.45039479999997 ], [ -41.42797459999997, -11.450146 ], [ -41.428661799999922, -11.449621599999928 ], [ -41.429073899999935, -11.449290099999917 ], [ -41.429459299999969, -11.449041099999921 ], [ -41.429983199999974, -11.448819 ], [ -41.430535699999957, -11.448732199999942 ], [ -41.430937599999943, -11.448811099999935 ], [ -41.431313199999977, -11.449025699999938 ], [ -41.431508499999957, -11.449269899999933 ], [ -41.431706899999938, -11.449759799999988 ], [ -41.431908399999948, -11.450714199999942 ], [ -41.432318199999948, -11.451721 ], [ -41.433329099999987, -11.453378899999947 ], [ -41.434211099999978, -11.45465469999994 ], [ -41.434818099999973, -11.455403699999962 ], [ -41.434886799999958, -11.455488399999979 ], [ -41.435023399999977, -11.455657 ], [ -41.435127899999934, -11.455785899999981 ], [ -41.435134199999936, -11.455793699999939 ], [ -41.435166799999934, -11.455823799999971 ], [ -41.435643, -11.456262899999937 ], [ -41.435675699999933, -11.456284199999979 ], [ -41.436483899999985, -11.456810899999928 ], [ -41.436541099999936, -11.456848199999966 ], [ -41.436578399999973, -11.456869299999923 ], [ -41.437394199999972, -11.45732929999998 ], [ -41.437669299999975, -11.457484499999968 ], [ -41.437709299999945, -11.457507 ], [ -41.437743699999949, -11.457526399999931 ], [ -41.437749699999983, -11.457529799999964 ], [ -41.437767399999984, -11.457539799999962 ], [ -41.43821, -11.457789399999967 ], [ -41.438699099999944, -11.458053199999942 ] ] ], [ [ [ -41.600143, -11.36480959999993 ], [ -41.599082599999981, -11.363616599999917 ], [ -41.598981299999934, -11.36349209999997 ], [ -41.597800499999948, -11.362041899999953 ], [ -41.59778179999995, -11.362019 ], [ -41.597683399999937, -11.362091299999959 ], [ -41.590504299999971, -11.367349099999926 ], [ -41.590777699999933, -11.369325799999945 ], [ -41.59428429999997, -11.37300039999994 ], [ -41.595808599999941, -11.373240199999925 ], [ -41.60234249999997, -11.374089199999947 ], [ -41.602686199999937, -11.371179299999927 ], [ -41.602692099999949, -11.371137699999958 ], [ -41.603029399999969, -11.368675099999965 ], [ -41.600143, -11.36480959999993 ] ] ], [ [ [ -41.484015199999931, -11.313459899999947 ], [ -41.48351729999996, -11.31033659999996 ], [ -41.483277199999982, -11.309587499999953 ], [ -41.483031799999935, -11.308872799999937 ], [ -41.483079099999948, -11.308687299999981 ], [ -41.483505599999944, -11.308559099999973 ], [ -41.483357799999965, -11.307748199999935 ], [ -41.484386899999954, -11.304237399999954 ], [ -41.483303, -11.299817 ], [ -41.481178, -11.298129 ], [ -41.474773, -11.30553 ], [ -41.474579499999955, -11.305503899999943 ], [ -41.472123, -11.305172 ], [ -41.471972, -11.30391 ], [ -41.466296, -11.30372 ], [ -41.466126, -11.30251 ], [ -41.462767, -11.300133 ], [ -41.461222, -11.300754 ], [ -41.46092, -11.299996 ], [ -41.457024, -11.30129 ], [ -41.457034, -11.30209 ], [ -41.457373, -11.3058551 ], [ -41.457572, -11.307187 ], [ -41.459547, -11.306955 ], [ -41.459615299999939, -11.307366699999909 ], [ -41.4597692, -11.308579799999952 ], [ -41.459893699999945, -11.309675199999967 ], [ -41.459994499999944, -11.310902 ], [ -41.460084799999947, -11.311457199999959 ], [ -41.46012369999994, -11.312061499999961 ], [ -41.460072199999956, -11.312241099999934 ], [ -41.460078, -11.312242 ], [ -41.460563, -11.312272099999964 ], [ -41.471850399999937, -11.312972499999955 ], [ -41.472294, -11.313 ], [ -41.472290699999974, -11.312994099999976 ], [ -41.472410199999963, -11.313027699999971 ], [ -41.478624, -11.314509 ], [ -41.479965799999945, -11.314268599999945 ], [ -41.484097, -11.313585 ], [ -41.484015199999931, -11.313459899999947 ] ] ] ] } }
]
}
