{
"type": "FeatureCollection",
"name": "2919207",
"crs": { "type": "name", "properties": { "name": "urn:ogc:def:crs:OGC:1.3:CRS84" } },
"features": [
{ "type": "Feature", "properties": { "CD_MUN": "2919207", "NM_MUN": "Lauro de Freitas" }, "geometry": { "type": "Polygon", "coordinates": [ [ [ -38.345810399999955, -12.90026729999992 ], [ -38.345890299999958, -12.90021829999994 ], [ -38.346414099999947, -12.899897099999974 ], [ -38.346420299999977, -12.899893299999983 ], [ -38.34681, -12.899654299999955 ], [ -38.347192899999975, -12.899419599999945 ], [ -38.347372899999982, -12.899309299999969 ], [ -38.347476, -12.899245899999913 ], [ -38.348732199999972, -12.898475499999964 ], [ -38.348736599999931, -12.898472799999983 ], [ -38.348746099999971, -12.898466799999937 ], [ -38.348759699999967, -12.898458299999973 ], [ -38.34877809999994, -12.898446799999949 ], [ -38.348807199999953, -12.898428599999919 ], [ -38.349352499999952, -12.898087099999946 ], [ -38.349728899999953, -12.897851499999927 ], [ -38.349740899999972, -12.897842899999942 ], [ -38.349913499999957, -12.897719099999946 ], [ -38.350485199999987, -12.897376899999937 ], [ -38.350490599999944, -12.897373399999928 ], [ -38.350499499999955, -12.897367899999962 ], [ -38.351117, -12.896981899999961 ], [ -38.351125399999944, -12.896976599999947 ], [ -38.351796499999978, -12.896556799999932 ], [ -38.352258199999937, -12.896268 ], [ -38.352847099999963, -12.895899699999958 ], [ -38.354126, -12.895114599999946 ], [ -38.354296, -12.895011099999975 ], [ -38.35449349999994, -12.894890799999917 ], [ -38.354863, -12.894665599999932 ], [ -38.354825699999942, -12.894231599999944 ], [ -38.3548153, -12.894110299999957 ], [ -38.354812099999947, -12.894073399999977 ], [ -38.354804199999926, -12.893981599999963 ], [ -38.354810199999974, -12.893680699999939 ], [ -38.354811, -12.893640399999983 ], [ -38.354829499999937, -12.892712 ], [ -38.354830199999981, -12.892673499999939 ], [ -38.354903399999955, -12.888996599999919 ], [ -38.354903899999947, -12.888967899999958 ], [ -38.35490469999997, -12.888926599999939 ], [ -38.35494639999996, -12.886831899999956 ], [ -38.35498419999994, -12.884929699999926 ], [ -38.354984599999966, -12.884913599999944 ], [ -38.355006399999986, -12.883805899999972 ], [ -38.355083199999967, -12.879815499999944 ], [ -38.355082499999973, -12.879794599999968 ], [ -38.35508139999996, -12.879763799999981 ], [ -38.355080299999948, -12.879733 ], [ -38.355075399999976, -12.879594099999967 ], [ -38.355075299999953, -12.879591599999962 ], [ -38.355074299999956, -12.879563299999987 ], [ -38.355068199999955, -12.879388599999967 ], [ -38.355066699999952, -12.87934869999998 ], [ -38.355060399999957, -12.879169 ], [ -38.355059199999978, -12.87913319999995 ], [ -38.355041899999947, -12.878644299999962 ], [ -38.354972399999951, -12.876669899999971 ], [ -38.354971299999939, -12.87663929999996 ], [ -38.354970899999955, -12.876628699999962 ], [ -38.354970699999974, -12.876622499999948 ], [ -38.354762099999967, -12.870722399999973 ], [ -38.354761, -12.870690599999909 ], [ -38.354760799999958, -12.870685199999979 ], [ -38.354750699999961, -12.870403399999912 ], [ -38.354734599999979, -12.869955299999946 ], [ -38.354681399999947, -12.868468699999939 ], [ -38.354672899999976, -12.868231799999936 ], [ -38.354656699999964, -12.867780399999962 ], [ -38.35457519999995, -12.865503699999989 ], [ -38.354571799999974, -12.865409799999952 ], [ -38.354561199999971, -12.865113899999921 ], [ -38.354446799999955, -12.861918699999935 ], [ -38.354419499999942, -12.861156099999954 ], [ -38.354304, -12.860728099999976 ], [ -38.353758299999981, -12.858705399999959 ], [ -38.353753899999958, -12.858689 ], [ -38.353749599999958, -12.858672899999934 ], [ -38.353648399999948, -12.858298099999956 ], [ -38.353585199999941, -12.858063799999959 ], [ -38.353584799999965, -12.85806219999996 ], [ -38.352183199999956, -12.852867 ], [ -38.352196799999945, -12.852561899999948 ], [ -38.352242199999971, -12.851550199999963 ], [ -38.352451299999984, -12.846885699999969 ], [ -38.352466099999958, -12.846555399999943 ], [ -38.352967799999931, -12.843078299999949 ], [ -38.353076299999948, -12.842326399999939 ], [ -38.353174799999977, -12.841643799999931 ], [ -38.353247299999964, -12.841141399999984 ], [ -38.353249799999958, -12.841124499999985 ], [ -38.353315599999974, -12.84066829999996 ], [ -38.353324199999975, -12.840608499999979 ], [ -38.353362599999969, -12.840342899999944 ], [ -38.353377599999938, -12.8401287 ], [ -38.353439199999961, -12.839252299999945 ], [ -38.353446599999984, -12.839147199999971 ], [ -38.354744899999957, -12.835602 ], [ -38.356925199999985, -12.833233 ], [ -38.356980399999941, -12.833173 ], [ -38.356714699999948, -12.832828299999962 ], [ -38.356622099999981, -12.832708299999984 ], [ -38.356099, -12.83203069999996 ], [ -38.355508599999951, -12.831266399999951 ], [ -38.355043899999941, -12.830665199999933 ], [ -38.354562499999929, -12.830044299999944 ], [ -38.354080099999976, -12.829421699999966 ], [ -38.353549299999948, -12.828732599999972 ], [ -38.35308079999993, -12.828128199999972 ], [ -38.352553099999973, -12.827421099999988 ], [ -38.352153199999975, -12.827623 ], [ -38.352017399999959, -12.827683299999928 ], [ -38.351918, -12.82772739999996 ], [ -38.351776699999959, -12.827796499999971 ], [ -38.351378, -12.827972499999921 ], [ -38.350881, -12.82827169999995 ], [ -38.350876699999965, -12.828275 ], [ -38.350527899999975, -12.828548899999936 ], [ -38.350171799999949, -12.828753199999936 ], [ -38.350024299999966, -12.828760099999961 ], [ -38.349662, -12.828701399999947 ], [ -38.349103599999985, -12.828535 ], [ -38.348884499999947, -12.828478499999962 ], [ -38.348559699999953, -12.828442799999944 ], [ -38.348289199999954, -12.828475699999938 ], [ -38.348117499999951, -12.828414799999953 ], [ -38.347873599999957, -12.828317 ], [ -38.34749039999997, -12.828086699999965 ], [ -38.347232499999954, -12.827923399999978 ], [ -38.347130099999958, -12.827858599999958 ], [ -38.347037099999966, -12.8277998 ], [ -38.346802199999964, -12.827665499999958 ], [ -38.346561299999962, -12.827525599999934 ], [ -38.346208099999956, -12.827324199999973 ], [ -38.345884299999973, -12.827130299999967 ], [ -38.345670599999956, -12.827020399999981 ], [ -38.345414699999935, -12.826922599999936 ], [ -38.345108799999934, -12.826827599999961 ], [ -38.344885199999965, -12.826719599999935 ], [ -38.344508399999938, -12.826490599999952 ], [ -38.344371299999978, -12.826336099999937 ], [ -38.344241399999937, -12.826148299999963 ], [ -38.344123899999943, -12.825944099999973 ], [ -38.343727099999974, -12.825492899999963 ], [ -38.343490299999985, -12.825306699999954 ], [ -38.343281699999977, -12.825124699999941 ], [ -38.343035599999951, -12.824880399999929 ], [ -38.342891199999933, -12.824730599999947 ], [ -38.342735399999988, -12.824614 ], [ -38.342584199999983, -12.824487399999962 ], [ -38.342180499999984, -12.8242213 ], [ -38.3417937, -12.824018399999931 ], [ -38.341592699999978, -12.823926899999945 ], [ -38.341015399999954, -12.823688799999953 ], [ -38.340800799999961, -12.823574399999933 ], [ -38.340628299999942, -12.823451499999988 ], [ -38.340501, -12.823310599999951 ], [ -38.340277, -12.823025399999942 ], [ -38.340177399999959, -12.822920199999938 ], [ -38.339955499999981, -12.82272929999993 ], [ -38.33980889999998, -12.822623199999954 ], [ -38.33966159999995, -12.822542899999956 ], [ -38.339265799999971, -12.822347 ], [ -38.338988699999959, -12.822234 ], [ -38.338787799999977, -12.822137499999933 ], [ -38.338647099999946, -12.822046 ], [ -38.338447599999938, -12.821983399999967 ], [ -38.338255299999958, -12.821946299999979 ], [ -38.33808189999997, -12.821977199999926 ], [ -38.337930099999937, -12.822044799999956 ], [ -38.337785599999961, -12.82213219999994 ], [ -38.337659, -12.822245 ], [ -38.33753709999997, -12.8223958 ], [ -38.337504699999954, -12.822445 ], [ -38.33737009999993, -12.822657 ], [ -38.337156099999966, -12.823016299999956 ], [ -38.337012399999928, -12.823255099999917 ], [ -38.336941699999954, -12.823310799999959 ], [ -38.336805399999946, -12.82336609999995 ], [ -38.336721699999941, -12.823383799999947 ], [ -38.33659879999994, -12.823389099999922 ], [ -38.336249299999977, -12.823357 ], [ -38.335782, -12.8232945 ], [ -38.335369899999932, -12.823218199999944 ], [ -38.335055899999936, -12.823124699999946 ], [ -38.334921699999946, -12.823073399999943 ], [ -38.334905799999945, -12.823062199999983 ], [ -38.334866099999957, -12.823034 ], [ -38.334813599999961, -12.822917299999972 ], [ -38.334584599999964, -12.822320499999922 ], [ -38.334461799999936, -12.822166399999952 ], [ -38.334366399999972, -12.822099399999951 ], [ -38.333563, -12.821895399999955 ], [ -38.333178399999959, -12.821817799999945 ], [ -38.3329672, -12.821748899999923 ], [ -38.332905, -12.821707699999942 ], [ -38.332774199999967, -12.821566399999934 ], [ -38.332676399999968, -12.821502899999917 ], [ -38.332372199999952, -12.821376399999968 ], [ -38.327402799999959, -12.818093199999957 ], [ -38.327090399999967, -12.818132099999941 ], [ -38.326486899999963, -12.818443599999977 ], [ -38.326201699999956, -12.819051799999945 ], [ -38.326004699999942, -12.819816599999974 ], [ -38.32596609999996, -12.820999399999955 ], [ -38.326032, -12.822878299999971 ], [ -38.326313399999961, -12.823714 ], [ -38.326966, -12.824950699999933 ], [ -38.327247299999961, -12.825821199999931 ], [ -38.327316599999961, -12.826412799999966 ], [ -38.327262299999987, -12.826830099999929 ], [ -38.327047899999975, -12.827455799999939 ], [ -38.326603499999976, -12.827924299999934 ], [ -38.326318, -12.828636799999977 ], [ -38.326298799999961, -12.829176 ], [ -38.326457199999936, -12.829628699999926 ], [ -38.326686099999968, -12.830203299999937 ], [ -38.327021899999984, -12.830586899999959 ], [ -38.327180599999963, -12.830900399999978 ], [ -38.327481199999966, -12.831196899999956 ], [ -38.327746199999986, -12.831528099999964 ], [ -38.327957699999956, -12.831980899999966 ], [ -38.327956599999936, -12.8324158 ], [ -38.327866899999947, -12.832815599999941 ], [ -38.327653199999936, -12.833180399999954 ], [ -38.327315299999945, -12.833597 ], [ -38.3271185, -12.834257499999975 ], [ -38.327116699999969, -12.834918499999977 ], [ -38.326902099999984, -12.835631199999968 ], [ -38.32665319999996, -12.835908899999923 ], [ -38.326316, -12.836047199999944 ], [ -38.325766699999974, -12.835958799999961 ], [ -38.325075, -12.836061399999945 ], [ -38.324388599999963, -12.836127 ], [ -38.324365799999946, -12.836129099999939 ], [ -38.324314699999945, -12.836135699999941 ], [ -38.324247599999985, -12.836144299999933 ], [ -38.324099799999949, -12.836163199999923 ], [ -38.323887199999952, -12.836110499999966 ], [ -38.32369239999997, -12.836040399999955 ], [ -38.323426599999941, -12.835987599999971 ], [ -38.323001, -12.836021299999976 ], [ -38.322522699999979, -12.835915699999928 ], [ -38.32231, -12.835897699999984 ], [ -38.322168099999942, -12.8359321 ], [ -38.321972799999976, -12.836018599999939 ], [ -38.321671199999976, -12.836122199999977 ], [ -38.32115669999996, -12.83626 ], [ -38.320819799999974, -12.836311299999974 ], [ -38.32065979999993, -12.83646749999995 ], [ -38.320375599999977, -12.836692899999949 ], [ -38.320091, -12.837022699999967 ], [ -38.320001699999985, -12.837266 ], [ -38.320019, -12.837457399999948 ], [ -38.320124599999936, -12.837736 ], [ -38.320124099999937, -12.837927299999937 ], [ -38.32007039999997, -12.838101099999953 ], [ -38.319963499999972, -12.838309599999945 ], [ -38.319608, -12.838656599999965 ], [ -38.319305399999969, -12.839108099999965 ], [ -38.319154, -12.839386 ], [ -38.319033199999986, -12.839607699999934 ], [ -38.319002599999976, -12.839663899999936 ], [ -38.318877899999961, -12.839854899999985 ], [ -38.318735899999986, -12.839941499999947 ], [ -38.318469899999975, -12.839975599999958 ], [ -38.318062099999963, -12.839974599999962 ], [ -38.317693899999938, -12.839923799999932 ], [ -38.317548199999976, -12.839903699999972 ], [ -38.317176, -12.839902699999977 ], [ -38.316768099999933, -12.839936399999939 ], [ -38.315934499999976, -12.840090799999917 ], [ -38.315225599999955, -12.840019399999976 ], [ -38.314464, -12.839773899999956 ], [ -38.313843899999945, -12.839633099999945 ], [ -38.3135779, -12.83964979999997 ], [ -38.313205399999958, -12.839753199999967 ], [ -38.312885899999969, -12.839874099999975 ], [ -38.312388899999981, -12.840116399999944 ], [ -38.312325699999981, -12.840202699999962 ], [ -38.312211, -12.840359399999947 ], [ -38.312194899999952, -12.840579899999963 ], [ -38.312174099999936, -12.840863799999973 ], [ -38.312207799999953, -12.841507499999972 ], [ -38.312171299999939, -12.841890099999937 ], [ -38.312116399999979, -12.842551 ], [ -38.312132899999945, -12.842968499999929 ], [ -38.312750199999989, -12.844170399999955 ], [ -38.313031799999976, -12.844901699999969 ], [ -38.31316389999995, -12.84521519999992 ], [ -38.313296, -12.845528599999955 ], [ -38.31377009999995, -12.846692399999947 ], [ -38.313806799999952, -12.846782399999926 ], [ -38.313964699999943, -12.847374299999963 ], [ -38.314122499999939, -12.848018299999978 ], [ -38.314103499999923, -12.848487899999956 ], [ -38.314067099999932, -12.848853099999918 ], [ -38.31374569999997, -12.849687199999938 ], [ -38.313584899999974, -12.850121699999937 ], [ -38.313353499999955, -12.850469 ], [ -38.312944799999968, -12.850833199999974 ], [ -38.312877399999941, -12.850838599999966 ], [ -38.31251919999994, -12.850866899999984 ], [ -38.31220019999995, -12.850848699999958 ], [ -38.31218, -12.8508434 ], [ -38.311863499999959, -12.850760799999939 ], [ -38.31158, -12.85072529999997 ], [ -38.311296199999965, -12.850776699999937 ], [ -38.3107816, -12.850931899999958 ], [ -38.309858399999939, -12.851416599999931 ], [ -38.308260799999985, -12.852177699999977 ], [ -38.307869799999935, -12.852524599999981 ], [ -38.307656199999933, -12.852854599999933 ], [ -38.307351799999928, -12.853932299999943 ], [ -38.306726699999956, -12.855600499999966 ], [ -38.30606679999994, -12.85706 ], [ -38.305782299999976, -12.857354899999955 ], [ -38.305374099999938, -12.857510399999954 ], [ -38.3050904, -12.857527099999951 ], [ -38.304523399999937, -12.857403799999947 ], [ -38.304348299999958, -12.857397 ], [ -38.304044799999929, -12.857385099999936 ], [ -38.30340649999993, -12.857418199999922 ], [ -38.303282199999956, -12.857478799999967 ], [ -38.303157899999974, -12.857539299999928 ], [ -38.3030505, -12.857904299999968 ], [ -38.303001299999949, -12.858189599999966 ], [ -38.3029605, -12.858426 ], [ -38.30274639999994, -12.858895099999938 ], [ -38.302426799999985, -12.859085599999958 ], [ -38.301823599999985, -12.859205699999958 ], [ -38.300830499999961, -12.859324799999964 ], [ -38.300421599999936, -12.859345599999928 ], [ -38.300217099999941, -12.859356 ], [ -38.299935, -12.859370499999958 ], [ -38.29985529999994, -12.859374399999973 ], [ -38.299508899999978, -12.859402599999955 ], [ -38.299234599999984, -12.859424899999949 ], [ -38.299166899999939, -12.859416499999956 ], [ -38.298809799999965, -12.859371699999944 ], [ -38.298639299999941, -12.859273699999946 ], [ -38.298384399999982, -12.859127 ], [ -38.297782499999983, -12.858812199999928 ], [ -38.296755399999945, -12.858409399999967 ], [ -38.296100099999933, -12.858146699999969 ], [ -38.295586199999946, -12.858058399999955 ], [ -38.294895099999955, -12.857969499999976 ], [ -38.294346299999972, -12.85767229999993 ], [ -38.294254499999965, -12.857624599999951 ], [ -38.294009899999942, -12.857497499999967 ], [ -38.293657, -12.85692249999993 ], [ -38.292790399999951, -12.856137399999966 ], [ -38.292047399999944, -12.855578699999969 ], [ -38.291869799999979, -12.855507399999956 ], [ -38.291795899999954, -12.855477699999922 ], [ -38.291638299999939, -12.855414399999963 ], [ -38.291480699999973, -12.855351099999947 ], [ -38.290878199999952, -12.855262499999977 ], [ -38.290239899999968, -12.85529549999996 ], [ -38.289654399999954, -12.855433099999962 ], [ -38.289139499999976, -12.855727399999981 ], [ -38.288748299999952, -12.856143899999939 ], [ -38.288658099999971, -12.856682899999964 ], [ -38.288798299999947, -12.85727469999995 ], [ -38.289323, -12.857746699999952 ], [ -38.289399499999938, -12.857815499999949 ], [ -38.289805799999947, -12.858355899999918 ], [ -38.290105599999954, -12.858913299999932 ], [ -38.290315899999939, -12.859783699999973 ], [ -38.290561699999955, -12.860654099999968 ], [ -38.290648499999968, -12.861280499999969 ], [ -38.290588699999951, -12.861541199999962 ], [ -38.290540899999939, -12.861749899999936 ], [ -38.290404199999955, -12.862207 ], [ -38.290402599999936, -12.862211 ], [ -38.290399199999968, -12.862216899999979 ], [ -38.290342499999952, -12.862313499999958 ], [ -38.290183899999938, -12.86258389999996 ], [ -38.2895286, -12.863573 ], [ -38.289436099999932, -12.863712599999927 ], [ -38.289346599999931, -12.864008 ], [ -38.289331, -12.864135199999962 ], [ -38.289319299999931, -12.864230899999923 ], [ -38.289310399999984, -12.864303699999937 ], [ -38.289451, -12.864721499999977 ], [ -38.289891399999931, -12.865731599999934 ], [ -38.290102699999977, -12.866236699999927 ], [ -38.290296599999976, -12.866637299999979 ], [ -38.290366699999943, -12.866933199999949 ], [ -38.290436299999961, -12.867420399999942 ], [ -38.290594699999922, -12.867838299999953 ], [ -38.290947399999943, -12.868500299999928 ], [ -38.291264899999931, -12.869092599999931 ], [ -38.291316799999947, -12.869545 ], [ -38.291271899999977, -12.869727499999964 ], [ -38.291227099999965, -12.86991 ], [ -38.29096009999995, -12.870292 ], [ -38.290630399999934, -12.87047959999995 ], [ -38.2905143, -12.870476599999952 ], [ -38.290391899999982, -12.87046989999992 ], [ -38.290285899999958, -12.870464099999936 ], [ -38.290073, -12.870515799999977 ], [ -38.289487199999947, -12.870775099999959 ], [ -38.288937099999949, -12.870947499999938 ], [ -38.288919599999929, -12.870947499999948 ], [ -38.28851149999997, -12.8709464 ], [ -38.288146499999982, -12.870878199999941 ], [ -38.287944499999981, -12.87084049999992 ], [ -38.286845399999955, -12.870785299999964 ], [ -38.285906199999935, -12.870626199999943 ], [ -38.285233099999978, -12.870380799999971 ], [ -38.284950299999934, -12.870084299999977 ], [ -38.284774, -12.869718599999944 ], [ -38.284686299999983, -12.869405199999962 ], [ -38.284456199999966, -12.869248 ], [ -38.284048599999949, -12.86921209999996 ], [ -38.283392499999927, -12.869227699999955 ], [ -38.282824499999947, -12.869469699999962 ], [ -38.282185399999953, -12.869746299999987 ], [ -38.281652499999943, -12.870092699999939 ], [ -38.281208199999973, -12.870474199999929 ], [ -38.280675699999961, -12.8706989 ], [ -38.280037199999988, -12.870766699999947 ], [ -38.279576399999939, -12.870695899999932 ], [ -38.279115899999965, -12.870555399999942 ], [ -38.278832199999968, -12.870537299999961 ], [ -38.278495299999975, -12.870571099999948 ], [ -38.278228899999931, -12.87072689999996 ], [ -38.278033, -12.871022099999941 ], [ -38.277925499999988, -12.871421899999973 ], [ -38.277852499999931, -12.87213489999994 ], [ -38.277886699999954, -12.87258729999996 ], [ -38.277868, -12.872935099999939 ], [ -38.277760299999962, -12.873387099999949 ], [ -38.27756409999995, -12.873786599999953 ], [ -38.277084499999944, -12.874115799999961 ], [ -38.276750199999981, -12.874224099999934 ], [ -38.276658599999976, -12.874253799999968 ], [ -38.276250599999976, -12.87432219999994 ], [ -38.275754099999972, -12.8743383 ], [ -38.275434599999983, -12.87447649999997 ], [ -38.275309799999945, -12.874702299999971 ], [ -38.275220299999951, -12.874980399999965 ], [ -38.275201599999939, -12.875345699999963 ], [ -38.275413199999946, -12.875728899999949 ], [ -38.275607499999985, -12.876007799999972 ], [ -38.276121, -12.876217899999979 ], [ -38.276882899999976, -12.876411399999931 ], [ -38.277591599999937, -12.876569899999932 ], [ -38.278104599999956, -12.876988799999944 ], [ -38.278759, -12.877547199999984 ], [ -38.279183, -12.878087599999954 ], [ -38.27944789999998, -12.878471099999953 ], [ -38.2798375, -12.878611299999935 ], [ -38.280299099999986, -12.878421199999915 ], [ -38.280813799999976, -12.878231299999984 ], [ -38.281292199999946, -12.878337 ], [ -38.281681599999949, -12.878581599999949 ], [ -38.282035, -12.879 ], [ -38.282069899999954, -12.879191499999942 ], [ -38.282062099999969, -12.879284299999922 ], [ -38.282033199999951, -12.879626199999958 ], [ -38.281897799999975, -12.880037399999924 ], [ -38.281890099999949, -12.88006069999995 ], [ -38.281659, -12.880286199999929 ], [ -38.281250399999983, -12.880563399999977 ], [ -38.28110869999994, -12.880510799999954 ], [ -38.280985099999953, -12.880319199999986 ], [ -38.280932599999971, -12.880075499999972 ], [ -38.280888299999965, -12.879877 ], [ -38.280862599999985, -12.879762199999938 ], [ -38.280756799999956, -12.879570499999941 ], [ -38.280579499999938, -12.87955269999998 ], [ -38.280366499999957, -12.879621699999973 ], [ -38.28025939999997, -12.879882299999966 ], [ -38.280187299999973, -12.880299599999939 ], [ -38.280165199999935, -12.880688599999916 ], [ -38.280503699999947, -12.881122099999972 ], [ -38.280886, -12.881790899999952 ], [ -38.281455199999982, -12.882374099999927 ], [ -38.281936499999972, -12.883000099999951 ], [ -38.282329799999964, -12.883669 ], [ -38.282383899999964, -12.883970699999949 ], [ -38.282370299999968, -12.884886199999926 ], [ -38.282545199999966, -12.885155899999988 ], [ -38.283168799999942, -12.885922299999944 ], [ -38.283804, -12.886462599999952 ], [ -38.284209699999963, -12.886625299999924 ], [ -38.284472799999939, -12.886755199999971 ], [ -38.284736, -12.886885199999927 ], [ -38.2848274, -12.886975499999936 ], [ -38.284870599999977, -12.887018 ], [ -38.285009699999939, -12.887155199999926 ], [ -38.285666599999963, -12.887781699999943 ], [ -38.286202899999978, -12.88836479999998 ], [ -38.286936499999968, -12.889077599999942 ], [ -38.287811499999982, -12.890210899999934 ], [ -38.288588399999988, -12.891150099999944 ], [ -38.289223299999946, -12.891808799999964 ], [ -38.289836699999967, -12.892295199999987 ], [ -38.290241599999952, -12.892791699999975 ], [ -38.290349799999944, -12.893008899999934 ], [ -38.290601799999941, -12.893514299999916 ], [ -38.291323599999942, -12.894518 ], [ -38.29177279999994, -12.894874599999969 ], [ -38.292178199999967, -12.89513419999998 ], [ -38.29232, -12.895468499999916 ], [ -38.292505399999982, -12.895910599999983 ], [ -38.293096699999985, -12.896483 ], [ -38.293753199999976, -12.897292599999949 ], [ -38.294475, -12.898285399999967 ], [ -38.295120399999973, -12.899116499999941 ], [ -38.295436, -12.899471199999919 ], [ -38.295578399999961, -12.899631199999936 ], [ -38.295633699999939, -12.899709499999968 ], [ -38.295846799999936, -12.900029799999967 ], [ -38.296069, -12.900363699999966 ], [ -38.296072099999947, -12.900368499999962 ], [ -38.296542699999982, -12.900919 ], [ -38.297111599999944, -12.901653 ], [ -38.297483099999965, -12.902289399999958 ], [ -38.297734299999952, -12.902764 ], [ -38.297865899999969, -12.902818199999949 ], [ -38.298118099999961, -12.902915799999954 ], [ -38.298106499999967, -12.903152799999919 ], [ -38.298204899999973, -12.903293 ], [ -38.298555699999952, -12.903509399999962 ], [ -38.298653899999969, -12.903714299999944 ], [ -38.298477899999973, -12.903821499999937 ], [ -38.298510499999963, -12.903961599999938 ], [ -38.29853959999997, -12.903989099999912 ], [ -38.298842599999944, -12.904274899999967 ], [ -38.299167499999953, -12.90458269999993 ], [ -38.299309899999969, -12.904717699999924 ], [ -38.299791299999981, -12.905332899999959 ], [ -38.300020199999949, -12.905904399999933 ], [ -38.300228, -12.906228099999959 ], [ -38.300666099999944, -12.90660619999994 ], [ -38.301465499999949, -12.907362299999933 ], [ -38.30221, -12.908129 ], [ -38.302559699999961, -12.908700799999961 ], [ -38.3028657, -12.90924009999998 ], [ -38.303062599999983, -12.90948839999993 ], [ -38.303533899999941, -12.909791199999978 ], [ -38.303752499999973, -12.910136499999968 ], [ -38.304032899999982, -12.910514099999959 ], [ -38.304049599999978, -12.910536499999974 ], [ -38.304037499999936, -12.91055 ], [ -38.304155199999968, -12.910678699999947 ], [ -38.304330399999969, -12.910870399999963 ], [ -38.304332699999975, -12.910872899999973 ], [ -38.30507159999997, -12.909950199999965 ], [ -38.306188699999957, -12.90864249999993 ], [ -38.306189099999976, -12.908634699999931 ], [ -38.306210499999963, -12.908617 ], [ -38.306886399999939, -12.907429 ], [ -38.307146599999953, -12.906971799999939 ], [ -38.305625699999958, -12.906661699999951 ], [ -38.305591899999968, -12.906646699999948 ], [ -38.305545799999948, -12.906569799999938 ], [ -38.305544499999939, -12.906533799999972 ], [ -38.306092, -12.903941699999965 ], [ -38.306141799999978, -12.90386349999994 ], [ -38.30623479999997, -12.903842399999967 ], [ -38.308944599999954, -12.904388199999964 ], [ -38.309091399999943, -12.904258599999931 ], [ -38.30911059999994, -12.904241699999947 ], [ -38.309266499999985, -12.904144099999925 ], [ -38.309690099999955, -12.903965899999939 ], [ -38.313470699999989, -12.904714299999963 ], [ -38.313910899999939, -12.904801399999943 ], [ -38.314734699999974, -12.904964499999961 ], [ -38.315187899999962, -12.905054199999928 ], [ -38.316181299999982, -12.905250899999922 ], [ -38.316386399999949, -12.903802 ], [ -38.316475699999955, -12.903171199999978 ], [ -38.317938899999945, -12.90235679999997 ], [ -38.318607699999973, -12.901972199999939 ], [ -38.319377399999951, -12.901012899999973 ], [ -38.319772399999977, -12.900520499999958 ], [ -38.320021899999979, -12.900209599999926 ], [ -38.322596399999952, -12.900215399999988 ], [ -38.323917699999981, -12.900617099999966 ], [ -38.324737699999957, -12.900865499999952 ], [ -38.325755199999946, -12.899458099999952 ], [ -38.326708099999962, -12.898137 ], [ -38.32708829999995, -12.897928 ], [ -38.32729809999995, -12.897812799999938 ], [ -38.327929099999956, -12.89855759999994 ], [ -38.328083699999986, -12.89874 ], [ -38.328224199999966, -12.898904599999979 ], [ -38.329132399999935, -12.899452699999944 ], [ -38.329657699999984, -12.899911699999954 ], [ -38.329892899999948, -12.900117199999951 ], [ -38.330744599999946, -12.901154299999988 ], [ -38.330947599999945, -12.901349899999957 ], [ -38.331237899999962, -12.901629599999989 ], [ -38.33152819999998, -12.901909299999945 ], [ -38.331825099999946, -12.90242719999998 ], [ -38.331877, -12.902640299999966 ], [ -38.332057899999938, -12.903383 ], [ -38.333248199999957, -12.903545599999982 ], [ -38.334338, -12.904124899999937 ], [ -38.335481699999946, -12.903327799999939 ], [ -38.33632879999994, -12.903564099999913 ], [ -38.33640859999997, -12.903564699999958 ], [ -38.337710499999957, -12.903386799999961 ], [ -38.337715299999957, -12.903331299999936 ], [ -38.338049299999959, -12.903351799999943 ], [ -38.33824189999995, -12.90338819999995 ], [ -38.338477499999961, -12.903403399999958 ], [ -38.33865469999995, -12.903413599999974 ], [ -38.338762299999985, -12.903423 ], [ -38.339435399999957, -12.905957 ], [ -38.340960399999979, -12.906906799999931 ], [ -38.341233699999975, -12.906746199999931 ], [ -38.341281599999945, -12.906675699999935 ], [ -38.341429599999969, -12.90654929999992 ], [ -38.341390899999965, -12.906463499999976 ], [ -38.341852599999974, -12.905787099999955 ], [ -38.342957399999932, -12.904648 ], [ -38.343030399999968, -12.904572 ], [ -38.343151199999973, -12.904446399999925 ], [ -38.343335599999932, -12.90410129999997 ], [ -38.343502299999955, -12.903787699999949 ], [ -38.343543299999965, -12.903702 ], [ -38.343335499999966, -12.903570799999951 ], [ -38.343281699999977, -12.903532599999952 ], [ -38.343403, -12.903232699999934 ], [ -38.344038699999942, -12.90213659999994 ], [ -38.344823599999984, -12.901138 ], [ -38.345205099999937, -12.900772 ], [ -38.34557279999995, -12.900413 ], [ -38.345739099999953, -12.900311 ], [ -38.345810399999955, -12.90026729999992 ] ] ] } }
]
}
