{
"type": "FeatureCollection",
"name": "2921104",
"crs": { "type": "name", "properties": { "name": "urn:ogc:def:crs:OGC:1.3:CRS84" } },
"features": [
{ "type": "Feature", "properties": { "CD_MUN": "2921104", "NM_MUN": "Medeiros Neto" }, "geometry": { "type": "MultiPolygon", "coordinates": [ [ [ [ -40.468692, -17.4810146 ], [ -40.46869739999994, -17.481035599999917 ], [ -40.468702899999982, -17.481056699999957 ], [ -40.468713799999932, -17.481098699999954 ], [ -40.468689799999943, -17.481534699999926 ], [ -40.468784199999959, -17.482184499999967 ], [ -40.468833099999983, -17.482759499999919 ], [ -40.468842599999959, -17.482945299999926 ], [ -40.468852, -17.483131 ], [ -40.468780199999976, -17.483449799999963 ], [ -40.468634699999939, -17.483749 ], [ -40.468500699999943, -17.483972299999962 ], [ -40.468401799999981, -17.484137199999957 ], [ -40.468302899999976, -17.484302 ], [ -40.468114, -17.484580099999967 ], [ -40.468057099999953, -17.484693299999936 ], [ -40.467957899999931, -17.484890499999945 ], [ -40.467887699999949, -17.485148 ], [ -40.467870699999935, -17.485252299999964 ], [ -40.467869199999946, -17.485261899999951 ], [ -40.467862199999963, -17.485304699999975 ], [ -40.467834, -17.48547759999996 ], [ -40.467816399999954, -17.485594699999982 ], [ -40.467698899999959, -17.486375799999955 ], [ -40.467615599999938, -17.487008799999952 ], [ -40.467728199999961, -17.487477099999975 ], [ -40.467754899999932, -17.487676599999926 ], [ -40.467781599999967, -17.487876099999951 ], [ -40.467880699999967, -17.488226799999946 ], [ -40.468167699999988, -17.488785699999937 ], [ -40.468178899999941, -17.488807499999957 ], [ -40.468319299999962, -17.489080899999969 ], [ -40.468606599999923, -17.489373599999968 ], [ -40.469024, -17.489602599999969 ], [ -40.469388799999933, -17.489852 ], [ -40.469875599999966, -17.490168299999944 ], [ -40.470581699999975, -17.490465299999986 ], [ -40.470762, -17.490474599999974 ], [ -40.471786099999974, -17.490616499999923 ], [ -40.472221, -17.49070039999997 ], [ -40.472956699999941, -17.490782799999973 ], [ -40.473036899999961, -17.490791799999958 ], [ -40.47346529999993, -17.490783799999981 ], [ -40.473977699999978, -17.490785099999989 ], [ -40.47385689999993, -17.488864899999971 ], [ -40.473806599999932, -17.488800199999947 ], [ -40.473781199999969, -17.48876759999996 ], [ -40.473778, -17.488763499999948 ], [ -40.473776399999963, -17.488761399999934 ], [ -40.473748599999965, -17.488725699999975 ], [ -40.473613599999965, -17.488552299999981 ], [ -40.473450799999974, -17.488343199999964 ], [ -40.47338359999997, -17.488256899999946 ], [ -40.473129899999954, -17.487756399999967 ], [ -40.472979099999982, -17.487331299999941 ], [ -40.473034, -17.486913099999981 ], [ -40.473328799999926, -17.48652229999993 ], [ -40.473612199999934, -17.485944 ], [ -40.473668099999941, -17.485861899999968 ], [ -40.473661699999987, -17.48576149999996 ], [ -40.472298899999942, -17.481195799999966 ], [ -40.471489, -17.479498899999957 ], [ -40.470814099999984, -17.478534799999984 ], [ -40.469359, -17.478547299999956 ], [ -40.46926829999996, -17.478709099999957 ], [ -40.468729399999972, -17.480212399999978 ], [ -40.468686199999979, -17.480612199999932 ], [ -40.468667899999964, -17.480780899999953 ], [ -40.468692, -17.4810146 ] ] ], [ [ [ -39.940668499999965, -17.436106099999961 ], [ -39.9392845, -17.435417 ], [ -39.938712199999941, -17.435002399999966 ], [ -39.937958899999956, -17.434716199999972 ], [ -39.937865399999964, -17.434675399999954 ], [ -39.937336, -17.434749299999964 ], [ -39.936514699999968, -17.43455639999997 ], [ -39.936449099999948, -17.434547399999932 ], [ -39.935937199999955, -17.434369099999977 ], [ -39.935506299999929, -17.434205899999952 ], [ -39.935168899999958, -17.434148099999952 ], [ -39.934760199999971, -17.434584 ], [ -39.934381499999979, -17.434590899999947 ], [ -39.933498399999969, -17.434874499999985 ], [ -39.933529399999948, -17.435228199999919 ], [ -39.933946599999963, -17.439996899999979 ], [ -39.934213299999961, -17.439861299999954 ], [ -39.9346245, -17.439823799999935 ], [ -39.93515819999994, -17.439949699999932 ], [ -39.935384099999965, -17.439946899999935 ], [ -39.93589529999997, -17.4397686 ], [ -39.936183599999936, -17.439629699999962 ], [ -39.936454899999951, -17.439482299999952 ], [ -39.936588399999948, -17.439307199999973 ], [ -39.939070099999981, -17.442492299999973 ], [ -39.939540399999956, -17.442341199999927 ], [ -39.94009189999997, -17.441398799999941 ], [ -39.940776599999943, -17.440369099999934 ], [ -39.942587399999987, -17.438281599999979 ], [ -39.942624, -17.436828099999961 ], [ -39.940668499999965, -17.436106099999961 ] ] ], [ [ [ -40.228707699999973, -17.393835399999944 ], [ -40.228896899999938, -17.394511299999976 ], [ -40.229452599999952, -17.396516399999932 ], [ -40.229893099999977, -17.398235299999946 ], [ -40.230211799999942, -17.399596899999949 ], [ -40.241029099999935, -17.39234139999996 ], [ -40.25011539999997, -17.386322099999969 ], [ -40.250215299999979, -17.386254799999971 ], [ -40.248310499999945, -17.383293399999957 ], [ -40.243808799999954, -17.38268369999998 ], [ -40.238734199999953, -17.382073699999982 ], [ -40.235329, -17.382276199999968 ], [ -40.233730199999975, -17.382432299999955 ], [ -40.23225309999998, -17.38270179999995 ], [ -40.231252099999949, -17.38164339999997 ], [ -40.229288499999939, -17.379751899999967 ], [ -40.229029499999974, -17.379631099999923 ], [ -40.22899469999993, -17.379547299999953 ], [ -40.228164699999979, -17.37897409999994 ], [ -40.227949199999962, -17.378821199999951 ], [ -40.228026799999952, -17.378655299999931 ], [ -40.22935039999993, -17.373628799999945 ], [ -40.229578899999986, -17.373678199999961 ], [ -40.229902799999934, -17.373627199999934 ], [ -40.230251, -17.373284299999959 ], [ -40.230689199999972, -17.372483599999963 ], [ -40.230798799999945, -17.37217 ], [ -40.230643399999963, -17.371787299999944 ], [ -40.230578099999946, -17.371358399999973 ], [ -40.230579299999931, -17.370741399999925 ], [ -40.230596899999973, -17.370457199999972 ], [ -40.230851199999961, -17.370157599999974 ], [ -40.231247099999962, -17.369694599999935 ], [ -40.23162949999994, -17.369205099999938 ], [ -40.231742899999972, -17.369017299999935 ], [ -40.232108099999941, -17.36845389999996 ], [ -40.232281799999953, -17.367980399999968 ], [ -40.232281899999975, -17.367601499999978 ], [ -40.232182799999975, -17.367222599999941 ], [ -40.231996799999941, -17.366701599999939 ], [ -40.231678099999961, -17.366555699999928 ], [ -40.231577899999934, -17.366364399999956 ], [ -40.231432699999971, -17.36616829999998 ], [ -40.231412699999971, -17.365957899999955 ], [ -40.231432799999936, -17.36569969999994 ], [ -40.231462899999947, -17.365546699999978 ], [ -40.23146289999994, -17.36539849999998 ], [ -40.231367699999971, -17.365255 ], [ -40.231187399999953, -17.365183299999952 ], [ -40.231052099999943, -17.365231099999971 ], [ -40.230997, -17.365312299999971 ], [ -40.230796499999947, -17.365427099999987 ], [ -40.23064619999996, -17.365517899999936 ], [ -40.230581099999938, -17.365685199999984 ], [ -40.230535899999957, -17.36581909999996 ], [ -40.230445699999962, -17.365876499999942 ], [ -40.230295399999932, -17.36592909999996 ], [ -40.230140099999971, -17.366015099999981 ], [ -40.230004799999968, -17.366101099999987 ], [ -40.229854499999938, -17.366005499999968 ], [ -40.229844499999956, -17.366000699999969 ], [ -40.229574, -17.365924099999972 ], [ -40.229228299999932, -17.365785399999936 ], [ -40.228957799999925, -17.365740699999943 ], [ -40.228669099999941, -17.365568399999972 ], [ -40.228407199999936, -17.365222199999966 ], [ -40.228210799999943, -17.364920599999948 ], [ -40.228134099999977, -17.364786799999944 ], [ -40.227962899999966, -17.364298 ], [ -40.227813199999957, -17.363934599999943 ], [ -40.227661599999976, -17.363865699999959 ], [ -40.227236099999978, -17.362595899999981 ], [ -40.226791399999968, -17.362125799999937 ], [ -40.226651399999987, -17.361629299999951 ], [ -40.226532899999938, -17.361365399999965 ], [ -40.225229199999951, -17.358380399999927 ], [ -40.224988799999956, -17.3584643 ], [ -40.224687499999959, -17.358569499999945 ], [ -40.219137699999976, -17.362660799999961 ], [ -40.219043299999953, -17.362727099999976 ], [ -40.219040199999938, -17.362729299999966 ], [ -40.219037499999949, -17.362731199999928 ], [ -40.219034899999933, -17.362733 ], [ -40.219030799999985, -17.362736099999942 ], [ -40.219013199999949, -17.362749299999948 ], [ -40.218913, -17.362886199999938 ], [ -40.21899209999998, -17.362899899999942 ], [ -40.219046799999944, -17.363056499999981 ], [ -40.219082899999933, -17.363214599999932 ], [ -40.219074599999942, -17.363418 ], [ -40.219190199999957, -17.363787899999984 ], [ -40.219268499999949, -17.363914399999945 ], [ -40.219349699999945, -17.364091499999979 ], [ -40.219556399999924, -17.36456509999994 ], [ -40.219828599999971, -17.364873799999948 ], [ -40.21994849999993, -17.365056099999958 ], [ -40.220015699999969, -17.365170199999955 ], [ -40.220036899999968, -17.36529609999997 ], [ -40.219973099999947, -17.365442199999968 ], [ -40.219892199999947, -17.365555899999944 ], [ -40.219739, -17.365649199999957 ], [ -40.219594399999949, -17.365685799999941 ], [ -40.219336899999981, -17.365811399999917 ], [ -40.219258199999956, -17.365858499999941 ], [ -40.21921569999995, -17.36597619999997 ], [ -40.21919, -17.36648369999995 ], [ -40.219236699999954, -17.366747699999959 ], [ -40.219253699999975, -17.36695879999996 ], [ -40.219228099999945, -17.367226799999955 ], [ -40.21915149999996, -17.367553499999921 ], [ -40.219058799999971, -17.367742699999951 ], [ -40.218437699999981, -17.368337799999956 ], [ -40.217509099999972, -17.369424 ], [ -40.217106199999932, -17.37022989999998 ], [ -40.216948499999951, -17.370615299999944 ], [ -40.216580599999929, -17.371053299999964 ], [ -40.21589739999996, -17.371421199999943 ], [ -40.215406799999982, -17.37135109999997 ], [ -40.215126499999933, -17.371105899999961 ], [ -40.213970199999949, -17.370773 ], [ -40.213497199999949, -17.37087809999997 ], [ -40.213129299999942, -17.370667899999951 ], [ -40.212411, -17.370194899999948 ], [ -40.211893299999929, -17.369967899999946 ], [ -40.211132099999936, -17.369634299999973 ], [ -40.209863899999966, -17.369327499999937 ], [ -40.209578199999953, -17.370168 ], [ -40.209606599999972, -17.370285099999929 ], [ -40.209604399999932, -17.370513 ], [ -40.209417799999983, -17.37060959999997 ], [ -40.20920609999996, -17.370652 ], [ -40.208901499999975, -17.370683699999972 ], [ -40.208598399999971, -17.370735399999937 ], [ -40.208405099999943, -17.370833099999967 ], [ -40.208187, -17.370917399999939 ], [ -40.208097699999946, -17.370951899999977 ], [ -40.20808569999997, -17.370952199999966 ], [ -40.207919699999927, -17.371099599999983 ], [ -40.207926099999952, -17.37107779999997 ], [ -40.207731099999926, -17.371279 ], [ -40.207654399999967, -17.371487899999984 ], [ -40.207442, -17.3717516 ], [ -40.207130799999966, -17.372222099999938 ], [ -40.206893399999963, -17.372471899999944 ], [ -40.206543, -17.372902599999975 ], [ -40.206334199999958, -17.373170799999976 ], [ -40.206041299999988, -17.37376659999995 ], [ -40.205955399999937, -17.374061199999961 ], [ -40.205906899999952, -17.374163199999945 ], [ -40.205898599999955, -17.374180699999954 ], [ -40.207006899999953, -17.374493099999935 ], [ -40.208227699999952, -17.374837199999948 ], [ -40.208314399999956, -17.374861299999967 ], [ -40.208496399999937, -17.374909299999956 ], [ -40.208867899999973, -17.37500719999996 ], [ -40.208925099999938, -17.375022299999944 ], [ -40.208901799999978, -17.375090799999963 ], [ -40.208888699999932, -17.375142899999954 ], [ -40.208295299999975, -17.376646899999962 ], [ -40.208276499999954, -17.376694499999935 ], [ -40.207854899999973, -17.377912699999968 ], [ -40.207686399999943, -17.378373299999957 ], [ -40.207527199999959, -17.378536699999923 ], [ -40.209979299999929, -17.378998599999942 ], [ -40.212249799999945, -17.376665399999986 ], [ -40.212669, -17.376196599999954 ], [ -40.214578, -17.376800799999963 ], [ -40.214686099999945, -17.377060199999953 ], [ -40.214700499999942, -17.377094899999982 ], [ -40.214706499999977, -17.377109299999983 ], [ -40.215755599999966, -17.377359199999947 ], [ -40.216149199999961, -17.37839049999997 ], [ -40.216434899999967, -17.378712799999956 ], [ -40.216583499999956, -17.379034699999973 ], [ -40.216655299999957, -17.379599799999937 ], [ -40.216672599999981, -17.379725599999968 ], [ -40.216841099999954, -17.380132599999964 ], [ -40.216910399999968, -17.380567899999956 ], [ -40.216890399999947, -17.381041099999948 ], [ -40.216959699999961, -17.381476499999955 ], [ -40.216977099999951, -17.382083599999927 ], [ -40.216952699999979, -17.382522699999981 ], [ -40.217299499999967, -17.382438199999964 ], [ -40.217326299999968, -17.382277599999945 ], [ -40.217500299999983, -17.381969699999953 ], [ -40.217687699999942, -17.381929599999982 ], [ -40.21782149999995, -17.381735499999941 ], [ -40.218229699999931, -17.381434399999929 ], [ -40.218336799999975, -17.38168869999993 ], [ -40.218658, -17.38181579999997 ], [ -40.219260299999974, -17.381779 ], [ -40.220852199999968, -17.383141899999938 ], [ -40.221018499999964, -17.383076799999966 ], [ -40.221418599999936, -17.383043 ], [ -40.221731899999959, -17.383067099999948 ], [ -40.221944, -17.383043 ], [ -40.222122399999925, -17.383091199999971 ], [ -40.222300799999971, -17.383235899999924 ], [ -40.222486099999969, -17.383475199999964 ], [ -40.222657499999968, -17.383732 ], [ -40.222899, -17.384058899999964 ], [ -40.223066099999983, -17.384056399999967 ], [ -40.223085599999933, -17.384148399999965 ], [ -40.223158399999932, -17.384404099999916 ], [ -40.223241899999948, -17.386069699999958 ], [ -40.223346599999964, -17.38815859999994 ], [ -40.223365199999932, -17.388598 ], [ -40.223423899999943, -17.38972219999993 ], [ -40.227477499999964, -17.388959899999975 ], [ -40.228006, -17.391117299999969 ], [ -40.228332099999932, -17.392470399999972 ], [ -40.228334699999955, -17.392481299999929 ], [ -40.228371699999968, -17.392634699999981 ], [ -40.228707699999973, -17.393835399999944 ] ] ] ] } }
]
}
