{
"type": "FeatureCollection",
"name": "2923001",
"crs": { "type": "name", "properties": { "name": "urn:ogc:def:crs:OGC:1.3:CRS84" } },
"features": [
{ "type": "Feature", "properties": { "CD_MUN": "2923001", "NM_MUN": "Nova Viçosa" }, "geometry": { "type": "MultiPolygon", "coordinates": [ [ [ [ -39.390450899999962, -17.914890499999967 ], [ -39.3922118, -17.91555289999997 ], [ -39.39371749999998, -17.91621269999996 ], [ -39.395559299999945, -17.917037199999978 ], [ -39.397267799999952, -17.917778799999937 ], [ -39.39869489999996, -17.918435599999953 ], [ -39.400153899999964, -17.919045899999954 ], [ -39.401525399999983, -17.919657399999952 ], [ -39.40266129999997, -17.920198199999952 ], [ -39.402726199999968, -17.920225499999944 ], [ -39.403873, -17.9207077 ], [ -39.405485499999941, -17.921484699999954 ], [ -39.407100499999963, -17.922262399999955 ], [ -39.408415599999955, -17.922961099999942 ], [ -39.4096206, -17.923723 ], [ -39.410886799999965, -17.924422799999935 ], [ -39.412327, -17.925219099999939 ], [ -39.413619, -17.925948899999966 ], [ -39.414985399999985, -17.92672239999996 ], [ -39.416166399999952, -17.927390499999941 ], [ -39.417358299999947, -17.928101499999958 ], [ -39.418620099999949, -17.928994299999939 ], [ -39.420064, -17.929926 ], [ -39.421400499999947, -17.93068339999996 ], [ -39.422688099999952, -17.931407799999924 ], [ -39.426095299999936, -17.925040799999966 ], [ -39.424684299999967, -17.924433299999965 ], [ -39.422473699999955, -17.923441399999945 ], [ -39.420209199999938, -17.922549499999931 ], [ -39.418031699999972, -17.921729199999959 ], [ -39.416293499999945, -17.921164799999918 ], [ -39.415719699999954, -17.92088379999996 ], [ -39.413457699999981, -17.920155699999956 ], [ -39.411174199999955, -17.919422599999969 ], [ -39.409296899999958, -17.918768299999947 ], [ -39.408936099999956, -17.918638899999962 ], [ -39.408923299999962, -17.918634299999951 ], [ -39.408131499999968, -17.918345199999973 ], [ -39.406748799999953, -17.917875099999947 ], [ -39.404940299999964, -17.917264399999965 ], [ -39.404092, -17.9169745 ], [ -39.403445599999948, -17.916765099999971 ], [ -39.402849, -17.916565299999952 ], [ -39.401650299999972, -17.916164 ], [ -39.40061819999994, -17.915818399999974 ], [ -39.400081, -17.915638599999959 ], [ -39.400004599999939, -17.915613 ], [ -39.399939, -17.915589499999943 ], [ -39.399084899999941, -17.915283899999967 ], [ -39.396708099999948, -17.914438099999927 ], [ -39.396859499999955, -17.913585199999936 ], [ -39.396899599999983, -17.913264299999973 ], [ -39.396949399999983, -17.912865199999938 ], [ -39.39738849999997, -17.909808699999928 ], [ -39.397732, -17.907338299999928 ], [ -39.397848699999948, -17.906444299999965 ], [ -39.397893899999936, -17.906193299999913 ], [ -39.397995499999979, -17.905761899999948 ], [ -39.398091199999953, -17.905575399999965 ], [ -39.39821569999998, -17.905408199999957 ], [ -39.401488399999948, -17.9020379 ], [ -39.402129799999955, -17.901468399999938 ], [ -39.40284429999997, -17.902779399999922 ], [ -39.40346279999995, -17.902583299999939 ], [ -39.404324799999983, -17.902387099999949 ], [ -39.404718299999956, -17.902137499999977 ], [ -39.405018199999972, -17.901673799999976 ], [ -39.405580399999955, -17.899997599999949 ], [ -39.406105099999941, -17.898606599999923 ], [ -39.40674219999994, -17.897572299999972 ], [ -39.406929599999948, -17.896752 ], [ -39.406948399999976, -17.895806799999949 ], [ -39.406779699999966, -17.895164799999975 ], [ -39.405898899999961, -17.894531699999966 ], [ -39.40498069999996, -17.894228599999959 ], [ -39.403593899999976, -17.894103799999975 ], [ -39.402151, -17.894068099999959 ], [ -39.401007799999952, -17.894282099999945 ], [ -39.399939699999948, -17.89462089999995 ], [ -39.398909, -17.895262899999974 ], [ -39.397653399999967, -17.895904899999948 ], [ -39.396847599999944, -17.895940599999953 ], [ -39.396210399999973, -17.895690899999973 ], [ -39.395798199999938, -17.895209399999942 ], [ -39.39531089999997, -17.89429989999995 ], [ -39.395123499999947, -17.893533099999949 ], [ -39.395104799999956, -17.892516599999965 ], [ -39.394786199999942, -17.891571399999975 ], [ -39.394505099999954, -17.891107699999953 ], [ -39.393755499999941, -17.890430099999943 ], [ -39.392425, -17.889609699999927 ], [ -39.389145499999984, -17.887906599999948 ], [ -39.387833699999931, -17.88746069999997 ], [ -39.386765599999933, -17.887269 ], [ -39.386109699999963, -17.887340299999945 ], [ -39.384704199999938, -17.887625699999941 ], [ -39.382492899999932, -17.888481699999947 ], [ -39.381368499999958, -17.889141599999949 ], [ -39.380487699999954, -17.889587399999979 ], [ -39.380311899999988, -17.889632499999937 ], [ -39.379360299999973, -17.889866899999966 ], [ -39.378658199999968, -17.889997499999936 ], [ -39.377967, -17.89008779999995 ], [ -39.377680099999964, -17.89009249999998 ], [ -39.375840299999929, -17.890122399999935 ], [ -39.374584699999964, -17.89003329999996 ], [ -39.373366599999947, -17.889658699999917 ], [ -39.372373399999965, -17.889248599999974 ], [ -39.372092299999963, -17.888963199999971 ], [ -39.371811199999961, -17.888463899999969 ], [ -39.371267699999976, -17.887126299999981 ], [ -39.371249, -17.886555599999941 ], [ -39.371398899999967, -17.886074099999981 ], [ -39.371755, -17.885485599999978 ], [ -39.372373399999958, -17.884986199999961 ], [ -39.373910099999932, -17.88420149999995 ], [ -39.374547499999963, -17.883483899999934 ], [ -39.374809599999942, -17.882935299999932 ], [ -39.375015699999949, -17.882239799999972 ], [ -39.374753399999982, -17.879948 ], [ -39.37452849999994, -17.87910979999997 ], [ -39.374041199999972, -17.878235899999925 ], [ -39.372935599999948, -17.877362 ], [ -39.37023709999994, -17.876862599999981 ], [ -39.367838399999989, -17.877290599999981 ], [ -39.364765, -17.876933899999926 ], [ -39.363041, -17.876933899999937 ], [ -39.361391899999951, -17.877290599999977 ], [ -39.359368, -17.878289399999986 ], [ -39.362604, -17.880095399999952 ], [ -39.363411, -17.882840099999957 ], [ -39.363500199999976, -17.884498099999977 ], [ -39.363286199999955, -17.886459299999956 ], [ -39.362788899999941, -17.890009699999947 ], [ -39.362780299999947, -17.890071099999933 ], [ -39.362582699999962, -17.890715899999979 ], [ -39.364441599999964, -17.890754 ], [ -39.364322399999935, -17.891416499999927 ], [ -39.363917599999979, -17.892634099999956 ], [ -39.363807599999973, -17.893771899999926 ], [ -39.363359199999941, -17.895438299999977 ], [ -39.363307299999988, -17.895630799999928 ], [ -39.363133399999981, -17.896396799999934 ], [ -39.362919, -17.897078199999946 ], [ -39.362171299999957, -17.897817399999941 ], [ -39.3611916, -17.898611799999969 ], [ -39.360824399999963, -17.899041199999935 ], [ -39.360717299999983, -17.899215399999946 ], [ -39.360571, -17.899453299999958 ], [ -39.360269099999975, -17.900068 ], [ -39.359898399999963, -17.900710099999969 ], [ -39.359633699999968, -17.901221 ], [ -39.359485, -17.901822399999954 ], [ -39.35944939999996, -17.901966399999939 ], [ -39.359652, -17.902786699999979 ], [ -39.360101699999973, -17.903580699999971 ], [ -39.360722899999978, -17.904186899999953 ], [ -39.361387599999951, -17.904831199999922 ], [ -39.361909199999957, -17.905389299999971 ], [ -39.362646399999967, -17.905951399999928 ], [ -39.363450299999968, -17.906302299999936 ], [ -39.363539199999941, -17.906327799999929 ], [ -39.364882399999949, -17.906713499999963 ], [ -39.366495, -17.907149499999949 ], [ -39.368153599999971, -17.907547499999957 ], [ -39.369643899999978, -17.907935099999971 ], [ -39.371185199999957, -17.908290799999971 ], [ -39.371619399999936, -17.908406099999983 ], [ -39.372476499999955, -17.908633799999947 ], [ -39.3739, -17.909092399999956 ], [ -39.375127899999939, -17.909441499999957 ], [ -39.3764341, -17.9098911 ], [ -39.37801879999995, -17.910401 ], [ -39.380029699999966, -17.911046099999961 ], [ -39.381898299999932, -17.911651 ], [ -39.383587799999937, -17.912224399999953 ], [ -39.385705099999939, -17.91303749999998 ], [ -39.386813599999989, -17.913444899999945 ], [ -39.387495399999978, -17.91369549999996 ], [ -39.389210099999957, -17.91439279999998 ], [ -39.390450899999962, -17.914890499999967 ] ] ], [ [ [ -39.871046099999937, -17.895737899999979 ], [ -39.871181499999977, -17.895740499999924 ], [ -39.871827099999969, -17.89572029999993 ], [ -39.872469399999943, -17.895701799999927 ], [ -39.875250099999967, -17.895673499999937 ], [ -39.87551979999995, -17.895656899999949 ], [ -39.875798, -17.895704 ], [ -39.875867399999947, -17.895720099999963 ], [ -39.877019299999972, -17.895985899999985 ], [ -39.878514199999984, -17.896298199999936 ], [ -39.878645799999958, -17.895875 ], [ -39.878771399999955, -17.895465399999985 ], [ -39.8789058, -17.895013299999967 ], [ -39.879036499999984, -17.894567499999937 ], [ -39.87916689999998, -17.894139799999952 ], [ -39.879309199999966, -17.893678099999928 ], [ -39.879434399999987, -17.893256 ], [ -39.879565699999951, -17.892817 ], [ -39.87969709999993, -17.892382199999936 ], [ -39.879821199999988, -17.891954299999945 ], [ -39.879953599999972, -17.891516299999971 ], [ -39.880045799999948, -17.891216099999948 ], [ -39.880177799999956, -17.89078 ], [ -39.880310899999984, -17.890342499999978 ], [ -39.880427199999929, -17.889912799999941 ], [ -39.880553, -17.88948959999993 ], [ -39.880694299999959, -17.889023499999961 ], [ -39.88081, -17.888621299999958 ], [ -39.880697499999933, -17.888534499999935 ], [ -39.880671499999949, -17.888403099999952 ], [ -39.880821499999975, -17.887687799999977 ], [ -39.880875199999942, -17.887433899999966 ], [ -39.880898499999937, -17.887365099999943 ], [ -39.878394899999932, -17.886589099999981 ], [ -39.878224799999941, -17.886525099999965 ], [ -39.877281899999957, -17.886236499999931 ], [ -39.877291, -17.886218299999939 ], [ -39.872530599999948, -17.878209199999961 ], [ -39.869799499999949, -17.87758059999992 ], [ -39.868060399999926, -17.877244399999942 ], [ -39.866076799999973, -17.876860799999978 ], [ -39.865895899999941, -17.876875699999978 ], [ -39.865889, -17.876873799999931 ], [ -39.86588219999993, -17.876871899999969 ], [ -39.865873599999929, -17.876869399999972 ], [ -39.865869699999962, -17.876868299999945 ], [ -39.865861899999977, -17.876866099999965 ], [ -39.865815599999962, -17.87685289999995 ], [ -39.865753699999971, -17.876835399999951 ], [ -39.865655299999965, -17.87680749999992 ], [ -39.865630199999934, -17.876802 ], [ -39.865606899999932, -17.876793199999963 ], [ -39.865661599999953, -17.876691799999936 ], [ -39.865753, -17.87627609999992 ], [ -39.86586, -17.875789299999941 ], [ -39.865867299999934, -17.875754299999972 ], [ -39.865876599999972, -17.875705399999951 ], [ -39.865881099999974, -17.875682299999937 ], [ -39.865930599999963, -17.875423399999921 ], [ -39.866340499999986, -17.873265199999935 ], [ -39.866345299999985, -17.873236299999974 ], [ -39.866829299999949, -17.870889299999931 ], [ -39.866520099999946, -17.870737699999946 ], [ -39.866379499999937, -17.870621799999981 ], [ -39.866164, -17.870461299999938 ], [ -39.865920399999943, -17.870238299999979 ], [ -39.865639299999941, -17.870068899999971 ], [ -39.865123899999958, -17.869783499999986 ], [ -39.864627299999945, -17.869667599999953 ], [ -39.864261899999974, -17.869649699999975 ], [ -39.863615399999958, -17.869747799999978 ], [ -39.863043799999964, -17.869854899999954 ], [ -39.862833, -17.869926199999945 ], [ -39.862622199999976, -17.869997499999947 ], [ -39.862050599999975, -17.870122399999946 ], [ -39.861769499999987, -17.870122399999964 ], [ -39.861347899999942, -17.870113499999949 ], [ -39.861104299999965, -17.870051 ], [ -39.860898099999929, -17.869988599999949 ], [ -39.860692, -17.869979699999934 ], [ -39.860476499999947, -17.870042099999981 ], [ -39.860261, -17.870175899999929 ], [ -39.860082899999945, -17.870318599999962 ], [ -39.859914299999957, -17.870488 ], [ -39.859736199999936, -17.870630699999939 ], [ -39.859464499999952, -17.870773399999958 ], [ -39.859277099999929, -17.870835799999952 ], [ -39.858621199999966, -17.871014199999941 ], [ -39.858040299999971, -17.871094399999951 ], [ -39.85787629999993, -17.871156899999956 ], [ -39.857712299999946, -17.871219299999957 ], [ -39.857281299999954, -17.871302899999932 ], [ -39.856869099999983, -17.871053199999942 ], [ -39.856531699999955, -17.870874799999971 ], [ -39.855969499999958, -17.870785699999931 ], [ -39.85546359999995, -17.870678599999966 ], [ -39.855088799999976, -17.870571599999948 ], [ -39.854751499999971, -17.870536 ], [ -39.853908199999978, -17.870339799999943 ], [ -39.853784, -17.870342 ], [ -39.853659899999975, -17.870344199999987 ], [ -39.853435, -17.870353099999946 ], [ -39.853078899999957, -17.870353099999924 ], [ -39.852713499999936, -17.87051369999995 ], [ -39.85226369999998, -17.870700899999978 ], [ -39.85201079999996, -17.870843599999958 ], [ -39.851785899999982, -17.871013099999971 ], [ -39.851607799999954, -17.871271699999966 ], [ -39.851542299999949, -17.871530299999971 ], [ -39.851448599999976, -17.871806699999965 ], [ -39.851434499999982, -17.871904799999971 ], [ -39.851420399999938, -17.872002899999927 ], [ -39.851406399999981, -17.872152299999982 ], [ -39.85139669999996, -17.872215599999947 ], [ -39.851411099999957, -17.872688799999928 ], [ -39.85141109999995, -17.872917 ], [ -39.851373599999931, -17.873139899999945 ], [ -39.851354899999933, -17.873251399999958 ], [ -39.851336099999962, -17.873362899999965 ], [ -39.851336099999969, -17.87351 ], [ -39.851336099999969, -17.873522 ], [ -39.851336099999969, -17.873657199999972 ], [ -39.851392299999929, -17.873947 ], [ -39.851448599999969, -17.874152099999954 ], [ -39.851486, -17.874375 ], [ -39.851486, -17.874553399999972 ], [ -39.851429799999949, -17.874785199999959 ], [ -39.851345499999979, -17.875008199999975 ], [ -39.851204899999971, -17.875186499999931 ], [ -39.851055, -17.875543199999981 ], [ -39.850895699999974, -17.87584639999994 ], [ -39.850773899999986, -17.876105099999954 ], [ -39.850586499999963, -17.876435 ], [ -39.850427199999956, -17.876542 ], [ -39.850071199999945, -17.876604399999966 ], [ -39.849874399999976, -17.876604399999966 ], [ -39.849452799999945, -17.876488499999944 ], [ -39.849321599999939, -17.876506299999967 ], [ -39.849261499999955, -17.876469099999941 ], [ -39.849106099999979, -17.876372599999964 ], [ -39.848928099999966, -17.876221 ], [ -39.848676399999931, -17.876046799999937 ], [ -39.84861879999994, -17.876007 ], [ -39.848337699999952, -17.875891 ], [ -39.847981699999927, -17.875784 ], [ -39.847644399999979, -17.875748399999971 ], [ -39.847026, -17.875757299999979 ], [ -39.846707399999957, -17.875757299999972 ], [ -39.846098299999937, -17.875766199999926 ], [ -39.845789099999934, -17.875837499999932 ], [ -39.845545499999957, -17.875891 ], [ -39.845189499999947, -17.875891 ], [ -39.844824, -17.875899899999983 ], [ -39.844589799999945, -17.875962399999928 ], [ -39.844411799999932, -17.876060499999934 ], [ -39.844186899999961, -17.876131799999946 ], [ -39.843896399999942, -17.876203099999938 ], [ -39.843699599999979, -17.876256699999946 ], [ -39.843634, -17.876336899999952 ], [ -39.84340919999994, -17.876542 ], [ -39.843221799999988, -17.876800599999978 ], [ -39.843109299999981, -17.87692549999997 ], [ -39.842978199999948, -17.87714839999996 ], [ -39.842772, -17.877282199999964 ], [ -39.842397199999937, -17.877496199999943 ], [ -39.842275399999949, -17.877585399999926 ], [ -39.842125499999952, -17.877656699999942 ], [ -39.842003699999957, -17.877692399999937 ], [ -39.841797499999984, -17.877719099999982 ], [ -39.841488299999973, -17.877674499999966 ], [ -39.841310299999975, -17.877594299999934 ], [ -39.840973, -17.877487299999917 ], [ -39.840556899999967, -17.877457399999958 ], [ -39.840354599999962, -17.877407 ], [ -39.840204699999965, -17.877335699999957 ], [ -39.840111, -17.877210799999951 ], [ -39.840054699999939, -17.877086 ], [ -39.84001729999995, -17.87703249999992 ], [ -39.83986729999998, -17.876961099999971 ], [ -39.839811, -17.876862299999964 ], [ -39.839782399999933, -17.876827 ], [ -39.839660599999952, -17.876818399999927 ], [ -39.839556599999987, -17.876773099999976 ], [ -39.838889399999964, -17.877097299999939 ], [ -39.816225199999963, -17.888106799999939 ], [ -39.816577499999937, -17.889018899999925 ], [ -39.816751299999964, -17.889465199999968 ], [ -39.816925099999935, -17.889911399999967 ], [ -39.817013599999939, -17.89013889999995 ], [ -39.817087799999975, -17.890248 ], [ -39.817734399999956, -17.891199 ], [ -39.817905, -17.891554499999931 ], [ -39.817978, -17.891868099999947 ], [ -39.818231499999968, -17.892956499999958 ], [ -39.818288, -17.893347799999965 ], [ -39.819166899999964, -17.89551089999998 ], [ -39.819672199999957, -17.896789399999918 ], [ -39.820122099999935, -17.897828899999976 ], [ -39.820182199999977, -17.897967899999962 ], [ -39.820247299999956, -17.898074699999931 ], [ -39.820359699999983, -17.898288 ], [ -39.820415899999958, -17.898394599999968 ], [ -39.820472099999961, -17.898501199999934 ], [ -39.82051789999997, -17.898588 ], [ -39.82052309999996, -17.89859789999996 ], [ -39.820525, -17.898601599999957 ], [ -39.820562199999983, -17.898672 ], [ -39.820636, -17.898812099999933 ], [ -39.821093499999961, -17.899547299999949 ], [ -39.822126099999934, -17.901160599999972 ], [ -39.822181599999965, -17.901247199999958 ], [ -39.822269899999988, -17.901385 ], [ -39.822411099999954, -17.901605299999964 ], [ -39.822481699999976, -17.901715499999963 ], [ -39.822552199999961, -17.901825599999945 ], [ -39.822581699999944, -17.90187159999995 ], [ -39.822592099999952, -17.901887799999944 ], [ -39.822594599999952, -17.901891699999965 ], [ -39.822597099999939, -17.901895699999958 ], [ -39.822599599999933, -17.901899599999975 ], [ -39.82260279999997, -17.901904499999944 ], [ -39.822605499999952, -17.90190889999997 ], [ -39.822607799999957, -17.901912599999935 ], [ -39.822615699999972, -17.901925499999937 ], [ -39.822619199999963, -17.901931099999945 ], [ -39.822622799999984, -17.901937 ], [ -39.822623799999974, -17.901938499999968 ], [ -39.822887199999968, -17.901899099999977 ], [ -39.829056, -17.902393799999974 ], [ -39.829855699999946, -17.903777799999936 ], [ -39.831209, -17.904700499999937 ], [ -39.832746799999939, -17.904700499999926 ], [ -39.834838199999979, -17.904085399999925 ], [ -39.838961199999972, -17.90322069999997 ], [ -39.839428199999936, -17.90307319999993 ], [ -39.839577099999985, -17.903817299999965 ], [ -39.839739299999962, -17.904665799999979 ], [ -39.839824699999951, -17.905019299999935 ], [ -39.84254489999995, -17.906147099999945 ], [ -39.842711799999968, -17.90661659999995 ], [ -39.842899599999953, -17.906804299999983 ], [ -39.843306399999975, -17.906960799999972 ], [ -39.844944299999952, -17.90892209999992 ], [ -39.845685, -17.909589799999925 ], [ -39.847375, -17.911144199999971 ], [ -39.84892949999994, -17.912417 ], [ -39.850077, -17.912270899999953 ], [ -39.850922099999934, -17.911853599999969 ], [ -39.852121799999964, -17.911352899999937 ], [ -39.852685099999974, -17.910873 ], [ -39.852964399999969, -17.910805399999958 ], [ -39.853059099999946, -17.910847099999955 ], [ -39.853069099999978, -17.910721499999966 ], [ -39.853089899999929, -17.910036699999985 ], [ -39.853259399999956, -17.909294099999958 ], [ -39.853534799999977, -17.908572499999941 ], [ -39.85353589999994, -17.908569899999975 ], [ -39.85358489999993, -17.908557 ], [ -39.85906109999997, -17.904440099999931 ], [ -39.858685, -17.902231399999938 ], [ -39.866232199999956, -17.898301599999972 ], [ -39.866249299999943, -17.898295699999956 ], [ -39.866182099999946, -17.89817909999994 ], [ -39.871046099999937, -17.895737899999979 ] ] ], [ [ [ -40.018193799999956, -17.905885 ], [ -40.018427099999933, -17.906281599999943 ], [ -40.018445899999968, -17.90631349999995 ], [ -40.018617899999988, -17.906432499999944 ], [ -40.018784099999948, -17.906362399999988 ], [ -40.019022399999983, -17.90622269999994 ], [ -40.019096199999971, -17.906179399999928 ], [ -40.019154499999964, -17.906129899999936 ], [ -40.019274799999948, -17.906027699999989 ], [ -40.024310799999974, -17.904595799999974 ], [ -40.025206399999945, -17.904326199999957 ], [ -40.025199599999958, -17.90424929999994 ], [ -40.02989829999995, -17.897518399999964 ], [ -40.030885499999954, -17.896121399999966 ], [ -40.02565739999995, -17.89690569999993 ], [ -40.021205299999963, -17.897574 ], [ -40.020227199999965, -17.897721 ], [ -40.01877779999996, -17.897938499999942 ], [ -40.017756299999981, -17.898091699999959 ], [ -40.017221, -17.898172099999961 ], [ -40.015486799999962, -17.898425299999936 ], [ -40.015458699999954, -17.898474 ], [ -40.015394399999934, -17.898698199999959 ], [ -40.015415399999945, -17.90108529999997 ], [ -40.015424, -17.901588399999984 ], [ -40.01542869999998, -17.901859199999933 ], [ -40.015486199999948, -17.902035699999935 ], [ -40.015625499999949, -17.902463499999953 ], [ -40.015759199999934, -17.902881799999932 ], [ -40.01601219999997, -17.902793199999966 ], [ -40.01672369999995, -17.904328899999939 ], [ -40.017154, -17.904143799999922 ], [ -40.01738359999996, -17.904516199999922 ], [ -40.017585099999962, -17.904891199999952 ], [ -40.017913399999941, -17.905399799999927 ], [ -40.018193799999956, -17.905885 ] ] ], [ [ [ -39.668134299999963, -17.80668049999997 ], [ -39.665610799999968, -17.805282699999964 ], [ -39.664840199999958, -17.804882299999985 ], [ -39.664303799999963, -17.80471609999994 ], [ -39.664336799999944, -17.804851099999947 ], [ -39.664408599999945, -17.80504 ], [ -39.664548399999951, -17.805240199999961 ], [ -39.66469189999998, -17.805478199999985 ], [ -39.664784499999939, -17.805764399999919 ], [ -39.664788799999947, -17.805787 ], [ -39.664689499999959, -17.805826199999945 ], [ -39.664683199999949, -17.805827 ], [ -39.664681099999939, -17.805827199999953 ], [ -39.66126, -17.805607299999949 ], [ -39.657634, -17.808747 ], [ -39.65757959999997, -17.808772299999923 ], [ -39.656731499999978, -17.808949899999956 ], [ -39.656833499999948, -17.809743199999946 ], [ -39.656838199999989, -17.80976579999998 ], [ -39.657936799999959, -17.818936499999953 ], [ -39.658873, -17.819427699999949 ], [ -39.658909299999941, -17.819403899999948 ], [ -39.668531899999948, -17.813088099999955 ], [ -39.670221599999941, -17.812281299999945 ], [ -39.668212199999978, -17.807589199999935 ], [ -39.668209799999936, -17.80732269999994 ], [ -39.668134299999963, -17.80668049999997 ] ] ] ] } }
]
}
