{
"type": "FeatureCollection",
"name": "2932903",
"crs": { "type": "name", "properties": { "name": "urn:ogc:def:crs:OGC:1.3:CRS84" } },
"features": [
{ "type": "Feature", "properties": { "CD_MUN": "2932903", "NM_MUN": "Valença" }, "geometry": { "type": "MultiPolygon", "coordinates": [ [ [ [ -39.083455299999969, -13.452207499999934 ], [ -39.083207699999953, -13.453732599999958 ], [ -39.083372699999984, -13.454454899999988 ], [ -39.08271249999995, -13.454824199999967 ], [ -39.082068799999945, -13.455418099999987 ], [ -39.081078399999967, -13.455498399999954 ], [ -39.080882799999983, -13.455565199999981 ], [ -39.080545899999954, -13.455956599999977 ], [ -39.080432099999939, -13.45677109999998 ], [ -39.080112099999951, -13.457337699999975 ], [ -39.080310299999958, -13.457816 ], [ -39.08064719999993, -13.458262299999941 ], [ -39.081630399999945, -13.45859139999993 ], [ -39.081926899999985, -13.45843 ], [ -39.082261799999962, -13.458808899999944 ], [ -39.083132299999932, -13.458930299999965 ], [ -39.083870799999943, -13.457968299999955 ], [ -39.084141099999961, -13.457888099999932 ], [ -39.084075699999964, -13.458551 ], [ -39.083452199999954, -13.45907039999997 ], [ -39.083099199999936, -13.459435699999975 ], [ -39.082858199999983, -13.459999299999934 ], [ -39.082376599999975, -13.460365 ], [ -39.081597199999976, -13.460619899999941 ], [ -39.081350799999939, -13.460963099999955 ], [ -39.081482199999989, -13.461261499999983 ], [ -39.081736299999939, -13.461702699999938 ], [ -39.082252399999966, -13.462383199999977 ], [ -39.082745099999954, -13.4638141 ], [ -39.083398199999984, -13.463729099999961 ], [ -39.083831599999947, -13.463616599999964 ], [ -39.083956, -13.463977199999944 ], [ -39.083841799999959, -13.464073599999949 ], [ -39.083186199999943, -13.464281599999934 ], [ -39.082710299999974, -13.464853 ], [ -39.082751799999983, -13.465435899999926 ], [ -39.082852199999934, -13.465803299999958 ], [ -39.083212299999957, -13.466195499999973 ], [ -39.08389509999995, -13.466411699999979 ], [ -39.084298399999966, -13.466467899999941 ], [ -39.084834699999924, -13.466212099999947 ], [ -39.085085899999974, -13.465798 ], [ -39.08517959999994, -13.466329699999946 ], [ -39.085260799999951, -13.466603399999943 ], [ -39.0855031, -13.466794499999935 ], [ -39.085435899999936, -13.467200899999964 ], [ -39.085014399999984, -13.4670743 ], [ -39.084600199999954, -13.466931399999975 ], [ -39.0840755, -13.466955499999941 ], [ -39.083574699999943, -13.466827499999958 ], [ -39.083239099999965, -13.467148 ], [ -39.083443099999961, -13.467491399999961 ], [ -39.083786299999936, -13.467978099999971 ], [ -39.083802799999937, -13.468042199999974 ], [ -39.08415569999994, -13.468273899999918 ], [ -39.084947799999952, -13.468024 ], [ -39.084998, -13.468296 ], [ -39.084734, -13.468608499999959 ], [ -39.084607, -13.46882489999996 ], [ -39.084503099999949, -13.469235499999963 ], [ -39.0845528, -13.469371899999954 ], [ -39.085438299999964, -13.469801 ], [ -39.085725599999932, -13.469881 ], [ -39.08576659999995, -13.469977 ], [ -39.085819299999969, -13.470243199999967 ], [ -39.085872299999956, -13.47044 ], [ -39.085901499999977, -13.470457699999949 ], [ -39.088265699999965, -13.470121299999956 ], [ -39.087739399999968, -13.467614399999954 ], [ -39.087756, -13.466305799999921 ], [ -39.087922099999957, -13.465740399999971 ], [ -39.088171299999935, -13.464803399999926 ], [ -39.088619799999947, -13.463317099999935 ], [ -39.08905169999997, -13.461911599999944 ], [ -39.089201199999934, -13.461184599999973 ], [ -39.089214199999958, -13.460518499999987 ], [ -39.089149, -13.459962 ], [ -39.089097399999957, -13.459600599999929 ], [ -39.089043699999934, -13.459347199999975 ], [ -39.088917199999969, -13.458899099999933 ], [ -39.088500799999963, -13.457833299999953 ], [ -39.088264599999945, -13.457196399999916 ], [ -39.087344499999979, -13.454785699999951 ], [ -39.087310899999977, -13.454692399999933 ], [ -39.085583299999932, -13.449813299999969 ], [ -39.08549679999993, -13.449571499999919 ], [ -39.084802599999939, -13.447632299999963 ], [ -39.084487, -13.446889099999966 ], [ -39.084071699999981, -13.446549799999948 ], [ -39.083390599999966, -13.445984299999964 ], [ -39.082692899999984, -13.445273399999957 ], [ -39.08232739999994, -13.444578699999976 ], [ -39.082220899999982, -13.444342799999971 ], [ -39.082028399999956, -13.443916299999946 ], [ -39.081895299999978, -13.443705799999968 ], [ -39.081762599999934, -13.443496199999988 ], [ -39.081447, -13.443092299999917 ], [ -39.081031699999976, -13.442510699999957 ], [ -39.08069949999998, -13.442042099999986 ], [ -39.080583199999971, -13.441654399999962 ], [ -39.080417099999977, -13.441040399999961 ], [ -39.080303899999933, -13.440427299999948 ], [ -39.080300799999982, -13.440410299999948 ], [ -39.080096799999978, -13.439631799999979 ], [ -39.080091899999957, -13.439609399999938 ], [ -39.080018399999972, -13.439327799999935 ], [ -39.079902099999977, -13.43898849999993 ], [ -39.079822799999938, -13.438811 ], [ -39.079757599999937, -13.438665099999971 ], [ -39.0797204, -13.438583499999934 ], [ -39.079651799999965, -13.43843669999996 ], [ -39.079640099999949, -13.438411699999969 ], [ -39.079569899999967, -13.438261399999925 ], [ -39.079469699999947, -13.438078599999917 ], [ -39.079304099999952, -13.43777669999997 ], [ -39.079302299999938, -13.437773699999985 ], [ -39.079005099999968, -13.437275899999964 ], [ -39.078822399999986, -13.436839599999939 ], [ -39.078732599999967, -13.436451699999971 ], [ -39.078672899999965, -13.4361934 ], [ -39.078589799999975, -13.435660199999973 ], [ -39.07855909999995, -13.435514299999957 ], [ -39.078509899999972, -13.43528 ], [ -39.078504599999974, -13.43525509999994 ], [ -39.078398799999952, -13.435282699999968 ], [ -39.078384399999948, -13.435286399999939 ], [ -39.076878099999931, -13.435759199999957 ], [ -39.07721609999993, -13.437438399999976 ], [ -39.078305499999949, -13.439043799999968 ], [ -39.078468099999952, -13.440938799999962 ], [ -39.078507099999975, -13.442421499999977 ], [ -39.078800599999973, -13.443699299999929 ], [ -39.079300299999943, -13.445023699999972 ], [ -39.081233099999963, -13.447373699999945 ], [ -39.082286599999975, -13.448193099999967 ], [ -39.082871899999937, -13.448997799999976 ], [ -39.082710899999938, -13.449519699999946 ], [ -39.083290199999972, -13.449703299999973 ], [ -39.083616199999945, -13.449920099999922 ], [ -39.083240699999983, -13.451517299999976 ], [ -39.083455299999969, -13.452207499999934 ] ] ], [ [ [ -39.075932099999932, -13.398339799999972 ], [ -39.075934, -13.398335599999921 ], [ -39.0759384, -13.398327599999957 ], [ -39.075943299999949, -13.398319899999933 ], [ -39.07594789999996, -13.398312099999924 ], [ -39.075954599999939, -13.398305399999956 ], [ -39.07596129999996, -13.398298399999931 ], [ -39.075963099999967, -13.398296499999947 ], [ -39.075964299999953, -13.398295099999933 ], [ -39.075966, -13.398292799999977 ], [ -39.080666599999972, -13.391517599999915 ], [ -39.084003199999984, -13.386708499999949 ], [ -39.086841499999942, -13.382686599999939 ], [ -39.090626699999966, -13.377271599999967 ], [ -39.092477899999949, -13.374621799999945 ], [ -39.092589299999922, -13.374479499999955 ], [ -39.092706699999958, -13.374294199999934 ], [ -39.092893899999979, -13.37402619999995 ], [ -39.093426299999976, -13.372539499999959 ], [ -39.093608599999989, -13.372027399999961 ], [ -39.095868, -13.365306499999964 ], [ -39.095475499999971, -13.365489699999952 ], [ -39.095234499999954, -13.365432499999935 ], [ -39.095140399999941, -13.365409899999966 ], [ -39.091920199999954, -13.363351799999979 ], [ -39.084322, -13.359505199999958 ], [ -39.077626099999982, -13.355428 ], [ -39.076854199999957, -13.356165799999935 ], [ -39.076159699999948, -13.356829599999964 ], [ -39.075153, -13.35777549999994 ], [ -39.074981199999968, -13.357626699999953 ], [ -39.070688799999978, -13.354525199999953 ], [ -39.069169599999945, -13.355325 ], [ -39.068424099999959, -13.355717399999937 ], [ -39.068389499999967, -13.355735599999939 ], [ -39.067757099999945, -13.355998899999969 ], [ -39.066252499999962, -13.354644899999919 ], [ -39.067378099999985, -13.353719899999925 ], [ -39.068824, -13.352531499999948 ], [ -39.068849199999939, -13.352510799999949 ], [ -39.070505299999979, -13.352048299999977 ], [ -39.071861299999959, -13.351669599999976 ], [ -39.072273799999948, -13.351751699999967 ], [ -39.070423099999978, -13.346513699999935 ], [ -39.066579099999956, -13.33676349999994 ], [ -39.062104499999975, -13.330292099999967 ], [ -39.062072399999984, -13.330282899999924 ], [ -39.058328399999944, -13.332317 ], [ -39.057562699999956, -13.332634099999948 ], [ -39.057211499999944, -13.332512099999974 ], [ -39.056671299999948, -13.331989199999946 ], [ -39.056961499999943, -13.333577499999917 ], [ -39.057211099999961, -13.334433899999956 ], [ -39.057361399999941, -13.334743199999926 ], [ -39.057504499999943, -13.334938799999978 ], [ -39.057713499999977, -13.335115499999977 ], [ -39.057694199999965, -13.335164099999933 ], [ -39.053234799999984, -13.347665099999986 ], [ -39.053204699999981, -13.348083899999944 ], [ -39.053158, -13.348686599999954 ], [ -39.053136, -13.34904139999998 ], [ -39.05248, -13.353188399999963 ], [ -39.048000699999939, -13.354885699999956 ], [ -39.04457, -13.356186899999967 ], [ -39.04453239999998, -13.356488 ], [ -39.046877299999949, -13.362223599999925 ], [ -39.050804599999935, -13.365494099999973 ], [ -39.051312899999971, -13.366468299999941 ], [ -39.051639499999972, -13.367094299999959 ], [ -39.053992599999958, -13.371604 ], [ -39.05441749999995, -13.37241829999995 ], [ -39.054556699999985, -13.372685 ], [ -39.056159199999975, -13.375756299999978 ], [ -39.056160199999965, -13.375758099999922 ], [ -39.056160899999952, -13.375759599999981 ], [ -39.056581799999947, -13.376587199999944 ], [ -39.057538099999945, -13.378467499999944 ], [ -39.057539799999965, -13.378470599999957 ], [ -39.05754079999997, -13.378472099999955 ], [ -39.057542, -13.378473899999964 ], [ -39.057543, -13.378475399999957 ], [ -39.057547499999949, -13.378482399999932 ], [ -39.057550799999945, -13.378488599999985 ], [ -39.057551699999983, -13.378490099999969 ], [ -39.057553599999949, -13.378494299999947 ], [ -39.057555499999978, -13.37849839999995 ], [ -39.057558799999981, -13.37850689999993 ], [ -39.057559499999968, -13.378508799999954 ], [ -39.057560099999932, -13.378510499999962 ], [ -39.057560899999942, -13.378512199999912 ], [ -39.057561699999951, -13.378513799999956 ], [ -39.057566699999938, -13.378523699999963 ], [ -39.057666899999965, -13.378720699999969 ], [ -39.057668599999943, -13.378723899999947 ], [ -39.057669499999982, -13.378725199999971 ], [ -39.057670599999938, -13.378726699999955 ], [ -39.057672199999956, -13.378728599999949 ], [ -39.058189299999981, -13.379324 ], [ -39.058357199999932, -13.37951649999996 ], [ -39.060650199999948, -13.381796799999952 ], [ -39.061127899999974, -13.382257499999989 ], [ -39.062616399999968, -13.383770199999962 ], [ -39.063913499999956, -13.385763599999953 ], [ -39.064560599999943, -13.386484 ], [ -39.065278799999938, -13.387283399999925 ], [ -39.065484799999979, -13.38751269999994 ], [ -39.06615249999993, -13.388255899999946 ], [ -39.066179199999965, -13.388285699999928 ], [ -39.066180799999977, -13.388287299999956 ], [ -39.066182099999942, -13.388288899999965 ], [ -39.066527299999969, -13.388669399999959 ], [ -39.066652599999941, -13.388807599999952 ], [ -39.066654199999959, -13.388809299999936 ], [ -39.066655499999968, -13.388810799999936 ], [ -39.066667, -13.388823599999954 ], [ -39.06734339999997, -13.389575199999962 ], [ -39.069140499999946, -13.39157209999996 ], [ -39.069142, -13.391573699999983 ], [ -39.069143399999973, -13.391575299999937 ], [ -39.074132199999944, -13.397099099999915 ], [ -39.075435299999981, -13.398541899999929 ], [ -39.075459099999932, -13.398568199999925 ], [ -39.075461299999972, -13.398570699999928 ], [ -39.075463499999962, -13.398572899999957 ], [ -39.07546479999997, -13.398574199999929 ], [ -39.075466, -13.398575099999958 ], [ -39.075467299999957, -13.398576099999948 ], [ -39.075468499999943, -13.398576799999953 ], [ -39.075470199999984, -13.398577799999947 ], [ -39.075472499999933, -13.398578699999989 ], [ -39.0754745, -13.398579299999934 ], [ -39.075476, -13.398579699999983 ], [ -39.075477599999942, -13.398579899999957 ], [ -39.075479, -13.398580099999956 ], [ -39.07548069999995, -13.398580099999959 ], [ -39.075483499999962, -13.398580099999945 ], [ -39.075491899999975, -13.39857969999996 ], [ -39.075627299999951, -13.398573099999966 ], [ -39.075643399999926, -13.398572299999966 ], [ -39.075654399999962, -13.398571799999971 ], [ -39.075656099999946, -13.39857179999996 ], [ -39.075757799999963, -13.39857219999992 ], [ -39.075759699999935, -13.398572099999965 ], [ -39.075761299999954, -13.398572 ], [ -39.075762799999957, -13.398571899999977 ], [ -39.075764799999945, -13.398571499999942 ], [ -39.075767199999973, -13.398570899999983 ], [ -39.075768699999969, -13.398570299999969 ], [ -39.07577009999995, -13.398569699999932 ], [ -39.075771399999958, -13.398569 ], [ -39.075772799999982, -13.398568199999934 ], [ -39.075774, -13.398567299999964 ], [ -39.075775199999953, -13.398566399999943 ], [ -39.07577629999998, -13.398565299999964 ], [ -39.075777399999936, -13.398564199999953 ], [ -39.075778599999978, -13.39856279999997 ], [ -39.075780299999963, -13.398560399999962 ], [ -39.075781399999975, -13.398558799999941 ], [ -39.075795399999954, -13.398538599999943 ], [ -39.075888499999962, -13.398404599999942 ], [ -39.07592539999996, -13.398351299999943 ], [ -39.075927699999973, -13.398348099999966 ], [ -39.07592939999995, -13.398345299999958 ], [ -39.075930099999944, -13.398344 ], [ -39.075932099999932, -13.398339799999972 ] ] ], [ [ [ -39.245905099999966, -13.323498499999969 ], [ -39.246143499999953, -13.323326599999964 ], [ -39.246211499999959, -13.323277699999945 ], [ -39.246078099999977, -13.323193299999968 ], [ -39.243075199999971, -13.323925199999961 ], [ -39.242198199999962, -13.320371799999968 ], [ -39.241401599999953, -13.319954099999975 ], [ -39.240373199999958, -13.320052699999955 ], [ -39.239845499999944, -13.320196599999969 ], [ -39.238003599999956, -13.321056199999918 ], [ -39.237930499999948, -13.32109029999998 ], [ -39.237858599999988, -13.321123799999967 ], [ -39.236676199999977, -13.321598799999952 ], [ -39.236359499999935, -13.321823399999973 ], [ -39.23752579999995, -13.322371499999976 ], [ -39.238544199999978, -13.322384 ], [ -39.240139099999965, -13.322101099999918 ], [ -39.2403, -13.32538839999995 ], [ -39.240187899999974, -13.326402899999941 ], [ -39.240349499999979, -13.32647639999993 ], [ -39.240937899999949, -13.325552699999943 ], [ -39.241230699999967, -13.32517079999997 ], [ -39.241341499999976, -13.325054299999984 ], [ -39.241651899999958, -13.32488809999994 ], [ -39.24214869999998, -13.324722 ], [ -39.242769599999981, -13.324510499999979 ], [ -39.243188699999962, -13.324404699999933 ], [ -39.245315299999966, -13.32374009999995 ], [ -39.245905099999966, -13.323498499999969 ] ] ], [ [ [ -39.443806399999964, -13.3227113 ], [ -39.444122699999987, -13.322711299999979 ], [ -39.444318499999952, -13.322799199999947 ], [ -39.44445409999998, -13.323004399999952 ], [ -39.444559499999976, -13.323312299999943 ], [ -39.444583299999984, -13.323536 ], [ -39.444596499999932, -13.323660299999958 ], [ -39.444613699999941, -13.32385169999997 ], [ -39.444634, -13.324017699999953 ], [ -39.444643, -13.324152 ], [ -39.444775499999942, -13.324448499999956 ], [ -39.444829, -13.324560799999974 ], [ -39.444951199999934, -13.324748699999917 ], [ -39.44505659999993, -13.324836699999947 ], [ -39.445282199999951, -13.324917 ], [ -39.445445199999945, -13.324912399999956 ], [ -39.445553699999948, -13.324895299999964 ], [ -39.445639399999948, -13.324799799999928 ], [ -39.445794699999958, -13.324558199999954 ], [ -39.446003799999978, -13.324314399999928 ], [ -39.44622, -13.32409189999993 ], [ -39.446472699999958, -13.323952699999946 ], [ -39.446789599999924, -13.323810699999964 ], [ -39.447036799999985, -13.32370629999998 ], [ -39.447379299999973, -13.323566199999961 ], [ -39.447668699999952, -13.323487499999953 ], [ -39.447981, -13.323457199999957 ], [ -39.448276799999974, -13.323445299999932 ], [ -39.448584499999988, -13.323474599999932 ], [ -39.448870199999938, -13.323523199999958 ], [ -39.449018299999977, -13.323576099999972 ], [ -39.449741299999971, -13.323546799999979 ], [ -39.450087799999949, -13.323517499999982 ], [ -39.450358899999976, -13.323473499999977 ], [ -39.450524599999937, -13.323326899999927 ], [ -39.450660599999935, -13.322975499999936 ], [ -39.450735499999958, -13.322614599999961 ], [ -39.450735499999944, -13.322365399999983 ], [ -39.450735499999951, -13.322043 ], [ -39.450705399999954, -13.321823099999945 ], [ -39.45063, -13.32166189999997 ], [ -39.450599899999936, -13.321486 ], [ -39.450615, -13.321192799999947 ], [ -39.45058489999996, -13.32095829999996 ], [ -39.450449299999946, -13.320767699999969 ], [ -39.450431, -13.320687499999954 ], [ -39.450389, -13.320503899999945 ], [ -39.450419199999949, -13.320108099999963 ], [ -39.450554699999948, -13.319697699999935 ], [ -39.450615, -13.319375199999955 ], [ -39.450615, -13.31922269999996 ], [ -39.450578699999937, -13.318958599999981 ], [ -39.45058489999996, -13.318657 ], [ -39.450599899999936, -13.318445799999928 ], [ -39.450661399999944, -13.318352099999977 ], [ -39.450704599999945, -13.318218699999921 ], [ -39.450795699999958, -13.31799729999995 ], [ -39.450810799999942, -13.317668899999942 ], [ -39.450830099999955, -13.317482399999973 ], [ -39.450882699999973, -13.317208599999953 ], [ -39.450919399999982, -13.317066099999971 ], [ -39.450976199999964, -13.316888 ], [ -39.451065899999946, -13.31675619999994 ], [ -39.451111699999949, -13.316660899999942 ], [ -39.451195899999959, -13.316516199999965 ], [ -39.45144739999995, -13.316079899999975 ], [ -39.451390699999934, -13.316041899999966 ], [ -39.451311, -13.315981899999935 ], [ -39.451225, -13.315917299999974 ], [ -39.4510873, -13.31579709999993 ], [ -39.451007699999934, -13.3157103 ], [ -39.450735699999939, -13.315419199999965 ], [ -39.450715499999951, -13.315383399999963 ], [ -39.450710099999981, -13.315141699999973 ], [ -39.450860299999931, -13.315167 ], [ -39.45113159999994, -13.315089699999932 ], [ -39.451249799999971, -13.315056 ], [ -39.451533599999955, -13.314774299999952 ], [ -39.4516594, -13.314378899999966 ], [ -39.451734299999941, -13.313940199999944 ], [ -39.451911499999937, -13.313428099999946 ], [ -39.452103799999968, -13.313217499999963 ], [ -39.452233099999951, -13.313075799999979 ], [ -39.452546199999972, -13.312624899999937 ], [ -39.452701799999943, -13.312398599999932 ], [ -39.452781399999942, -13.311991599999951 ], [ -39.452743299999952, -13.311377699999976 ], [ -39.452744199999984, -13.310969599999966 ], [ -39.452744699999982, -13.310735899999925 ], [ -39.452744799999948, -13.310697699999945 ], [ -39.452862299999936, -13.310320399999963 ], [ -39.452882799999941, -13.310261499999946 ], [ -39.453058799999951, -13.30975579999995 ], [ -39.453190099999972, -13.309535299999938 ], [ -39.453529199999934, -13.308965599999981 ], [ -39.4539999, -13.308364299999933 ], [ -39.454274399999981, -13.308026599999952 ], [ -39.454635399999972, -13.307553 ], [ -39.454738299999988, -13.307253499999947 ], [ -39.45483889999997, -13.306787699999985 ], [ -39.454718799999966, -13.306235399999938 ], [ -39.454524399999968, -13.30597079999994 ], [ -39.45428179999994, -13.305564899999982 ], [ -39.454254, -13.305518299999969 ], [ -39.454044499999952, -13.305196799999971 ], [ -39.453982699999983, -13.305101899999961 ], [ -39.45379, -13.304725199999947 ], [ -39.453550099999973, -13.304510099999952 ], [ -39.453464799999949, -13.304319899999937 ], [ -39.453416, -13.304158899999956 ], [ -39.453272099999936, -13.30400039999995 ], [ -39.453164799999968, -13.303710199999971 ], [ -39.453313599999944, -13.303433399999966 ], [ -39.452767299999955, -13.303633399999963 ], [ -39.45239179999993, -13.303887 ], [ -39.451894299999942, -13.304443 ], [ -39.451313899999946, -13.305077099999941 ], [ -39.451108699999963, -13.305165799999948 ], [ -39.450895399999979, -13.305236499999982 ], [ -39.450736799999959, -13.305265799999974 ], [ -39.450636899999957, -13.305296199999928 ], [ -39.450540499999931, -13.305367 ], [ -39.450485199999946, -13.305470799999956 ], [ -39.450452, -13.305638399999975 ], [ -39.450420899999983, -13.306007899999951 ], [ -39.450374299999964, -13.306038599999964 ], [ -39.450009299999977, -13.305793599999969 ], [ -39.449703, -13.305604299999965 ], [ -39.449434599999968, -13.30546329999993 ], [ -39.449239499999976, -13.305356 ], [ -39.448860699999962, -13.305095 ], [ -39.448144499999955, -13.304567599999938 ], [ -39.447747699999987, -13.304235499999953 ], [ -39.447636599999953, -13.304185299999975 ], [ -39.447466, -13.304069499999953 ], [ -39.447362899999973, -13.303972899999968 ], [ -39.447309299999972, -13.303913 ], [ -39.447148599999935, -13.30373359999993 ], [ -39.447115699999976, -13.303703099999954 ], [ -39.446982, -13.303579099999979 ], [ -39.446866899999982, -13.303513499999955 ], [ -39.446605799999936, -13.303398399999912 ], [ -39.446503399999983, -13.303360599999948 ], [ -39.446314399999949, -13.303296 ], [ -39.446136399999943, -13.303226499999928 ], [ -39.445974199999966, -13.303154399999928 ], [ -39.445855899999977, -13.303113099999958 ], [ -39.445740099999966, -13.303115799999937 ], [ -39.445573499999973, -13.303131199999946 ], [ -39.445343799999932, -13.303150899999919 ], [ -39.44521819999995, -13.303132599999969 ], [ -39.44505479999998, -13.303088699999947 ], [ -39.444963399999949, -13.303081399999945 ], [ -39.444878, -13.303075299999932 ], [ -39.444780499999979, -13.303085 ], [ -39.444629299999981, -13.303113099999962 ], [ -39.4444903, -13.303107 ], [ -39.44437929999998, -13.303076499999969 ], [ -39.444308599999935, -13.303018 ], [ -39.444256599999974, -13.302962799999921 ], [ -39.444218399999954, -13.302889899999956 ], [ -39.44413909999998, -13.302796 ], [ -39.444053899999979, -13.302754899999973 ], [ -39.443927, -13.302698499999966 ], [ -39.443784099999966, -13.302679499999954 ], [ -39.443621399999977, -13.302602199999962 ], [ -39.443339299999927, -13.302485099999956 ], [ -39.443032, -13.302318099999978 ], [ -39.442891399999951, -13.302270199999958 ], [ -39.442784499999959, -13.302260199999958 ], [ -39.442654, -13.30229 ], [ -39.442541799999965, -13.302308299999936 ], [ -39.442436399999963, -13.30231079999993 ], [ -39.442322099999956, -13.302311899999943 ], [ -39.442335, -13.302346199999937 ], [ -39.442320399999979, -13.302716 ], [ -39.442304299999932, -13.303125099999944 ], [ -39.442488899999951, -13.304053699999919 ], [ -39.442640599999955, -13.305588699999944 ], [ -39.44264289999996, -13.305611399999966 ], [ -39.442704399999968, -13.307408799999955 ], [ -39.442693699999943, -13.307614 ], [ -39.442626699999948, -13.308896299999949 ], [ -39.442612099999963, -13.309176099999943 ], [ -39.443046799999934, -13.309399399999954 ], [ -39.44372019999998, -13.309745299999976 ], [ -39.443843399999935, -13.310763799999958 ], [ -39.444119099999966, -13.311279799999969 ], [ -39.44424349999997, -13.311512699999982 ], [ -39.44388, -13.312427599999973 ], [ -39.443868799999954, -13.312455799999968 ], [ -39.443398299999956, -13.313639899999934 ], [ -39.443350799999962, -13.313759299999962 ], [ -39.443781799999961, -13.314088799999961 ], [ -39.444766799999975, -13.314807699999964 ], [ -39.44547479999995, -13.315616499999978 ], [ -39.445678199999982, -13.315863699999962 ], [ -39.444201, -13.31745329999996 ], [ -39.443095399999947, -13.318642899999938 ], [ -39.442661299999948, -13.319152499999973 ], [ -39.442572199999979, -13.319269199999958 ], [ -39.442454499999947, -13.319421599999947 ], [ -39.442399899999941, -13.319492199999937 ], [ -39.44227, -13.319660299999953 ], [ -39.442255399999965, -13.319679299999944 ], [ -39.442046, -13.319888699999984 ], [ -39.441989399999954, -13.319926399999934 ], [ -39.441869499999939, -13.320006299999928 ], [ -39.441760399999971, -13.320079 ], [ -39.44117029999996, -13.32006 ], [ -39.441223, -13.320103099999914 ], [ -39.441534699999977, -13.320420199999944 ], [ -39.441980299999948, -13.320891699999938 ], [ -39.442827299999976, -13.321787799999983 ], [ -39.443068299999936, -13.322227599999955 ], [ -39.443249, -13.322579399999935 ], [ -39.443444899999982, -13.322725899999959 ], [ -39.443611099999941, -13.322719199999931 ], [ -39.443806399999964, -13.3227113 ] ] ], [ [ [ -38.965695299999936, -13.292531399999969 ], [ -38.965714, -13.292406499999984 ], [ -38.966189899999961, -13.292191599999978 ], [ -38.966400199999953, -13.291987199999928 ], [ -38.96690179999996, -13.291857199999987 ], [ -38.967545299999983, -13.29169759999998 ], [ -38.967960299999959, -13.291547299999941 ], [ -38.968098699999985, -13.291402099999967 ], [ -38.968126599999948, -13.291181499999931 ], [ -38.968155499999966, -13.291027399999958 ], [ -38.968159899999932, -13.29100389999997 ], [ -38.968265199999962, -13.290847899999964 ], [ -38.968331699999965, -13.290664899999985 ], [ -38.968575299999948, -13.290455199999935 ], [ -38.968621299999938, -13.290416499999928 ], [ -38.969057199999945, -13.290387 ], [ -38.96991079999998, -13.290393199999922 ], [ -38.971047199999923, -13.2905919 ], [ -38.971432499999942, -13.290791799999957 ], [ -38.971715399999944, -13.290821099999947 ], [ -38.972373799999957, -13.290548 ], [ -38.972657199999958, -13.290371199999981 ], [ -38.972711499999946, -13.290325799999946 ], [ -38.972917199999983, -13.290307599999954 ], [ -38.973736, -13.290235199999929 ], [ -38.973826599999946, -13.290235199999906 ], [ -38.974852899999973, -13.290235199999934 ], [ -38.974915699999947, -13.290235199999918 ], [ -38.975082899999968, -13.290175699999967 ], [ -38.976188599999944, -13.289782 ], [ -38.976572199999957, -13.289627499999934 ], [ -38.977088899999956, -13.289419399999936 ], [ -38.977803, -13.289087099999954 ], [ -38.977805699999983, -13.289085599999963 ], [ -38.977801799999959, -13.28908059999997 ], [ -38.977798699999937, -13.289076499999961 ], [ -38.977784199999967, -13.289057699999933 ], [ -38.977781, -13.289053499999957 ], [ -38.977725, -13.288980799999948 ], [ -38.977698599999947, -13.288946599999989 ], [ -38.977642399999986, -13.28887369999995 ], [ -38.977561599999952, -13.288781099999946 ], [ -38.97744849999998, -13.288651499999942 ], [ -38.977282199999941, -13.288460899999958 ], [ -38.977161199999969, -13.28832229999994 ], [ -38.977140099999929, -13.288304599999949 ], [ -38.976718799999965, -13.287952099999949 ], [ -38.976573399999957, -13.287857 ], [ -38.976340399999977, -13.287704499999958 ], [ -38.976268599999976, -13.287657599999939 ], [ -38.976093499999926, -13.287539899999947 ], [ -38.975942699999962, -13.287438499999942 ], [ -38.975725299999965, -13.287227 ], [ -38.975685399999982, -13.287186 ], [ -38.975216399999972, -13.286751 ], [ -38.975302599999964, -13.286692499999946 ], [ -38.975426, -13.286586499999949 ], [ -38.97568849999994, -13.28654719999996 ], [ -38.975905499999946, -13.28649719999993 ], [ -38.976175, -13.286444799999973 ], [ -38.976453, -13.286388699999979 ], [ -38.9771588, -13.286292199999931 ], [ -38.975016599999954, -13.279010499999979 ], [ -38.972983199999938, -13.279599699999945 ], [ -38.973037899999944, -13.279804899999922 ], [ -38.973657699999933, -13.28212659999998 ], [ -38.973660199999983, -13.282136099999947 ], [ -38.973926899999988, -13.283135099999971 ], [ -38.974116299999928, -13.283844899999965 ], [ -38.97430259999993, -13.284781499999951 ], [ -38.97430259999993, -13.285340499999961 ], [ -38.974278399999939, -13.285462899999978 ], [ -38.97426709999997, -13.285519899999951 ], [ -38.974262599999975, -13.285543 ], [ -38.974240899999984, -13.285652599999924 ], [ -38.974234199999962, -13.285686399999978 ], [ -38.974225, -13.285733299999949 ], [ -38.9742232, -13.285737599999953 ], [ -38.97401009999993, -13.285648299999924 ], [ -38.973614299999952, -13.285572799999946 ], [ -38.97292479999993, -13.285521699999949 ], [ -38.972900199999977, -13.285519899999935 ], [ -38.972582, -13.285489699999967 ], [ -38.972256, -13.285436799999955 ], [ -38.971751499999982, -13.285361299999984 ], [ -38.971425599999982, -13.285278199999954 ], [ -38.971208199999985, -13.285255499999945 ], [ -38.970921099999941, -13.285308399999959 ], [ -38.970393299999962, -13.285482099999975 ], [ -38.9699897, -13.285655899999941 ], [ -38.969399799999962, -13.285867399999965 ], [ -38.969097099999942, -13.285942899999938 ], [ -38.968693599999938, -13.285693599999954 ], [ -38.968249, -13.285384599999915 ], [ -38.968095899999987, -13.285278199999924 ], [ -38.967707899999937, -13.285021299999924 ], [ -38.967570299999984, -13.284949 ], [ -38.967438499999965, -13.284879699999973 ], [ -38.967420699999927, -13.284870299999971 ], [ -38.967361299999936, -13.284856699999985 ], [ -38.967303299999969, -13.284843399999936 ], [ -38.967288799999949, -13.284840099999943 ], [ -38.967093, -13.28488439999996 ], [ -38.967088499999932, -13.284885399999958 ], [ -38.967075099999938, -13.284837099999946 ], [ -38.967069, -13.284819299999965 ], [ -38.966991399999984, -13.284630399999969 ], [ -38.966921499999962, -13.284509599999982 ], [ -38.966758599999935, -13.284351 ], [ -38.966618899999958, -13.284063899999985 ], [ -38.966455899999971, -13.283799499999922 ], [ -38.966254099999965, -13.283444499999975 ], [ -38.966235799999936, -13.2833558 ], [ -38.966199699999947, -13.283180099999981 ], [ -38.966013499999967, -13.282893099999972 ], [ -38.965928099999985, -13.282628699999975 ], [ -38.965897, -13.282371899999932 ], [ -38.965809399999962, -13.282120499999953 ], [ -38.965788099999941, -13.282059299999974 ], [ -38.965749599999988, -13.2819489 ], [ -38.965524499999958, -13.281246399999937 ], [ -38.965487799999948, -13.281111499999954 ], [ -38.965384799999981, -13.280732699999943 ], [ -38.965276099999983, -13.280256799999945 ], [ -38.965176, -13.279969199999973 ], [ -38.965113199999962, -13.279788499999936 ], [ -38.96492839999997, -13.279217099999919 ], [ -38.964895799999965, -13.279116199999971 ], [ -38.964815499999936, -13.278878299999977 ], [ -38.964755399999945, -13.278700199999946 ], [ -38.964717299999968, -13.278587399999939 ], [ -38.964593099999945, -13.27843639999996 ], [ -38.964492199999938, -13.278292799999962 ], [ -38.96446629999997, -13.278252599999965 ], [ -38.96443789999995, -13.278209799999965 ], [ -38.964375799999978, -13.278104 ], [ -38.964298199999973, -13.277952899999937 ], [ -38.964236099999937, -13.27772629999993 ], [ -38.964158499999947, -13.277469499999956 ], [ -38.964049799999941, -13.277318399999961 ], [ -38.963941199999965, -13.277106899999964 ], [ -38.963739399999959, -13.276578099999927 ], [ -38.964414599999955, -13.276349699999962 ], [ -38.960131299999944, -13.260358 ], [ -38.956872199999964, -13.253543699999979 ], [ -38.95494, -13.249889199999931 ], [ -38.953713799999953, -13.25031919999998 ], [ -38.953635799999972, -13.250535499999959 ], [ -38.953503799999972, -13.250650399999932 ], [ -38.953355599999952, -13.2507027 ], [ -38.952919299999962, -13.250715499999959 ], [ -38.952450699999936, -13.250579599999975 ], [ -38.95216, -13.250717299999973 ], [ -38.951680599999982, -13.250716899999933 ], [ -38.951407299999971, -13.250606199999929 ], [ -38.950866599999983, -13.250387299999947 ], [ -38.950798099999929, -13.250484099999925 ], [ -38.950724699999974, -13.250463099999932 ], [ -38.951036099999953, -13.251173499999927 ], [ -38.951227699999947, -13.251610399999931 ], [ -38.951339899999937, -13.251850799999948 ], [ -38.952190199999968, -13.253671699999927 ], [ -38.953586699999967, -13.256429799999973 ], [ -38.95445159999997, -13.25854579999997 ], [ -38.954467199999954, -13.258584099999945 ], [ -38.954530199999965, -13.258740499999936 ], [ -38.955023899999958, -13.259967099999926 ], [ -38.955820499999966, -13.262021599999976 ], [ -38.956239299999936, -13.263031799999956 ], [ -38.95631369999996, -13.263211199999944 ], [ -38.956446799999981, -13.263532199999924 ], [ -38.957182199999977, -13.265678799999947 ], [ -38.957828099999979, -13.267586299999959 ], [ -38.95834, -13.269411699999987 ], [ -38.958927499999952, -13.271172099999935 ], [ -38.959403599999973, -13.272850699999942 ], [ -38.960070499999972, -13.274756399999953 ], [ -38.960548399999936, -13.276486099999937 ], [ -38.961008199999981, -13.278223399999929 ], [ -38.961292199999946, -13.279229 ], [ -38.961439699999971, -13.279751399999942 ], [ -38.961887299999944, -13.281510299999974 ], [ -38.962404699999979, -13.283671099999946 ], [ -38.962851799999953, -13.285554199999979 ], [ -38.963199399999958, -13.286926699999977 ], [ -38.963355, -13.287541299999932 ], [ -38.963373199999978, -13.287635 ], [ -38.963548099999976, -13.288534799999981 ], [ -38.963803599999956, -13.289849599999981 ], [ -38.964210199999968, -13.291903299999941 ], [ -38.964261699999945, -13.2922081 ], [ -38.964369499999982, -13.292846099999958 ], [ -38.964686299999983, -13.29278069999997 ], [ -38.964888099999946, -13.292833599999927 ], [ -38.965198499999936, -13.292894 ], [ -38.965477899999939, -13.292863799999965 ], [ -38.965695299999936, -13.292531399999969 ] ] ] ] } }
]
}
