{
"type": "FeatureCollection",
"name": "3101508",
"crs": { "type": "name", "properties": { "name": "urn:ogc:def:crs:OGC:1.3:CRS84" } },
"features": [
{ "type": "Feature", "properties": { "CD_MUN": "3101508", "NM_MUN": "Além Paraíba" }, "geometry": { "type": "MultiPolygon", "coordinates": [ [ [ [ -42.909729, -21.990262099999942 ], [ -42.909744799999942, -21.990218099999932 ], [ -42.909746599999956, -21.990197799999972 ], [ -42.909752599999941, -21.990131799999965 ], [ -42.909757299999967, -21.990079299999934 ], [ -42.909763099999964, -21.990013899999951 ], [ -42.909767799999933, -21.989961799999939 ], [ -42.909773599999944, -21.989897 ], [ -42.909778699999954, -21.989839599999986 ], [ -42.90960309999997, -21.989706899999923 ], [ -42.909427399999977, -21.989574099999974 ], [ -42.909082199999943, -21.989371099999964 ], [ -42.908753799999943, -21.989074399999939 ], [ -42.90797919999995, -21.988840199999959 ], [ -42.907583499999937, -21.988325 ], [ -42.907187699999959, -21.987864299999952 ], [ -42.906573099999946, -21.9875833 ], [ -42.906101599999943, -21.987271 ], [ -42.905200699999966, -21.986544899999952 ], [ -42.905040699999979, -21.986076499999967 ], [ -42.905040699999965, -21.985935899999966 ], [ -42.904880699999985, -21.985693899999934 ], [ -42.904586, -21.98572509999995 ], [ -42.904190299999989, -21.986498099999945 ], [ -42.904121199999963, -21.986895499999946 ], [ -42.904106099999979, -21.986982099999977 ], [ -42.904190699999951, -21.987233599999961 ], [ -42.906156299999964, -21.988132099999973 ], [ -42.906680499999943, -21.988656299999942 ], [ -42.90716, -21.98944159999996 ], [ -42.907572499999958, -21.98966779999995 ], [ -42.908191399999964, -21.990007299999949 ], [ -42.909106199999947, -21.990506699999962 ], [ -42.909625499999954, -21.990723499999948 ], [ -42.909729, -21.990262099999942 ] ] ], [ [ [ -42.710957199999939, -21.892725599999952 ], [ -42.711133099999984, -21.892815799999941 ], [ -42.711279899999965, -21.892891099999932 ], [ -42.711536199999955, -21.893022599999934 ], [ -42.711704499999932, -21.893109 ], [ -42.711894599999937, -21.893206499999959 ], [ -42.712013, -21.893267199999965 ], [ -42.71217229999997, -21.893348899999971 ], [ -42.712276799999977, -21.893402499999986 ], [ -42.712442199999941, -21.893487299999933 ], [ -42.712609199999982, -21.893573 ], [ -42.712875699999984, -21.893709699999931 ], [ -42.717748799999974, -21.896209299999949 ], [ -42.71982189999995, -21.897272699999981 ], [ -42.720023799999979, -21.897386799999939 ], [ -42.721761799999967, -21.898369 ], [ -42.727889699999935, -21.901832299999974 ], [ -42.72821, -21.902013299999972 ], [ -42.729352699999936, -21.900799199999941 ], [ -42.729693499999946, -21.900433499999966 ], [ -42.730466399999955, -21.899668899999941 ], [ -42.7304913, -21.899519299999938 ], [ -42.730449799999981, -21.899278299999938 ], [ -42.730109, -21.899029 ], [ -42.729128299999957, -21.898347399999977 ], [ -42.72725, -21.89696779999997 ], [ -42.726069799999955, -21.896095099999965 ], [ -42.725247, -21.895355399999961 ], [ -42.724947799999939, -21.895280599999968 ], [ -42.723626299999985, -21.895397 ], [ -42.722770299999979, -21.895446799999934 ], [ -42.722020199999982, -21.894925299999962 ], [ -42.721878899999979, -21.8948152 ], [ -42.721486199999966, -21.894495199999938 ], [ -42.721313799999962, -21.894285699999955 ], [ -42.721209499999929, -21.89427959999994 ], [ -42.721113199999934, -21.894269599999987 ], [ -42.720977799999957, -21.894243599999982 ], [ -42.720880799999975, -21.894239699999961 ], [ -42.720817699999948, -21.894206499999935 ], [ -42.720758, -21.894199899999926 ], [ -42.72066829999995, -21.894206499999928 ], [ -42.720588599999985, -21.894196599999937 ], [ -42.720525499999958, -21.89418 ], [ -42.720495599999929, -21.894133499999953 ], [ -42.72043919999993, -21.894090299999959 ], [ -42.720534799999939, -21.893135699999963 ], [ -42.718485199999975, -21.892983699999938 ], [ -42.715152799999949, -21.891515499999951 ], [ -42.714916799999969, -21.891314699999942 ], [ -42.714749599999948, -21.891141399999977 ], [ -42.71435629999997, -21.890703399999936 ], [ -42.714464399999933, -21.890484399999927 ], [ -42.714808599999969, -21.890228899999947 ], [ -42.715034799999955, -21.889809199999938 ], [ -42.715015099999967, -21.889343899999975 ], [ -42.714670899999923, -21.888796399999926 ], [ -42.714179299999955, -21.88850439999992 ], [ -42.713864599999965, -21.888367599999988 ], [ -42.713607299999978, -21.888340399999947 ], [ -42.713539399999945, -21.88833319999998 ], [ -42.71355, -21.888207 ], [ -42.713553399999967, -21.888160599999939 ], [ -42.713556299999944, -21.888122899999935 ], [ -42.71351059999995, -21.888075599999972 ], [ -42.713535199999974, -21.887970599999953 ], [ -42.7136139, -21.88782469999995 ], [ -42.71369459999994, -21.88772889999996 ], [ -42.713830199999961, -21.887633 ], [ -42.713933399999974, -21.887519 ], [ -42.713961, -21.887480899999954 ], [ -42.713970699999948, -21.887363599999954 ], [ -42.71397809999997, -21.887279399999947 ], [ -42.71377259999997, -21.887004899999962 ], [ -42.713674, -21.88688059999992 ], [ -42.713562599999932, -21.886806299999925 ], [ -42.713959699999982, -21.886089199999955 ], [ -42.714285399999937, -21.885606399999979 ], [ -42.714668199999942, -21.885197799999954 ], [ -42.715076799999963, -21.884683599999963 ], [ -42.71503389999998, -21.88411219999994 ], [ -42.714971099999964, -21.883323699999945 ], [ -42.713609499999954, -21.883104699999937 ], [ -42.713602699999967, -21.883064 ], [ -42.713280199999986, -21.883219099999963 ], [ -42.712947399999969, -21.883330099999959 ], [ -42.710862799999973, -21.884370499999939 ], [ -42.708888, -21.881817699999939 ], [ -42.709195399999949, -21.881645 ], [ -42.709713499999964, -21.881234 ], [ -42.709906899999964, -21.880795399999943 ], [ -42.709775699999966, -21.880757399999933 ], [ -42.709592599999951, -21.880823 ], [ -42.709348699999964, -21.880773799999936 ], [ -42.709265799999969, -21.880587199999976 ], [ -42.709283099999936, -21.879986199999955 ], [ -42.709077599999951, -21.879572599999975 ], [ -42.7086743, -21.87910509999994 ], [ -42.707515199999939, -21.878562799999941 ], [ -42.706955, -21.878858199999975 ], [ -42.706690199999976, -21.879139299999959 ], [ -42.70662549999998, -21.879319 ], [ -42.706628599999938, -21.879467199999954 ], [ -42.706608699999947, -21.879905199999929 ], [ -42.706743199999956, -21.880312599999961 ], [ -42.706910199999989, -21.880734299999965 ], [ -42.706960099999947, -21.880906399999947 ], [ -42.706526599999968, -21.881411299999957 ], [ -42.706324599999967, -21.881699299999969 ], [ -42.705927299999985, -21.88205529999993 ], [ -42.705698599999948, -21.882288199999937 ], [ -42.705426199999977, -21.882667899999937 ], [ -42.704919, -21.88244479999997 ], [ -42.704372499999977, -21.882184399999979 ], [ -42.703981, -21.881952399999928 ], [ -42.704661199999983, -21.880532799999951 ], [ -42.70441679999994, -21.879897299999989 ], [ -42.704144699999972, -21.879512199999962 ], [ -42.704072599999961, -21.879306799999924 ], [ -42.703799299999964, -21.878876599999948 ], [ -42.703564499999977, -21.878669399999975 ], [ -42.703401899999953, -21.878583099999958 ], [ -42.699142599999966, -21.876927299999974 ], [ -42.705912599999976, -21.873711699999937 ], [ -42.707820899999945, -21.873628699999916 ], [ -42.707974699999966, -21.871703 ], [ -42.707982, -21.871629499999969 ], [ -42.704929799999952, -21.871481899999925 ], [ -42.702258199999967, -21.871238199999929 ], [ -42.702224799999954, -21.870752299999932 ], [ -42.702385399999976, -21.870372199999952 ], [ -42.702751199999966, -21.869932099999957 ], [ -42.702929799999936, -21.869501699999944 ], [ -42.703228299999978, -21.869028599999975 ], [ -42.703543299999986, -21.868503099999938 ], [ -42.703635899999945, -21.868069399999982 ], [ -42.703948599999933, -21.867541899999939 ], [ -42.704269099999983, -21.867059099999949 ], [ -42.704583099999979, -21.86682669999993 ], [ -42.705589599999946, -21.867389899999971 ], [ -42.706556099999943, -21.867390199999921 ], [ -42.706651199999953, -21.867057499999923 ], [ -42.706753499999934, -21.866501199999949 ], [ -42.707526799999989, -21.86559439999996 ], [ -42.706743499999966, -21.864594 ], [ -42.707568499999979, -21.864059799999939 ], [ -42.708270399999947, -21.863582 ], [ -42.710255299999979, -21.862287099999943 ], [ -42.710644199999933, -21.861519599999941 ], [ -42.710174799999947, -21.861616099999925 ], [ -42.709983699999952, -21.861595299999987 ], [ -42.709859, -21.861541299999942 ], [ -42.709755099999931, -21.861520499999987 ], [ -42.709593099999957, -21.861516299999952 ], [ -42.709435199999973, -21.861454 ], [ -42.709198299999969, -21.86136259999995 ], [ -42.708865799999963, -21.861125699999942 ], [ -42.708333899999957, -21.861163099999935 ], [ -42.708051299999966, -21.861375 ], [ -42.707943299999954, -21.861832099999969 ], [ -42.707694, -21.862127199999982 ], [ -42.707411399999955, -21.862177099999933 ], [ -42.707078899999942, -21.862152099999943 ], [ -42.706788, -21.862085599999951 ], [ -42.706621799999937, -21.861985899999983 ], [ -42.706422399999951, -21.861919399999966 ], [ -42.706222899999936, -21.861911099999929 ], [ -42.706031699999983, -21.861961 ], [ -42.705978199999954, -21.862149499999926 ], [ -42.705873799999949, -21.862160399999933 ], [ -42.705815599999944, -21.862160399999937 ], [ -42.70564109999998, -21.862085599999936 ], [ -42.705533099999975, -21.861969299999945 ], [ -42.705391799999973, -21.86184459999993 ], [ -42.705283699999946, -21.861803099999971 ], [ -42.704668699999957, -21.861828 ], [ -42.70425309999996, -21.861861199999954 ], [ -42.703671399999962, -21.861844599999916 ], [ -42.70318929999997, -21.861844599999923 ], [ -42.702856899999979, -21.861761499999936 ], [ -42.702324899999951, -21.861611899999957 ], [ -42.701793, -21.861412399999946 ], [ -42.701444, -21.861246199999989 ], [ -42.70128009999997, -21.861228 ], [ -42.701141799999959, -21.861196599999971 ], [ -42.70097849999997, -21.86117969999998 ], [ -42.700745799999936, -21.861096599999939 ], [ -42.7004965, -21.860980199999979 ], [ -42.700297, -21.86079739999996 ], [ -42.700230499999975, -21.860531399999957 ], [ -42.700197299999957, -21.860298699999934 ], [ -42.70011419999998, -21.860199 ], [ -42.699831599999982, -21.860032799999939 ], [ -42.699549, -21.859916399999971 ], [ -42.699349599999948, -21.859733599999959 ], [ -42.699100199999975, -21.859401099999957 ], [ -42.698900699999967, -21.858802699999952 ], [ -42.69888409999993, -21.858104599999944 ], [ -42.699017099999928, -21.857472899999941 ], [ -42.699083599999945, -21.856724899999953 ], [ -42.699032899999963, -21.856319099999951 ], [ -42.698715799999952, -21.856426699999922 ], [ -42.698181699999964, -21.856370099999921 ], [ -42.697251499999936, -21.856443499999955 ], [ -42.693383799999935, -21.85835429999997 ], [ -42.692866899999956, -21.858770099999969 ], [ -42.692739299999964, -21.858842 ], [ -42.690163399999967, -21.865151199999957 ], [ -42.690474399999971, -21.865980799999921 ], [ -42.690490899999929, -21.866439899999925 ], [ -42.689224699999954, -21.869261499999929 ], [ -42.689234699999922, -21.870496 ], [ -42.68511019999994, -21.868425699999925 ], [ -42.68511019999994, -21.868900199999917 ], [ -42.68511019999994, -21.869575499999929 ], [ -42.685080299999981, -21.870057 ], [ -42.684793299999967, -21.870204599999958 ], [ -42.684587599999936, -21.870284599999938 ], [ -42.684027599999986, -21.87039889999993 ], [ -42.683376199999948, -21.870673199999938 ], [ -42.682576299999937, -21.87147309999995 ], [ -42.682010599999963, -21.870890299999935 ], [ -42.68019929999997, -21.871510199999928 ], [ -42.680065, -21.871610199999957 ], [ -42.679267899999964, -21.872084499999957 ], [ -42.678996499999982, -21.871841599999982 ], [ -42.67882469999995, -21.871695399999961 ], [ -42.678785099999978, -21.871661699999954 ], [ -42.678479899999964, -21.871611899999948 ], [ -42.678193699999952, -21.871258799999964 ], [ -42.678622299999972, -21.870596 ], [ -42.6787308, -21.87045889999996 ], [ -42.679233599999975, -21.870338899999975 ], [ -42.679193599999969, -21.87015029999997 ], [ -42.678965099999978, -21.869647499999932 ], [ -42.678742199999931, -21.869401799999928 ], [ -42.678669599999985, -21.869341799999965 ], [ -42.679398299999946, -21.86540749999995 ], [ -42.677537399999949, -21.865285 ], [ -42.676939499999939, -21.864782399999974 ], [ -42.676757699999939, -21.864219499999937 ], [ -42.67662, -21.863745499999919 ], [ -42.676232, -21.863724299999944 ], [ -42.677153099999948, -21.862241 ], [ -42.676202199999985, -21.861563199999971 ], [ -42.676072399999953, -21.861294199999978 ], [ -42.676154599999968, -21.861048099999941 ], [ -42.676177499999945, -21.860890799999929 ], [ -42.676253, -21.860745499999943 ], [ -42.676392099999937, -21.860471 ], [ -42.676531099999977, -21.860163799999956 ], [ -42.676651299999946, -21.859979799999966 ], [ -42.676683799999985, -21.859817799999966 ], [ -42.676635299999923, -21.859611099999938 ], [ -42.676455899999951, -21.859483699999942 ], [ -42.676293899999962, -21.85943019999997 ], [ -42.676031899999941, -21.859458599999979 ], [ -42.675851099999925, -21.859510699999923 ], [ -42.675624699999958, -21.859711499999939 ], [ -42.67543649999994, -21.859941199999977 ], [ -42.675022799999972, -21.860152599999942 ], [ -42.674732799999958, -21.860390899999974 ], [ -42.67447389999996, -21.860461799999939 ], [ -42.674231, -21.86033179999998 ], [ -42.671730899999943, -21.85835139999994 ], [ -42.670740699999953, -21.856848299999971 ], [ -42.668998699999975, -21.854902699999972 ], [ -42.668834899999986, -21.85506289999994 ], [ -42.667721199999967, -21.855943899999946 ], [ -42.667039699999975, -21.855594799999949 ], [ -42.666308299999976, -21.855411899999982 ], [ -42.66634159999996, -21.85611009999996 ], [ -42.666374799999979, -21.856392699999954 ], [ -42.666308299999969, -21.856708499999968 ], [ -42.666308299999969, -21.857090799999984 ], [ -42.666491199999939, -21.857306899999962 ], [ -42.665912599999963, -21.857687399999964 ], [ -42.665444, -21.857855399999945 ], [ -42.664928699999962, -21.857074199999946 ], [ -42.664563, -21.856309499999945 ], [ -42.664280399999939, -21.85529559999998 ], [ -42.664130799999953, -21.854730399999941 ], [ -42.66349919999994, -21.854248399999957 ], [ -42.662302299999972, -21.854281599999972 ], [ -42.661554299999985, -21.854597399999928 ], [ -42.660454299999977, -21.85507819999998 ], [ -42.660533, -21.855360899999933 ], [ -42.660568599999984, -21.855552399999961 ], [ -42.660657699999952, -21.855859599999977 ], [ -42.660702199999939, -21.856024399999963 ], [ -42.66072, -21.85609559999995 ], [ -42.660746699999947, -21.856206899999965 ], [ -42.660777899999971, -21.856336099999965 ], [ -42.660818, -21.856456299999934 ], [ -42.660849199999973, -21.856607699999927 ], [ -42.660893699999974, -21.856754699999943 ], [ -42.660911499999948, -21.856794699999963 ], [ -42.660960499999931, -21.856928299999922 ], [ -42.660987199999973, -21.856990699999976 ], [ -42.661018399999939, -21.857097499999959 ], [ -42.661116299999946, -21.857271199999946 ], [ -42.661223199999938, -21.857444899999965 ], [ -42.661283099999935, -21.857514399999953 ], [ -42.661388, -21.85763629999995 ], [ -42.661530499999969, -21.857787699999967 ], [ -42.661668499999962, -21.857939099999953 ], [ -42.661811, -21.858081599999931 ], [ -42.66203059999998, -21.858300799999938 ], [ -42.662229599999939, -21.858504599999954 ], [ -42.662293, -21.858563399999984 ], [ -42.66264369999994, -21.858936599999943 ], [ -42.662755, -21.859061299999951 ], [ -42.662866299999969, -21.859172599999962 ], [ -42.663160199999936, -21.859462 ], [ -42.663436299999944, -21.859711399999973 ], [ -42.663501399999973, -21.859834 ], [ -42.666637299999934, -21.865737499999963 ], [ -42.66644649999995, -21.865687899999944 ], [ -42.665423799999985, -21.86565139999994 ], [ -42.664873099999966, -21.865779199999967 ], [ -42.664479799999988, -21.865888699999957 ], [ -42.663929099999969, -21.866034699999947 ], [ -42.663828699999954, -21.866097599999936 ], [ -42.663575099999946, -21.866180699999965 ], [ -42.663024399999983, -21.866472699999981 ], [ -42.662670399999968, -21.866801299999956 ], [ -42.662572099999984, -21.867038499999968 ], [ -42.662513099999956, -21.867348799999945 ], [ -42.662611399999953, -21.867695599999937 ], [ -42.662454099999934, -21.867987599999946 ], [ -42.662218099999954, -21.868279599999941 ], [ -42.662132799999945, -21.868497399999967 ], [ -42.662154, -21.868517499999939 ], [ -42.662114199999969, -21.8686011 ], [ -42.662074399999945, -21.868680599999941 ], [ -42.662018699999976, -21.868768199999973 ], [ -42.661975, -21.868839799999918 ], [ -42.661923299999955, -21.868927299999939 ], [ -42.661871599999984, -21.869002899999927 ], [ -42.661847699999953, -21.869070499999964 ], [ -42.661823799999986, -21.869154 ], [ -42.661806899999938, -21.869184799999971 ], [ -42.661780099999937, -21.869233599999966 ], [ -42.661762299999957, -21.869297199999941 ], [ -42.661743399999978, -21.869291499999964 ], [ -42.660748, -21.868991499999925 ], [ -42.660030199999937, -21.868763299999951 ], [ -42.659204199999976, -21.868526 ], [ -42.659036699999952, -21.868098799999917 ], [ -42.658860899999986, -21.86802 ], [ -42.658368499999938, -21.868343799999934 ], [ -42.658489699999961, -21.869044499999983 ], [ -42.659735199999943, -21.869511599999946 ], [ -42.660069499999963, -21.869456899999928 ], [ -42.660482499999937, -21.869548099999985 ], [ -42.660787399999947, -21.869703299999966 ], [ -42.660984, -21.869812799999977 ], [ -42.66135769999994, -21.869967899999949 ], [ -42.661528299999929, -21.870042899999937 ], [ -42.661032399999954, -21.87151549999993 ], [ -42.660983699999981, -21.871681799999966 ], [ -42.661758899999931, -21.871960399999978 ], [ -42.662978599999974, -21.872399899999955 ], [ -42.663740299999965, -21.872674 ], [ -42.664514199999985, -21.872952499999947 ], [ -42.664851, -21.873073699999971 ], [ -42.665343599999972, -21.873250899999949 ], [ -42.66535649999998, -21.873255599999933 ], [ -42.668252499999937, -21.874297699999943 ], [ -42.66841409999995, -21.874355899999955 ], [ -42.668503499999986, -21.874388 ], [ -42.668507099999943, -21.874389299999958 ], [ -42.668611399999975, -21.874426799999977 ], [ -42.668779799999982, -21.874487499999919 ], [ -42.671325699999954, -21.874980899999972 ], [ -42.67384119999997, -21.875731199999944 ], [ -42.673882899999967, -21.875743599999954 ], [ -42.674788399999962, -21.876007199999947 ], [ -42.67642979999993, -21.876485099999972 ], [ -42.676619199999955, -21.876540199999955 ], [ -42.680971499999949, -21.877807399999938 ], [ -42.682573399999974, -21.878365299999921 ], [ -42.682979699999976, -21.878506899999934 ], [ -42.683012099999985, -21.878518099999937 ], [ -42.684964399999956, -21.879198099999932 ], [ -42.687053099999964, -21.880355299999959 ], [ -42.687738699999947, -21.880735099999978 ], [ -42.690590099999952, -21.882314799999968 ], [ -42.694650899999942, -21.884302199999979 ], [ -42.695769, -21.884849399999947 ], [ -42.697319599999958, -21.885608299999941 ], [ -42.698779599999973, -21.886322899999978 ], [ -42.701788399999941, -21.888037099999959 ], [ -42.706933399999983, -21.890666199999938 ], [ -42.707188499999972, -21.890796599999923 ], [ -42.708507399999974, -21.891510199999971 ], [ -42.708710899999971, -21.891603699999965 ], [ -42.709552799999983, -21.892016499999954 ], [ -42.710019899999963, -21.892244799999958 ], [ -42.710046699999964, -21.892257899999951 ], [ -42.710369899999932, -21.89242429999997 ], [ -42.710494199999971, -21.892488099999987 ], [ -42.710636399999942, -21.892561 ], [ -42.710808799999946, -21.892649499999948 ], [ -42.710957199999939, -21.892725599999952 ] ] ], [ [ [ -42.608630399999981, -21.842511099999978 ], [ -42.608489899999945, -21.843110399999951 ], [ -42.608452499999949, -21.843812799999967 ], [ -42.608265199999948, -21.844983299999964 ], [ -42.609377, -21.845519199999952 ], [ -42.609407, -21.845403699999956 ], [ -42.609569599999936, -21.845313799999914 ], [ -42.609775, -21.845232499999948 ], [ -42.609886299999964, -21.845189699999935 ], [ -42.610126, -21.845057 ], [ -42.610185899999976, -21.844932899999936 ], [ -42.610297099999976, -21.844907299999917 ], [ -42.610344199999922, -21.844924399999961 ], [ -42.610369899999966, -21.845052799999952 ], [ -42.610459799999944, -21.845129799999935 ], [ -42.610639499999941, -21.845125499999927 ], [ -42.610712299999939, -21.845172599999941 ], [ -42.610793599999965, -21.845253899999932 ], [ -42.610904799999958, -21.84532239999993 ], [ -42.611020399999973, -21.845408 ], [ -42.611093099999955, -21.845412199999934 ], [ -42.611144499999966, -21.84536089999995 ], [ -42.611225799999936, -21.845223899999954 ], [ -42.611265399999986, -21.845207899999924 ], [ -42.611301799999978, -21.845180099999933 ], [ -42.611327399999936, -21.845173699999972 ], [ -42.61137609999998, -21.845104699999983 ], [ -42.611863399999947, -21.845070199999949 ], [ -42.611889199999958, -21.844407399999962 ], [ -42.611861099999935, -21.844103099999927 ], [ -42.611739399999969, -21.843850199999959 ], [ -42.611505299999983, -21.843822099999947 ], [ -42.611421, -21.843616099999952 ], [ -42.61154269999998, -21.843335199999952 ], [ -42.612076499999944, -21.842726499999973 ], [ -42.612039, -21.84238 ], [ -42.612526, -21.841921199999945 ], [ -42.613003599999963, -21.841640199999961 ], [ -42.614146, -21.840366699999947 ], [ -42.614988799999935, -21.839308499999955 ], [ -42.616112599999951, -21.839308499999955 ], [ -42.616637, -21.839308499999959 ], [ -42.618282299999976, -21.839989099999965 ], [ -42.618839599999944, -21.838758799999933 ], [ -42.619092499999965, -21.83771969999998 ], [ -42.618045599999967, -21.837395 ], [ -42.617923, -21.837339699999962 ], [ -42.617651199999962, -21.837211399999948 ], [ -42.615050299999957, -21.836827299999968 ], [ -42.613724, -21.836712299999924 ], [ -42.610719499999959, -21.83606339999994 ], [ -42.608308399999935, -21.834950799999934 ], [ -42.607897499999979, -21.834585599999961 ], [ -42.607276599999977, -21.835243 ], [ -42.606555199999946, -21.836238399999967 ], [ -42.606803399999933, -21.836361299999965 ], [ -42.607087699999965, -21.836511199999958 ], [ -42.607636799999966, -21.836722799999965 ], [ -42.608134499999956, -21.836871599999935 ], [ -42.608809499999943, -21.837209099999942 ], [ -42.609106899999972, -21.837334899999956 ], [ -42.609530199999945, -21.837718199999912 ], [ -42.60992489999996, -21.837952699999963 ], [ -42.610645699999971, -21.838181499999965 ], [ -42.611028899999958, -21.838313099999922 ], [ -42.611269199999988, -21.83843319999993 ], [ -42.611784, -21.838765 ], [ -42.612052899999981, -21.83897659999996 ], [ -42.612087199999969, -21.839119599999947 ], [ -42.612087199999962, -21.839319799999934 ], [ -42.611955599999931, -21.839691699999943 ], [ -42.611721099999954, -21.839954799999941 ], [ -42.611309199999937, -21.840092099999936 ], [ -42.611102599999981, -21.840188699999938 ], [ -42.61071869999995, -21.840553899999964 ], [ -42.609866499999953, -21.841022199999941 ], [ -42.609370199999937, -21.841396699999944 ], [ -42.608630399999981, -21.842511099999978 ] ] ], [ [ [ -42.73260479999994, -21.768388699999942 ], [ -42.732381499999981, -21.76875 ], [ -42.732171199999982, -21.769091599999982 ], [ -42.733419299999987, -21.769945599999968 ], [ -42.734148499999954, -21.768881399999934 ], [ -42.736316699999975, -21.765864599999933 ], [ -42.737605, -21.763889099999968 ], [ -42.738349399999947, -21.762615 ], [ -42.738306499999972, -21.76195649999994 ], [ -42.738074, -21.761059499999934 ], [ -42.737544199999952, -21.760578699999936 ], [ -42.737186299999969, -21.760900799999938 ], [ -42.736728199999959, -21.760843499999961 ], [ -42.736212899999941, -21.760514299999951 ], [ -42.735998199999983, -21.759877299999975 ], [ -42.735587599999967, -21.75932 ], [ -42.735398699999955, -21.759412499999947 ], [ -42.735187499999938, -21.759508 ], [ -42.735113399999932, -21.759524399999965 ], [ -42.735088299999973, -21.759540799999961 ], [ -42.735014799999931, -21.759589 ], [ -42.735004099999976, -21.759596 ], [ -42.734893499999941, -21.759706599999962 ], [ -42.734672299999943, -21.759927799999943 ], [ -42.734253599999931, -21.760276099999938 ], [ -42.734522899999952, -21.761353399999962 ], [ -42.734614899999947, -21.762148299999971 ], [ -42.734549199999947, -21.763061399999966 ], [ -42.734450699999975, -21.76379049999996 ], [ -42.73422729999993, -21.764434299999952 ], [ -42.733829399999934, -21.765352799999956 ], [ -42.733371299999924, -21.766412099999958 ], [ -42.733070699999985, -21.767292499999943 ], [ -42.73260479999994, -21.768388699999942 ] ] ], [ [ [ -42.673630599999967, -21.745386099999948 ], [ -42.673636399999957, -21.745430799999948 ], [ -42.673645399999941, -21.745475099999965 ], [ -42.673638, -21.745571499999986 ], [ -42.673630599999967, -21.745670399999938 ], [ -42.673623199999952, -21.745764299999955 ], [ -42.673610799999956, -21.745845899999935 ], [ -42.673623199999952, -21.745937399999939 ], [ -42.673591, -21.746038699999922 ], [ -42.673561399999983, -21.746157399999966 ], [ -42.67352429999994, -21.746214299999963 ], [ -42.67352429999994, -21.746256299999974 ], [ -42.673489699999955, -21.746300799999972 ], [ -42.673398199999951, -21.746387299999984 ], [ -42.673343799999934, -21.746434299999962 ], [ -42.673313599999972, -21.74646289999998 ], [ -42.673255, -21.746520399999945 ], [ -42.673167799999938, -21.746587599999945 ], [ -42.67303969999994, -21.746639499999947 ], [ -42.672970499999963, -21.746679099999923 ], [ -42.67297049999997, -21.746713699999916 ], [ -42.672866699999936, -21.746731 ], [ -42.67281719999994, -21.746748299999979 ], [ -42.672767799999981, -21.746795299999967 ], [ -42.67275159999997, -21.746839 ], [ -42.672740599999941, -21.746884299999973 ], [ -42.672691099999945, -21.746975699999961 ], [ -42.672703499999955, -21.747072199999938 ], [ -42.672631799999984, -21.747143899999962 ], [ -42.672567499999957, -21.747210599999967 ], [ -42.672490899999957, -21.747277399999966 ], [ -42.672399399999968, -21.747398499999971 ], [ -42.672332599999947, -21.747420799999944 ], [ -42.672226299999977, -21.747475099999981 ], [ -42.672204099999924, -21.747541899999938 ], [ -42.672149699999984, -21.747635799999966 ], [ -42.672142299999955, -21.747682799999946 ], [ -42.673265899999933, -21.748797299999964 ], [ -42.675246899999927, -21.74951 ], [ -42.677856099999985, -21.750426299999965 ], [ -42.678030699999972, -21.750001599999958 ], [ -42.678196199999952, -21.749779399999959 ], [ -42.67839059999995, -21.749569499999943 ], [ -42.678546, -21.749367399999979 ], [ -42.67870929999998, -21.749165299999969 ], [ -42.678950199999974, -21.749064199999946 ], [ -42.679144599999972, -21.749056499999945 ], [ -42.679292299999929, -21.749219699999962 ], [ -42.679502199999945, -21.74947619999995 ], [ -42.679649899999959, -21.749958199999973 ], [ -42.67973539999997, -21.750261299999988 ], [ -42.679809599999942, -21.750529399999941 ], [ -42.679921399999962, -21.750799799999974 ], [ -42.680365899999963, -21.751157199999966 ], [ -42.680909199999974, -21.751474 ], [ -42.681266699999981, -21.751769399999933 ], [ -42.681608799999935, -21.752103699999971 ], [ -42.681950799999974, -21.752422399999947 ], [ -42.682417199999975, -21.752344599999937 ], [ -42.682992499999955, -21.752165799999947 ], [ -42.683194599999986, -21.752002599999969 ], [ -42.683381099999963, -21.751854899999952 ], [ -42.683637699999963, -21.751683899999932 ], [ -42.683800899999945, -21.751551699999936 ], [ -42.68397189999996, -21.751450699999964 ], [ -42.684073, -21.751334099999955 ], [ -42.684467399999953, -21.750505599999933 ], [ -42.684481899999987, -21.750419799999968 ], [ -42.68452439999993, -21.750007599999947 ], [ -42.684525199999946, -21.750000299999954 ], [ -42.684439899999973, -21.749987099999935 ], [ -42.684270099999942, -21.749960899999959 ], [ -42.68409429999997, -21.749932299999944 ], [ -42.684012499999945, -21.749932299999948 ], [ -42.683853099999958, -21.749883199999935 ], [ -42.683722199999984, -21.74986279999996 ], [ -42.683542299999949, -21.749813699999947 ], [ -42.683432, -21.749805499999979 ], [ -42.683234299999988, -21.749756 ], [ -42.683170299999972, -21.749736 ], [ -42.683076299999982, -21.749731899999968 ], [ -42.682978099999957, -21.749715599999934 ], [ -42.682863699999984, -21.749670599999938 ], [ -42.682753299999952, -21.749625599999941 ], [ -42.682683799999957, -21.749560199999951 ], [ -42.68260209999994, -21.749533 ], [ -42.682524299999962, -21.749507099999963 ], [ -42.682360799999969, -21.749421199999961 ], [ -42.682250399999937, -21.749372199999979 ], [ -42.682180899999942, -21.749339499999959 ], [ -42.682164599999972, -21.749274099999983 ], [ -42.682164599999965, -21.749225 ], [ -42.682127799999932, -21.749151399999953 ], [ -42.682111399999947, -21.749090099999929 ], [ -42.682127799999932, -21.749028799999966 ], [ -42.68212779999994, -21.748942899999964 ], [ -42.682054199999989, -21.74891429999996 ], [ -42.681980599999982, -21.748861099999939 ], [ -42.681934499999954, -21.748763399999973 ], [ -42.681902899999955, -21.748701699999962 ], [ -42.681857899999947, -21.748628099999969 ], [ -42.681768, -21.748579 ], [ -42.681645299999957, -21.748521799999935 ], [ -42.681514499999935, -21.748431899999968 ], [ -42.681355099999962, -21.748305099999989 ], [ -42.681244699999986, -21.748170199999947 ], [ -42.681130199999984, -21.748059799999961 ], [ -42.68099529999995, -21.747982099999948 ], [ -42.68099529999995, -21.74790449999994 ], [ -42.680905399999972, -21.747781799999935 ], [ -42.68077859999994, -21.747675499999964 ], [ -42.680664099999944, -21.747606 ], [ -42.68058439999993, -21.74755679999992 ], [ -42.680472, -21.747487399999955 ], [ -42.680361599999969, -21.747422 ], [ -42.680259399999962, -21.747311599999925 ], [ -42.680144899999959, -21.747213499999933 ], [ -42.679989599999942, -21.747086799999977 ], [ -42.679854699999972, -21.746968199999959 ], [ -42.679752399999984, -21.746902799999923 ], [ -42.679715599999959, -21.746861899999946 ], [ -42.679703399999944, -21.746817 ], [ -42.679750799999972, -21.746811799999936 ], [ -42.679797599999972, -21.74682109999998 ], [ -42.679838699999948, -21.746789299999936 ], [ -42.67989659999995, -21.746757499999948 ], [ -42.679995699999949, -21.74671829999993 ], [ -42.680109699999946, -21.74668279999997 ], [ -42.680165799999941, -21.746652899999958 ], [ -42.680208799999953, -21.746641599999972 ], [ -42.680264899999941, -21.746623 ], [ -42.680289199999947, -21.746594899999923 ], [ -42.680304199999966, -21.746553799999955 ], [ -42.680285499999975, -21.746512699999972 ], [ -42.680279899999967, -21.746488399999972 ], [ -42.680309799999975, -21.746402399999962 ], [ -42.68033029999998, -21.746327599999976 ], [ -42.68034339999997, -21.746230399999952 ], [ -42.680337799999968, -21.746153799999949 ], [ -42.680384499999953, -21.746114499999965 ], [ -42.680449399999937, -21.746020799999936 ], [ -42.677444899999955, -21.745816499999918 ], [ -42.677315399999941, -21.74570139999997 ], [ -42.677092399999935, -21.745536 ], [ -42.67694849999998, -21.745514399999937 ], [ -42.67677579999998, -21.745528799999924 ], [ -42.676473699999974, -21.7455 ], [ -42.676200299999948, -21.745442399999934 ], [ -42.676042099999961, -21.745377699999949 ], [ -42.675833499999953, -21.745320099999958 ], [ -42.675660799999946, -21.745212199999965 ], [ -42.675445, -21.745046799999958 ], [ -42.675186, -21.744866899999963 ], [ -42.674934899999982, -21.74452939999998 ], [ -42.674572, -21.744529399999973 ], [ -42.674332199999981, -21.744478399999938 ], [ -42.674115699999966, -21.744412599999961 ], [ -42.673944899999981, -21.74437869999996 ], [ -42.673636099999953, -21.744542099999933 ], [ -42.67339839999994, -21.744658799999961 ], [ -42.673474799999951, -21.744968699999959 ], [ -42.673447599999982, -21.745025099999964 ], [ -42.673462499999978, -21.745064699999951 ], [ -42.673452599999962, -21.745106699999951 ], [ -42.673487199999961, -21.745148699999969 ], [ -42.673487199999961, -21.745200599999968 ], [ -42.673541599999972, -21.745245099999973 ], [ -42.673598499999969, -21.745306899999942 ], [ -42.673630599999967, -21.745386099999948 ] ] ] ] } }
]
}
