{
"type": "FeatureCollection",
"name": "3104601",
"crs": { "type": "name", "properties": { "name": "urn:ogc:def:crs:OGC:1.3:CRS84" } },
"features": [
{ "type": "Feature", "properties": { "CD_MUN": "3104601", "NM_MUN": "Astolfo Dutra" }, "geometry": { "type": "MultiPolygon", "coordinates": [ [ [ [ -42.863027699999975, -21.321825 ], [ -42.863159099999969, -21.32182349999993 ], [ -42.863302499999975, -21.321855299999971 ], [ -42.863353799999963, -21.32193969999998 ], [ -42.863595, -21.322154199999936 ], [ -42.863685099999941, -21.322226599999968 ], [ -42.863813099999959, -21.32232659999994 ], [ -42.863963299999966, -21.322404799999951 ], [ -42.864116699999954, -21.322453699999986 ], [ -42.86435, -21.322491399999933 ], [ -42.86454829999996, -21.322518399999982 ], [ -42.864801299999954, -21.322572099999952 ], [ -42.864913199999933, -21.322579499999964 ], [ -42.865544299999954, -21.321995399999938 ], [ -42.866382699999981, -21.321023599999922 ], [ -42.8676799, -21.320111099999966 ], [ -42.868999, -21.319304399999961 ], [ -42.869901699999957, -21.319234199999979 ], [ -42.871009, -21.319151099999935 ], [ -42.871775799999973, -21.319816899999971 ], [ -42.872405199999946, -21.320803499999965 ], [ -42.872914899999955, -21.321551399999979 ], [ -42.87363849999997, -21.321940499999982 ], [ -42.874019399999952, -21.321491699999967 ], [ -42.874156, -21.321278699999937 ], [ -42.874322899999981, -21.321018399999947 ], [ -42.874400699999967, -21.320902199999974 ], [ -42.874305799999945, -21.320743 ], [ -42.874208299999964, -21.320637099999953 ], [ -42.874110599999931, -21.320512399999934 ], [ -42.874000699999954, -21.320401799999956 ], [ -42.873907099999947, -21.320313099999957 ], [ -42.873820299999977, -21.320194399999931 ], [ -42.873798799999982, -21.320109899999977 ], [ -42.873788599999955, -21.320013299999971 ], [ -42.873768499999983, -21.319910099999959 ], [ -42.873727199999969, -21.319776499999932 ], [ -42.873695, -21.319630899999929 ], [ -42.873677699999973, -21.319515899999953 ], [ -42.873689199999951, -21.319392399999973 ], [ -42.873721299999943, -21.319256399999968 ], [ -42.87372129999995, -21.31914049999995 ], [ -42.873682199999969, -21.319082 ], [ -42.8735746, -21.319058899999952 ], [ -42.873447599999963, -21.319096 ], [ -42.873332599999969, -21.319094 ], [ -42.873223399999972, -21.319076299999942 ], [ -42.873106599999971, -21.319059799999934 ], [ -42.873606, -21.318808499999939 ], [ -42.874198099999951, -21.318404 ], [ -42.874348299999951, -21.318219899999963 ], [ -42.874481, -21.318010699999935 ], [ -42.874531799999943, -21.317923499999949 ], [ -42.874607699999949, -21.317793299999948 ], [ -42.874751, -21.317556899999943 ], [ -42.874895699999968, -21.317148199999956 ], [ -42.874851699999958, -21.316790799999975 ], [ -42.87479859999997, -21.316394399999979 ], [ -42.874696, -21.315886499999973 ], [ -42.874569299999962, -21.31502949999998 ], [ -42.874472899999944, -21.314542499999952 ], [ -42.874470499999973, -21.31407819999998 ], [ -42.874508899999974, -21.313814199999971 ], [ -42.874751499999945, -21.313635799999926 ], [ -42.874908199999943, -21.313504099999925 ], [ -42.875232599999954, -21.313322199999956 ], [ -42.875537299999969, -21.313158799999925 ], [ -42.875829099999976, -21.313082599999973 ], [ -42.876163, -21.312999299999937 ], [ -42.876475599999935, -21.312964399999942 ], [ -42.876755099999968, -21.31294349999995 ], [ -42.877060599999936, -21.31285019999995 ], [ -42.877332599999932, -21.312787599999982 ], [ -42.877548599999955, -21.31275 ], [ -42.877742299999966, -21.312710299999925 ], [ -42.87789219999997, -21.312736399999935 ], [ -42.878063699999984, -21.312823699999964 ], [ -42.878238499999959, -21.312950899999976 ], [ -42.878468299999959, -21.313118 ], [ -42.878601799999956, -21.313244299999941 ], [ -42.87882819999993, -21.313387599999931 ], [ -42.87902169999996, -21.313452499999979 ], [ -42.879309299999939, -21.313474399999954 ], [ -42.879570799999954, -21.313448299999937 ], [ -42.879543399999932, -21.313382 ], [ -42.879474, -21.313267699999976 ], [ -42.879377599999948, -21.313182599999937 ], [ -42.879380599999934, -21.313125299999967 ], [ -42.879421599999944, -21.313000299999928 ], [ -42.879415299999948, -21.312901699999941 ], [ -42.879423799999984, -21.31277 ], [ -42.87943219999994, -21.312738 ], [ -42.879438, -21.31271629999998 ], [ -42.879448099999927, -21.312678 ], [ -42.879456499999947, -21.312646299999972 ], [ -42.879526099999964, -21.312538299999968 ], [ -42.879586, -21.312278699999975 ], [ -42.879128699999967, -21.311800299999955 ], [ -42.878485599999976, -21.31141829999995 ], [ -42.878022299999948, -21.311231799999963 ], [ -42.877376799999979, -21.311259099999969 ], [ -42.876919199999975, -21.311439599999957 ], [ -42.87666489999998, -21.311690699999929 ], [ -42.876310899999972, -21.311772099999921 ], [ -42.875793499999929, -21.311701199999963 ], [ -42.875343799999939, -21.311631499999976 ], [ -42.874559499999975, -21.311705899999925 ], [ -42.873803299999963, -21.312028899999962 ], [ -42.873393299999982, -21.312163399999964 ], [ -42.872992899999986, -21.312206 ], [ -42.872605, -21.312510799999931 ], [ -42.872256199999981, -21.313065099999953 ], [ -42.872228199999945, -21.313508099999972 ], [ -42.872318799999967, -21.313853 ], [ -42.872535299999981, -21.314397299999943 ], [ -42.872726199999939, -21.314858399999924 ], [ -42.872871099999941, -21.315520699999979 ], [ -42.873132799999951, -21.316390399999918 ], [ -42.873095599999942, -21.317340899999977 ], [ -42.87296589999994, -21.317758699999953 ], [ -42.872530199999964, -21.318029199999955 ], [ -42.872075399999979, -21.318108399999964 ], [ -42.871886399999937, -21.317291899999933 ], [ -42.871870599999966, -21.317271699999939 ], [ -42.871848199999931, -21.317260099999942 ], [ -42.871594399999935, -21.316428199999958 ], [ -42.871512299999956, -21.315713299999981 ], [ -42.870790899999982, -21.314824099999953 ], [ -42.869846699999982, -21.314213799999941 ], [ -42.869531199999976, -21.314062299999939 ], [ -42.869567299999979, -21.313968899999956 ], [ -42.869451399999953, -21.313505499999959 ], [ -42.869540499999978, -21.312982899999952 ], [ -42.869877299999985, -21.312015299999921 ], [ -42.87028219999997, -21.311450199999953 ], [ -42.870434099999954, -21.311024 ], [ -42.87037609999993, -21.310235899999956 ], [ -42.870587, -21.309341799999967 ], [ -42.870126599999928, -21.305738699999953 ], [ -42.870132699999942, -21.305002699999928 ], [ -42.870205199999937, -21.304585899999942 ], [ -42.870242699999949, -21.304528 ], [ -42.870386799999949, -21.304464199999927 ], [ -42.870685299999934, -21.304506699999941 ], [ -42.871541199999974, -21.304530499999938 ], [ -42.872050499999951, -21.30453859999994 ], [ -42.872253699999931, -21.304434099999987 ], [ -42.872327699999971, -21.304163 ], [ -42.872334799999983, -21.303967199999924 ], [ -42.871964599999956, -21.30331359999996 ], [ -42.871790199999964, -21.302768299999968 ], [ -42.871474099999951, -21.302768299999968 ], [ -42.870832199999946, -21.302805699999965 ], [ -42.87029119999994, -21.302777 ], [ -42.869686699999932, -21.302532299999942 ], [ -42.869226199999964, -21.302244499999976 ], [ -42.868806, -21.302146599999947 ], [ -42.868187199999973, -21.302345199999923 ], [ -42.867414399999973, -21.302846 ], [ -42.86681, -21.30318849999998 ], [ -42.866582599999958, -21.302748199999943 ], [ -42.866545199999962, -21.30185159999996 ], [ -42.866614299999981, -21.301648699999927 ], [ -42.867359699999952, -21.300917699999953 ], [ -42.866964399999965, -21.300627799999976 ], [ -42.867009799999948, -21.30038549999994 ], [ -42.867117199999939, -21.300013799999924 ], [ -42.867216099999951, -21.29984549999995 ], [ -42.867484599999955, -21.299491599999964 ], [ -42.867747, -21.299184 ], [ -42.867851399999957, -21.299006399999946 ], [ -42.867894499999984, -21.298806499999952 ], [ -42.867931799999951, -21.298644399999947 ], [ -42.867972699999946, -21.29843689999996 ], [ -42.867966, -21.298283299999966 ], [ -42.867941499999965, -21.298185699999969 ], [ -42.867904, -21.298079499999957 ], [ -42.867851899999948, -21.298114699999932 ], [ -42.867676499999959, -21.298279499999975 ], [ -42.867490199999963, -21.298437299999936 ], [ -42.867311, -21.298474199999934 ], [ -42.867067699999957, -21.29849529999996 ], [ -42.866937199999931, -21.298573399999956 ], [ -42.86681539999995, -21.298704199999964 ], [ -42.866838799999989, -21.298980899999933 ], [ -42.866782299999961, -21.299093399999936 ], [ -42.866755299999966, -21.299166 ], [ -42.866746599999942, -21.29931729999992 ], [ -42.866663799999976, -21.299436 ], [ -42.866538699999978, -21.299503599999973 ], [ -42.866443099999977, -21.299436799999963 ], [ -42.866320199999961, -21.299428199999959 ], [ -42.866251599999948, -21.299486199999929 ], [ -42.866188199999954, -21.29956379999993 ], [ -42.866084899999976, -21.299607199999972 ], [ -42.866029699999963, -21.299639799999959 ], [ -42.866038099999976, -21.299706899999919 ], [ -42.866048499999977, -21.299780099999964 ], [ -42.866061199999933, -21.299869099999956 ], [ -42.866061499999951, -21.299990799999922 ], [ -42.866047599999945, -21.300071399999975 ], [ -42.866042099999959, -21.300177699999956 ], [ -42.8660273, -21.300271399999943 ], [ -42.866017199999931, -21.300331399999944 ], [ -42.866021199999977, -21.300419099999932 ], [ -42.866035, -21.300488899999944 ], [ -42.86602239999997, -21.300543699999931 ], [ -42.8660225, -21.300663899999968 ], [ -42.865986899999946, -21.300726499999943 ], [ -42.865943799999975, -21.30075979999998 ], [ -42.865916699999964, -21.300803099999943 ], [ -42.865864699999982, -21.300805699999952 ], [ -42.865831099999973, -21.300790599999967 ], [ -42.86580239999995, -21.300812299999976 ], [ -42.865791199999933, -21.300866899999956 ], [ -42.865778499999976, -21.30092889999997 ], [ -42.865748, -21.300964 ], [ -42.865703, -21.300977 ], [ -42.865674199999944, -21.301026099999937 ], [ -42.865648, -21.301092799999939 ], [ -42.865635499999946, -21.301150099999973 ], [ -42.865645099999931, -21.301233899999946 ], [ -42.865634399999983, -21.301296199999964 ], [ -42.865595, -21.301355099999959 ], [ -42.865532599999938, -21.301431399999945 ], [ -42.865515199999962, -21.301514199999922 ], [ -42.865509699999969, -21.301645 ], [ -42.865511199999958, -21.301726599999938 ], [ -42.865524099999959, -21.301841899999935 ], [ -42.865527399999962, -21.30190709999993 ], [ -42.865523, -21.301994299999929 ], [ -42.865495099999976, -21.302042 ], [ -42.865427299999972, -21.302055099999951 ], [ -42.865369099999953, -21.302056799999942 ], [ -42.865317499999954, -21.30211549999995 ], [ -42.865268399999934, -21.302194799999938 ], [ -42.86522169999995, -21.30221859999995 ], [ -42.865166799999948, -21.302255199999923 ], [ -42.865131199999951, -21.302303699999975 ], [ -42.865115399999979, -21.302349399999954 ], [ -42.865115, -21.302403899999948 ], [ -42.865120699999977, -21.302465 ], [ -42.865083899999945, -21.302520099999985 ], [ -42.865053899999964, -21.302605199999959 ], [ -42.865150099999937, -21.302652699999946 ], [ -42.865287199999955, -21.302707 ], [ -42.865043399999934, -21.302999799999949 ], [ -42.864508, -21.303624799999959 ], [ -42.864136599999945, -21.303996799999933 ], [ -42.863553699999954, -21.304532299999948 ], [ -42.863083699999954, -21.304959299999947 ], [ -42.862529, -21.305489699999949 ], [ -42.862440599999964, -21.305570399999969 ], [ -42.862326199999984, -21.305675099999963 ], [ -42.861989799999947, -21.305975699999973 ], [ -42.8616732, -21.306189 ], [ -42.861454899999949, -21.306305299999959 ], [ -42.861174499999947, -21.306399 ], [ -42.86082719999996, -21.306463699999938 ], [ -42.860232799999949, -21.306509399999989 ], [ -42.859827899999971, -21.30654409999994 ], [ -42.85954959999998, -21.306597499999949 ], [ -42.859327, -21.306653299999926 ], [ -42.859026599999936, -21.306791199999957 ], [ -42.858734699999957, -21.306947899999948 ], [ -42.85839239999995, -21.307190399999968 ], [ -42.858081699999957, -21.307420799999932 ], [ -42.857782199999981, -21.30764389999996 ], [ -42.857491, -21.30778679999997 ], [ -42.857150699999977, -21.307882399999976 ], [ -42.856727399999947, -21.307967199999947 ], [ -42.856277699999964, -21.307961399999947 ], [ -42.85602, -21.307908 ], [ -42.855678499999954, -21.307795499999933 ], [ -42.855228099999984, -21.307609799999959 ], [ -42.854961099999969, -21.307477499999944 ], [ -42.854368899999933, -21.307185199999939 ], [ -42.853776699999969, -21.306889899999931 ], [ -42.853082099999931, -21.306538299999936 ], [ -42.852892399999973, -21.30645039999996 ], [ -42.852269, -21.306139399999939 ], [ -42.852218799999953, -21.306119099999933 ], [ -42.851776, -21.305900599999973 ], [ -42.850719199999958, -21.305381199999928 ], [ -42.850278, -21.305162 ], [ -42.849812099999944, -21.304913299999956 ], [ -42.849281299999973, -21.304644199999924 ], [ -42.849085699999932, -21.304568799999963 ], [ -42.848746499999955, -21.304451499999974 ], [ -42.848485599999947, -21.304391299999956 ], [ -42.848166399999961, -21.304334199999975 ], [ -42.84788589999993, -21.304305899999974 ], [ -42.847739099999956, -21.304304599999977 ], [ -42.847585699999968, -21.304304499999944 ], [ -42.8472139, -21.304345399999914 ], [ -42.846981599999943, -21.304389599999986 ], [ -42.84651219999995, -21.304495099999947 ], [ -42.846285799999976, -21.30457569999994 ], [ -42.846136699999938, -21.304663199999943 ], [ -42.845972699999955, -21.304708899999977 ], [ -42.845532699999985, -21.30485 ], [ -42.845260799999949, -21.304934799999955 ], [ -42.844908299999929, -21.30501479999997 ], [ -42.844258899999936, -21.305019099999978 ], [ -42.843754899999965, -21.305019 ], [ -42.843482599999959, -21.305019099999974 ], [ -42.843236299999944, -21.305036399999953 ], [ -42.842983599999968, -21.305104299999979 ], [ -42.842752099999984, -21.305245899999932 ], [ -42.842392399999937, -21.305645199999969 ], [ -42.841885099999949, -21.306245599999951 ], [ -42.841211899999962, -21.306998599999918 ], [ -42.840414199999941, -21.307701499999943 ], [ -42.839928599999951, -21.308099 ], [ -42.839872899999932, -21.308146799999971 ], [ -42.839743899999974, -21.308244499999937 ], [ -42.838475699999947, -21.309351899999971 ], [ -42.838422899999962, -21.309400799999931 ], [ -42.838034, -21.309777299999947 ], [ -42.837745299999938, -21.310108099999983 ], [ -42.837707, -21.310169399999953 ], [ -42.837572799999975, -21.310249799999948 ], [ -42.83738829999993, -21.310473599999973 ], [ -42.837294, -21.310598399999947 ], [ -42.837163699999962, -21.310809599999963 ], [ -42.837079499999959, -21.310973499999932 ], [ -42.837035699999944, -21.311046099999935 ], [ -42.837041699999936, -21.311072399999947 ], [ -42.837108899999976, -21.311099899999935 ], [ -42.838206899999932, -21.311605799999935 ], [ -42.839575299999986, -21.312544399999972 ], [ -42.8413288, -21.314390499999934 ], [ -42.842268499999939, -21.315330099999972 ], [ -42.843577099999948, -21.31551219999994 ], [ -42.844824299999978, -21.315734899999946 ], [ -42.846712099999941, -21.315331899999933 ], [ -42.847883399999951, -21.315089599999961 ], [ -42.853386099999966, -21.314685199999928 ], [ -42.854887, -21.314845399999975 ], [ -42.857681199999952, -21.313696 ], [ -42.857786399999952, -21.315251899999964 ], [ -42.858731199999973, -21.315935299999971 ], [ -42.859653599999952, -21.31662509999995 ], [ -42.858981499999977, -21.31687 ], [ -42.85876769999993, -21.317377099999931 ], [ -42.858997199999976, -21.319330899999951 ], [ -42.858946799999956, -21.320402599999969 ], [ -42.859684099999988, -21.32102309999993 ], [ -42.860121599999957, -21.321102499999931 ], [ -42.860504799999951, -21.321275899999932 ], [ -42.860999799999945, -21.321509799999937 ], [ -42.861241899999982, -21.321604399999952 ], [ -42.861577199999942, -21.321724399999944 ], [ -42.861977099999933, -21.32182639999996 ], [ -42.862219699999976, -21.321917499999927 ], [ -42.862395099999958, -21.321987499999977 ], [ -42.862458399999987, -21.321987099999934 ], [ -42.8625, -21.322003299999938 ], [ -42.86254409999998, -21.321798299999955 ], [ -42.862743899999948, -21.321829299999926 ], [ -42.863027699999975, -21.321825 ] ] ], [ [ [ -42.936909299999975, -21.273864 ], [ -42.936938899999973, -21.273876199999961 ], [ -42.937013299999926, -21.273906699999948 ], [ -42.937066299999977, -21.273928499999947 ], [ -42.937168799999945, -21.273964299999925 ], [ -42.93726559999994, -21.274003299999933 ], [ -42.937396799999931, -21.274037299999971 ], [ -42.937512599999941, -21.274084699999943 ], [ -42.937633599999977, -21.274118499999933 ], [ -42.937719899999934, -21.27412669999995 ], [ -42.937794499999939, -21.274175 ], [ -42.937916, -21.274244899999928 ], [ -42.938026699999966, -21.274270299999955 ], [ -42.938158199999975, -21.274052499999975 ], [ -42.938259699999946, -21.273864099999962 ], [ -42.93827529999993, -21.273706199999946 ], [ -42.938285, -21.273530799999946 ], [ -42.93829479999993, -21.273369 ], [ -42.938298699999962, -21.273195499999929 ], [ -42.938303, -21.273093 ], [ -42.93830719999994, -21.272990499999928 ], [ -42.938271, -21.272862299999925 ], [ -42.938237599999979, -21.27274419999997 ], [ -42.938165699999956, -21.272572199999953 ], [ -42.9381456, -21.272461199999952 ], [ -42.938103899999923, -21.272230299999926 ], [ -42.938077799999974, -21.272086399999981 ], [ -42.93814169999996, -21.27181019999994 ], [ -42.938191399999944, -21.271593899999974 ], [ -42.938349899999935, -21.271325799999939 ], [ -42.938358299999955, -21.271144299999936 ], [ -42.938358599999965, -21.271095 ], [ -42.938359099999957, -21.271012299999931 ], [ -42.938417599999987, -21.270850699999983 ], [ -42.938511899999988, -21.270734 ], [ -42.938526199999963, -21.270575599999976 ], [ -42.938475099999948, -21.270412599999929 ], [ -42.938536299999953, -21.270241299999959 ], [ -42.938938799999967, -21.269888 ], [ -42.938993499999988, -21.269419399999936 ], [ -42.9395249, -21.269418299999927 ], [ -42.939550199999985, -21.268956599999971 ], [ -42.939051, -21.268798499999946 ], [ -42.938855199999978, -21.268323499999962 ], [ -42.939296299999974, -21.268162199999946 ], [ -42.939957299999946, -21.267844 ], [ -42.939934, -21.267684399999943 ], [ -42.939847799999939, -21.267539799999959 ], [ -42.939825799999937, -21.267352399999929 ], [ -42.9397628, -21.267127 ], [ -42.939684899999982, -21.267006899999959 ], [ -42.939670599999943, -21.266929299999958 ], [ -42.93962149999993, -21.266920199999959 ], [ -42.939578899999965, -21.266917099999947 ], [ -42.939552699999986, -21.266941599999942 ], [ -42.939529799999939, -21.26688659999995 ], [ -42.939495099999931, -21.266828599999943 ], [ -42.939485699999985, -21.266793799999956 ], [ -42.939481299999954, -21.266767199999954 ], [ -42.939377499999971, -21.266797799999942 ], [ -42.939176699999969, -21.266862799999959 ], [ -42.938976599999933, -21.266948299999967 ], [ -42.938940099999968, -21.267014199999942 ], [ -42.938862899999947, -21.267104699999948 ], [ -42.938775, -21.267193599999924 ], [ -42.938566899999955, -21.267385499999936 ], [ -42.938326199999949, -21.26760779999994 ], [ -42.937963799999977, -21.267456499999984 ], [ -42.937795899999962, -21.26742419999993 ], [ -42.937661699999971, -21.267427 ], [ -42.937525599999958, -21.267399299999973 ], [ -42.937416899999953, -21.26740719999998 ], [ -42.937311899999948, -21.267417399999932 ], [ -42.93719619999996, -21.267446699999926 ], [ -42.937063399999943, -21.267470099999962 ], [ -42.93695909999996, -21.267453599999943 ], [ -42.936839599999985, -21.267416899999951 ], [ -42.936742699999968, -21.267364899999951 ], [ -42.936655099999946, -21.267310899999924 ], [ -42.936436499999957, -21.267216499999961 ], [ -42.936312399999963, -21.267197099999983 ], [ -42.93620889999994, -21.26715709999997 ], [ -42.936120099999989, -21.267122699999952 ], [ -42.936021, -21.267052399999962 ], [ -42.935978, -21.26696579999998 ], [ -42.93590759999995, -21.266913699999971 ], [ -42.935827899999943, -21.266895599999941 ], [ -42.935737499999959, -21.26686849999993 ], [ -42.935663499999976, -21.26683039999994 ], [ -42.935601299999973, -21.26680529999993 ], [ -42.935533599999985, -21.266808699999959 ], [ -42.935480099999957, -21.266797799999946 ], [ -42.935382299999958, -21.266776099999952 ], [ -42.93525539999996, -21.266738899999947 ], [ -42.935108199999938, -21.266757199999979 ], [ -42.934973099999986, -21.266762599999932 ], [ -42.934806899999963, -21.266784499999961 ], [ -42.934609899999941, -21.26671749999997 ], [ -42.934485799999955, -21.266676699999934 ], [ -42.934319299999977, -21.266660199999926 ], [ -42.934199699999965, -21.266655899999925 ], [ -42.934093299999972, -21.266668899999956 ], [ -42.933950299999935, -21.266662699999912 ], [ -42.933847599999979, -21.26666459999996 ], [ -42.933797599999941, -21.266621499999928 ], [ -42.933620899999944, -21.266507399999973 ], [ -42.933494699999983, -21.266468099999933 ], [ -42.933408799999945, -21.266409199999927 ], [ -42.933315899999975, -21.266395799999945 ], [ -42.933219099999967, -21.26638569999994 ], [ -42.933078899999941, -21.266367399999979 ], [ -42.932963299999983, -21.266361499999949 ], [ -42.932867599999952, -21.266381299999974 ], [ -42.93267649999995, -21.266416499999938 ], [ -42.932614299999962, -21.266450899999946 ], [ -42.932587599999977, -21.26644709999993 ], [ -42.93257459999996, -21.266444099999944 ], [ -42.932515, -21.266395499999927 ], [ -42.932367899999981, -21.266341299999965 ], [ -42.932288199999959, -21.266312299999974 ], [ -42.932195, -21.266286 ], [ -42.932071599999972, -21.266287899999952 ], [ -42.931960399999973, -21.26628849999998 ], [ -42.931841, -21.266287899999952 ], [ -42.931745799999931, -21.266285599999936 ], [ -42.931626899999969, -21.26628119999998 ], [ -42.931524399999944, -21.266288499999987 ], [ -42.931444, -21.266258699999973 ], [ -42.931360699999971, -21.266236199999973 ], [ -42.931239099999971, -21.266176599999941 ], [ -42.931070299999924, -21.266771899999977 ], [ -42.931045399999967, -21.266846699999977 ], [ -42.931036599999977, -21.266914099999951 ], [ -42.930957799999938, -21.267282099999921 ], [ -42.9308516, -21.267818099999932 ], [ -42.930914199999961, -21.268507899999978 ], [ -42.931682699999953, -21.270387 ], [ -42.93230559999995, -21.271210399999973 ], [ -42.932697099999977, -21.271091199999951 ], [ -42.932717899999943, -21.271085099999944 ], [ -42.93275269999998, -21.271214499999925 ], [ -42.932836599999973, -21.271556 ], [ -42.932888, -21.271628 ], [ -42.933063699999934, -21.271774799999942 ], [ -42.933142799999985, -21.271876099999925 ], [ -42.933140499999979, -21.271964899999947 ], [ -42.933106399999986, -21.272047199999967 ], [ -42.932998799999957, -21.27218669999996 ], [ -42.93299479999996, -21.272298299999925 ], [ -42.933018599999976, -21.272345 ], [ -42.933125399999945, -21.272434799999917 ], [ -42.933483899999949, -21.272554299999953 ], [ -42.933685699999948, -21.272552699999949 ], [ -42.933902599999961, -21.272562199999978 ], [ -42.934009399999987, -21.27257719999993 ], [ -42.934035499999936, -21.27259089999994 ], [ -42.93411459999993, -21.272661299999982 ], [ -42.934125299999941, -21.272752199999971 ], [ -42.9342506, -21.272747199999962 ], [ -42.934896099999953, -21.272754799999969 ], [ -42.935919399999925, -21.272773199999957 ], [ -42.936026599999934, -21.27278989999996 ], [ -42.93603829999995, -21.272787599999962 ], [ -42.936590799999983, -21.273500499999948 ], [ -42.936689399999985, -21.273566799999969 ], [ -42.936737499999936, -21.273609299999972 ], [ -42.936813, -21.273719299999986 ], [ -42.936870799999951, -21.273787699999957 ], [ -42.936909299999975, -21.273864 ] ] ], [ [ [ -42.898498099999983, -21.260567 ], [ -42.898378299999933, -21.260593099999927 ], [ -42.898307699999975, -21.260618699999959 ], [ -42.898284399999966, -21.260627099999958 ], [ -42.898249299999975, -21.26063059999996 ], [ -42.89819719999997, -21.260635899999947 ], [ -42.898030599999977, -21.260658799999934 ], [ -42.897861199999966, -21.260668399999929 ], [ -42.897672299999954, -21.260699299999949 ], [ -42.89744369999994, -21.260706299999985 ], [ -42.897234899999937, -21.26071979999994 ], [ -42.897039899999982, -21.26072639999996 ], [ -42.896870899999961, -21.260711 ], [ -42.896841, -21.260798799999982 ], [ -42.896882299999959, -21.260926599999948 ], [ -42.896902799999964, -21.261052899999978 ], [ -42.896878899999926, -21.261110199999962 ], [ -42.896762899999942, -21.261120399999978 ], [ -42.896800699999972, -21.261192 ], [ -42.896844599999952, -21.261310699999964 ], [ -42.896840499999932, -21.261382199999954 ], [ -42.896809699999949, -21.261518699999957 ], [ -42.896816899999983, -21.261607099999932 ], [ -42.896884699999937, -21.261699199999946 ], [ -42.896929599999964, -21.26179719999994 ], [ -42.896933399999973, -21.261951399999926 ], [ -42.897014099999978, -21.261987499999975 ], [ -42.89708, -21.262016799999973 ], [ -42.897122099999933, -21.262152799999971 ], [ -42.897185899999947, -21.262261799999973 ], [ -42.89724249999994, -21.262383099999951 ], [ -42.897279499999968, -21.262502699999967 ], [ -42.897295099999951, -21.262647599999976 ], [ -42.897350799999963, -21.262793199999972 ], [ -42.89733259999997, -21.262860299999947 ], [ -42.897242399999982, -21.262907899999963 ], [ -42.897140599999943, -21.262986799999961 ], [ -42.89703419999995, -21.263072599999926 ], [ -42.896999599999958, -21.263148899999969 ], [ -42.896990799999969, -21.263257599999974 ], [ -42.896971, -21.263378299999939 ], [ -42.896944599999983, -21.263489599999957 ], [ -42.896875199999961, -21.263579699999976 ], [ -42.896769299999967, -21.263603699999969 ], [ -42.896692499999972, -21.263672599999946 ], [ -42.896668799999929, -21.263738399999966 ], [ -42.896618699999983, -21.263840699999939 ], [ -42.896589799999958, -21.26394369999996 ], [ -42.896511699999969, -21.26409 ], [ -42.89644329999993, -21.264176399999929 ], [ -42.896355699999965, -21.264247199999957 ], [ -42.896291, -21.264294599999978 ], [ -42.896205299999963, -21.264384099999958 ], [ -42.896158599999978, -21.264441 ], [ -42.896137499999945, -21.264536199999959 ], [ -42.896115599999973, -21.264608 ], [ -42.896131399999952, -21.264703799999943 ], [ -42.896311199999957, -21.265005 ], [ -42.896397, -21.265128599999969 ], [ -42.89642559999993, -21.265246899999966 ], [ -42.896432599999976, -21.265376199999928 ], [ -42.89642, -21.265509399999932 ], [ -42.896446499999968, -21.265614199999959 ], [ -42.896541799999966, -21.265722499999978 ], [ -42.896637, -21.26583 ], [ -42.896662299999953, -21.265932699999947 ], [ -42.896637699999985, -21.266063599999942 ], [ -42.896610599999981, -21.266148799999954 ], [ -42.896670599999943, -21.266245399999946 ], [ -42.896688299999944, -21.266331899999955 ], [ -42.89667519999994, -21.266411099999974 ], [ -42.896636599999965, -21.266459699999917 ], [ -42.896513199999958, -21.266443399999964 ], [ -42.896384199999943, -21.266445299999926 ], [ -42.896290499999964, -21.266512699999964 ], [ -42.89616829999995, -21.266612 ], [ -42.896087599999937, -21.266675899999949 ], [ -42.895983299999962, -21.266715299999923 ], [ -42.89589239999998, -21.266762899999947 ], [ -42.895861, -21.266843199999983 ], [ -42.895738199999982, -21.266892199999976 ], [ -42.89560379999994, -21.266933 ], [ -42.895564, -21.26698649999997 ], [ -42.895503699999949, -21.267082599999988 ], [ -42.895573599999977, -21.267229399999966 ], [ -42.895580199999984, -21.267350899999936 ], [ -42.895562799999936, -21.267482499999964 ], [ -42.895547, -21.26758139999998 ], [ -42.895627099999956, -21.267698499999931 ], [ -42.895652, -21.267800899999944 ], [ -42.895632599999949, -21.267908899999945 ], [ -42.895579, -21.267975899999957 ], [ -42.895559, -21.268014 ], [ -42.895474099999952, -21.26806 ], [ -42.89544879999994, -21.268131 ], [ -42.895471699999973, -21.268268799999927 ], [ -42.895479699999953, -21.26838819999994 ], [ -42.895495599999947, -21.268467899999962 ], [ -42.895471699999973, -21.268555499999923 ], [ -42.895516099999952, -21.268651199999965 ], [ -42.895564299999933, -21.268811 ], [ -42.895761299999954, -21.268782199999968 ], [ -42.895919299999953, -21.268772199999937 ], [ -42.896019199999948, -21.268779499999926 ], [ -42.896194599999944, -21.268778899999965 ], [ -42.896343099999967, -21.26881109999993 ], [ -42.896461399999971, -21.268838099999986 ], [ -42.896560299999983, -21.268895499999928 ], [ -42.896654899999938, -21.268965199999961 ], [ -42.896797099999958, -21.26916289999998 ], [ -42.897101399999947, -21.269474599999963 ], [ -42.897483899999948, -21.269822799999933 ], [ -42.897563, -21.269897 ], [ -42.897569099999941, -21.269920699999933 ], [ -42.897583, -21.269936799999975 ], [ -42.897590199999968, -21.269961399999939 ], [ -42.89762049999996, -21.269999799999937 ], [ -42.897681699999964, -21.270058899999988 ], [ -42.897874599999973, -21.270135099999941 ], [ -42.898016199999972, -21.270199799999943 ], [ -42.898112099999942, -21.270223599999948 ], [ -42.898261899999966, -21.270283399999983 ], [ -42.898385399999945, -21.270302299999965 ], [ -42.89848649999994, -21.270390899999938 ], [ -42.898531899999966, -21.27047569999996 ], [ -42.898605, -21.2705807 ], [ -42.898708, -21.270665 ], [ -42.898798899999974, -21.270761499999942 ], [ -42.898902699999944, -21.27089459999997 ], [ -42.898982199999985, -21.271010599999958 ], [ -42.899086599999968, -21.271097199999939 ], [ -42.899200299999961, -21.271143599999952 ], [ -42.899329199999954, -21.271150899999959 ], [ -42.899439, -21.271205899999931 ], [ -42.89956049999995, -21.271221199999957 ], [ -42.89969119999995, -21.271213399999962 ], [ -42.899793199999984, -21.271204799999964 ], [ -42.899932799999931, -21.271201499999957 ], [ -42.900051, -21.271201499999957 ], [ -42.90015359999996, -21.271171 ], [ -42.900236799999959, -21.271129699999967 ], [ -42.900372199999936, -21.271117199999942 ], [ -42.900480299999977, -21.271156499999954 ], [ -42.900359099999946, -21.271067 ], [ -42.900283499999951, -21.270999399999937 ], [ -42.900195199999985, -21.270886299999972 ], [ -42.900155599999941, -21.270806299999951 ], [ -42.900183, -21.270749299999981 ], [ -42.900234, -21.270667499999956 ], [ -42.900264, -21.270601399999972 ], [ -42.900293899999951, -21.270487399999979 ], [ -42.900309099999966, -21.270393299999977 ], [ -42.900335599999956, -21.270201599999947 ], [ -42.900360499999977, -21.270098799999968 ], [ -42.900420299999951, -21.269924399999976 ], [ -42.900444, -21.269772099999951 ], [ -42.900482799999963, -21.269697199999943 ], [ -42.900500799999982, -21.269583 ], [ -42.900554499999949, -21.269528899999948 ], [ -42.900633699999958, -21.269476899999976 ], [ -42.900658699999951, -21.269415599999949 ], [ -42.900704599999983, -21.269336499999948 ], [ -42.90075249999996, -21.269252899999966 ], [ -42.900819299999974, -21.269072399999967 ], [ -42.900864899999931, -21.268911799999955 ], [ -42.900918699999977, -21.26873119999993 ], [ -42.900961, -21.26862159999995 ], [ -42.901001199999939, -21.26849679999998 ], [ -42.901043099999988, -21.268412699999949 ], [ -42.901107599999932, -21.268336099999939 ], [ -42.901186499999937, -21.268265499999931 ], [ -42.90126649999997, -21.268196799999945 ], [ -42.901307699999968, -21.268131399999955 ], [ -42.901352299999985, -21.268103699999923 ], [ -42.901433599999962, -21.268009899999974 ], [ -42.901504799999941, -21.267908 ], [ -42.901574699999976, -21.267840499999974 ], [ -42.901541799999961, -21.267738399999921 ], [ -42.901522899999975, -21.267656899999963 ], [ -42.901786499999957, -21.267560799999956 ], [ -42.902040499999941, -21.267488 ], [ -42.902306299999971, -21.267416099999931 ], [ -42.901872799999985, -21.266513799999927 ], [ -42.901866899999959, -21.266482 ], [ -42.90098809999995, -21.265265599999953 ], [ -42.9002771, -21.263968099999936 ], [ -42.900159099999946, -21.263317899999944 ], [ -42.901525099999958, -21.263101 ], [ -42.901556299999989, -21.261996299999957 ], [ -42.9015414, -21.261089099999928 ], [ -42.901373399999954, -21.260693199999935 ], [ -42.901322499999928, -21.260499299999932 ], [ -42.901196399999947, -21.260018799999958 ], [ -42.900860199999961, -21.260058599999979 ], [ -42.900523799999974, -21.260118 ], [ -42.900352399999989, -21.260149499999951 ], [ -42.900202499999978, -21.2601984 ], [ -42.900052, -21.260238099999981 ], [ -42.899960199999953, -21.260276 ], [ -42.899942499999952, -21.260315699999968 ], [ -42.899880099999969, -21.260341799999928 ], [ -42.899806299999966, -21.260364399999965 ], [ -42.899756899999943, -21.260401 ], [ -42.899673, -21.260402799999941 ], [ -42.89952459999995, -21.260412699999961 ], [ -42.899414399999955, -21.260392199999945 ], [ -42.899335, -21.260403099999962 ], [ -42.899111299999952, -21.260425599999952 ], [ -42.898905899999939, -21.260444399999976 ], [ -42.89866539999997, -21.260510799999967 ], [ -42.898498099999983, -21.260567 ] ] ] ] } }
]
}
