{
"type": "FeatureCollection",
"name": "3107109",
"crs": { "type": "name", "properties": { "name": "urn:ogc:def:crs:OGC:1.3:CRS84" } },
"features": [
{ "type": "Feature", "properties": { "CD_MUN": "3107109", "NM_MUN": "Boa Esperança" }, "geometry": { "type": "MultiPolygon", "coordinates": [ [ [ [ -45.556881699999963, -21.11546509999993 ], [ -45.557229799999959, -21.11482409999995 ], [ -45.558803599999976, -21.115410699999934 ], [ -45.558704299999931, -21.115782199999934 ], [ -45.559042899999959, -21.115987099999924 ], [ -45.559034899999965, -21.117756399999969 ], [ -45.559940099999949, -21.117809299999973 ], [ -45.561737899999969, -21.117209 ], [ -45.562553599999944, -21.116725299999924 ], [ -45.563679799999932, -21.115157899999929 ], [ -45.564254, -21.114481799999954 ], [ -45.567736699999955, -21.112990199999942 ], [ -45.57010079999997, -21.1129395 ], [ -45.571699899999949, -21.112162799999968 ], [ -45.571663399999977, -21.111974099999934 ], [ -45.571575299999949, -21.111518499999931 ], [ -45.571519599999931, -21.110694499999962 ], [ -45.571537599999942, -21.109766699999955 ], [ -45.571582499999977, -21.109322699999943 ], [ -45.571605599999941, -21.109122 ], [ -45.5718007, -21.107726499999963 ], [ -45.572029499999985, -21.106148799999968 ], [ -45.572046299999961, -21.105858 ], [ -45.572067799999964, -21.105713399999964 ], [ -45.572110799999969, -21.105340499999961 ], [ -45.572174799999971, -21.104864599999939 ], [ -45.57227869999997, -21.104289199999982 ], [ -45.572429499999942, -21.10325279999994 ], [ -45.572435499999983, -21.103083399999942 ], [ -45.572481, -21.102684299999954 ], [ -45.572627299999965, -21.101650199999931 ], [ -45.57275379999993, -21.10066449999994 ], [ -45.572825599999938, -21.10008949999996 ], [ -45.573130699999972, -21.097977399999937 ], [ -45.57327139999996, -21.09698939999992 ], [ -45.573313699999972, -21.096735 ], [ -45.573405699999967, -21.096371 ], [ -45.573454599999934, -21.09618259999997 ], [ -45.57362279999996, -21.095743099999932 ], [ -45.573826499999939, -21.095292799999964 ], [ -45.57397339999995, -21.095046 ], [ -45.574096799999957, -21.094848199999944 ], [ -45.57409819999998, -21.094846499999942 ], [ -45.574305899999956, -21.094535 ], [ -45.5745649, -21.094193199999943 ], [ -45.575065899999977, -21.093684499999931 ], [ -45.576305, -21.092474699999979 ], [ -45.576692199999968, -21.092127199999936 ], [ -45.577010599999944, -21.09183349999995 ], [ -45.577584899999977, -21.091306299999932 ], [ -45.578186399999936, -21.090756599999956 ], [ -45.57844359999995, -21.090432599999918 ], [ -45.578497399999947, -21.090267599999947 ], [ -45.578592599999979, -21.090361099999932 ], [ -45.578759199999979, -21.090487 ], [ -45.57893009999998, -21.090447099999952 ], [ -45.578985399999965, -21.090424599999942 ], [ -45.579045599999972, -21.090435799999963 ], [ -45.579181399999989, -21.090422399999962 ], [ -45.579556799999978, -21.090432799999967 ], [ -45.579714899999949, -21.090465599999959 ], [ -45.580261899999982, -21.09061429999997 ], [ -45.580456, -21.090660199999945 ], [ -45.580781899999977, -21.090678699999948 ], [ -45.581233, -21.090643099999966 ], [ -45.581655899999923, -21.09055949999992 ], [ -45.582070499999986, -21.090484699999941 ], [ -45.582238799999971, -21.090454299999976 ], [ -45.583013599999958, -21.090324499999948 ], [ -45.583828899999958, -21.090182099999932 ], [ -45.584790099999964, -21.08999839999996 ], [ -45.585208199999954, -21.089834799999938 ], [ -45.58558869999996, -21.089625399999925 ], [ -45.586445499999968, -21.089032699999962 ], [ -45.588340499999958, -21.087687399999936 ], [ -45.587457199999967, -21.086667699999957 ], [ -45.586496499999953, -21.085706499999961 ], [ -45.586079799999936, -21.085089199999963 ], [ -45.585467799999947, -21.084390299999942 ], [ -45.585084299999949, -21.083641499999938 ], [ -45.584821599999941, -21.08311139999995 ], [ -45.584533499999971, -21.082603499999948 ], [ -45.5842737, -21.082284399999921 ], [ -45.584073299999943, -21.081941 ], [ -45.583767099999932, -21.081623399999948 ], [ -45.583579499999985, -21.081412299999947 ], [ -45.583365599999979, -21.081229 ], [ -45.583145799999954, -21.081087399999941 ], [ -45.583009199999935, -21.080954599999924 ], [ -45.582784599999968, -21.080785699999964 ], [ -45.582359, -21.080587299999927 ], [ -45.582164599999942, -21.080419899999978 ], [ -45.582001399999967, -21.080076899999924 ], [ -45.581851399999948, -21.080025499999966 ], [ -45.581731099999963, -21.079991499999949 ], [ -45.581549199999984, -21.079424 ], [ -45.581146, -21.079334199999952 ], [ -45.580962199999931, -21.079173399999934 ], [ -45.580705899999948, -21.07895479999997 ], [ -45.580465899999986, -21.078784399999957 ], [ -45.580134, -21.078696099999938 ], [ -45.57992, -21.078663199999923 ], [ -45.579481499999986, -21.078915799999944 ], [ -45.579234199999973, -21.078790499999958 ], [ -45.578979699999934, -21.07873869999997 ], [ -45.57876959999993, -21.078724899999941 ], [ -45.5785542, -21.078801 ], [ -45.578359199999973, -21.07889959999995 ], [ -45.577824799999981, -21.078899 ], [ -45.57759139999996, -21.078962099999952 ], [ -45.577414599999948, -21.078845699999924 ], [ -45.577261299999982, -21.078866299999941 ], [ -45.577308499999958, -21.075387399999943 ], [ -45.577140099999951, -21.075435199999951 ], [ -45.576958699999985, -21.075540499999935 ], [ -45.576766299999967, -21.075671199999928 ], [ -45.576671899999951, -21.075777399999929 ], [ -45.576527499999941, -21.075843799999973 ], [ -45.576296799999973, -21.075933899999924 ], [ -45.575951899999957, -21.076055399999962 ], [ -45.575360099999962, -21.076257299999948 ], [ -45.574196, -21.076653899999922 ], [ -45.573284399999977, -21.076972699999946 ], [ -45.572924399999984, -21.077097199999958 ], [ -45.572599499999974, -21.077278799999931 ], [ -45.572394699999961, -21.077410899999958 ], [ -45.572113099999974, -21.077614399999955 ], [ -45.572025199999985, -21.077628499999953 ], [ -45.572002899999973, -21.077641399999941 ], [ -45.571927599999981, -21.077644599999928 ], [ -45.571962099999951, -21.077527499999967 ], [ -45.572042099999983, -21.077255499999982 ], [ -45.572160299999958, -21.07687159999994 ], [ -45.572289199999943, -21.076434499999937 ], [ -45.572471499999949, -21.075804399999985 ], [ -45.572785099999976, -21.074669499999967 ], [ -45.573135499999978, -21.07337729999993 ], [ -45.573448, -21.072336799999967 ], [ -45.57371889999996, -21.071550499999937 ], [ -45.57380749999993, -21.071296699999948 ], [ -45.574069299999962, -21.070389299999942 ], [ -45.574363399999982, -21.06947509999998 ], [ -45.574669099999937, -21.068588499999986 ], [ -45.574766, -21.068311599999955 ], [ -45.574829199999947, -21.068191 ], [ -45.5748981, -21.068104399999989 ], [ -45.575017, -21.06795829999993 ], [ -45.575152199999934, -21.06780619999995 ], [ -45.575347799999975, -21.067636299999947 ], [ -45.575549699999954, -21.067510099999943 ], [ -45.575997899999948, -21.067255799999934 ], [ -45.576902299999972, -21.066746399999946 ], [ -45.577544699999976, -21.066455099999921 ], [ -45.577578599999981, -21.066420599999958 ], [ -45.576247499999965, -21.065470799999954 ], [ -45.57463139999993, -21.066320899999933 ], [ -45.568311699999988, -21.066701199999958 ], [ -45.568235099999974, -21.065405099999953 ], [ -45.566795199999945, -21.06592929999994 ], [ -45.561774699999944, -21.06950859999996 ], [ -45.561851099999956, -21.069852699999959 ], [ -45.562217099999941, -21.070262299999957 ], [ -45.562621199999967, -21.070677299999932 ], [ -45.562828699999962, -21.071070499999948 ], [ -45.562916099999939, -21.071485599999964 ], [ -45.562796, -21.071911599999968 ], [ -45.563232899999939, -21.072212 ], [ -45.563855499999931, -21.073309699999985 ], [ -45.564118, -21.074333399999947 ], [ -45.564347, -21.075226599999954 ], [ -45.564401599999947, -21.075543399999958 ], [ -45.564762, -21.075707199999954 ], [ -45.565335499999954, -21.075980299999962 ], [ -45.565777899999944, -21.076013 ], [ -45.565958099999932, -21.07581639999994 ], [ -45.56604, -21.07537949999994 ], [ -45.566362199999951, -21.075390499999976 ], [ -45.566771799999962, -21.075821899999941 ], [ -45.567099499999983, -21.076482699999918 ], [ -45.567034, -21.076766699999951 ], [ -45.567170499999982, -21.076968799999975 ], [ -45.567427199999941, -21.077269199999936 ], [ -45.567738499999962, -21.077411199999968 ], [ -45.568000599999948, -21.07762959999997 ], [ -45.567969, -21.078184199999953 ], [ -45.56779309999996, -21.078514299999934 ], [ -45.567787599999974, -21.078782 ], [ -45.568000599999948, -21.079000399999924 ], [ -45.568322, -21.079185099999968 ], [ -45.569027399999982, -21.079191599999952 ], [ -45.569535299999977, -21.078792899999936 ], [ -45.570720399999971, -21.078339599999939 ], [ -45.571048799999978, -21.078438799999962 ], [ -45.571250099999986, -21.07868359999998 ], [ -45.571596199999938, -21.078970099999943 ], [ -45.571582199999966, -21.079037499999981 ], [ -45.571526499999948, -21.079453199999929 ], [ -45.571447399999954, -21.08035839999997 ], [ -45.571322399999978, -21.081743099999986 ], [ -45.57126, -21.082525499999974 ], [ -45.571247, -21.082689099999975 ], [ -45.571243, -21.08291549999996 ], [ -45.571200199999964, -21.08291759999997 ], [ -45.570916099999977, -21.082915499999952 ], [ -45.570776499999965, -21.082935799999976 ], [ -45.570611899999953, -21.082907199999962 ], [ -45.570401899999986, -21.083007399999921 ], [ -45.570196799999955, -21.083088499999977 ], [ -45.56997489999997, -21.083119499999942 ], [ -45.56984129999995, -21.083224499999965 ], [ -45.569679199999932, -21.083224399999953 ], [ -45.569564599999978, -21.083384299999981 ], [ -45.569642899999963, -21.083669099999948 ], [ -45.569686199999978, -21.083851899999946 ], [ -45.569736699999964, -21.083994799999967 ], [ -45.570057199999951, -21.084361299999951 ], [ -45.570152599999972, -21.084537799999957 ], [ -45.570248099999958, -21.084852699999935 ], [ -45.570257599999934, -21.085105599999959 ], [ -45.570350699999956, -21.085443099999964 ], [ -45.570368499999972, -21.085719899999955 ], [ -45.570318399999969, -21.085999 ], [ -45.570122799999979, -21.086385499999949 ], [ -45.569970099999985, -21.086333 ], [ -45.56994149999997, -21.086397399999949 ], [ -45.570025, -21.086497599999973 ], [ -45.570211099999931, -21.086826899999942 ], [ -45.570481099999945, -21.087243099999974 ], [ -45.57041959999998, -21.087289599999956 ], [ -45.57033, -21.087295199999975 ], [ -45.570201199999985, -21.087328799999963 ], [ -45.570111599999962, -21.087435199999952 ], [ -45.570005199999969, -21.08749679999994 ], [ -45.569870899999962, -21.087575199999954 ], [ -45.569764499999955, -21.087681599999939 ], [ -45.569674899999939, -21.08777119999996 ], [ -45.56960209999994, -21.087821599999938 ], [ -45.569364099999973, -21.087966599999952 ], [ -45.569288499999978, -21.087983899999927 ], [ -45.569193299999938, -21.087939199999933 ], [ -45.569078599999948, -21.087891099999975 ], [ -45.568961799999954, -21.087875599999968 ], [ -45.568681599999941, -21.087867799999959 ], [ -45.568533699999932, -21.087875599999961 ], [ -45.568409099999947, -21.087914499999947 ], [ -45.568292299999939, -21.087969 ], [ -45.568253399999946, -21.088054599999957 ], [ -45.567965399999935, -21.088194699999974 ], [ -45.567825299999981, -21.088280299999955 ], [ -45.567724099999964, -21.088327099999958 ], [ -45.567397099999937, -21.088490499999978 ], [ -45.567292799999962, -21.088549899999979 ], [ -45.567218099999934, -21.088591699999931 ], [ -45.567007899999965, -21.08868509999996 ], [ -45.566525299999967, -21.088801899999964 ], [ -45.56633069999998, -21.088840799999961 ], [ -45.566218299999946, -21.088847499999918 ], [ -45.56598809999997, -21.088825299999939 ], [ -45.56556779999994, -21.088817499999941 ], [ -45.56521749999996, -21.0887552 ], [ -45.564882699999941, -21.088646199999978 ], [ -45.56461029999997, -21.088521699999948 ], [ -45.564174399999956, -21.088381499999965 ], [ -45.563956399999938, -21.088272599999986 ], [ -45.563800699999945, -21.088210299999947 ], [ -45.563598299999967, -21.088179099999941 ], [ -45.563395899999932, -21.08816359999998 ], [ -45.563209099999945, -21.088116899999935 ], [ -45.562703099999965, -21.088124699999984 ], [ -45.562446199999961, -21.08810909999994 ], [ -45.562228199999929, -21.088093499999946 ], [ -45.561971399999948, -21.088116899999932 ], [ -45.561667799999952, -21.08810909999994 ], [ -45.561154, -21.088124699999987 ], [ -45.560881499999937, -21.088054599999968 ], [ -45.560453399999979, -21.087976699999953 ], [ -45.560157599999968, -21.08793 ], [ -45.559776099999965, -21.087906699999962 ], [ -45.559527, -21.087883299999927 ], [ -45.559184499999958, -21.087867799999959 ], [ -45.559035599999966, -21.087862799999975 ], [ -45.558951, -21.08786 ], [ -45.558787499999944, -21.087813299999922 ], [ -45.558639599999935, -21.08781329999994 ], [ -45.558401499999945, -21.087819899999939 ], [ -45.558328199999956, -21.087844399999941 ], [ -45.558157, -21.087937799999953 ], [ -45.55788449999995, -21.087953399999943 ], [ -45.5577833, -21.087953399999943 ], [ -45.557658799999963, -21.087891099999968 ], [ -45.557549799999947, -21.087797699999943 ], [ -45.557503099999963, -21.087665399999931 ], [ -45.55751859999998, -21.087556399999976 ], [ -45.557689899999957, -21.087416299999965 ], [ -45.557822199999976, -21.087330599999966 ], [ -45.557892299999935, -21.087252799999934 ], [ -45.557943799999975, -21.08717229999996 ], [ -45.557977899999976, -21.087089299999938 ], [ -45.558009099999929, -21.086871399999957 ], [ -45.558009099999929, -21.086669 ], [ -45.55786889999996, -21.086443199999962 ], [ -45.557713299999939, -21.086427599999968 ], [ -45.557440799999938, -21.086451 ], [ -45.557191699999976, -21.08654439999998 ], [ -45.557020399999942, -21.08656 ], [ -45.556802499999947, -21.086637799999959 ], [ -45.556545599999943, -21.086700099999959 ], [ -45.556382099999951, -21.086723499999948 ], [ -45.556262099999977, -21.086801699999953 ], [ -45.555961799999984, -21.086863599999958 ], [ -45.555782699999952, -21.08685579999997 ], [ -45.555463599999946, -21.08716719999995 ], [ -45.555331199999955, -21.087283899999921 ], [ -45.555253399999977, -21.087439599999978 ], [ -45.555214399999954, -21.087626399999984 ], [ -45.555121, -21.087719899999971 ], [ -45.555095199999982, -21.087726 ], [ -45.554988699999974, -21.087751 ], [ -45.554864099999975, -21.087688699999941 ], [ -45.554794099999981, -21.087572 ], [ -45.554786299999932, -21.087455199999969 ], [ -45.554716199999973, -21.087354 ], [ -45.554615, -21.087237199999954 ], [ -45.554218, -21.086972599999964 ], [ -45.554015599999964, -21.08694139999994 ], [ -45.553416199999958, -21.086793499999953 ], [ -45.552855799999982, -21.086583299999962 ], [ -45.552536599999939, -21.086513299999979 ], [ -45.552248599999984, -21.086412099999961 ], [ -45.552108399999959, -21.086318699999932 ], [ -45.551952799999981, -21.086256399999968 ], [ -45.551742599999955, -21.086240799999928 ], [ -45.551633599999946, -21.08613959999996 ], [ -45.551361099999951, -21.08606959999997 ], [ -45.551151, -21.086030599999962 ], [ -45.55086289999997, -21.085890499999941 ], [ -45.550754, -21.085804899999975 ], [ -45.550606, -21.08575819999994 ], [ -45.550419199999965, -21.085734799999958 ], [ -45.55023239999997, -21.085680299999982 ], [ -45.550132, -21.085411 ], [ -45.549778, -21.085378099999964 ], [ -45.549421099999961, -21.085320299999978 ], [ -45.549006199999951, -21.085418799999953 ], [ -45.548843799999986, -21.085119899999931 ], [ -45.5486, -21.085085699999983 ], [ -45.548252099999956, -21.084857499999945 ], [ -45.548222199999941, -21.084200199999927 ], [ -45.547694199999967, -21.083306499999939 ], [ -45.547580399999958, -21.082831299999949 ], [ -45.547625099999948, -21.082339799999936 ], [ -45.547755099999961, -21.081957899999967 ], [ -45.54750329999996, -21.081568 ], [ -45.547149899999965, -21.081368899999966 ], [ -45.546865499999974, -21.081393299999945 ], [ -45.546313099999963, -21.081576099999939 ], [ -45.54573629999993, -21.081628899999927 ], [ -45.545521, -21.08164109999996 ], [ -45.54493419999995, -21.081543899999929 ], [ -45.54488269999996, -21.081553499999931 ], [ -45.544813, -21.081570699999936 ], [ -45.544743299999936, -21.081587899999928 ], [ -45.54357239999996, -21.082365599999946 ], [ -45.542337099999941, -21.082960299999961 ], [ -45.541748799999937, -21.083436 ], [ -45.541327199999955, -21.084140299999927 ], [ -45.540611499999955, -21.084716699999937 ], [ -45.54010169999998, -21.085046 ], [ -45.539807599999961, -21.084936199999962 ], [ -45.539307599999972, -21.08508259999995 ], [ -45.539203799999939, -21.085168199999941 ], [ -45.538837, -21.085521699999944 ], [ -45.538464399999953, -21.085741199999966 ], [ -45.537076599999978, -21.086177599999917 ], [ -45.536689799999984, -21.086299199999925 ], [ -45.535160399999938, -21.087406099999953 ], [ -45.534072099999946, -21.088092199999938 ], [ -45.533728899999979, -21.088055599999951 ], [ -45.532944599999951, -21.088631899999935 ], [ -45.530993499999965, -21.088586199999948 ], [ -45.530973899999942, -21.089217299999977 ], [ -45.531532799999987, -21.089693 ], [ -45.533376, -21.09112 ], [ -45.535895699999976, -21.093585299999972 ], [ -45.535415299999954, -21.094692099999975 ], [ -45.53489559999997, -21.095515299999935 ], [ -45.534805799999958, -21.095940699999968 ], [ -45.534731299999976, -21.095898599999934 ], [ -45.534070099999951, -21.097460799999968 ], [ -45.53330809999995, -21.09854509999996 ], [ -45.534982, -21.099139499999971 ], [ -45.535650499999981, -21.099845099999968 ], [ -45.535627799999986, -21.100910299999963 ], [ -45.535237, -21.101429399999979 ], [ -45.535421099999951, -21.101580099999978 ], [ -45.53608, -21.102361399999953 ], [ -45.536809099999978, -21.10284769999992 ], [ -45.537784799999947, -21.103082899999933 ], [ -45.537413299999969, -21.10515329999993 ], [ -45.538384699999945, -21.106381599999967 ], [ -45.538491399999948, -21.106730099999936 ], [ -45.538833499999953, -21.107137199999944 ], [ -45.538902, -21.107227499999965 ], [ -45.540105799999942, -21.10889179999997 ], [ -45.541088399999978, -21.109956799999964 ], [ -45.541318499999932, -21.110100299999946 ], [ -45.542249, -21.109486199999925 ], [ -45.543197, -21.110635899999981 ], [ -45.545230899999979, -21.109320499999953 ], [ -45.544607499999984, -21.112147199999978 ], [ -45.544006799999977, -21.112799 ], [ -45.545152099999939, -21.113418199999966 ], [ -45.544436099999984, -21.113878499999934 ], [ -45.545163499999951, -21.115763099999974 ], [ -45.546116399999967, -21.116932 ], [ -45.546045799999945, -21.115532799999983 ], [ -45.546608599999963, -21.114737499999944 ], [ -45.546797199999958, -21.114474599999937 ], [ -45.546969899999958, -21.11424349999993 ], [ -45.547046399999942, -21.11414469999993 ], [ -45.547203499999974, -21.113959099999928 ], [ -45.54741839999997, -21.113769599999955 ], [ -45.548721199999932, -21.115807199999953 ], [ -45.553166099999942, -21.113391199999949 ], [ -45.553051399999958, -21.113956699999946 ], [ -45.556881699999963, -21.11546509999993 ] ] ], [ [ [ -45.528349499999933, -21.075077599999922 ], [ -45.529240799999968, -21.076075699999929 ], [ -45.530013299999951, -21.076768699999935 ], [ -45.530239399999978, -21.076894 ], [ -45.53047719999995, -21.076603399999961 ], [ -45.530823299999945, -21.076863 ], [ -45.531905, -21.077122599999939 ], [ -45.532683799999973, -21.077339 ], [ -45.533203, -21.077641799999974 ], [ -45.534068299999944, -21.077685099999936 ], [ -45.534933699999954, -21.077512 ], [ -45.535366299999957, -21.077295699999972 ], [ -45.535799, -21.077339 ], [ -45.536794099999945, -21.077641799999974 ], [ -45.537270099999944, -21.077771599999934 ], [ -45.538135399999931, -21.077555299999965 ], [ -45.539044, -21.077858199999973 ], [ -45.540601599999952, -21.077728399999941 ], [ -45.540904499999961, -21.077858199999969 ], [ -45.542543, -21.078363399999944 ], [ -45.543065799999972, -21.078515399999951 ], [ -45.5434049, -21.078725699999936 ], [ -45.543751699999973, -21.078983099999952 ], [ -45.544380699999984, -21.079685299999927 ], [ -45.544832799999938, -21.080226 ], [ -45.546509699999952, -21.079785799999961 ], [ -45.547712299999944, -21.07870929999995 ], [ -45.548647499999966, -21.079029099999957 ], [ -45.550344699999982, -21.080537899999968 ], [ -45.55181239999996, -21.07842119999998 ], [ -45.552930899999978, -21.077241399999927 ], [ -45.554108499999984, -21.075724099999942 ], [ -45.554605399999964, -21.074226199999941 ], [ -45.554782799999941, -21.072676799999964 ], [ -45.555615099999955, -21.071550399999975 ], [ -45.554277299999974, -21.07013069999994 ], [ -45.553488099999981, -21.068683399999937 ], [ -45.552979, -21.068465699999926 ], [ -45.551701499999986, -21.068521099999938 ], [ -45.550750799999953, -21.068535 ], [ -45.54977039999995, -21.068742899999958 ], [ -45.549116799999979, -21.068618099999984 ], [ -45.548492799999963, -21.068424099999948 ], [ -45.548017499999958, -21.06825769999995 ], [ -45.546754799999974, -21.067925 ], [ -45.545581299999981, -21.067814099999957 ], [ -45.54428889999997, -21.067481499999928 ], [ -45.543769, -21.067426 ], [ -45.542656, -21.067463399999955 ], [ -45.541704099999947, -21.067495299999958 ], [ -45.541733799999975, -21.068035899999916 ], [ -45.541776299999988, -21.068808599999961 ], [ -45.541793299999938, -21.06911719999993 ], [ -45.541511, -21.069436 ], [ -45.541462799999977, -21.06958469999995 ], [ -45.541317899999967, -21.070032 ], [ -45.54124359999998, -21.07060039999994 ], [ -45.540931699999931, -21.071002399999944 ], [ -45.5408743, -21.071089299999983 ], [ -45.540855299999969, -21.071120099999959 ], [ -45.53988819999995, -21.070904 ], [ -45.537035899999978, -21.071226799999966 ], [ -45.535707699999939, -21.071423 ], [ -45.532426899999962, -21.072189399999953 ], [ -45.530709599999973, -21.072554299999965 ], [ -45.52979849999997, -21.072855099999963 ], [ -45.529159799999945, -21.073344899999935 ], [ -45.528111299999978, -21.074674699999925 ], [ -45.528349499999933, -21.075077599999922 ] ] ] ] } }
]
}
