{
"type": "FeatureCollection",
"name": "3110004",
"crs": { "type": "name", "properties": { "name": "urn:ogc:def:crs:OGC:1.3:CRS84" } },
"features": [
{ "type": "Feature", "properties": { "CD_MUN": "3110004", "NM_MUN": "Caeté" }, "geometry": { "type": "MultiPolygon", "coordinates": [ [ [ [ -43.699590099999973, -19.950711299999959 ], [ -43.699447599999985, -19.950768099999948 ], [ -43.699361599999975, -19.950835099999956 ], [ -43.699230899999982, -19.951002699999947 ], [ -43.699075199999982, -19.951152499999981 ], [ -43.698953299999971, -19.951317699999951 ], [ -43.698820799999964, -19.951469199999973 ], [ -43.698692699999981, -19.951590799999963 ], [ -43.698649799999941, -19.951620599999956 ], [ -43.698607899999956, -19.951642599999964 ], [ -43.698565099999939, -19.951647399999956 ], [ -43.698514, -19.951643099999959 ], [ -43.698263899999965, -19.951587799999967 ], [ -43.69822129999995, -19.951583899999946 ], [ -43.698192099999964, -19.951604799999927 ], [ -43.698175, -19.951680199999949 ], [ -43.698168499999952, -19.951699699999949 ], [ -43.698162299999979, -19.951718399999951 ], [ -43.695933399999937, -19.953282099999964 ], [ -43.695195899999931, -19.953868 ], [ -43.68959289999998, -19.957704099999948 ], [ -43.689567599999982, -19.957955099999928 ], [ -43.689371699999988, -19.958125699999982 ], [ -43.689106299999935, -19.958302599999961 ], [ -43.688885199999959, -19.958479499999942 ], [ -43.688777699999946, -19.958650099999947 ], [ -43.688777699999946, -19.959174599999987 ], [ -43.689049399999931, -19.959383099999975 ], [ -43.689561199999964, -19.959471599999969 ], [ -43.690231, -19.960420899999978 ], [ -43.690742799999953, -19.9604715 ], [ -43.691254599999979, -19.960256599999976 ], [ -43.691703199999957, -19.959921799999972 ], [ -43.692006499999934, -19.95953 ], [ -43.692758399999953, -19.959403599999973 ], [ -43.692941699999949, -19.959346799999935 ], [ -43.693188099999936, -19.959113 ], [ -43.693390299999983, -19.958746499999961 ], [ -43.69351039999998, -19.958474799999983 ], [ -43.693660099999938, -19.958317799999971 ], [ -43.693769399999951, -19.958665199999938 ], [ -43.693771699999957, -19.958911299999951 ], [ -43.693571299999981, -19.959489799999979 ], [ -43.693602099999971, -19.960234 ], [ -43.693711099999973, -19.960805699999984 ], [ -43.694021599999985, -19.961330199999963 ], [ -43.694419699999969, -19.961882199999941 ], [ -43.694589199999932, -19.962173899999978 ], [ -43.694632499999955, -19.962612599999947 ], [ -43.694612899999981, -19.96305179999997 ], [ -43.694495399999944, -19.963657199999954 ], [ -43.694434799999954, -19.964123099999934 ], [ -43.694568, -19.96453889999998 ], [ -43.694787799999979, -19.965051699999943 ], [ -43.694987099999942, -19.965363299999979 ], [ -43.6951567, -19.965675399999949 ], [ -43.695548199999969, -19.965937799999963 ], [ -43.695888099999927, -19.96605529999994 ], [ -43.696155699999963, -19.965897899999963 ], [ -43.696273299999973, -19.965747499999978 ], [ -43.696336899999949, -19.965093399999951 ], [ -43.6961702, -19.964485899999943 ], [ -43.695753499999967, -19.963963099999951 ], [ -43.69556689999996, -19.963697199999952 ], [ -43.695479, -19.963462799999945 ], [ -43.695504099999944, -19.962883699999963 ], [ -43.6954219, -19.962262299999967 ], [ -43.695217099999979, -19.961858799999963 ], [ -43.694980099999952, -19.961516399999937 ], [ -43.694759499999982, -19.961161 ], [ -43.694514799999972, -19.960669 ], [ -43.694376799999937, -19.960215699999946 ], [ -43.694285499999978, -19.959734299999976 ], [ -43.69435469999997, -19.959162099999965 ], [ -43.694308799999931, -19.958546799999969 ], [ -43.694307799999933, -19.958035399999961 ], [ -43.694520499999953, -19.957688499999964 ], [ -43.694699699999937, -19.957348299999982 ], [ -43.69501669999994, -19.957021099999952 ], [ -43.695399099999975, -19.956753499999934 ], [ -43.695936299999971, -19.956580399999943 ], [ -43.696513299999943, -19.95649 ], [ -43.696828599999954, -19.956351699999974 ], [ -43.697135599999967, -19.956082199999965 ], [ -43.697574599999939, -19.955534499999949 ], [ -43.697897099999977, -19.955100099999985 ], [ -43.70337619999998, -19.957534699999933 ], [ -43.703686599999969, -19.957651099999957 ], [ -43.703866399999981, -19.957651099999953 ], [ -43.703939299999938, -19.957651099999961 ], [ -43.708876799999985, -19.956025499999946 ], [ -43.708988899999952, -19.955967099999949 ], [ -43.709072699999979, -19.955794899999947 ], [ -43.709087199999949, -19.955706699999951 ], [ -43.709003, -19.955454 ], [ -43.70888919999993, -19.955188599999914 ], [ -43.708737599999957, -19.954990599999977 ], [ -43.708546299999966, -19.954854 ], [ -43.708404, -19.954738299999985 ], [ -43.708260599999967, -19.954666499999973 ], [ -43.707954799999989, -19.954589799999944 ], [ -43.707340399999964, -19.954548 ], [ -43.706933699999979, -19.954542 ], [ -43.706594499999945, -19.954396099999929 ], [ -43.706115899999929, -19.953938099999963 ], [ -43.705800099999976, -19.953700099999935 ], [ -43.70545409999994, -19.953537099999949 ], [ -43.705117599999937, -19.953476699999946 ], [ -43.704603399999939, -19.953154399999963 ], [ -43.704461599999945, -19.952729599999927 ], [ -43.704301899999969, -19.952310199999932 ], [ -43.703920099999948, -19.952001 ], [ -43.703475699999963, -19.951641099999964 ], [ -43.702990899999968, -19.951248499999956 ], [ -43.702498599999963, -19.950849799999947 ], [ -43.702292199999931, -19.95066519999995 ], [ -43.702264399999933, -19.950660499999969 ], [ -43.702235099999932, -19.950662199999957 ], [ -43.702211299999924, -19.950665399999934 ], [ -43.702191899999953, -19.950679599999937 ], [ -43.701982699999974, -19.950888599999935 ], [ -43.701930399999981, -19.950961899999974 ], [ -43.701846, -19.951015899999962 ], [ -43.701701599999978, -19.951044899999943 ], [ -43.701410499999952, -19.951126699999964 ], [ -43.70113629999998, -19.951261599999942 ], [ -43.700955599999936, -19.951472299999981 ], [ -43.700852299999958, -19.951743199999949 ], [ -43.700720499999932, -19.951992799999957 ], [ -43.700620699999945, -19.952044099999959 ], [ -43.7004965, -19.951988699999962 ], [ -43.700449399999961, -19.951898599999936 ], [ -43.700440799999974, -19.951695499999964 ], [ -43.700272299999938, -19.951171799999941 ], [ -43.700052699999951, -19.950865 ], [ -43.699911199999974, -19.950743299999928 ], [ -43.699761299999984, -19.950713499999935 ], [ -43.699590099999973, -19.950711299999959 ] ] ], [ [ [ -43.614211599999976, -19.916262899999939 ], [ -43.614012899999977, -19.916029 ], [ -43.613923399999976, -19.915963699999963 ], [ -43.613720299999954, -19.915804699999967 ], [ -43.613652899999984, -19.915716899999936 ], [ -43.613521499999941, -19.915606299999979 ], [ -43.613374199999953, -19.915468399999941 ], [ -43.613205599999958, -19.915327199999975 ], [ -43.613033299999984, -19.915182199999954 ], [ -43.61273529999994, -19.915025499999953 ], [ -43.612356299999938, -19.914926799999925 ], [ -43.612009399999977, -19.914883 ], [ -43.61176829999993, -19.914681299999934 ], [ -43.6116378, -19.914452099999941 ], [ -43.611437799999976, -19.914276699999949 ], [ -43.611154599999971, -19.914083699999921 ], [ -43.6109929, -19.913937599999947 ], [ -43.610890599999948, -19.91363889999996 ], [ -43.610699599999975, -19.91337859999992 ], [ -43.610364299999965, -19.913146599999958 ], [ -43.610225, -19.912821 ], [ -43.610048399999982, -19.912568499999967 ], [ -43.610012499999982, -19.912357699999962 ], [ -43.6099311, -19.912073099999933 ], [ -43.609831599999957, -19.911797499999988 ], [ -43.60975, -19.911163 ], [ -43.609666599999976, -19.910970499999948 ], [ -43.609562299999936, -19.910640299999951 ], [ -43.609544899999946, -19.910311 ], [ -43.60951, -19.910023 ], [ -43.609475799999984, -19.909857299999949 ], [ -43.609226799999938, -19.909871399999926 ], [ -43.609171699999933, -19.909863599999934 ], [ -43.60903159999998, -19.909843599999942 ], [ -43.608807, -19.909843599999935 ], [ -43.608468099999989, -19.909851299999954 ], [ -43.608121, -19.909835899999958 ], [ -43.607769899999937, -19.909816699999965 ], [ -43.607492199999967, -19.909866699999945 ], [ -43.607324799999965, -19.909908899999945 ], [ -43.607365599999987, -19.910338899999939 ], [ -43.607447299999933, -19.910615299999964 ], [ -43.607635099999989, -19.910822599999957 ], [ -43.607720899999947, -19.911195 ], [ -43.607839299999974, -19.911648 ], [ -43.608023, -19.911928199999977 ], [ -43.608337399999989, -19.912281399999934 ], [ -43.608472199999937, -19.912492599999947 ], [ -43.608615099999952, -19.912719099999951 ], [ -43.608753899999961, -19.912884099999921 ], [ -43.608954, -19.913068399999936 ], [ -43.609117299999987, -19.913264199999958 ], [ -43.609141799999975, -19.913433099999967 ], [ -43.609101, -19.913721 ], [ -43.6090397, -19.914120299999986 ], [ -43.608986199999954, -19.914311399999978 ], [ -43.608984899999946, -19.914350399999929 ], [ -43.608925, -19.91441559999992 ], [ -43.608255799999938, -19.915145299999946 ], [ -43.60903559999997, -19.916227899999956 ], [ -43.610975099999962, -19.917590699999955 ], [ -43.611318099999956, -19.918070599999968 ], [ -43.611224199999981, -19.919371899999934 ], [ -43.612894199999971, -19.919456399999941 ], [ -43.61402389999995, -19.919486 ], [ -43.613729499999977, -19.919847899999976 ], [ -43.613592699999977, -19.920204899999927 ], [ -43.613378499999953, -19.920578399999947 ], [ -43.61302319999993, -19.921531799999965 ], [ -43.61272589999993, -19.922272499999973 ], [ -43.612686499999938, -19.922593 ], [ -43.61263949999995, -19.923074 ], [ -43.612522199999944, -19.923396 ], [ -43.612283099999956, -19.923792499999948 ], [ -43.611952199999962, -19.92420739999995 ], [ -43.611193799999967, -19.924898099999957 ], [ -43.610917599999937, -19.925516299999963 ], [ -43.610604, -19.926394499999947 ], [ -43.610482, -19.926969 ], [ -43.610501699999929, -19.926992 ], [ -43.610540199999953, -19.927423499999964 ], [ -43.61063229999997, -19.927652299999966 ], [ -43.610717, -19.927636299999946 ], [ -43.615151099999927, -19.926799599999963 ], [ -43.615965199999955, -19.926646199999936 ], [ -43.616162, -19.92668 ], [ -43.616407, -19.926736 ], [ -43.616638, -19.926746 ], [ -43.616906, -19.926687 ], [ -43.617138, -19.926732 ], [ -43.617371, -19.926857 ], [ -43.617652, -19.926971 ], [ -43.61786, -19.927085 ], [ -43.618104, -19.927152 ], [ -43.618409, -19.927174 ], [ -43.619019, -19.92717 ], [ -43.619336, -19.927145 ], [ -43.619641, -19.927097 ], [ -43.619872, -19.927026 ], [ -43.620103, -19.926978 ], [ -43.620383, -19.926919 ], [ -43.620626, -19.926814 ], [ -43.62087, -19.926731 ], [ -43.621015, -19.926557 ], [ -43.621135, -19.926326 ], [ -43.621231, -19.926083 ], [ -43.621315, -19.925875 ], [ -43.62135, -19.925633 ], [ -43.621347, -19.925321 ], [ -43.621334, -19.925102 ], [ -43.621207, -19.924434 ], [ -43.621144, -19.924181 ], [ -43.621057, -19.923974 ], [ -43.620946, -19.923756 ], [ -43.620822, -19.923468 ], [ -43.620735, -19.923249 ], [ -43.620661, -19.923031 ], [ -43.620562, -19.922812 ], [ -43.620437, -19.922467 ], [ -43.620338, -19.922203 ], [ -43.620238, -19.921903 ], [ -43.620126, -19.921604 ], [ -43.620076, -19.921362 ], [ -43.620037, -19.921017 ], [ -43.620033, -19.920521 ], [ -43.620056, -19.920232 ], [ -43.620164, -19.920012 ], [ -43.620284, -19.919781 ], [ -43.620429, -19.919607 ], [ -43.620574, -19.919399 ], [ -43.620792, -19.919132 ], [ -43.620854099999974, -19.919052699999952 ], [ -43.620769099999961, -19.918978399999947 ], [ -43.620335699999941, -19.918678799999952 ], [ -43.620099599999953, -19.918439199999973 ], [ -43.619905799999977, -19.918111499999942 ], [ -43.619796599999972, -19.917794399999931 ], [ -43.61961679999996, -19.917376799999939 ], [ -43.619366699999944, -19.917049099999922 ], [ -43.619060099999956, -19.916872899999934 ], [ -43.618701499999929, -19.916803299999962 ], [ -43.618155299999955, -19.916732799999988 ], [ -43.617721899999935, -19.916556599999964 ], [ -43.617455, -19.916360199999922 ], [ -43.617099099999962, -19.916014799999981 ], [ -43.616845399999939, -19.915792799999963 ], [ -43.616560799999945, -19.915635199999951 ], [ -43.616141499999969, -19.915480099999961 ], [ -43.615884199999982, -19.915437799999943 ], [ -43.615432099999971, -19.915395499999931 ], [ -43.614914799999951, -19.915341099999971 ], [ -43.614743499999975, -19.915334399999949 ], [ -43.614638299999967, -19.915439599999967 ], [ -43.614579299999946, -19.915524899999973 ], [ -43.614479, -19.915584 ], [ -43.614363, -19.91574769999994 ], [ -43.614290899999958, -19.915944399999955 ], [ -43.614246, -19.916133899999974 ], [ -43.614211599999976, -19.916262899999939 ] ] ], [ [ [ -43.676071899999954, -19.917809599999931 ], [ -43.676135599999952, -19.917858299999978 ], [ -43.676177, -19.917924899999946 ], [ -43.676240499999949, -19.918001899999972 ], [ -43.676319199999966, -19.918071 ], [ -43.676417099999981, -19.918112699999948 ], [ -43.6765602, -19.91813639999998 ], [ -43.676683099999941, -19.918092399999988 ], [ -43.676760699999939, -19.918023099999974 ], [ -43.676816499999966, -19.917909699999946 ], [ -43.676797199999953, -19.91781189999994 ], [ -43.676827599999974, -19.917798099999974 ], [ -43.67686, -19.917779 ], [ -43.676981, -19.917582 ], [ -43.67715, -19.917339 ], [ -43.677355, -19.917118 ], [ -43.677517699999953, -19.917003399999928 ], [ -43.677697099999939, -19.916823299999972 ], [ -43.677886199999939, -19.916673099999961 ], [ -43.678021, -19.916514 ], [ -43.678239, -19.916282 ], [ -43.678384, -19.916073 ], [ -43.678492, -19.915853 ], [ -43.678576, -19.915611 ], [ -43.678622, -19.915345 ], [ -43.678633, -19.915068 ], [ -43.678643, -19.914826 ], [ -43.67869, -19.914584 ], [ -43.678725, -19.914318 ], [ -43.678833, -19.914075 ], [ -43.679026, -19.913924 ], [ -43.67927, -19.913853 ], [ -43.679513, -19.913805 ], [ -43.679745, -19.913792 ], [ -43.680001, -19.913779 ], [ -43.680305, -19.913731 ], [ -43.680549, -19.913718 ], [ -43.680792, -19.913647 ], [ -43.681023, -19.913553 ], [ -43.681242, -19.913413 ], [ -43.681411, -19.913262 ], [ -43.681569, -19.913065 ], [ -43.681688, -19.912799 ], [ -43.681797, -19.912602 ], [ -43.681856, -19.91236 ], [ -43.681829, -19.912072 ], [ -43.681755, -19.911853 ], [ -43.681789, -19.911622 ], [ -43.681885, -19.911379 ], [ -43.682117, -19.911332 ], [ -43.682176, -19.911112 ], [ -43.682333, -19.91095 ], [ -43.68249, -19.910764 ], [ -43.682537, -19.910545 ], [ -43.68256, -19.910325 ], [ -43.682668, -19.910094 ], [ -43.682813, -19.90992 ], [ -43.682946, -19.909723 ], [ -43.683066, -19.909526 ], [ -43.683126, -19.909307 ], [ -43.683122, -19.908822 ], [ -43.683145, -19.908603 ], [ -43.683302, -19.908418 ], [ -43.683546, -19.908462 ], [ -43.68379, -19.908461 ], [ -43.683935, -19.908264 ], [ -43.683982, -19.908044 ], [ -43.684066, -19.907824 ], [ -43.684247, -19.907627 ], [ -43.684441, -19.907476 ], [ -43.68466, -19.907359 ], [ -43.684878, -19.907254 ], [ -43.685134, -19.90716 ], [ -43.685366, -19.907205 ], [ -43.685319, -19.907459 ], [ -43.685247, -19.90769 ], [ -43.685213, -19.907932 ], [ -43.685129, -19.908152 ], [ -43.68524, -19.908359 ], [ -43.685496, -19.908311 ], [ -43.685739, -19.90824 ], [ -43.685983, -19.908181 ], [ -43.686226, -19.908133 ], [ -43.68642, -19.907993 ], [ -43.686626, -19.90783 ], [ -43.686771, -19.907633 ], [ -43.686965, -19.907505 ], [ -43.687209, -19.907434 ], [ -43.687341, -19.907249 ], [ -43.687584, -19.907144 ], [ -43.687779, -19.907015 ], [ -43.687997, -19.906933 ], [ -43.688191, -19.906771 ], [ -43.688348, -19.906539 ], [ -43.688567, -19.906445 ], [ -43.68881, -19.906374 ], [ -43.689103, -19.906372 ], [ -43.689335, -19.906475 ], [ -43.689422, -19.906693 ], [ -43.689594, -19.906842 ], [ -43.689826, -19.906829 ], [ -43.690044, -19.906735 ], [ -43.690238, -19.906584 ], [ -43.69026249999996, -19.906549799999947 ], [ -43.690066099999974, -19.906386199999936 ], [ -43.689842799999951, -19.906102499999982 ], [ -43.689679299999973, -19.905999899999923 ], [ -43.689475899999934, -19.905925699999951 ], [ -43.689111899999943, -19.905902899999948 ], [ -43.68864049999997, -19.905948499999962 ], [ -43.688260399999933, -19.905899099999946 ], [ -43.688096899999948, -19.905845899999974 ], [ -43.687747199999933, -19.90568049999996 ], [ -43.687620299999942, -19.905651299999928 ], [ -43.687458099999958, -19.905555799999945 ], [ -43.687391, -19.905373299999944 ], [ -43.687309099999943, -19.904937399999934 ], [ -43.68716749999993, -19.904825599999967 ], [ -43.686414899999932, -19.904788399999958 ], [ -43.685599, -19.904855399999985 ], [ -43.685043899999982, -19.905134899999936 ], [ -43.684962, -19.905235399999988 ], [ -43.684962, -19.905871599999948 ], [ -43.684865099999968, -19.906143499999928 ], [ -43.684719799999989, -19.906240399999948 ], [ -43.6846379, -19.906192 ], [ -43.684462799999949, -19.906013199999968 ], [ -43.684073399999932, -19.905749599999979 ], [ -43.683846199999941, -19.905641499999948 ], [ -43.683563, -19.905578199999983 ], [ -43.683235199999956, -19.90544779999993 ], [ -43.683082399999925, -19.90516469999994 ], [ -43.682933399999968, -19.904084299999973 ], [ -43.682844, -19.90382719999997 ], [ -43.682657699999936, -19.903700499999967 ], [ -43.682288899999946, -19.903622299999949 ], [ -43.681759899999967, -19.903592499999942 ], [ -43.680774499999984, -19.9034584 ], [ -43.679632, -19.903699899999939 ], [ -43.679359699999964, -19.90374469999994 ], [ -43.682115799999963, -19.900522199999951 ], [ -43.682151599999933, -19.899512399999942 ], [ -43.681955799999976, -19.899256699999953 ], [ -43.681104299999966, -19.899143599999949 ], [ -43.680326099999945, -19.899070799999954 ], [ -43.67958509999994, -19.898981299999953 ], [ -43.678944799999961, -19.898904299999963 ], [ -43.677974, -19.898814499999954 ], [ -43.677317099999982, -19.898692399999963 ], [ -43.677261599999959, -19.898537399999963 ], [ -43.677300799999962, -19.89809479999996 ], [ -43.677321, -19.897418899999934 ], [ -43.677340799999968, -19.896929699999923 ], [ -43.6772797, -19.896856399999937 ], [ -43.677156799999977, -19.896759899999942 ], [ -43.677236699999987, -19.896438099999955 ], [ -43.677394399999976, -19.895926699999954 ], [ -43.677662, -19.895569499999954 ], [ -43.678375, -19.895133599999944 ], [ -43.678397899999943, -19.89507709999997 ], [ -43.678369, -19.895017799999945 ], [ -43.678469499999956, -19.895014499999938 ], [ -43.678576799999973, -19.894998499999936 ], [ -43.678648499999952, -19.89495479999994 ], [ -43.678725199999981, -19.89482229999993 ], [ -43.678748199999973, -19.894754699999968 ], [ -43.678758599999981, -19.894674599999988 ], [ -43.67876119999994, -19.894567499999937 ], [ -43.678747199999975, -19.894479599999958 ], [ -43.678731899999953, -19.89432759999994 ], [ -43.678714899999932, -19.894169799999919 ], [ -43.678715599999975, -19.89409679999995 ], [ -43.678725299999947, -19.894024599999966 ], [ -43.678749499999988, -19.893957099999959 ], [ -43.678787099999965, -19.893893099999961 ], [ -43.678865, -19.893810899999952 ], [ -43.67925809999997, -19.893465299999946 ], [ -43.679663499999947, -19.893123 ], [ -43.67979859999997, -19.893013899999957 ], [ -43.679905199999951, -19.892890799999986 ], [ -43.67997349999996, -19.892737 ], [ -43.680000799999966, -19.892424499999962 ], [ -43.679991199999961, -19.892012799999971 ], [ -43.679903499999966, -19.891658199999931 ], [ -43.679869699999983, -19.891522899999941 ], [ -43.679890899999975, -19.891333 ], [ -43.679946899999948, -19.891109699999966 ], [ -43.680005499999943, -19.890909399999941 ], [ -43.68011869999998, -19.89065909999994 ], [ -43.680277199999978, -19.890412799999982 ], [ -43.680550699999969, -19.889843299999946 ], [ -43.680808, -19.889354599999923 ], [ -43.680932399999961, -19.889132699999948 ], [ -43.681060899999977, -19.888915699999927 ], [ -43.681215399999985, -19.88880169999992 ], [ -43.681414299999979, -19.888765799999927 ], [ -43.681696599999952, -19.888802499999937 ], [ -43.682034299999948, -19.888895099999953 ], [ -43.681742199999981, -19.888520199999956 ], [ -43.681590199999967, -19.888255599999983 ], [ -43.681422299999952, -19.888068499999981 ], [ -43.681307799999956, -19.887901199999934 ], [ -43.681234499999967, -19.88775069999997 ], [ -43.681144199999949, -19.887515199999953 ], [ -43.681093199999971, -19.887419099999939 ], [ -43.681010599999986, -19.887316099999964 ], [ -43.680860399999972, -19.887230299999949 ], [ -43.680573799999941, -19.887150299999973 ], [ -43.680297699999983, -19.887082499999952 ], [ -43.680134499999951, -19.88702939999995 ], [ -43.67996009999996, -19.886924 ], [ -43.679734099999962, -19.88670489999992 ], [ -43.67956079999994, -19.886566299999963 ], [ -43.679314399999953, -19.886364199999946 ], [ -43.679113499999971, -19.886096099999975 ], [ -43.6790003, -19.88585 ], [ -43.678984899999939, -19.885596499999966 ], [ -43.678989899999983, -19.885338699999981 ], [ -43.679078799999957, -19.885066399999975 ], [ -43.679188899999986, -19.884890499999916 ], [ -43.679275699999948, -19.884765799999965 ], [ -43.679301699999947, -19.884674499999953 ], [ -43.679301699999947, -19.884532199999949 ], [ -43.679281899999985, -19.884408399999934 ], [ -43.679214299999963, -19.884242399999938 ], [ -43.679148399999967, -19.884045499999964 ], [ -43.679087799999934, -19.883572 ], [ -43.679070599999932, -19.883225099999947 ], [ -43.67903739999997, -19.883143899999933 ], [ -43.678967799999953, -19.883096099999932 ], [ -43.678849699999944, -19.883030599999927 ], [ -43.6786944, -19.882982499999976 ], [ -43.678583, -19.88294529999996 ], [ -43.678473, -19.882875899999931 ], [ -43.678336599999966, -19.882737599999928 ], [ -43.678162399999962, -19.88259 ], [ -43.677916099999948, -19.882427199999938 ], [ -43.677552599999956, -19.882185199999974 ], [ -43.677399699999967, -19.882042399999932 ], [ -43.677206299999966, -19.881880199999955 ], [ -43.676989299999939, -19.881793099999985 ], [ -43.676805599999966, -19.881749699999954 ], [ -43.676665399999933, -19.881737199999979 ], [ -43.676564299999939, -19.881752299999974 ], [ -43.676491899999981, -19.881786899999945 ], [ -43.676414499999964, -19.881917799999933 ], [ -43.676396299999972, -19.88208479999998 ], [ -43.676390399999946, -19.88233839999997 ], [ -43.676393699999949, -19.882740899999938 ], [ -43.676338899999962, -19.88312279999997 ], [ -43.676240799999967, -19.883439499999955 ], [ -43.676145799999972, -19.883661199999946 ], [ -43.676096799999989, -19.883827799999942 ], [ -43.676084099999969, -19.884041099999937 ], [ -43.6760695, -19.884235199999971 ], [ -43.675977699999976, -19.884415299999944 ], [ -43.675874299999968, -19.884466799999924 ], [ -43.675255299999954, -19.884558099999943 ], [ -43.675153799999968, -19.884094899999987 ], [ -43.674973699999953, -19.883616 ], [ -43.674689899999983, -19.882990699999937 ], [ -43.674173199999984, -19.881535299999943 ], [ -43.674170599999975, -19.880997499999967 ], [ -43.674212799999971, -19.880549499999965 ], [ -43.674244699999967, -19.880204099999958 ], [ -43.674325899999978, -19.879334599999943 ], [ -43.674360199999967, -19.878577699999934 ], [ -43.674272499999972, -19.877760099999922 ], [ -43.674191699999945, -19.877456299999942 ], [ -43.674091299999922, -19.877197699999968 ], [ -43.673842699999966, -19.87703919999996 ], [ -43.673494, -19.876959799999948 ], [ -43.673111499999955, -19.876882899999938 ], [ -43.67279659999997, -19.876819799999961 ], [ -43.67249279999993, -19.876770299999976 ], [ -43.672257, -19.876731399999976 ], [ -43.672189099999969, -19.876700399999947 ], [ -43.672152799999935, -19.876666399999966 ], [ -43.672020499999974, -19.876519399999943 ], [ -43.671895699999936, -19.876368499999966 ], [ -43.671819599999942, -19.876270799999915 ], [ -43.671776499999964, -19.876190699999935 ], [ -43.671739899999977, -19.876095899999939 ], [ -43.671706799999981, -19.875975 ], [ -43.671698699999986, -19.875885899999961 ], [ -43.671702799999935, -19.875775499999985 ], [ -43.67171129999997, -19.875658299999934 ], [ -43.671728099999932, -19.875550199999967 ], [ -43.671776299999983, -19.875438199999973 ], [ -43.671824299999969, -19.875323699999967 ], [ -43.671886299999976, -19.875195499999961 ], [ -43.671912499999969, -19.875140599999963 ], [ -43.671925299999948, -19.875092199999926 ], [ -43.67191639999993, -19.875039799999961 ], [ -43.671887499999976, -19.874990299999975 ], [ -43.671838899999955, -19.874960099999942 ], [ -43.671740099999965, -19.874890099999959 ], [ -43.671707599999934, -19.874842599999972 ], [ -43.671703399999956, -19.874801899999966 ], [ -43.671711899999934, -19.874759099999949 ], [ -43.671727199999964, -19.874712699999989 ], [ -43.671772799999985, -19.874667799999937 ], [ -43.671823799999977, -19.874622299999945 ], [ -43.671866499999965, -19.874553399999961 ], [ -43.671880399999964, -19.874470799999941 ], [ -43.671870799999965, -19.874405499999963 ], [ -43.671848299999965, -19.874336699999965 ], [ -43.6718044, -19.874273499999962 ], [ -43.671756099999982, -19.874218699999968 ], [ -43.671696699999984, -19.874170799999956 ], [ -43.671622199999945, -19.874140799999953 ], [ -43.671520299999941, -19.874132299999935 ], [ -43.671418, -19.874133899999951 ], [ -43.671318399999954, -19.87413609999993 ], [ -43.67122489999997, -19.874140399999934 ], [ -43.671144899999945, -19.87412149999993 ], [ -43.671074299999937, -19.874092799999964 ], [ -43.671002599999944, -19.874052599999978 ], [ -43.670957199999975, -19.874011899999971 ], [ -43.670918799999981, -19.873952899999949 ], [ -43.67088739999997, -19.873825699999944 ], [ -43.670846199999978, -19.873619 ], [ -43.670808299999976, -19.873367099999928 ], [ -43.670756199999978, -19.873132499999937 ], [ -43.670711499999989, -19.872913199999971 ], [ -43.67059729999994, -19.872624199999965 ], [ -43.669615499999971, -19.871844 ], [ -43.669354199999937, -19.871184699999954 ], [ -43.668882499999938, -19.870011599999952 ], [ -43.668278599999951, -19.868857599999959 ], [ -43.668294199999934, -19.867989399999932 ], [ -43.668405499999949, -19.867986 ], [ -43.668647599999979, -19.867750499999932 ], [ -43.66881, -19.867870099999941 ], [ -43.668962599999929, -19.867981899999958 ], [ -43.669076099999977, -19.867868899999966 ], [ -43.669689399999982, -19.868389699999966 ], [ -43.669745, -19.868567799999948 ], [ -43.669895199999985, -19.868783399999934 ], [ -43.670133399999933, -19.868899799999951 ], [ -43.670349899999962, -19.868902399999961 ], [ -43.670593899999972, -19.868858899999953 ], [ -43.67071379999993, -19.868759199999932 ], [ -43.670806299999981, -19.868636499999987 ], [ -43.67088739999997, -19.868434899999954 ], [ -43.67090079999997, -19.868270399999982 ], [ -43.670858899999985, -19.868067399999966 ], [ -43.670765199999948, -19.867877299999979 ], [ -43.669598299999961, -19.866842699999964 ], [ -43.66988409999994, -19.866412199999957 ], [ -43.670334499999974, -19.86576759999997 ], [ -43.670514499999975, -19.865511199999951 ], [ -43.6700034, -19.865207399999967 ], [ -43.669929399999944, -19.865121099999964 ], [ -43.669548499999962, -19.864944399999946 ], [ -43.66932769999994, -19.864861599999927 ], [ -43.668949599999969, -19.864767799999974 ], [ -43.668673599999977, -19.864845099999979 ], [ -43.668425199999945, -19.864977599999971 ], [ -43.668028599999964, -19.865527699999973 ], [ -43.667925599999926, -19.865726399999975 ], [ -43.66776, -19.86599329999996 ], [ -43.667438, -19.866270399999962 ], [ -43.666844599999934, -19.865971299999959 ], [ -43.666534799999958, -19.865871399999946 ], [ -43.666148499999956, -19.865823 ], [ -43.666049399999963, -19.865818599999962 ], [ -43.665841199999932, -19.865614299999951 ], [ -43.665498799999959, -19.86533849999994 ], [ -43.665338199999951, -19.865545699999917 ], [ -43.665289499999972, -19.865432699999918 ], [ -43.664951599999938, -19.86534329999995 ], [ -43.664642199999946, -19.865281699999972 ], [ -43.664512699999939, -19.865264 ], [ -43.664402099999961, -19.86528439999995 ], [ -43.664318599999945, -19.865322199999973 ], [ -43.664287, -19.865368399999955 ], [ -43.66427, -19.865439499999976 ], [ -43.664279699999952, -19.865613499999935 ], [ -43.6642988, -19.865719899999931 ], [ -43.664245499999943, -19.865747299999956 ], [ -43.663725799999945, -19.866143 ], [ -43.663753399999962, -19.866198699999924 ], [ -43.663796899999966, -19.866324899999935 ], [ -43.663827799999979, -19.866547199999967 ], [ -43.66360109999993, -19.866361299999941 ], [ -43.663454199999933, -19.866268099999946 ], [ -43.663222099999984, -19.866141499999962 ], [ -43.66295439999994, -19.866241499999941 ], [ -43.662837199999956, -19.866388299999986 ], [ -43.662713799999949, -19.866744499999978 ], [ -43.66265389999996, -19.867071 ], [ -43.662644599999965, -19.867221699999952 ], [ -43.66259679999996, -19.867431599999978 ], [ -43.662499599999933, -19.867587199999939 ], [ -43.662384299999985, -19.867664899999962 ], [ -43.662100699999947, -19.867729199999935 ], [ -43.661701099999959, -19.867805899999951 ], [ -43.661281499999973, -19.867900399999947 ], [ -43.661038699999949, -19.86787019999997 ], [ -43.660744199999954, -19.868496599999965 ], [ -43.660528899999974, -19.868994699999966 ], [ -43.659834199999985, -19.868712099999986 ], [ -43.659736299999963, -19.868875299999971 ], [ -43.659832499999943, -19.868925199999978 ], [ -43.6597331, -19.869169 ], [ -43.659551399999941, -19.869601799999941 ], [ -43.65940389999998, -19.869943799999923 ], [ -43.659157899999975, -19.869999499999949 ], [ -43.658915899999961, -19.87004839999997 ], [ -43.65873449999998, -19.870094 ], [ -43.658611899999983, -19.870096499999935 ], [ -43.658383399999934, -19.870019899999932 ], [ -43.658289299999979, -19.869991399999954 ], [ -43.658221799999978, -19.869989299999915 ], [ -43.658144399999962, -19.870024799999953 ], [ -43.658104899999955, -19.870107499999961 ], [ -43.658022, -19.870257399999961 ], [ -43.657943799999941, -19.870343499999933 ], [ -43.657835099999943, -19.87038559999996 ], [ -43.657702699999959, -19.87039 ], [ -43.657581199999981, -19.870375199999948 ], [ -43.657490099999961, -19.87040039999993 ], [ -43.657348099999986, -19.870496899999971 ], [ -43.65702529999993, -19.870748 ], [ -43.656777, -19.870931499999926 ], [ -43.656311799999976, -19.871258899999919 ], [ -43.655984499999938, -19.871463399999982 ], [ -43.655846199999978, -19.87153149999995 ], [ -43.655748399999936, -19.871545399999949 ], [ -43.655624599999953, -19.871555 ], [ -43.655397699999988, -19.871557299999953 ], [ -43.65502679999998, -19.871536599999967 ], [ -43.654877099999965, -19.871503099999913 ], [ -43.654886099999949, -19.871564299999921 ], [ -43.654980499999965, -19.871796799999974 ], [ -43.655061499999931, -19.87206319999995 ], [ -43.655297699999956, -19.872193 ], [ -43.655728299999964, -19.872237 ], [ -43.656001799999963, -19.872193699999965 ], [ -43.656181, -19.872164699999939 ], [ -43.656333199999949, -19.872150199999972 ], [ -43.656498899999974, -19.872139299999954 ], [ -43.656610699999938, -19.872233499999933 ], [ -43.656652299999955, -19.872311699999958 ], [ -43.656649199999954, -19.872393 ], [ -43.656595299999935, -19.872465499999972 ], [ -43.656545199999989, -19.872519799999953 ], [ -43.656533599999939, -19.872606799999978 ], [ -43.656498899999967, -19.87271189999997 ], [ -43.656464299999982, -19.872791699999933 ], [ -43.656391, -19.87282429999993 ], [ -43.656375599999933, -19.872856899999931 ], [ -43.65635629999997, -19.872929399999975 ], [ -43.65640639999998, -19.872958399999956 ], [ -43.656472, -19.873001899999963 ], [ -43.6564681, -19.873034499999964 ], [ -43.656413499999985, -19.873072799999928 ], [ -43.65632549999998, -19.873092499999924 ], [ -43.656360199999945, -19.873139599999945 ], [ -43.656414199999972, -19.873197599999965 ], [ -43.656446899999935, -19.873264599999967 ], [ -43.656483499999986, -19.873302699999964 ], [ -43.6565394, -19.873295499999941 ], [ -43.6566165, -19.873254699999961 ], [ -43.656637699999976, -19.873270099999971 ], [ -43.656606799999963, -19.873340799999934 ], [ -43.656568299999954, -19.873445 ], [ -43.656572199999971, -19.873487499999946 ], [ -43.656656899999973, -19.873469399999969 ], [ -43.656695499999955, -19.873502 ], [ -43.656703199999988, -19.873636099999935 ], [ -43.656686, -19.873757599999976 ], [ -43.656693799999971, -19.873898399999966 ], [ -43.656633599999964, -19.873895399999974 ], [ -43.656582699999937, -19.873926899999962 ], [ -43.656540799999959, -19.874000699999968 ], [ -43.656447799999967, -19.874092299999976 ], [ -43.656396499999971, -19.874140499999953 ], [ -43.656333, -19.874294 ], [ -43.656277, -19.874394499999937 ], [ -43.656193, -19.87445649999994 ], [ -43.6560267, -19.874565399999934 ], [ -43.655898499999971, -19.874665 ], [ -43.655878099999939, -19.874771599999981 ], [ -43.655859499999963, -19.874833 ], [ -43.65573969999997, -19.875161199999983 ], [ -43.655613, -19.875213599999931 ], [ -43.655478599999988, -19.875204399999959 ], [ -43.655326099999975, -19.875226299999962 ], [ -43.655187599999984, -19.875220499999948 ], [ -43.655002099999933, -19.87527979999993 ], [ -43.654809299999961, -19.875331899999942 ], [ -43.654749699999968, -19.87545109999996 ], [ -43.654707899999948, -19.875583299999953 ], [ -43.654571599999947, -19.875579099999975 ], [ -43.654441699999957, -19.875601899999921 ], [ -43.654303899999938, -19.875604699999929 ], [ -43.654077, -19.875545 ], [ -43.653846299999941, -19.875466899999942 ], [ -43.653654299999971, -19.87535849999994 ], [ -43.653508199999983, -19.875306399999936 ], [ -43.653303, -19.875277099999948 ], [ -43.653129399999955, -19.87529549999994 ], [ -43.652941099999971, -19.875344899999952 ], [ -43.652553099999977, -19.875739 ], [ -43.65228429999997, -19.876095199999945 ], [ -43.652114399999959, -19.876517399999962 ], [ -43.652032, -19.876917099999954 ], [ -43.652033899999935, -19.877068399999931 ], [ -43.652219599999967, -19.87850109999993 ], [ -43.652132, -19.879418399999974 ], [ -43.651936599999949, -19.879633399999928 ], [ -43.652585599999952, -19.880359399999978 ], [ -43.65255639999998, -19.880462699999956 ], [ -43.652268099999958, -19.881456699999944 ], [ -43.652119, -19.882077699999972 ], [ -43.652081699999947, -19.882875699999946 ], [ -43.652055299999972, -19.883217599999956 ], [ -43.651924299999955, -19.883246 ], [ -43.651690899999956, -19.883304499999944 ], [ -43.651397299999985, -19.883354699999913 ], [ -43.651159, -19.883255399999925 ], [ -43.650750699999939, -19.883118799999973 ], [ -43.650467299999953, -19.883030199999943 ], [ -43.650019699999973, -19.88288759999994 ], [ -43.649417199999966, -19.88268 ], [ -43.64889919999996, -19.882520199999927 ], [ -43.648493199999962, -19.882429099999968 ], [ -43.648065299999985, -19.882302099999947 ], [ -43.647807899999968, -19.882226299999946 ], [ -43.64752249999998, -19.882162 ], [ -43.647422, -19.882122099999943 ], [ -43.647260899999935, -19.882046099999968 ], [ -43.64703609999998, -19.881982 ], [ -43.646319799999965, -19.881920899999955 ], [ -43.646106499999973, -19.881903199999957 ], [ -43.645721499999986, -19.881933199999942 ], [ -43.645686699999942, -19.881977199999938 ], [ -43.645565099999949, -19.882203499999946 ], [ -43.645552, -19.882287299999977 ], [ -43.645552899999984, -19.882369499999974 ], [ -43.647286899999983, -19.88470639999996 ], [ -43.647196499999957, -19.884993 ], [ -43.64725889999994, -19.885042099999968 ], [ -43.64742339999998, -19.88507439999994 ], [ -43.647681299999938, -19.885053099999951 ], [ -43.648104, -19.885098199999959 ], [ -43.648565099999978, -19.885139 ], [ -43.649033899999942, -19.885143599999939 ], [ -43.649376599999982, -19.885561299999946 ], [ -43.649648499999955, -19.885692099999957 ], [ -43.650026899999943, -19.885783699999934 ], [ -43.650131, -19.885907399999947 ], [ -43.650293699999963, -19.886251299999959 ], [ -43.650555099999963, -19.886393 ], [ -43.650881699999957, -19.886429799999977 ], [ -43.651140799999951, -19.886396299999944 ], [ -43.651442799999984, -19.886276699999939 ], [ -43.651770599999956, -19.88600189999995 ], [ -43.652124699999945, -19.885636899999948 ], [ -43.652342799999985, -19.885239099999989 ], [ -43.652642299999968, -19.885270599999959 ], [ -43.652571499999972, -19.885473 ], [ -43.652308699999935, -19.885862599999946 ], [ -43.652344699999958, -19.88623849999993 ], [ -43.652494199999978, -19.88666979999994 ], [ -43.652075199999956, -19.886809 ], [ -43.651756599999942, -19.886979299999954 ], [ -43.651636199999977, -19.8871875 ], [ -43.651725599999963, -19.887712399999941 ], [ -43.651818699999978, -19.888158699999966 ], [ -43.652121299999976, -19.88811569999995 ], [ -43.652458299999978, -19.889349599999949 ], [ -43.652684099999931, -19.889364799999946 ], [ -43.653349299999952, -19.889296399999967 ], [ -43.653886099999973, -19.889228 ], [ -43.653985, -19.889771399999976 ], [ -43.65409649999998, -19.889857499999945 ], [ -43.654966399999978, -19.889610299999951 ], [ -43.655181599999935, -19.88955719999996 ], [ -43.654989499999942, -19.889726099999955 ], [ -43.654889699999949, -19.889902499999945 ], [ -43.655849499999931, -19.890274699999964 ], [ -43.655880299999978, -19.890312599999955 ], [ -43.65590879999997, -19.890338399999958 ], [ -43.655926699999959, -19.890379899999964 ], [ -43.655926599999937, -19.890422699999931 ], [ -43.655935599999964, -19.890464699999942 ], [ -43.655973199999956, -19.890486599999978 ], [ -43.656022299999968, -19.890493699999968 ], [ -43.656078899999962, -19.890504699999948 ], [ -43.656121599999949, -19.89054 ], [ -43.656150399999937, -19.89059 ], [ -43.656152299999974, -19.890666099999979 ], [ -43.656119099999962, -19.890701899999947 ], [ -43.656031, -19.890709599999976 ], [ -43.655918799999938, -19.890752199999955 ], [ -43.655815, -19.890809799999939 ], [ -43.655760399999963, -19.890852899999977 ], [ -43.655701699999959, -19.890919799999956 ], [ -43.655689299999949, -19.890962899999984 ], [ -43.655683199999949, -19.891029799999952 ], [ -43.655694899999965, -19.891069 ], [ -43.655740699999967, -19.891136899999932 ], [ -43.65577159999998, -19.891207099999981 ], [ -43.655771099999974, -19.891385899999928 ], [ -43.655779, -19.891532399999956 ], [ -43.655791099999938, -19.891633799999969 ], [ -43.655793299999971, -19.891717199999952 ], [ -43.655791799999975, -19.891838399999934 ], [ -43.655799, -19.891891699999974 ], [ -43.655846799999949, -19.891969199999949 ], [ -43.65590409999993, -19.892046 ], [ -43.655942899999957, -19.89206879999994 ], [ -43.655943799999932, -19.892102499999964 ], [ -43.655973699999947, -19.892147899999934 ], [ -43.656132699999951, -19.892185899999955 ], [ -43.656219499999963, -19.892201699999934 ], [ -43.656332099999936, -19.892222099999966 ], [ -43.656474599999974, -19.892248499999937 ], [ -43.656595899999957, -19.89227 ], [ -43.656710499999974, -19.892320799999936 ], [ -43.6567477, -19.892363699999962 ], [ -43.656773199999975, -19.892467199999931 ], [ -43.656790699999931, -19.892574599999943 ], [ -43.656881599999963, -19.892681 ], [ -43.656955799999935, -19.892733899999943 ], [ -43.65702, -19.892779699999949 ], [ -43.657063799999946, -19.892839299999931 ], [ -43.657120299999974, -19.892934699999948 ], [ -43.657164899999941, -19.892984399999932 ], [ -43.657386599999938, -19.893026199999937 ], [ -43.657454299999984, -19.893058799999952 ], [ -43.657503899999938, -19.893145799999953 ], [ -43.65754369999997, -19.89327929999995 ], [ -43.65757, -19.893383199999953 ], [ -43.657592699999952, -19.893472599999942 ], [ -43.657578199999939, -19.893613399999936 ], [ -43.657549699999954, -19.893702099999921 ], [ -43.657510599999974, -19.893773199999938 ], [ -43.65746189999993, -19.893830799999932 ], [ -43.657416, -19.893891899999968 ], [ -43.65738749999997, -19.893941 ], [ -43.657377899999979, -19.894018399999943 ], [ -43.657387899999954, -19.89406409999998 ], [ -43.657443099999959, -19.894138199999933 ], [ -43.657514799999944, -19.894205 ], [ -43.657608499999988, -19.894240399999955 ], [ -43.657667899999979, -19.894249 ], [ -43.657725599999942, -19.894241299999972 ], [ -43.65779549999997, -19.894193 ], [ -43.657859499999972, -19.894111399999925 ], [ -43.657894599999963, -19.894024399999974 ], [ -43.657903299999937, -19.89392 ], [ -43.657907, -19.893830399999949 ], [ -43.657925499999976, -19.893786199999962 ], [ -43.657963099999954, -19.89374389999994 ], [ -43.657979099999977, -19.893746699999948 ], [ -43.658005499999945, -19.893751299999956 ], [ -43.658055599999955, -19.893772199999933 ], [ -43.658268699999951, -19.893867599999961 ], [ -43.658268199999959, -19.893869899999974 ], [ -43.6582327, -19.894036299999978 ], [ -43.658562299999964, -19.894156399999922 ], [ -43.658400699999959, -19.894605699999946 ], [ -43.65823579999995, -19.895210899999945 ], [ -43.657785499999925, -19.896627599999924 ], [ -43.657674399999962, -19.897126499999956 ], [ -43.657586799999933, -19.897316399999962 ], [ -43.657705599999979, -19.897372499999946 ], [ -43.658096499999942, -19.897400199999929 ], [ -43.658515399999935, -19.897503099999938 ], [ -43.659075199999961, -19.897671699999929 ], [ -43.659344, -19.89775659999998 ], [ -43.65955119999996, -19.897776399999952 ], [ -43.659666199999954, -19.897736299999949 ], [ -43.659788699999979, -19.89765559999995 ], [ -43.659885799999984, -19.897567199999969 ], [ -43.659988799999958, -19.897519499999916 ], [ -43.660111699999959, -19.89747739999995 ], [ -43.660341, -19.897403699999924 ], [ -43.660448699999961, -19.897367199999955 ], [ -43.66072539999994, -19.897296699999959 ], [ -43.660863099999979, -19.897302599999936 ], [ -43.661023299999954, -19.89732579999998 ], [ -43.661187699999971, -19.897333299999953 ], [ -43.66131009999998, -19.897281199999952 ], [ -43.661486099999941, -19.897213 ], [ -43.66203239999993, -19.897065399999981 ], [ -43.661715299999969, -19.897259399999932 ], [ -43.661657199999972, -19.897863099999931 ], [ -43.661649199999943, -19.898027399999929 ], [ -43.662007199999948, -19.898122399999963 ], [ -43.661876599999971, -19.89816809999995 ], [ -43.661800699999965, -19.898207399999936 ], [ -43.661723599999959, -19.898283799999941 ], [ -43.661692699999939, -19.898350899999969 ], [ -43.661658799999941, -19.898463 ], [ -43.661653, -19.898546499999934 ], [ -43.661659199999974, -19.89863959999996 ], [ -43.661709099999946, -19.898778 ], [ -43.661826599999984, -19.898931 ], [ -43.662006599999984, -19.89916449999993 ], [ -43.662114599999938, -19.899300899999968 ], [ -43.662227799999982, -19.899393199999952 ], [ -43.662385499999971, -19.899514899999936 ], [ -43.662598299999949, -19.899664 ], [ -43.662875, -19.899807799999955 ], [ -43.663113099999983, -19.899976799999926 ], [ -43.663211099999955, -19.900068099999938 ], [ -43.663355799999977, -19.900193699999939 ], [ -43.663565199999937, -19.900353899999967 ], [ -43.663761199999961, -19.900520499999963 ], [ -43.664121099999939, -19.900746899999938 ], [ -43.663886599999962, -19.900908799999964 ], [ -43.663726599999961, -19.900989899999971 ], [ -43.663594499999931, -19.901093 ], [ -43.663502799999954, -19.901198399999938 ], [ -43.663441699999964, -19.901293599999978 ], [ -43.663367799999946, -19.901526599999947 ], [ -43.663315399999924, -19.901680399999982 ], [ -43.663246399999935, -19.901807699999946 ], [ -43.663105199999961, -19.901938299999937 ], [ -43.662917199999981, -19.902090899999966 ], [ -43.662871299999956, -19.902136099999954 ], [ -43.662815099999939, -19.902222 ], [ -43.66279209999994, -19.902289599999957 ], [ -43.662800899999979, -19.902349299999976 ], [ -43.662868899999978, -19.90242069999994 ], [ -43.662942099999952, -19.902452 ], [ -43.663114599999979, -19.902488099999967 ], [ -43.663202699999943, -19.902488799999961 ], [ -43.663291, -19.902477599999944 ], [ -43.66344619999996, -19.902435499999964 ], [ -43.663580099999933, -19.902394299999965 ], [ -43.663660499999928, -19.902391399999946 ], [ -43.663760699999955, -19.902399499999941 ], [ -43.663928199999937, -19.902448599999968 ], [ -43.664052399999946, -19.902493299999936 ], [ -43.664130099999966, -19.902541 ], [ -43.663631099999968, -19.902834499999976 ], [ -43.663453599999968, -19.902935299999974 ], [ -43.663253899999972, -19.903027599999977 ], [ -43.663036, -19.903066599999924 ], [ -43.662865399999937, -19.903076699999929 ], [ -43.662688799999955, -19.903080899999953 ], [ -43.662398499999938, -19.903029899999972 ], [ -43.661973099999962, -19.902876699999975 ], [ -43.661640399999953, -19.902786199999987 ], [ -43.66137329999998, -19.902792 ], [ -43.661165799999935, -19.90281629999992 ], [ -43.660971499999953, -19.902903199999969 ], [ -43.660802799999942, -19.903018099999947 ], [ -43.660625699999969, -19.903239299999925 ], [ -43.660574599999961, -19.903366299999966 ], [ -43.660537499999975, -19.903613599999964 ], [ -43.660477799999967, -19.903847199999962 ], [ -43.66039829999994, -19.903995699999943 ], [ -43.660279599999967, -19.904187099999952 ], [ -43.660117299999968, -19.904332099999976 ], [ -43.659893099999977, -19.904457899999958 ], [ -43.659656499999983, -19.904528599999935 ], [ -43.659398899999985, -19.904583699999925 ], [ -43.659259599999984, -19.904614499999976 ], [ -43.659077, -19.904663299999985 ], [ -43.658923499999965, -19.90474 ], [ -43.658744399999939, -19.904886499999975 ], [ -43.658557899999956, -19.905171 ], [ -43.658424799999977, -19.905452299999979 ], [ -43.65793959999997, -19.90648 ], [ -43.657757299999957, -19.906844299999936 ], [ -43.657414099999983, -19.907498799999924 ], [ -43.657119099999939, -19.907888299999964 ], [ -43.657438599999978, -19.907894299999953 ], [ -43.657587399999954, -19.907652899999952 ], [ -43.657991299999942, -19.907132599999944 ], [ -43.658248699999945, -19.906753199999955 ], [ -43.658607799999963, -19.906312299999964 ], [ -43.659033199999961, -19.905880399999948 ], [ -43.659282099999984, -19.905671099999946 ], [ -43.659471699999983, -19.905565799999977 ], [ -43.659717299999961, -19.905485499999948 ], [ -43.65998, -19.905456199999936 ], [ -43.660129099999949, -19.905457899999931 ], [ -43.660373299999947, -19.90546059999998 ], [ -43.660616099999977, -19.905437 ], [ -43.660790399999946, -19.905341099999916 ], [ -43.660911299999952, -19.905201699999974 ], [ -43.660974799999963, -19.90508229999994 ], [ -43.661035599999934, -19.904960099999965 ], [ -43.661300099999949, -19.904204599999957 ], [ -43.66128139999995, -19.904441199999948 ], [ -43.661355499999956, -19.904605099999973 ], [ -43.661520399999979, -19.904593599999934 ], [ -43.661826399999946, -19.904447899999969 ], [ -43.66199359999996, -19.904311599999968 ], [ -43.662411299999967, -19.90417129999998 ], [ -43.662876199999964, -19.904181699999977 ], [ -43.663548499999926, -19.904188799999929 ], [ -43.663868399999949, -19.904229699999981 ], [ -43.664067199999977, -19.904126399999932 ], [ -43.664395299999974, -19.904073099999945 ], [ -43.664697199999978, -19.90417279999998 ], [ -43.664953699999955, -19.904346199999964 ], [ -43.665517199999954, -19.904412799999928 ], [ -43.66608, -19.904587099999954 ], [ -43.666530899999941, -19.904708499999959 ], [ -43.666834299999948, -19.904592699999974 ], [ -43.66712229999996, -19.904406599999962 ], [ -43.667700699999955, -19.904401099999973 ], [ -43.668245499999962, -19.904780899999942 ], [ -43.668455, -19.905196 ], [ -43.668707199999979, -19.905567499999954 ], [ -43.669000899999958, -19.905908 ], [ -43.669321899999936, -19.906281199999963 ], [ -43.669456499999967, -19.906517199999939 ], [ -43.669442699999941, -19.906921499999957 ], [ -43.669334, -19.907326 ], [ -43.669276099999934, -19.907691899999964 ], [ -43.669111399999963, -19.908095799999955 ], [ -43.669101899999923, -19.908500499999949 ], [ -43.6692, -19.908759199999963 ], [ -43.669361499999987, -19.908885499999933 ], [ -43.669535699999983, -19.908940599999944 ], [ -43.66924639999997, -19.909924 ], [ -43.669165299999982, -19.910978799999953 ], [ -43.669292099999943, -19.911531599999932 ], [ -43.669394699999934, -19.911893399999936 ], [ -43.669527899999942, -19.91211439999995 ], [ -43.66971169999993, -19.912327099999978 ], [ -43.669864699999948, -19.912449799999912 ], [ -43.670027799999957, -19.912475899999958 ], [ -43.670182699999948, -19.912459899999931 ], [ -43.670293699999945, -19.912384399999944 ], [ -43.670347799999952, -19.912325099999961 ], [ -43.670399399999951, -19.912216099999966 ], [ -43.670478599999967, -19.912177399999958 ], [ -43.670625499999971, -19.912181299999936 ], [ -43.670750099999964, -19.912264799999946 ], [ -43.670802399999957, -19.912358 ], [ -43.670868899999959, -19.912503199999936 ], [ -43.670870099999938, -19.912610799999975 ], [ -43.670889299999935, -19.912676499999979 ], [ -43.67092729999996, -19.912762899999958 ], [ -43.67098059999995, -19.912819199999952 ], [ -43.6710801, -19.912870699999932 ], [ -43.671185499999979, -19.912857299999938 ], [ -43.671334499999936, -19.91278889999996 ], [ -43.671225499999942, -19.912551899999986 ], [ -43.671037299999966, -19.91203239999993 ], [ -43.671004699999969, -19.911740499999947 ], [ -43.670970299999965, -19.911275399999965 ], [ -43.67096179999993, -19.911110499999943 ], [ -43.670968199999948, -19.910993599999919 ], [ -43.671008099999938, -19.91089239999997 ], [ -43.671059699999958, -19.91070459999996 ], [ -43.671080599999982, -19.91054249999997 ], [ -43.671073, -19.910263399999963 ], [ -43.671021799999949, -19.910143199999943 ], [ -43.670925899999929, -19.910002499999962 ], [ -43.670766599999979, -19.909753499999962 ], [ -43.671309599999979, -19.9098648 ], [ -43.671984599999973, -19.909844299999971 ], [ -43.672091899999948, -19.909865799999974 ], [ -43.672220599999946, -19.909973099999952 ], [ -43.672386, -19.91047279999998 ], [ -43.672435199999939, -19.910724099999971 ], [ -43.672563899999943, -19.910938699999974 ], [ -43.672950199999946, -19.91138929999995 ], [ -43.673186199999982, -19.911775499999969 ], [ -43.673272, -19.912161699999949 ], [ -43.673315, -19.913213199999962 ], [ -43.673551, -19.913771099999956 ], [ -43.673508099999943, -19.914243099999958 ], [ -43.673572499999977, -19.915187299999957 ], [ -43.67367969999998, -19.915337499999975 ], [ -43.67380849999995, -19.915444799999932 ], [ -43.674323499999957, -19.915745199999943 ], [ -43.674387799999984, -19.91611 ], [ -43.674409299999979, -19.916818099999944 ], [ -43.674462099999971, -19.916960699999951 ], [ -43.674350599999968, -19.917352099999967 ], [ -43.674838599999937, -19.91755929999993 ], [ -43.675040099999933, -19.917642899999979 ], [ -43.675312299999973, -19.917742 ], [ -43.675541, -19.917801 ], [ -43.675643099999945, -19.917794 ], [ -43.675759699999951, -19.917775399999989 ], [ -43.675924099999975, -19.917755399999965 ], [ -43.676007099999936, -19.917771399999936 ], [ -43.676071899999954, -19.917809599999931 ] ] ], [ [ [ -43.638435, -19.842675599999939 ], [ -43.638413799999967, -19.84270389999994 ], [ -43.638025399999947, -19.843222099999934 ], [ -43.637683299999935, -19.84448029999994 ], [ -43.637880399999979, -19.845790599999923 ], [ -43.637909399999963, -19.846463099999941 ], [ -43.638263099999961, -19.847228499999968 ], [ -43.638328699999931, -19.847294099999946 ], [ -43.638413799999967, -19.847379199999981 ], [ -43.638827599999956, -19.846923299999947 ], [ -43.639185099999963, -19.846679 ], [ -43.63949219999995, -19.846671899999933 ], [ -43.639909699999976, -19.84683419999994 ], [ -43.640228599999944, -19.846828399999936 ], [ -43.640535799999967, -19.846671899999922 ], [ -43.640986799999951, -19.846468399999939 ], [ -43.641231099999963, -19.846375 ], [ -43.641412899999978, -19.846475299999959 ], [ -43.641602599999949, -19.846602299999972 ], [ -43.641869799999938, -19.846689899999948 ], [ -43.642259099999933, -19.84668589999994 ], [ -43.642509399999938, -19.846606399999921 ], [ -43.64301729999994, -19.846573299999928 ], [ -43.64342309999995, -19.846674 ], [ -43.643811599999935, -19.846793599999959 ], [ -43.644026099999955, -19.846857399999987 ], [ -43.644309099999937, -19.846920299999958 ], [ -43.644626899999935, -19.846987799999969 ], [ -43.645016299999952, -19.846999799999942 ], [ -43.645342299999982, -19.846944399999934 ], [ -43.645562599999955, -19.846845799999979 ], [ -43.645835099999942, -19.846735599999921 ], [ -43.645985799999941, -19.846735599999928 ], [ -43.646125, -19.846793599999963 ], [ -43.64629309999998, -19.84690379999995 ], [ -43.64650759999995, -19.847083499999925 ], [ -43.646780199999966, -19.847333499999937 ], [ -43.647411899999952, -19.847730799999976 ], [ -43.6479164, -19.848020799999961 ], [ -43.648316599999923, -19.848260499999984 ], [ -43.648502099999973, -19.848295299999965 ], [ -43.648821, -19.848301099999968 ], [ -43.649238399999952, -19.848324199999986 ], [ -43.649795, -19.848335799999976 ], [ -43.650432799999976, -19.848399599999937 ], [ -43.651070499999946, -19.848417 ], [ -43.651528599999956, -19.848492399999923 ], [ -43.651917, -19.848596699999973 ], [ -43.652421399999987, -19.848735899999955 ], [ -43.65289839999997, -19.848926599999963 ], [ -43.653252, -19.849188799999986 ], [ -43.653506199999988, -19.849419199999936 ], [ -43.653737499999977, -19.849663599999921 ], [ -43.65375489999996, -19.849953399999947 ], [ -43.653673799999979, -19.850231699999931 ], [ -43.653561799999977, -19.850472 ], [ -43.653625399999953, -19.850913 ], [ -43.653801299999941, -19.851310099999985 ], [ -43.654079599999925, -19.851553599999939 ], [ -43.654392699999953, -19.851692799999963 ], [ -43.654426, -19.851691099999979 ], [ -43.65462459999997, -19.851681199999963 ], [ -43.65478109999998, -19.851658 ], [ -43.655453699999953, -19.851426099999983 ], [ -43.656132, -19.851060799999971 ], [ -43.6562828, -19.850770899999933 ], [ -43.656334299999969, -19.850502099999972 ], [ -43.656402099999987, -19.850376799999939 ], [ -43.656033299999933, -19.850257799999941 ], [ -43.655865799999958, -19.850147099999962 ], [ -43.65566739999997, -19.849945199999986 ], [ -43.655463499999939, -19.849470299999961 ], [ -43.655327199999931, -19.84892659999996 ], [ -43.655127199999981, -19.848571199999984 ], [ -43.654796099999942, -19.848197899999949 ], [ -43.654425899999985, -19.847744099999954 ], [ -43.654067199999986, -19.847351199999942 ], [ -43.653785499999969, -19.847186299999972 ], [ -43.653468099999948, -19.84707979999995 ], [ -43.653118799999966, -19.847004499999965 ], [ -43.652667099999967, -19.846956699999957 ], [ -43.651781799999988, -19.846768299999951 ], [ -43.651337299999973, -19.846649499999948 ], [ -43.650442799999951, -19.846079399999965 ], [ -43.650006499999961, -19.845759599999944 ], [ -43.649696899999988, -19.84554629999996 ], [ -43.649426299999959, -19.845281299999957 ], [ -43.649346399999963, -19.84506389999995 ], [ -43.649242199999946, -19.845000599999942 ], [ -43.649211099999945, -19.844981699999952 ], [ -43.649144199999967, -19.844941099999954 ], [ -43.649077399999953, -19.844900499999941 ], [ -43.64898, -19.844476099999959 ], [ -43.648786799999982, -19.84426719999994 ], [ -43.648291599999936, -19.844016899999932 ], [ -43.6477139, -19.843624199999958 ], [ -43.647322199999962, -19.843030499999934 ], [ -43.647204099999954, -19.842772499999956 ], [ -43.646989599999984, -19.842561099999948 ], [ -43.64675689999995, -19.842393099999978 ], [ -43.646391699999981, -19.842120599999927 ], [ -43.645614799999976, -19.841842299999925 ], [ -43.645127699999932, -19.841952399999961 ], [ -43.644530599999946, -19.842074199999956 ], [ -43.644031899999959, -19.842137899999951 ], [ -43.643553599999962, -19.842169799999972 ], [ -43.643332699999981, -19.842076199999951 ], [ -43.643220799999945, -19.841834 ], [ -43.643020199999967, -19.841347399999965 ], [ -43.642871599999978, -19.84121 ], [ -43.642622699999947, -19.841039099999932 ], [ -43.642399799999964, -19.840961099999959 ], [ -43.6421491, -19.840912799999952 ], [ -43.642019099999978, -19.840779 ], [ -43.641833299999981, -19.840314699999965 ], [ -43.641450699999957, -19.83968689999994 ], [ -43.64135779999998, -19.839549399999957 ], [ -43.641205499999963, -19.839270799999955 ], [ -43.641146099999958, -19.839140799999928 ], [ -43.63987469999995, -19.839517699999927 ], [ -43.639829099999986, -19.839872499999949 ], [ -43.639668799999981, -19.840718899999949 ], [ -43.639725399999982, -19.841107699999952 ], [ -43.63979919999997, -19.841202199999938 ], [ -43.63980689999994, -19.841228799999946 ], [ -43.639895699999954, -19.841372799999917 ], [ -43.639821499999982, -19.841445499999953 ], [ -43.639691699999958, -19.841585599999988 ], [ -43.639665799999925, -19.841624499999956 ], [ -43.639633499999945, -19.84165779999994 ], [ -43.639519599999971, -19.841971 ], [ -43.639405099999983, -19.842264599999957 ], [ -43.639281, -19.842461299999968 ], [ -43.639110799999969, -19.84251919999997 ], [ -43.638885699999946, -19.842573 ], [ -43.638643499999937, -19.842655299999933 ], [ -43.638435, -19.842675599999939 ] ] ], [ [ [ -43.562160399999982, -19.802688699999969 ], [ -43.562191499999983, -19.802797 ], [ -43.562283699999966, -19.802840399999983 ], [ -43.562337, -19.802985399999965 ], [ -43.562300899999968, -19.803184 ], [ -43.563674399999968, -19.802493299999988 ], [ -43.563774799999969, -19.802457499999942 ], [ -43.563823899999932, -19.802447299999987 ], [ -43.563877099999956, -19.802461899999976 ], [ -43.563929099999939, -19.802491 ], [ -43.563968399999972, -19.802529899999975 ], [ -43.563998799999979, -19.8025871 ], [ -43.564017899999953, -19.802639599999967 ], [ -43.564035699999977, -19.802684799999962 ], [ -43.564070299999969, -19.802746899999942 ], [ -43.564119499999954, -19.802797599999955 ], [ -43.564161899999931, -19.802821299999941 ], [ -43.564215199999978, -19.802835899999938 ], [ -43.564290699999965, -19.802845299999937 ], [ -43.564372099999957, -19.802859699999946 ], [ -43.564474699999955, -19.802881399999929 ], [ -43.564543899999933, -19.802901 ], [ -43.564652799999976, -19.802934199999985 ], [ -43.564782699999974, -19.802969099999927 ], [ -43.564803, -19.802796299999954 ], [ -43.56482189999997, -19.802619199999981 ], [ -43.564789, -19.802336499999956 ], [ -43.564763399999947, -19.802214399999965 ], [ -43.564641899999977, -19.801279899999944 ], [ -43.56463569999994, -19.801073599999945 ], [ -43.56462229999994, -19.800868499999975 ], [ -43.564596499999944, -19.800772699999982 ], [ -43.564546899999989, -19.800688 ], [ -43.564491899999958, -19.800635 ], [ -43.564358199999965, -19.800559199999945 ], [ -43.564188699999931, -19.800452199999935 ], [ -43.563991299999941, -19.800297899999975 ], [ -43.56389, -19.80016679999995 ], [ -43.563823099999979, -19.79994389999997 ], [ -43.563783199999932, -19.799830399999969 ], [ -43.563719799999944, -19.799681899999932 ], [ -43.563649199999929, -19.799515799999931 ], [ -43.563646499999955, -19.799375899999973 ], [ -43.563677699999964, -19.799242099999955 ], [ -43.563729499999965, -19.799145699999944 ], [ -43.563783, -19.79908329999995 ], [ -43.563877, -19.799037 ], [ -43.563971799999933, -19.799011699999944 ], [ -43.564119599999962, -19.799004299999979 ], [ -43.564295199999947, -19.799021299999939 ], [ -43.56435869999995, -19.799021199999963 ], [ -43.564429499999953, -19.799003099999943 ], [ -43.564478199999947, -19.798928599999947 ], [ -43.564486099999954, -19.798875 ], [ -43.564816599999979, -19.798958799999987 ], [ -43.565223499999945, -19.799019099999949 ], [ -43.565335699999927, -19.799018099999952 ], [ -43.565374499999962, -19.798982699999943 ], [ -43.565410899999961, -19.798896899999917 ], [ -43.565395699999954, -19.798779199999959 ], [ -43.565348399999941, -19.798671 ], [ -43.565297799999939, -19.798579 ], [ -43.565276399999966, -19.798509199999955 ], [ -43.565231199999971, -19.798369599999937 ], [ -43.565244899999982, -19.79816529999994 ], [ -43.565281299999981, -19.798091599999974 ], [ -43.565372399999951, -19.797923099999938 ], [ -43.565520699999979, -19.797783599999946 ], [ -43.565668499999958, -19.797786099999939 ], [ -43.565875199999937, -19.797786099999932 ], [ -43.565963299999964, -19.797725799999959 ], [ -43.566053199999935, -19.797561 ], [ -43.566071799999982, -19.797450499999968 ], [ -43.566037499999929, -19.7973115 ], [ -43.565867699999956, -19.797107 ], [ -43.565876199999934, -19.79684049999997 ], [ -43.565786299999957, -19.796442499999948 ], [ -43.565678699999978, -19.796197199999938 ], [ -43.5653119, -19.795678399999925 ], [ -43.565152399999931, -19.795593699999923 ], [ -43.564772099999978, -19.795508799999929 ], [ -43.564515299999982, -19.795462899999954 ], [ -43.564304, -19.795398899999945 ], [ -43.564195499999983, -19.795385299999953 ], [ -43.56404809999998, -19.795322499999937 ], [ -43.563931799999985, -19.795283399999967 ], [ -43.563806399999976, -19.795251599999968 ], [ -43.563653899999963, -19.795226899999935 ], [ -43.563570899999938, -19.795198699999965 ], [ -43.563370399999947, -19.795133799999981 ], [ -43.563166699999961, -19.795047199999932 ], [ -43.563052899999946, -19.794957 ], [ -43.562920499999962, -19.794931499999969 ], [ -43.562757499999968, -19.794906099999945 ], [ -43.562457099999961, -19.79483479999994 ], [ -43.562334799999967, -19.79471249999995 ], [ -43.56224919999994, -19.794753199999938 ], [ -43.5622542, -19.7948158 ], [ -43.56227169999994, -19.7948833 ], [ -43.562239199999958, -19.795046 ], [ -43.562141599999961, -19.795158599999983 ], [ -43.562038899999955, -19.795204699999946 ], [ -43.561953499999959, -19.795203 ], [ -43.561786299999945, -19.795250099999979 ], [ -43.56173739999997, -19.795262499999971 ], [ -43.561599099999974, -19.795349899999959 ], [ -43.561510099999964, -19.795433699999936 ], [ -43.561385799999989, -19.795493 ], [ -43.561202699999967, -19.795539 ], [ -43.560748499999931, -19.795485299999946 ], [ -43.560615699999971, -19.7954559 ], [ -43.560404399999975, -19.795437699999972 ], [ -43.560171899999943, -19.795346299999945 ], [ -43.560004, -19.795312199999955 ], [ -43.559866899999967, -19.79533 ], [ -43.559775099999975, -19.79548489999997 ], [ -43.559759099999958, -19.795538899999933 ], [ -43.559751099999971, -19.795587299999962 ], [ -43.559738699999969, -19.795609799999966 ], [ -43.5597, -19.79568 ], [ -43.559556799999939, -19.796297899999963 ], [ -43.559411799999964, -19.796926799999937 ], [ -43.55933739999994, -19.797332699999966 ], [ -43.559365899999939, -19.797507499999927 ], [ -43.559495499999969, -19.797684799999967 ], [ -43.560593499999982, -19.798023 ], [ -43.56076, -19.798111399999986 ], [ -43.560764599999978, -19.798219799999977 ], [ -43.56085359999998, -19.798390099999953 ], [ -43.560947799999951, -19.798438299999937 ], [ -43.561048699999951, -19.798442499999968 ], [ -43.560995299999952, -19.798716399999936 ], [ -43.560775299999932, -19.799886599999976 ], [ -43.560589399999969, -19.800683199999977 ], [ -43.560485099999937, -19.801096099999945 ], [ -43.56042269999994, -19.801193 ], [ -43.56018579999995, -19.801343799999927 ], [ -43.560007599999949, -19.801477099999936 ], [ -43.559548499999956, -19.801770399999945 ], [ -43.55923039999994, -19.80199109999996 ], [ -43.559138299999979, -19.802079899999974 ], [ -43.55904019999997, -19.802194499999924 ], [ -43.558889399999948, -19.802367299999965 ], [ -43.558811299999952, -19.802441699999981 ], [ -43.559376399999969, -19.80230349999993 ], [ -43.559654799999976, -19.802167699999924 ], [ -43.560068899999976, -19.802031899999978 ], [ -43.560700299999951, -19.801882499999973 ], [ -43.561039699999988, -19.80186219999997 ], [ -43.561257, -19.801998 ], [ -43.561404, -19.802007599999968 ], [ -43.561402199999975, -19.80201169999998 ], [ -43.561523899999941, -19.80224619999996 ], [ -43.561530899999973, -19.802341799999958 ], [ -43.561577099999965, -19.802403399999942 ], [ -43.561621099999968, -19.80246 ], [ -43.561738299999945, -19.802464399999952 ], [ -43.561875, -19.802431199999941 ], [ -43.561932199999951, -19.802448899999941 ], [ -43.561988899999967, -19.802493899999948 ], [ -43.562008399999968, -19.802595099999948 ], [ -43.562160399999982, -19.802688699999969 ] ] ], [ [ [ -43.649517399999979, -19.779702 ], [ -43.649201899999987, -19.779907899999959 ], [ -43.648557899999965, -19.780560799999936 ], [ -43.648102199999983, -19.781044899999927 ], [ -43.648812, -19.781894899999941 ], [ -43.649513, -19.782254099999935 ], [ -43.65024909999994, -19.782017599999961 ], [ -43.650818599999987, -19.781684599999942 ], [ -43.651213, -19.781439199999959 ], [ -43.65172119999994, -19.781185099999956 ], [ -43.652395899999938, -19.780782 ], [ -43.652606199999987, -19.780606799999926 ], [ -43.653237199999985, -19.780273799999964 ], [ -43.653780399999967, -19.780072199999939 ], [ -43.654069599999957, -19.779949599999956 ], [ -43.655340199999962, -19.77987069999995 ], [ -43.656014899999946, -19.779730499999967 ], [ -43.656347899999957, -19.779695399999984 ], [ -43.656523199999988, -19.779564 ], [ -43.656755399999959, -19.779349299999982 ], [ -43.656837099999954, -19.779219699999938 ], [ -43.656757, -19.779064499999954 ], [ -43.656376, -19.778325699999982 ], [ -43.655835499999966, -19.777674699999981 ], [ -43.65292409999995, -19.776010099999958 ], [ -43.652829699999984, -19.775934 ], [ -43.652827799999962, -19.775943199999958 ], [ -43.652754099999989, -19.776145299999943 ], [ -43.652978, -19.776339099999973 ], [ -43.653283699999982, -19.776508299999932 ], [ -43.653488, -19.776682199999971 ], [ -43.653534, -19.776892499999963 ], [ -43.65272779999998, -19.777269299999944 ], [ -43.650487799999958, -19.778998799999957 ], [ -43.649517399999979, -19.779702 ] ] ], [ [ [ -43.627759299999987, -19.760313699999919 ], [ -43.627466899999952, -19.760204299999934 ], [ -43.627154899999937, -19.760106799999964 ], [ -43.626610299999982, -19.759794199999931 ], [ -43.626454299999978, -19.759732899999957 ], [ -43.626005799999973, -19.759465499999973 ], [ -43.624863799999957, -19.758675799999935 ], [ -43.624579599999947, -19.758752399999924 ], [ -43.6244028, -19.758817799999985 ], [ -43.624266299999938, -19.7589 ], [ -43.624238399999975, -19.758932 ], [ -43.624199399999952, -19.75904279999996 ], [ -43.624198, -19.759091499999961 ], [ -43.624252299999966, -19.759159799999956 ], [ -43.624361, -19.759228 ], [ -43.624565699999948, -19.759335899999936 ], [ -43.624593599999962, -19.759388899999983 ], [ -43.624175699999974, -19.759677199999945 ], [ -43.623941699999939, -19.759866599999956 ], [ -43.623737, -19.76009989999995 ], [ -43.623443099999967, -19.760464799999973 ], [ -43.623432, -19.760491299999948 ], [ -43.62341669999995, -19.760709599999917 ], [ -43.623355399999987, -19.761190799999948 ], [ -43.623237, -19.761773699999935 ], [ -43.623214699999956, -19.761954699999929 ], [ -43.623220299999957, -19.762172 ], [ -43.623256499999975, -19.762442199999946 ], [ -43.623299699999961, -19.762564799999957 ], [ -43.623434799999977, -19.762829399999926 ], [ -43.62357819999994, -19.762960299999982 ], [ -43.623663199999953, -19.763016 ], [ -43.623734199999944, -19.76304109999996 ], [ -43.624193799999944, -19.763161599999936 ], [ -43.624311499999983, -19.763182799999985 ], [ -43.624749899999976, -19.763109 ], [ -43.62479859999997, -19.763125699999925 ], [ -43.625048, -19.763382 ], [ -43.6256552, -19.763697099999952 ], [ -43.62578469999994, -19.7637946 ], [ -43.6259783, -19.763883699999948 ], [ -43.626226199999969, -19.76392689999993 ], [ -43.626642699999927, -19.763875399999957 ], [ -43.626790299999982, -19.763865599999978 ], [ -43.627418499999976, -19.763865599999978 ], [ -43.627747199999938, -19.763729799999961 ], [ -43.627974899999977, -19.763673399999949 ], [ -43.628160799999939, -19.763678299999988 ], [ -43.628215099999977, -19.763688699999935 ], [ -43.628399, -19.763753499999947 ], [ -43.628614199999959, -19.763883 ], [ -43.628898299999946, -19.76411279999996 ], [ -43.629113499999967, -19.764204799999955 ], [ -43.629238799999946, -19.764271599999965 ], [ -43.629361, -19.764403699999946 ], [ -43.629421599999944, -19.764543699999933 ], [ -43.629553199999982, -19.764660699999975 ], [ -43.629762199999959, -19.764901 ], [ -43.630003499999937, -19.76537159999997 ], [ -43.630030599999948, -19.765409199999972 ], [ -43.630329399999937, -19.765572099999932 ], [ -43.630623399999934, -19.765647099999956 ], [ -43.630871, -19.765593799999969 ], [ -43.631095599999988, -19.765481 ], [ -43.631462699999936, -19.765257499999954 ], [ -43.6315, -19.765479799999962 ], [ -43.632509599999935, -19.76576829999992 ], [ -43.63289519999995, -19.766412199999948 ], [ -43.633372, -19.766379399999952 ], [ -43.633540599999947, -19.766242899999952 ], [ -43.633442699999939, -19.765720899999952 ], [ -43.633394, -19.764991399999928 ], [ -43.633616399999944, -19.764212699999973 ], [ -43.63387529999995, -19.76410489999995 ], [ -43.634383599999978, -19.764064299999962 ], [ -43.634948399999978, -19.764066599999982 ], [ -43.635652, -19.763942699999973 ], [ -43.635869099999979, -19.76383159999995 ], [ -43.635994099999948, -19.763222199999973 ], [ -43.63600109999993, -19.76285119999995 ], [ -43.63617759999994, -19.76207729999993 ], [ -43.636434699999938, -19.76148819999997 ], [ -43.636635699999943, -19.76128789999995 ], [ -43.637007099999956, -19.761194399999972 ], [ -43.637705399999959, -19.761156599999932 ], [ -43.638085699999976, -19.761237599999966 ], [ -43.638550699999939, -19.761276199999941 ], [ -43.639107699999961, -19.761626299999936 ], [ -43.639492899999937, -19.762018299999969 ], [ -43.6401623, -19.762550699999966 ], [ -43.640472599999953, -19.762761699999938 ], [ -43.640635299999985, -19.76274989999996 ], [ -43.640355099999965, -19.762495399999967 ], [ -43.640265399999976, -19.762395499999972 ], [ -43.640200099999959, -19.762321499999924 ], [ -43.640117799999985, -19.762214099999941 ], [ -43.640030699999954, -19.762073699999966 ], [ -43.639898, -19.761758599999954 ], [ -43.639743199999941, -19.761389499999954 ], [ -43.63966889999994, -19.761178899999951 ], [ -43.639617899999962, -19.76100669999995 ], [ -43.639494099999972, -19.760691499999947 ], [ -43.639354599999933, -19.760456 ], [ -43.639150799999982, -19.760234199999946 ], [ -43.638951299999974, -19.760089599999951 ], [ -43.638692799999944, -19.760000199999979 ], [ -43.638404199999975, -19.759971899999986 ], [ -43.638135099999943, -19.759987299999977 ], [ -43.637790699999982, -19.759982499999982 ], [ -43.637546699999966, -19.759961899999951 ], [ -43.637326, -19.759930599999965 ], [ -43.637128099999984, -19.759858299999944 ], [ -43.637002199999984, -19.759780599999949 ], [ -43.636819599999967, -19.75960149999997 ], [ -43.636651399999948, -19.759328899999964 ], [ -43.636484799999948, -19.758944 ], [ -43.636276099999975, -19.758468599999947 ], [ -43.636088, -19.758023 ], [ -43.635938299999964, -19.757840499999926 ], [ -43.635754399999946, -19.757694 ], [ -43.635595699999953, -19.757570199999975 ], [ -43.635403299999957, -19.757455799999946 ], [ -43.635224099999967, -19.757411699999974 ], [ -43.635022099999958, -19.757392599999939 ], [ -43.634802599999944, -19.75738379999995 ], [ -43.634583499999962, -19.757377099999925 ], [ -43.634367699999984, -19.757382899999989 ], [ -43.63427379999996, -19.757376699999959 ], [ -43.634105399999946, -19.757365499999931 ], [ -43.63385349999993, -19.75733339999994 ], [ -43.633651399999955, -19.757289099999969 ], [ -43.633479699999953, -19.757249799999958 ], [ -43.633325599999978, -19.757207699999984 ], [ -43.633210799999972, -19.757172799999989 ], [ -43.633108899999975, -19.757150499999959 ], [ -43.632910199999969, -19.757115299999949 ], [ -43.632580499999968, -19.757091599999967 ], [ -43.632350299999985, -19.757077399999954 ], [ -43.632158199999935, -19.757052499999922 ], [ -43.63198529999994, -19.757024299999951 ], [ -43.631809599999933, -19.756970499999973 ], [ -43.631645499999941, -19.756884499999963 ], [ -43.631508399999973, -19.756793099999985 ], [ -43.631422799999939, -19.756708899999985 ], [ -43.631345599999968, -19.756606799999922 ], [ -43.631284699999988, -19.75664109999996 ], [ -43.631074199999951, -19.756755499999937 ], [ -43.630607399999974, -19.75713519999994 ], [ -43.630448599999966, -19.757436799999937 ], [ -43.630847899999942, -19.75777829999992 ], [ -43.63160419999997, -19.758251599999944 ], [ -43.631520099999932, -19.758655699999967 ], [ -43.631084199999982, -19.759192599999942 ], [ -43.630555699999952, -19.759852 ], [ -43.63040559999996, -19.760229399999947 ], [ -43.630375699999945, -19.760265599999958 ], [ -43.629915399999959, -19.760617299999968 ], [ -43.629791399999924, -19.760699499999927 ], [ -43.629358299999978, -19.760781599999962 ], [ -43.628971099999951, -19.760756599999972 ], [ -43.628380499999935, -19.76068419999995 ], [ -43.62797379999995, -19.760547699999954 ], [ -43.627809499999955, -19.760352699999935 ], [ -43.627759299999987, -19.760313699999919 ] ] ] ] } }
]
}
