{
"type": "FeatureCollection",
"name": "3112901",
"crs": { "type": "name", "properties": { "name": "urn:ogc:def:crs:OGC:1.3:CRS84" } },
"features": [
{ "type": "Feature", "properties": { "CD_MUN": "3112901", "NM_MUN": "Caputira" }, "geometry": { "type": "MultiPolygon", "coordinates": [ [ [ [ -42.239249399999956, -20.190713799999966 ], [ -42.239190799999967, -20.191356199999969 ], [ -42.239184499999972, -20.191815099999928 ], [ -42.239183799999985, -20.192454199999911 ], [ -42.239188699999936, -20.19274009999997 ], [ -42.23916909999997, -20.193033 ], [ -42.239134499999977, -20.193345399999934 ], [ -42.23914549999995, -20.193599 ], [ -42.239171499999948, -20.194042399999937 ], [ -42.239337899999953, -20.194644099999948 ], [ -42.239502199999954, -20.194734 ], [ -42.239720499999983, -20.194779 ], [ -42.239840099999981, -20.194639199999919 ], [ -42.240453499999951, -20.194681599999967 ], [ -42.240543399999979, -20.194368499999936 ], [ -42.240523099999962, -20.194135599999981 ], [ -42.240785399999943, -20.193953899999929 ], [ -42.241032199999957, -20.194178599999915 ], [ -42.241236799999974, -20.194056799999931 ], [ -42.241277099999941, -20.193836599999923 ], [ -42.241434899999945, -20.193637199999959 ], [ -42.241647599999972, -20.193677599999951 ], [ -42.241984899999977, -20.193623099999961 ], [ -42.242178899999942, -20.193447799999941 ], [ -42.242372899999971, -20.19334839999993 ], [ -42.242781, -20.193328 ], [ -42.243055399999946, -20.193261899999975 ], [ -42.243115199999984, -20.193092299999929 ], [ -42.243015199999952, -20.192794699999979 ], [ -42.243046599999957, -20.192536499999949 ], [ -42.243571399999951, -20.19240809999997 ], [ -42.243543399999965, -20.192070899999983 ], [ -42.243433499999981, -20.192034599999939 ], [ -42.241674499999931, -20.191281299999954 ], [ -42.240098599999953, -20.190581199999933 ], [ -42.23987249999994, -20.190480799999925 ], [ -42.239828299999942, -20.190455699999976 ], [ -42.239716599999959, -20.190392199999962 ], [ -42.239615799999967, -20.190351199999942 ], [ -42.239549699999941, -20.190336299999949 ], [ -42.239249399999956, -20.190713799999966 ] ] ], [ [ [ -42.268187699999949, -20.175052099999952 ], [ -42.268884899999939, -20.175052099999959 ], [ -42.269710499999981, -20.174666799999933 ], [ -42.270079699999947, -20.174538399999939 ], [ -42.270132499999931, -20.17452 ], [ -42.270155799999948, -20.174524 ], [ -42.270691299999953, -20.174616199999939 ], [ -42.271689699999975, -20.174828 ], [ -42.272220699999934, -20.174840199999956 ], [ -42.272466299999962, -20.174838 ], [ -42.273908399999989, -20.174838 ], [ -42.274674899999987, -20.174828 ], [ -42.27544139999997, -20.174797699999946 ], [ -42.275899599999946, -20.17490929999996 ], [ -42.276771499999938, -20.175131299999975 ], [ -42.277099199999952, -20.175278799999937 ], [ -42.277696599999963, -20.175266899999922 ], [ -42.277552699999944, -20.174842 ], [ -42.277515299999948, -20.174296799999976 ], [ -42.277357699999982, -20.173786099999958 ], [ -42.277290199999982, -20.173668299999967 ], [ -42.276754099999955, -20.173482299999929 ], [ -42.276458899999966, -20.172775599999962 ], [ -42.275811299999937, -20.171295199999985 ], [ -42.275025, -20.170868099999943 ], [ -42.274522899999965, -20.170473 ], [ -42.273837499999956, -20.169966899999963 ], [ -42.27332789999997, -20.169590799999966 ], [ -42.273018699999973, -20.169437699999932 ], [ -42.272860099999953, -20.169172699999919 ], [ -42.272684899999945, -20.169017399999966 ], [ -42.272290599999963, -20.168967 ], [ -42.271743799999967, -20.168920699999944 ], [ -42.271352499999985, -20.168948 ], [ -42.271132699999953, -20.16858789999997 ], [ -42.270720699999977, -20.168196899999945 ], [ -42.268964199999978, -20.166611299999929 ], [ -42.267305699999959, -20.166507099999933 ], [ -42.2647401, -20.16801009999995 ], [ -42.2638712, -20.168196899999948 ], [ -42.262688799999978, -20.167902099999921 ], [ -42.262214099999937, -20.167785099999946 ], [ -42.261637499999956, -20.16774689999993 ], [ -42.261721499999965, -20.168142699999969 ], [ -42.2615249, -20.168517599999966 ], [ -42.261473499999965, -20.169083099999966 ], [ -42.2612003, -20.169492 ], [ -42.260960599999976, -20.169812399999945 ], [ -42.26080879999995, -20.170046799999962 ], [ -42.26070459999994, -20.170190599999945 ], [ -42.260538899999979, -20.170537799999973 ], [ -42.260266899999969, -20.170824599999943 ], [ -42.260127, -20.171027 ], [ -42.260495899999974, -20.171230399999942 ], [ -42.260316799999949, -20.17165719999997 ], [ -42.260136199999977, -20.171909399999937 ], [ -42.260131899999976, -20.171913799999963 ], [ -42.26044289999993, -20.172178799999923 ], [ -42.260534, -20.172418499999928 ], [ -42.260587599999951, -20.172558 ], [ -42.260628, -20.17274 ], [ -42.260877299999954, -20.17280479999992 ], [ -42.261038299999939, -20.172933499999946 ], [ -42.261154799999986, -20.17324919999993 ], [ -42.261412699999937, -20.173385199999917 ], [ -42.26152959999996, -20.173560699999936 ], [ -42.26171039999997, -20.173571299999942 ], [ -42.262008099999946, -20.173693599999979 ], [ -42.262234099999944, -20.173903599999964 ], [ -42.262272199999984, -20.174210399999929 ], [ -42.263069, -20.174336499999981 ], [ -42.263438299999969, -20.174421899999967 ], [ -42.263613699999951, -20.17440329999992 ], [ -42.26378919999997, -20.174384699999948 ], [ -42.26435319999996, -20.174373199999931 ], [ -42.264940299999978, -20.174428299999924 ], [ -42.2656742, -20.174611699999947 ], [ -42.265772799999972, -20.174617699999953 ], [ -42.266523599999978, -20.174771 ], [ -42.266554899999967, -20.174776899999927 ], [ -42.267380499999952, -20.174868599999964 ], [ -42.267681499999988, -20.174935 ], [ -42.268187699999949, -20.175052099999952 ] ] ], [ [ [ -42.29718459999998, -20.150040599999944 ], [ -42.297452399999941, -20.150043099999948 ], [ -42.2975302, -20.149763599999964 ], [ -42.297860599999979, -20.149561599999959 ], [ -42.297961, -20.149279699999965 ], [ -42.298066699999936, -20.149026399999965 ], [ -42.298301599999945, -20.148866699999921 ], [ -42.298376699999956, -20.148705699999933 ], [ -42.298406599999971, -20.148556899999949 ], [ -42.298469399999931, -20.14834889999997 ], [ -42.298556399999939, -20.148142499999956 ], [ -42.298456699999974, -20.148033399999967 ], [ -42.298546799999933, -20.147834099999955 ], [ -42.298632399999967, -20.147700699999969 ], [ -42.298638299999936, -20.147483899999933 ], [ -42.298528699999963, -20.147522399999968 ], [ -42.298459799999932, -20.147271799999938 ], [ -42.298559399999931, -20.146849099999944 ], [ -42.298469299999965, -20.146784899999936 ], [ -42.298384499999941, -20.146567499999946 ], [ -42.298356599999984, -20.146215799999926 ], [ -42.298259, -20.146179699999944 ], [ -42.298318399999964, -20.145912199999938 ], [ -42.298436299999935, -20.145896399999973 ], [ -42.298668399999947, -20.145543699999958 ], [ -42.298765399999986, -20.145282799999961 ], [ -42.298683399999959, -20.145165499999944 ], [ -42.298750199999979, -20.145037699999932 ], [ -42.298932699999966, -20.145057 ], [ -42.299034199999944, -20.144696399999926 ], [ -42.299067799999932, -20.144427299999958 ], [ -42.299158599999942, -20.144297499999929 ], [ -42.299099799999965, -20.143988199999967 ], [ -42.299004499999974, -20.143817899999934 ], [ -42.298949799999946, -20.143679099999929 ], [ -42.298786899999989, -20.143516299999916 ], [ -42.298797, -20.143280299999951 ], [ -42.298891899999944, -20.143138899999926 ], [ -42.298956299999929, -20.142881899999953 ], [ -42.298948499999945, -20.142740199999931 ], [ -42.299017499999927, -20.142548599999941 ], [ -42.299154699999967, -20.142415099999948 ], [ -42.299119299999973, -20.142149699999944 ], [ -42.298680199999978, -20.14209059999995 ], [ -42.298398299999974, -20.142054099999935 ], [ -42.297865399999978, -20.141992699999932 ], [ -42.29657, -20.141587899999923 ], [ -42.295545399999988, -20.141267899999939 ], [ -42.295007, -20.142517 ], [ -42.294904899999956, -20.145114299999936 ], [ -42.29485139999997, -20.14556389999996 ], [ -42.294738499999937, -20.146513099999936 ], [ -42.294787399999969, -20.147783299999951 ], [ -42.294720199999972, -20.149092699999965 ], [ -42.29482859999996, -20.15003269999994 ], [ -42.2953328, -20.150335099999943 ], [ -42.296025599999957, -20.15072 ], [ -42.296238799999969, -20.150799399999968 ], [ -42.296842199999965, -20.15096919999996 ], [ -42.296947299999935, -20.15042829999993 ], [ -42.297073499999961, -20.150431299999958 ], [ -42.297182399999947, -20.15032119999994 ], [ -42.297087699999963, -20.150235899999924 ], [ -42.29718459999998, -20.150040599999944 ] ] ] ] } }
]
}
