{
"type": "FeatureCollection",
"name": "3113701",
"crs": { "type": "name", "properties": { "name": "urn:ogc:def:crs:OGC:1.3:CRS84" } },
"features": [
{ "type": "Feature", "properties": { "CD_MUN": "3113701", "NM_MUN": "Carlos Chagas" }, "geometry": { "type": "MultiPolygon", "coordinates": [ [ [ [ -41.013059599999963, -17.915246399999944 ], [ -41.01443339999998, -17.914638699999951 ], [ -41.015627899999963, -17.91442359999996 ], [ -41.01631469999996, -17.914434399999955 ], [ -41.015737899999976, -17.912810699999962 ], [ -41.016474199999941, -17.912214 ], [ -41.01597819999995, -17.911804399999941 ], [ -41.016355099999934, -17.911409599999967 ], [ -41.015625, -17.909931299999979 ], [ -41.018908799999963, -17.907438699999936 ], [ -41.018397399999976, -17.90689779999996 ], [ -41.01736639999995, -17.906061899999941 ], [ -41.015776399999936, -17.905600599999964 ], [ -41.014591199999984, -17.905875299999927 ], [ -41.013497, -17.906624499999968 ], [ -41.013221899999962, -17.907308 ], [ -41.012168, -17.906589799999946 ], [ -41.012129799999975, -17.906173499999966 ], [ -41.01162729999993, -17.905732 ], [ -41.011077, -17.905425399999963 ], [ -41.010466, -17.905286099999966 ], [ -41.009409699999935, -17.904771899999961 ], [ -41.008727599999922, -17.90390809999996 ], [ -41.008374799999956, -17.903562499999961 ], [ -41.007883, -17.903564699999936 ], [ -41.007412599999952, -17.903947799999965 ], [ -41.006949799999973, -17.904763299999946 ], [ -41.006961899999972, -17.90544739999995 ], [ -41.007691099999931, -17.906051899999976 ], [ -41.008830499999938, -17.906119399999959 ], [ -41.010952099999948, -17.9067075 ], [ -41.013303399999984, -17.90816029999996 ], [ -41.013854, -17.909492 ], [ -41.0130056, -17.910037499999937 ], [ -41.011789299999968, -17.909384399999965 ], [ -41.010896799999962, -17.909958599999975 ], [ -41.010469, -17.91078239999996 ], [ -41.011150399999963, -17.913040299999984 ], [ -41.011530899999961, -17.915343 ], [ -41.011721499999972, -17.915415399999961 ], [ -41.011891699999978, -17.915502099999976 ], [ -41.012104599999937, -17.915604599999931 ], [ -41.012332399999934, -17.915731699999974 ], [ -41.013059599999963, -17.915246399999944 ] ] ], [ [ [ -40.767222299999958, -17.711642699999974 ], [ -40.767313099999967, -17.711665299999943 ], [ -40.767403899999984, -17.711689599999939 ], [ -40.767514299999959, -17.711731499999939 ], [ -40.767583099999968, -17.711777299999934 ], [ -40.767660099999951, -17.711843699999971 ], [ -40.767802, -17.711982599999928 ], [ -40.767683399999946, -17.712004499999981 ], [ -40.768063099999956, -17.713459499999932 ], [ -40.768327199999938, -17.713378499999976 ], [ -40.768969399999953, -17.714820399999951 ], [ -40.769272699999931, -17.714747399999958 ], [ -40.76926, -17.713805699999959 ], [ -40.769343699999972, -17.713265699999972 ], [ -40.769467099999929, -17.712966699999978 ], [ -40.769944899999985, -17.712874499999934 ], [ -40.770016299999952, -17.71182779999998 ], [ -40.769486399999955, -17.710031199999946 ], [ -40.770332299999957, -17.709784299999964 ], [ -40.770468899999962, -17.708658699999933 ], [ -40.770979499999953, -17.70766309999993 ], [ -40.771915099999944, -17.706501699999944 ], [ -40.772614499999975, -17.706184399999927 ], [ -40.772429, -17.705734499999934 ], [ -40.772475, -17.705443099999972 ], [ -40.772006, -17.704524799999941 ], [ -40.77223929999996, -17.704344799999944 ], [ -40.772806, -17.704326 ], [ -40.77368579999996, -17.704108499999951 ], [ -40.774056399999942, -17.703783399999967 ], [ -40.774265299999968, -17.703244 ], [ -40.774301499999979, -17.702080399999932 ], [ -40.775374499999948, -17.702090199999923 ], [ -40.77615169999995, -17.702187499999987 ], [ -40.776265699999954, -17.701745299999963 ], [ -40.775798099999982, -17.700623299999961 ], [ -40.774744099999971, -17.698968399999952 ], [ -40.773239099999955, -17.698205399999946 ], [ -40.772345699999953, -17.698203299999932 ], [ -40.772011099999929, -17.697932899999948 ], [ -40.77277219999997, -17.697043 ], [ -40.77304589999995, -17.696741799999927 ], [ -40.773196, -17.696612199999937 ], [ -40.773309899999958, -17.696554499999927 ], [ -40.77329, -17.695741399999978 ], [ -40.774543699999981, -17.691902799999976 ], [ -40.773440499999943, -17.691101599999961 ], [ -40.773539399999947, -17.689344799999962 ], [ -40.771887199999981, -17.689468599999948 ], [ -40.772118899999953, -17.690064799999952 ], [ -40.772113899999965, -17.690747199999969 ], [ -40.77195949999998, -17.691238099999964 ], [ -40.771805399999948, -17.691778299999957 ], [ -40.77158529999997, -17.692365 ], [ -40.771379299999985, -17.692874 ], [ -40.771147299999932, -17.693236199999944 ], [ -40.770773, -17.69368829999997 ], [ -40.770366199999955, -17.694099299999955 ], [ -40.7697424, -17.694581 ], [ -40.769140299999947, -17.694958099999958 ], [ -40.767485199999953, -17.696082 ], [ -40.765393699999954, -17.697042799999959 ], [ -40.764507299999934, -17.697325699999965 ], [ -40.763456099999985, -17.697632699999918 ], [ -40.762362099999962, -17.698000899999951 ], [ -40.761442799999941, -17.698339699999963 ], [ -40.760836199999972, -17.698721899999956 ], [ -40.760426499999944, -17.699063299999974 ], [ -40.760039499999948, -17.699780299999929 ], [ -40.759959799999933, -17.700622499999955 ], [ -40.760039499999948, -17.7015671 ], [ -40.760289199999924, -17.702388199999966 ], [ -40.760481399999946, -17.703007699999944 ], [ -40.760695099999971, -17.703584599999942 ], [ -40.760950599999944, -17.704511699999951 ], [ -40.76048069999996, -17.704601799999985 ], [ -40.760322, -17.704697599999978 ], [ -40.760247099999965, -17.704800799999937 ], [ -40.760149599999977, -17.705035199999941 ], [ -40.760004699999975, -17.70556119999997 ], [ -40.759760599999943, -17.706378399999949 ], [ -40.76178189999996, -17.707783199999941 ], [ -40.761444799999936, -17.708719199999958 ], [ -40.76096839999996, -17.709289299999963 ], [ -40.760438, -17.709527499999979 ], [ -40.759992299999972, -17.709663699999961 ], [ -40.759360099999974, -17.709697399999971 ], [ -40.758752099999988, -17.709513499999957 ], [ -40.757935799999984, -17.709416399999956 ], [ -40.756546, -17.709365699999978 ], [ -40.756553299999958, -17.71000459999993 ], [ -40.756557099999959, -17.710209 ], [ -40.756873499999983, -17.710447599999956 ], [ -40.757231299999958, -17.710626 ], [ -40.757632699999931, -17.710603299999939 ], [ -40.758516499999985, -17.709991499999941 ], [ -40.75929339999994, -17.71025029999992 ], [ -40.760018699999932, -17.710362199999967 ], [ -40.761016599999941, -17.710269699999973 ], [ -40.761713, -17.710018699999981 ], [ -40.761610699999949, -17.710195799999944 ], [ -40.761567499999956, -17.710349399999924 ], [ -40.761527199999939, -17.710493 ], [ -40.761458199999929, -17.710844799999954 ], [ -40.76144859999993, -17.711013499999986 ], [ -40.76144869999996, -17.711140899999979 ], [ -40.761246899999954, -17.711029199999921 ], [ -40.760950399999963, -17.710865 ], [ -40.760815699999966, -17.710683499999966 ], [ -40.760564399999964, -17.710663199999949 ], [ -40.759861199999932, -17.711222199999956 ], [ -40.75943939999997, -17.711948 ], [ -40.758000099999954, -17.715160599999926 ], [ -40.758149799999963, -17.715263299999954 ], [ -40.758115499999974, -17.715458799999965 ], [ -40.758136599999943, -17.715669599999963 ], [ -40.758312199999985, -17.715848799999961 ], [ -40.758730299999975, -17.716302 ], [ -40.758951599999939, -17.716554899999952 ], [ -40.75914129999996, -17.716765699999943 ], [ -40.759204599999975, -17.716927299999949 ], [ -40.759194, -17.717113499999975 ], [ -40.759222099999938, -17.717201399999976 ], [ -40.75938729999995, -17.717408699999968 ], [ -40.759506699999974, -17.717468399999969 ], [ -40.759851, -17.717911 ], [ -40.760163699999964, -17.718311599999932 ], [ -40.760293699999984, -17.718406399999932 ], [ -40.760409599999946, -17.718603099999928 ], [ -40.76049739999997, -17.718764799999967 ], [ -40.76057469999995, -17.719000099999956 ], [ -40.760571199999958, -17.719274199999973 ], [ -40.760434199999963, -17.71941819999995 ], [ -40.760262, -17.719509599999988 ], [ -40.760146099999929, -17.719544699999979 ], [ -40.759815899999985, -17.71959389999996 ], [ -40.759633199999946, -17.719562299999954 ], [ -40.759366199999938, -17.719576299999964 ], [ -40.759203899999939, -17.719607099999973 ], [ -40.75989739999995, -17.71990919999995 ], [ -40.760008599999942, -17.719969099999954 ], [ -40.760382099999966, -17.720195499999924 ], [ -40.760712299999966, -17.72039639999997 ], [ -40.760719, -17.72036519999995 ], [ -40.760726199999965, -17.720341699999942 ], [ -40.760737499999955, -17.720314499999965 ], [ -40.760754199999958, -17.720284399999958 ], [ -40.760768399999961, -17.720264199999981 ], [ -40.760787499999935, -17.720241799999947 ], [ -40.760805199999943, -17.720224699999967 ], [ -40.760836499999982, -17.720200799999915 ], [ -40.760870699999948, -17.720181399999944 ], [ -40.760893399999929, -17.720171799999935 ], [ -40.761081099999956, -17.719913199999944 ], [ -40.761078799999957, -17.719697599999954 ], [ -40.761105799999946, -17.719338399999973 ], [ -40.761122099999966, -17.718938899999952 ], [ -40.761145299999953, -17.718491799999978 ], [ -40.761167499999949, -17.71813409999994 ], [ -40.761167299999961, -17.718071099999982 ], [ -40.762570199999971, -17.718102499999929 ], [ -40.762569199999966, -17.718168599999963 ], [ -40.762557899999933, -17.719486599999971 ], [ -40.762885, -17.719397899999933 ], [ -40.763357399999975, -17.719258799999963 ], [ -40.763831299999943, -17.719135 ], [ -40.764282599999945, -17.718985799999917 ], [ -40.764713199999967, -17.718864199999931 ], [ -40.764983199999961, -17.718755499999933 ], [ -40.765189599999985, -17.718591499999949 ], [ -40.765283899999936, -17.718460799999939 ], [ -40.765304299999968, -17.718272899999924 ], [ -40.765268299999946, -17.718087199999957 ], [ -40.765211599999937, -17.717958699999951 ], [ -40.765121899999947, -17.717883899999944 ], [ -40.76498179999993, -17.717802199999944 ], [ -40.764848799999982, -17.717736299999963 ], [ -40.764688599999943, -17.717663499999954 ], [ -40.764495099999984, -17.717470499999934 ], [ -40.764324, -17.717306299999958 ], [ -40.764192, -17.717235299999967 ], [ -40.764006699999982, -17.717201399999976 ], [ -40.763830199999973, -17.717204799999937 ], [ -40.763354, -17.717199599999951 ], [ -40.763236399999982, -17.717120499999954 ], [ -40.762883299999949, -17.716864699999963 ], [ -40.762757799999974, -17.716792 ], [ -40.762563099999973, -17.716666 ], [ -40.76231729999995, -17.71654269999993 ], [ -40.762162699999976, -17.716114 ], [ -40.76214159999995, -17.715685399999924 ], [ -40.762078399999957, -17.715404399999951 ], [ -40.761288799999939, -17.715241399999961 ], [ -40.761296499999958, -17.714964499999954 ], [ -40.761323, -17.714648299999954 ], [ -40.761367299999961, -17.713861099999978 ], [ -40.761408099999983, -17.712748499999972 ], [ -40.761417, -17.712171799999965 ], [ -40.761832899999938, -17.712148599999974 ], [ -40.762304, -17.712248299999942 ], [ -40.762756799999984, -17.712389899999941 ], [ -40.763256, -17.71255709999997 ], [ -40.763736, -17.712667299999957 ], [ -40.764513399999942, -17.712800599999987 ], [ -40.76464359999995, -17.712202299999948 ], [ -40.765030699999954, -17.712217399999936 ], [ -40.765055799999971, -17.711735699999963 ], [ -40.76524349999994, -17.711784799999972 ], [ -40.765387099999941, -17.71183069999995 ], [ -40.765447499999937, -17.71185 ], [ -40.765551699999946, -17.71186419999998 ], [ -40.76563, -17.711874799999979 ], [ -40.765761399999974, -17.711867799999947 ], [ -40.76593859999997, -17.711844499999927 ], [ -40.766094799999969, -17.711816 ], [ -40.76617, -17.711796 ], [ -40.76645869999993, -17.711707099999945 ], [ -40.766530699999969, -17.711685 ], [ -40.766980899999965, -17.711602 ], [ -40.767109199999936, -17.711619499999927 ], [ -40.767222299999958, -17.711642699999974 ] ] ], [ [ [ -40.893788399999956, -17.678861599999948 ], [ -40.897952699999962, -17.67624589999998 ], [ -40.898171899999966, -17.675656699999934 ], [ -40.902477399999952, -17.675956199999977 ], [ -40.902384099999956, -17.674895899999957 ], [ -40.90215869999998, -17.674915899999981 ], [ -40.900671799999948, -17.674964899999946 ], [ -40.899892599999937, -17.67492419999996 ], [ -40.899424499999952, -17.674848399999963 ], [ -40.898945599999934, -17.67468719999993 ], [ -40.89877689999998, -17.674559899999952 ], [ -40.898732699999989, -17.67439579999996 ], [ -40.898772499999957, -17.674216199999933 ], [ -40.898833699999962, -17.673899799999958 ], [ -40.898645299999941, -17.673499099999972 ], [ -40.898425199999963, -17.673324 ], [ -40.897958799999969, -17.673061799999982 ], [ -40.897678899999967, -17.672806399999949 ], [ -40.897366199999965, -17.672573699999923 ], [ -40.897014099999986, -17.672446499999975 ], [ -40.896802699999967, -17.672558699999964 ], [ -40.896674099999977, -17.672754399999974 ], [ -40.896475799999962, -17.672934699999931 ], [ -40.896403599999985, -17.673043 ], [ -40.896211, -17.673416 ], [ -40.896057599999942, -17.673766 ], [ -40.896008899999977, -17.674014599999953 ], [ -40.895880899999952, -17.674346699999941 ], [ -40.8956932, -17.674778499999942 ], [ -40.895398399999976, -17.675154799999969 ], [ -40.895169799999962, -17.675237799999927 ], [ -40.894950299999948, -17.6752 ], [ -40.894804099999931, -17.675114199999932 ], [ -40.894535, -17.674982599999964 ], [ -40.894291199999948, -17.674921 ], [ -40.893877699999962, -17.674865499999964 ], [ -40.893495099999939, -17.674906899999936 ], [ -40.893038599999954, -17.674964 ], [ -40.892624, -17.675075699999987 ], [ -40.892311399999983, -17.675179399999923 ], [ -40.892055699999958, -17.675296599999971 ], [ -40.891821599999957, -17.675447499999962 ], [ -40.891618099999967, -17.675609899999927 ], [ -40.891485899999964, -17.675795799999946 ], [ -40.891416499999927, -17.675967499999953 ], [ -40.891341299999965, -17.676220599999972 ], [ -40.891177399999947, -17.676424699999934 ], [ -40.890983299999959, -17.676587599999952 ], [ -40.890666599999975, -17.676768199999977 ], [ -40.890063399999974, -17.676944599999938 ], [ -40.890293499999984, -17.677537299999926 ], [ -40.890675299999948, -17.677386799999972 ], [ -40.891326, -17.677177599999943 ], [ -40.891968099999985, -17.67709709999998 ], [ -40.892485799999974, -17.677068099999929 ], [ -40.893357699999967, -17.676989699999975 ], [ -40.893788399999956, -17.678861599999948 ] ] ] ] } }
]
}
