{
"type": "FeatureCollection",
"name": "3113305",
"crs": { "type": "name", "properties": { "name": "urn:ogc:def:crs:OGC:1.3:CRS84" } },
"features": [
{ "type": "Feature", "properties": { "CD_MUN": "3113305", "NM_MUN": "Carangola" }, "geometry": { "type": "MultiPolygon", "coordinates": [ [ [ [ -42.037331, -20.751136799999927 ], [ -42.038067, -20.751555099999955 ], [ -42.038476199999941, -20.752421399999939 ], [ -42.038784899999946, -20.752391699999979 ], [ -42.039462599999979, -20.751935099999965 ], [ -42.040062499999983, -20.752123899999958 ], [ -42.040791, -20.752704 ], [ -42.040913, -20.752474 ], [ -42.041632, -20.751185 ], [ -42.04233, -20.749917 ], [ -42.042525, -20.749721 ], [ -42.042672, -20.749537 ], [ -42.042818, -20.749342 ], [ -42.042965, -20.749112 ], [ -42.043123, -20.748882 ], [ -42.043294, -20.748652 ], [ -42.043322299999943, -20.748575499999959 ], [ -42.043379, -20.748422 ], [ -42.043322599999954, -20.748279199999949 ], [ -42.04304639999998, -20.748159899999958 ], [ -42.042840399999932, -20.748058299999954 ], [ -42.042700399999944, -20.747945899999941 ], [ -42.042639099999974, -20.747778299999926 ], [ -42.042607099999948, -20.747525799999934 ], [ -42.042606399999954, -20.747135099999984 ], [ -42.04258, -20.746921299999929 ], [ -42.04253539999997, -20.746638 ], [ -42.042491899999966, -20.746437299999972 ], [ -42.042420299999947, -20.746329399999972 ], [ -42.04220829999997, -20.746204499999976 ], [ -42.041984099999979, -20.745978899999944 ], [ -42.041735299999971, -20.745739199999946 ], [ -42.0415321, -20.745595499999979 ], [ -42.041289699999936, -20.745434599999946 ], [ -42.041187, -20.745318699999928 ], [ -42.041124299999979, -20.745193699999962 ], [ -42.041093799999949, -20.745062599999983 ], [ -42.041089199999924, -20.744921899999941 ], [ -42.041124499999974, -20.744793499999954 ], [ -42.041226399999971, -20.744664799999939 ], [ -42.041329, -20.744567499999953 ], [ -42.041389399999957, -20.744481899999982 ], [ -42.041407399999969, -20.744406399999935 ], [ -42.041379899999974, -20.744234799999948 ], [ -42.041354, -20.744123599999963 ], [ -42.041281499999975, -20.744072399999929 ], [ -42.041144299999985, -20.744032699999941 ], [ -42.040971099999979, -20.744054 ], [ -42.040795199999941, -20.744112399999953 ], [ -42.040621399999971, -20.744184599999983 ], [ -42.040397699999971, -20.744205699999945 ], [ -42.040081, -20.744205299999983 ], [ -42.039880199999971, -20.744152199999974 ], [ -42.039731199999949, -20.744067499999968 ], [ -42.039603299999953, -20.743928099999938 ], [ -42.039512799999962, -20.743763299999955 ], [ -42.039497699999977, -20.74363639999995 ], [ -42.039551599999982, -20.743516 ], [ -42.039642499999957, -20.743452299999937 ], [ -42.039771099999932, -20.74340339999997 ], [ -42.039878199999983, -20.743339899999956 ], [ -42.039986499999941, -20.743226899999964 ], [ -42.040082899999959, -20.743070399999958 ], [ -42.040166699999936, -20.742864099999963 ], [ -42.04024029999993, -20.742617499999945 ], [ -42.040250899999933, -20.742503399999965 ], [ -42.040230199999939, -20.742443699999956 ], [ -42.040089599999938, -20.742300899999972 ], [ -42.040002499999957, -20.742219 ], [ -42.039962899999978, -20.742145 ], [ -42.039969499999984, -20.742061899999939 ], [ -42.040024199999948, -20.741981399999926 ], [ -42.040099299999959, -20.74191 ], [ -42.040131199999969, -20.741848399999977 ], [ -42.040125099999962, -20.741762599999959 ], [ -42.040102099999963, -20.741672399999974 ], [ -42.040122799999949, -20.741540299999933 ], [ -42.040188099999966, -20.741383499999923 ], [ -42.040161899999937, -20.741275899999941 ], [ -42.040159799999977, -20.741272 ], [ -42.040053899999975, -20.741078399999932 ], [ -42.03984939999998, -20.740835499999935 ], [ -42.03962249999995, -20.740642599999941 ], [ -42.039490799999967, -20.740536199999948 ], [ -42.039364499999984, -20.740481399999958 ], [ -42.039132899999977, -20.740400499999961 ], [ -42.038987199999958, -20.740363499999937 ], [ -42.0388033, -20.740352299999916 ], [ -42.038688699999966, -20.740365399999963 ], [ -42.038587499999956, -20.740340199999942 ], [ -42.038466699999965, -20.740258699999973 ], [ -42.038341899999985, -20.740118599999963 ], [ -42.038255699999979, -20.739935399999968 ], [ -42.038261399999953, -20.739681299999969 ], [ -42.038210699999986, -20.739348599999968 ], [ -42.038088, -20.738817499999975 ], [ -42.037950899999949, -20.738331699999939 ], [ -42.037891, -20.738024899999967 ], [ -42.037888799999962, -20.738016099999967 ], [ -42.037849499999943, -20.737864 ], [ -42.037808299999938, -20.737750299999952 ], [ -42.037737399999969, -20.737671899999953 ], [ -42.037657399999944, -20.737634299999964 ], [ -42.037439899999981, -20.737582699999958 ], [ -42.037264599999965, -20.737492299999928 ], [ -42.037089399999957, -20.737360899999935 ], [ -42.037027499999972, -20.737253799999955 ], [ -42.036990799999955, -20.737146 ], [ -42.036985699999953, -20.737038299999941 ], [ -42.03701529999995, -20.736963199999924 ], [ -42.037070599999936, -20.736853199999924 ], [ -42.037153499999931, -20.736760699999927 ], [ -42.037228299999981, -20.736659 ], [ -42.037260899999985, -20.736524699999961 ], [ -42.037261799999953, -20.736444299999953 ], [ -42.037261599999965, -20.736384 ], [ -42.037418399999979, -20.736161099999944 ], [ -42.037897699999981, -20.735347699999981 ], [ -42.038395399999949, -20.734496299999922 ], [ -42.038486799999923, -20.734300699999952 ], [ -42.038590799999959, -20.734002699999955 ], [ -42.040389, -20.733332 ], [ -42.04085259999993, -20.733737499999954 ], [ -42.041871899999933, -20.734112499999984 ], [ -42.043224899999984, -20.733689599999924 ], [ -42.044416, -20.733197099999927 ], [ -42.04548049999994, -20.732870499999937 ], [ -42.045658599999967, -20.732549899999977 ], [ -42.045737199999962, -20.732303599999977 ], [ -42.045519499999962, -20.732066599999936 ], [ -42.045326199999984, -20.732006799999962 ], [ -42.045196499999975, -20.73186289999995 ], [ -42.045184099999965, -20.731608 ], [ -42.044980399999929, -20.731525499999972 ], [ -42.04486849999995, -20.731408499999922 ], [ -42.044731599999977, -20.731352299999962 ], [ -42.044589499999972, -20.73116949999995 ], [ -42.044438299999968, -20.731090499999922 ], [ -42.044286799999952, -20.731056799999976 ], [ -42.044245699999983, -20.730877799999963 ], [ -42.044114099999945, -20.730856099999983 ], [ -42.043958099999941, -20.730826799999928 ], [ -42.043827699999952, -20.730821 ], [ -42.043699899999979, -20.730699399999946 ], [ -42.043641899999955, -20.730551699999967 ], [ -42.043709399999948, -20.730434099999972 ], [ -42.043622699999965, -20.730323199999919 ], [ -42.043493, -20.730276 ], [ -42.043369099999957, -20.730142799999957 ], [ -42.043372099999949, -20.729946 ], [ -42.04329869999998, -20.729899099999951 ], [ -42.043367499999938, -20.729880199999965 ], [ -42.043433, -20.729806499999935 ], [ -42.043585299999961, -20.729736399999975 ], [ -42.043729399999968, -20.729669 ], [ -42.044040699999989, -20.729565899999955 ], [ -42.043886399999963, -20.729379199999968 ], [ -42.043496499999954, -20.729104899999967 ], [ -42.042693, -20.72920239999997 ], [ -42.042167899999981, -20.729361099999945 ], [ -42.041732599999932, -20.72962979999993 ], [ -42.041276699999976, -20.728917399999933 ], [ -42.040902, -20.728159699999932 ], [ -42.0402486, -20.727675899999944 ], [ -42.039903099999947, -20.72701 ], [ -42.039946699999973, -20.726929399999953 ], [ -42.03995029999993, -20.726917599999982 ], [ -42.040207699999947, -20.726073799999931 ], [ -42.040299299999958, -20.725759699999962 ], [ -42.040553699999975, -20.725033399999973 ], [ -42.040984799999933, -20.724903299999927 ], [ -42.041363899999965, -20.725026599999968 ], [ -42.041683599999942, -20.724754899999944 ], [ -42.041896, -20.724403199999934 ], [ -42.042288699999979, -20.724202299999927 ], [ -42.042836799999975, -20.724494599999964 ], [ -42.044006, -20.724659 ], [ -42.044644399999981, -20.724226799999936 ], [ -42.045074699999937, -20.722749899999936 ], [ -42.04458139999997, -20.721717799999961 ], [ -42.043795899999964, -20.721188 ], [ -42.044163199999957, -20.720738399999945 ], [ -42.044249199999975, -20.720372199999929 ], [ -42.041273, -20.720091299999972 ], [ -42.0412798, -20.719004699999957 ], [ -42.041082499999959, -20.717033299999962 ], [ -42.040966799999985, -20.714698499999926 ], [ -42.039573099999984, -20.712536 ], [ -42.038347699999974, -20.709514899999927 ], [ -42.038141699999983, -20.708765799999977 ], [ -42.037763399999967, -20.708628699999956 ], [ -42.03740659999994, -20.708708 ], [ -42.036282899999946, -20.709440299999972 ], [ -42.036066, -20.709588199999921 ], [ -42.035419699999977, -20.71018 ], [ -42.034959899999933, -20.710530699999932 ], [ -42.034459599999934, -20.711001799999949 ], [ -42.03439869999994, -20.711626499999955 ], [ -42.034451699999977, -20.711711799999915 ], [ -42.034512899999989, -20.711858299999953 ], [ -42.034588699999979, -20.712037799999962 ], [ -42.034653299999938, -20.712293799999934 ], [ -42.034641799999974, -20.71246259999997 ], [ -42.034582399999977, -20.712557299999954 ], [ -42.034486299999969, -20.712584699999976 ], [ -42.034366899999959, -20.712564299999919 ], [ -42.03427419999997, -20.712503099999939 ], [ -42.034175599999969, -20.712386 ], [ -42.03406769999998, -20.712200599999946 ], [ -42.03398929999998, -20.711970699999934 ], [ -42.033891299999944, -20.711656499999947 ], [ -42.0336789, -20.711085699999941 ], [ -42.033441, -20.710660199999939 ], [ -42.033253799999962, -20.710439499999943 ], [ -42.033215, -20.710709599999962 ], [ -42.03292689999995, -20.710528099999966 ], [ -42.032887, -20.710503099999972 ], [ -42.032673099999961, -20.710444099999954 ], [ -42.032224799999938, -20.710351099999961 ], [ -42.031949799999957, -20.710105699999925 ], [ -42.031742599999973, -20.710025399999942 ], [ -42.031387299999956, -20.709674299999946 ], [ -42.031116499999939, -20.709454299999951 ], [ -42.031040399999938, -20.708997499999956 ], [ -42.030905, -20.708769099999923 ], [ -42.030833099999938, -20.708320699999945 ], [ -42.030638599999975, -20.70755939999998 ], [ -42.030291699999971, -20.707398599999962 ], [ -42.030287499999929, -20.707335199999925 ], [ -42.03042709999994, -20.707254799999937 ], [ -42.030241, -20.707140599999939 ], [ -42.030334, -20.707043299999945 ], [ -42.030621599999961, -20.706933299999946 ], [ -42.031036199999967, -20.706425799999966 ], [ -42.031141899999966, -20.706239599999943 ], [ -42.03129, -20.70587589999997 ], [ -42.031294199999941, -20.705647499999948 ], [ -42.03112919999996, -20.705588199999958 ], [ -42.03119269999997, -20.705275199999949 ], [ -42.031040399999938, -20.705182199999971 ], [ -42.030841599999974, -20.705342899999927 ], [ -42.030600499999942, -20.705334399999973 ], [ -42.030482099999965, -20.705287899999973 ], [ -42.030566699999952, -20.705194899999977 ], [ -42.030308599999955, -20.705131399999971 ], [ -42.030198699999964, -20.705017199999915 ], [ -42.0302071, -20.70483529999996 ], [ -42.030109799999934, -20.704818399999972 ], [ -42.029987199999937, -20.704924099999968 ], [ -42.029813699999977, -20.704919899999933 ], [ -42.029788399999973, -20.704767599999961 ], [ -42.029826399999941, -20.704611099999944 ], [ -42.029813699999977, -20.704446199999943 ], [ -42.029627599999969, -20.704416599999938 ], [ -42.029543, -20.704526499999922 ], [ -42.029289199999937, -20.704606899999916 ], [ -42.02916659999994, -20.704594199999967 ], [ -42.029098899999951, -20.704395399999957 ], [ -42.028963499999982, -20.70448419999995 ], [ -42.028845099999955, -20.704285399999947 ], [ -42.028781699999975, -20.704099299999932 ], [ -42.028790099999988, -20.703964 ], [ -42.028912799999944, -20.703756699999932 ], [ -42.028836599999977, -20.703511399999968 ], [ -42.028544799999963, -20.703261799999936 ], [ -42.028498299999967, -20.70314339999992 ], [ -42.028456, -20.702978399999949 ], [ -42.028320599999979, -20.702876899999985 ], [ -42.028248699999956, -20.702661199999962 ], [ -42.028354399999962, -20.702496199999935 ], [ -42.028392499999946, -20.702348199999957 ], [ -42.028329099999951, -20.702229699999982 ], [ -42.02826529999993, -20.70217 ], [ -42.028301399999982, -20.702172699999949 ], [ -42.028376799999933, -20.701928399999929 ], [ -42.02838109999994, -20.701795799999942 ], [ -42.028207, -20.701681499999946 ], [ -42.028035699999982, -20.701508799999946 ], [ -42.027977699999944, -20.701178699999957 ], [ -42.027978899999944, -20.701019699999961 ], [ -42.027903199999969, -20.70089849999993 ], [ -42.027819799999982, -20.700854199999984 ], [ -42.02768059999994, -20.70058389999997 ], [ -42.027692299999956, -20.700427899999955 ], [ -42.0276, -20.699866799999945 ], [ -42.027509399999985, -20.69952539999997 ], [ -42.027477499999975, -20.699245899999926 ], [ -42.027511199999942, -20.699180899999931 ], [ -42.027585899999956, -20.699125399999957 ], [ -42.027693099999972, -20.699108799999973 ], [ -42.027781399999981, -20.699042599999917 ], [ -42.02780579999996, -20.698903099999942 ], [ -42.027792, -20.698727799999961 ], [ -42.027833299999941, -20.698515399999959 ], [ -42.027805799999953, -20.69836859999997 ], [ -42.027735099999973, -20.698219699999981 ], [ -42.027652399999972, -20.697869499999953 ], [ -42.027632199999978, -20.697820699999966 ], [ -42.027620699999943, -20.697791599999952 ], [ -42.027612299999937, -20.697758199999949 ], [ -42.027607299999943, -20.697737899999925 ], [ -42.027574, -20.697675899999982 ], [ -42.027476, -20.697564399999969 ], [ -42.027347899999953, -20.697514799999958 ], [ -42.027107299999962, -20.697537799999949 ], [ -42.027003899999954, -20.697511399999932 ], [ -42.026928299999952, -20.697356399999922 ], [ -42.026917099999942, -20.697255 ], [ -42.026882199999939, -20.697197799999959 ], [ -42.026807399999939, -20.697166699999968 ], [ -42.026583099999989, -20.69732079999994 ], [ -42.02626209999994, -20.69736289999998 ], [ -42.026140299999959, -20.697339 ], [ -42.026046899999976, -20.697301299999932 ], [ -42.025909199999944, -20.69731529999995 ], [ -42.025376499999943, -20.697376299999956 ], [ -42.025244, -20.697376 ], [ -42.025048699999957, -20.697524699999967 ], [ -42.024881899999976, -20.697577199999948 ], [ -42.024667299999976, -20.69758029999997 ], [ -42.024447499999944, -20.697500499999926 ], [ -42.024324699999966, -20.697381799999953 ], [ -42.024198899999931, -20.69736969999995 ], [ -42.024062299999969, -20.69742489999993 ], [ -42.023933099999972, -20.697423499999953 ], [ -42.023902899999939, -20.697327699999956 ], [ -42.023978399999976, -20.697177199999938 ], [ -42.024063599999977, -20.697036299999972 ], [ -42.024089, -20.696862799999959 ], [ -42.024176299999965, -20.696703399999926 ], [ -42.024151199999949, -20.696584 ], [ -42.024109099999976, -20.696498399999932 ], [ -42.02418019999994, -20.696288399999958 ], [ -42.024155599999979, -20.696200899999944 ], [ -42.023890399999971, -20.696046399999936 ], [ -42.02382549999993, -20.695854499999939 ], [ -42.02369159999995, -20.695703099999943 ], [ -42.023688499999942, -20.695519499999925 ], [ -42.023777199999984, -20.69540979999994 ], [ -42.023672, -20.695299 ], [ -42.023714899999966, -20.695236799999979 ], [ -42.023897299999938, -20.695272299999935 ], [ -42.024000599999958, -20.695233199999961 ], [ -42.024100799999985, -20.695098799999986 ], [ -42.024083499999968, -20.694832399999939 ], [ -42.024053699999975, -20.694707499999932 ], [ -42.0239491, -20.694635499999933 ], [ -42.023966599999937, -20.694545799999958 ], [ -42.02402009999998, -20.694463299999938 ], [ -42.024141499999985, -20.694398799999924 ], [ -42.024244599999982, -20.694314499999951 ], [ -42.023882299999961, -20.693654599999942 ], [ -42.023748699999942, -20.693377299999948 ], [ -42.023683799999958, -20.693201899999952 ], [ -42.023513499999979, -20.693255 ], [ -42.023393399999975, -20.69329769999996 ], [ -42.023291399999955, -20.693355199999914 ], [ -42.023227799999972, -20.693426299999942 ], [ -42.023187, -20.693535199999918 ], [ -42.023128399999962, -20.693706199999937 ], [ -42.023086699999965, -20.693901699999973 ], [ -42.023060099999952, -20.694054899999962 ], [ -42.023052899999982, -20.694173099999947 ], [ -42.023027399999933, -20.694243599999933 ], [ -42.022925799999946, -20.694390199999916 ], [ -42.022649, -20.694713899999943 ], [ -42.022513, -20.694871299999935 ], [ -42.022113, -20.694667499999987 ], [ -42.02154349999995, -20.694826899999942 ], [ -42.020548299999973, -20.694677899999924 ], [ -42.019606099999976, -20.694522099999983 ], [ -42.018722299999986, -20.69454909999995 ], [ -42.017823, -20.694216599999944 ], [ -42.016499099999976, -20.694005099999959 ], [ -42.016826799999933, -20.694578599999943 ], [ -42.016769599999975, -20.694642699999964 ], [ -42.016644099999951, -20.694541099999977 ], [ -42.016479199999935, -20.694425199999944 ], [ -42.0162754, -20.69426529999992 ], [ -42.016108699999961, -20.694118199999931 ], [ -42.015904199999966, -20.693959299999964 ], [ -42.015425799999953, -20.693434799999967 ], [ -42.015299, -20.693373599999958 ], [ -42.014800499999978, -20.69325689999993 ], [ -42.014323899999972, -20.6931547 ], [ -42.014324399999957, -20.693363599999945 ], [ -42.01444, -20.693706899999935 ], [ -42.014499199999932, -20.693749499999967 ], [ -42.014509, -20.693812899999955 ], [ -42.01448819999996, -20.69397 ], [ -42.014456799999948, -20.694086399999957 ], [ -42.0144567, -20.694133 ], [ -42.01448849999997, -20.694192 ], [ -42.014559499999962, -20.694250299999968 ], [ -42.014621299999938, -20.694306199999954 ], [ -42.014620599999944, -20.694341599999976 ], [ -42.014598199999973, -20.69442819999994 ], [ -42.014601899999946, -20.694473699999932 ], [ -42.014644299999929, -20.694581099999926 ], [ -42.014698, -20.694658599999965 ], [ -42.01469869999994, -20.694700499999943 ], [ -42.014676699999946, -20.694805499999958 ], [ -42.014696099999981, -20.694836199999934 ], [ -42.014805299999978, -20.694900199999942 ], [ -42.014982499999974, -20.694943699999946 ], [ -42.015101199999954, -20.69499479999995 ], [ -42.015270199999975, -20.69505839999994 ], [ -42.015366, -20.695125 ], [ -42.015470199999982, -20.695129699999942 ], [ -42.015526499999964, -20.695080199999953 ], [ -42.01561049999998, -20.695019499999944 ], [ -42.015677399999966, -20.694971599999974 ], [ -42.015791699999966, -20.69493749999998 ], [ -42.015988, -20.694939399999953 ], [ -42.016096499999939, -20.694898299999963 ], [ -42.016173, -20.69493749999997 ], [ -42.016308599999938, -20.695035699999952 ], [ -42.016330499999988, -20.695066499999935 ], [ -42.016330799999942, -20.695124499999963 ], [ -42.016351, -20.695409899999952 ], [ -42.01652439999998, -20.695506199999958 ], [ -42.016867199999979, -20.69559919999994 ], [ -42.017037799999969, -20.695686699999946 ], [ -42.017163699999969, -20.695825099999976 ], [ -42.017168899999945, -20.696043299999925 ], [ -42.01726849999995, -20.696164799999963 ], [ -42.017380399999979, -20.696279299999958 ], [ -42.017627199999936, -20.696419599999953 ], [ -42.017827299999965, -20.696437799999952 ], [ -42.018003399999941, -20.696721199999942 ], [ -42.018244399999958, -20.696889199999919 ], [ -42.018493, -20.696962799999923 ], [ -42.018757299999955, -20.69697779999996 ], [ -42.018944, -20.696880899999936 ], [ -42.019135499999948, -20.696713299999928 ], [ -42.019337199999939, -20.696519299999984 ], [ -42.0195212, -20.696492599999932 ], [ -42.019707199999964, -20.696522599999977 ], [ -42.019808499999961, -20.696538599999947 ], [ -42.019908199999982, -20.696572799999942 ], [ -42.020025399999959, -20.696575899999974 ], [ -42.020191399999931, -20.696614499999953 ], [ -42.020647799999949, -20.696624899999954 ], [ -42.021045099999988, -20.69666049999995 ], [ -42.021210599999968, -20.696632699999949 ], [ -42.021323, -20.697330699999945 ], [ -42.020937299999957, -20.699104199999969 ], [ -42.020417599999973, -20.699296799999942 ], [ -42.020092, -20.699530199999959 ], [ -42.019967799999961, -20.699952299999943 ], [ -42.020080899999989, -20.700994199999968 ], [ -42.020702099999937, -20.701668699999971 ], [ -42.022000399999968, -20.702759899999933 ], [ -42.022457599999939, -20.70292229999994 ], [ -42.02387059999996, -20.703004699999966 ], [ -42.025206899999951, -20.702944899999963 ], [ -42.026027699999929, -20.702757899999938 ], [ -42.026195799999982, -20.702559399999931 ], [ -42.026412, -20.702474199999912 ], [ -42.026655699999942, -20.702419199999941 ], [ -42.026874699999944, -20.702414299999926 ], [ -42.027470799999953, -20.702813699999979 ], [ -42.028028899999981, -20.703573899999981 ], [ -42.02832, -20.704105399999939 ], [ -42.028236499999942, -20.704663399999959 ], [ -42.027611, -20.705075099999931 ], [ -42.027069899999951, -20.705568599999932 ], [ -42.027075899999943, -20.705857899999959 ], [ -42.027256799999982, -20.706198399999941 ], [ -42.027661, -20.70621889999995 ], [ -42.028320099999981, -20.706416799999943 ], [ -42.028712499999983, -20.706775199999981 ], [ -42.028903899999939, -20.707105199999937 ], [ -42.029028099999955, -20.707579 ], [ -42.029354199999943, -20.707880699999976 ], [ -42.029576199999958, -20.708095899999932 ], [ -42.029894699999936, -20.708419499999927 ], [ -42.029858, -20.708905199999933 ], [ -42.02995169999997, -20.709224599999974 ], [ -42.030197, -20.70935529999997 ], [ -42.027336499999933, -20.710847199999925 ], [ -42.02699, -20.711026799999942 ], [ -42.026591499999938, -20.711206 ], [ -42.026358799999969, -20.711453399999975 ], [ -42.02615469999995, -20.711681099999957 ], [ -42.025730399999937, -20.712433599999937 ], [ -42.025168099999981, -20.71249969999996 ], [ -42.024735, -20.712772599999926 ], [ -42.024234799999931, -20.713078699999983 ], [ -42.023906, -20.713363 ], [ -42.023777099999961, -20.71388 ], [ -42.023875099999941, -20.714098 ], [ -42.023595, -20.714503799999928 ], [ -42.023726299999964, -20.714925199999968 ], [ -42.02407809999994, -20.715544399999928 ], [ -42.024353, -20.715784499999927 ], [ -42.024713199999944, -20.716068199999938 ], [ -42.025277, -20.716265199999942 ], [ -42.025965599999942, -20.716752199999974 ], [ -42.026146299999944, -20.717389499999975 ], [ -42.026324499999937, -20.718064499999961 ], [ -42.026744699999938, -20.718564299999976 ], [ -42.027515199999982, -20.719305 ], [ -42.027782299999963, -20.719625499999939 ], [ -42.027692, -20.719853099999952 ], [ -42.027300499999967, -20.719953899999943 ], [ -42.027194099999974, -20.720225799999984 ], [ -42.027198899999973, -20.720461399999976 ], [ -42.026750899999968, -20.720505399999983 ], [ -42.026341, -20.720780499999936 ], [ -42.026269499999948, -20.721402599999973 ], [ -42.027043399999968, -20.722512799999947 ], [ -42.027691299999958, -20.723467599999935 ], [ -42.028112699999959, -20.72411209999995 ], [ -42.028161299999972, -20.724923099999948 ], [ -42.027665199999944, -20.725446799999926 ], [ -42.027104599999973, -20.725761899999942 ], [ -42.026524799999947, -20.726159899999971 ], [ -42.026040399999943, -20.727269299999929 ], [ -42.02526, -20.727017299999936 ], [ -42.024326499999979, -20.726727099999955 ], [ -42.023676, -20.726841899999947 ], [ -42.0229164, -20.726965 ], [ -42.022123599999937, -20.727250199999958 ], [ -42.021839699999937, -20.727641699999925 ], [ -42.021634099999972, -20.727858199999936 ], [ -42.021490199999967, -20.727977799999955 ], [ -42.021222799999975, -20.728053799999934 ], [ -42.020806099999959, -20.728126799999927 ], [ -42.020622199999934, -20.728159699999921 ], [ -42.020427399999967, -20.728178499999956 ], [ -42.020323799999979, -20.728172 ], [ -42.020177099999955, -20.72817149999997 ], [ -42.020065799999948, -20.728292399999933 ], [ -42.019989, -20.728470899999934 ], [ -42.020058499999948, -20.729053499999949 ], [ -42.020062499999938, -20.729584699999979 ], [ -42.019861899999967, -20.729965299999943 ], [ -42.019463899999948, -20.730164499999926 ], [ -42.019309799999981, -20.730309899999938 ], [ -42.019162699999988, -20.730752499999937 ], [ -42.019013599999937, -20.73100739999995 ], [ -42.018586299999981, -20.731435699999956 ], [ -42.018238, -20.731581299999959 ], [ -42.017921799999947, -20.731542299999933 ], [ -42.017726799999942, -20.731440499999959 ], [ -42.017518099999961, -20.731540699999968 ], [ -42.017073299999943, -20.731764 ], [ -42.016931599999964, -20.731877899999972 ], [ -42.016881099999978, -20.732000199999959 ], [ -42.016789099999983, -20.732008399999916 ], [ -42.016681599999977, -20.732051699999928 ], [ -42.016468799999984, -20.732212299999947 ], [ -42.016332199999965, -20.732317799999976 ], [ -42.016225799999972, -20.732349299999957 ], [ -42.016116599999975, -20.732342799999969 ], [ -42.016020899999951, -20.732297499999952 ], [ -42.015932699999951, -20.732239899999971 ], [ -42.015851499999947, -20.732184499999953 ], [ -42.01577019999997, -20.732125399999966 ], [ -42.015718, -20.732083299999946 ], [ -42.015649199999984, -20.73200919999994 ], [ -42.01552229999993, -20.731895799999954 ], [ -42.015438599999982, -20.731792099999943 ], [ -42.015320699999961, -20.731712099999971 ], [ -42.015163599999944, -20.731691899999923 ], [ -42.015022599999952, -20.731713 ], [ -42.014860099999972, -20.731801399999934 ], [ -42.014755399999963, -20.731894599999968 ], [ -42.014748599999969, -20.73204359999993 ], [ -42.014735499999972, -20.732118899999922 ], [ -42.014517399999932, -20.73216189999993 ], [ -42.014283099999943, -20.732208799999956 ], [ -42.014103299999931, -20.732349799999952 ], [ -42.013981799999954, -20.732576399999957 ], [ -42.013615099999981, -20.732607799999982 ], [ -42.013239299999945, -20.732547499999956 ], [ -42.012417899999946, -20.732383399999936 ], [ -42.012312899999984, -20.733448199999948 ], [ -42.012485199999958, -20.733451099999957 ], [ -42.012426399999981, -20.734142899999931 ], [ -42.013126299999961, -20.734162399999942 ], [ -42.013056499999948, -20.73463919999995 ], [ -42.012525299999936, -20.735133699999942 ], [ -42.011488299999939, -20.735081499999964 ], [ -42.01156529999998, -20.736457599999937 ], [ -42.011569199999947, -20.736776099999915 ], [ -42.011784399999954, -20.737111699999947 ], [ -42.011953399999982, -20.73725719999992 ], [ -42.012129699999946, -20.737424 ], [ -42.012456699999973, -20.737660199999929 ], [ -42.013609, -20.738000499999931 ], [ -42.014560099999983, -20.738152699999933 ], [ -42.014564899999982, -20.739242299999948 ], [ -42.014689699999963, -20.73944519999997 ], [ -42.014630299999965, -20.740476799999946 ], [ -42.014648099999931, -20.740973399999969 ], [ -42.013953699999952, -20.74306729999995 ], [ -42.01367289999996, -20.743352499999954 ], [ -42.013304799999965, -20.743574699999954 ], [ -42.012889799999982, -20.743698899999966 ], [ -42.012332299999962, -20.744026499999958 ], [ -42.012064099999975, -20.74428389999996 ], [ -42.011795399999983, -20.744580399999961 ], [ -42.011736599999956, -20.744697599999942 ], [ -42.01171039999997, -20.745020499999939 ], [ -42.011870599999959, -20.745067299999956 ], [ -42.012121, -20.744949399999946 ], [ -42.012215599999934, -20.744784499999987 ], [ -42.012418299999986, -20.744689899999965 ], [ -42.012588699999981, -20.744695299999925 ], [ -42.0127366, -20.744864399999972 ], [ -42.012822699999965, -20.745028799999943 ], [ -42.01285479999995, -20.745341199999928 ], [ -42.013043599999939, -20.746719399999947 ], [ -42.013474199999962, -20.746825799999964 ], [ -42.014025699999934, -20.746891399999978 ], [ -42.014430499999953, -20.747053899999958 ], [ -42.01468019999993, -20.746840199999937 ], [ -42.014907899999976, -20.746577699999921 ], [ -42.015150199999937, -20.746734099999962 ], [ -42.01523009999994, -20.747089599999988 ], [ -42.015386399999947, -20.747357799999961 ], [ -42.015586399999961, -20.747236 ], [ -42.015778, -20.747051499999934 ], [ -42.015897499999944, -20.746843599999973 ], [ -42.016045599999984, -20.746526599999974 ], [ -42.016119799999956, -20.746349899999913 ], [ -42.016110399999938, -20.746281799999952 ], [ -42.016055399999971, -20.746126699999934 ], [ -42.016040699999969, -20.74597239999996 ], [ -42.0160681, -20.745834899999981 ], [ -42.016145299999955, -20.745632199999925 ], [ -42.016245899999944, -20.745488899999938 ], [ -42.016347399999972, -20.745378099999979 ], [ -42.016714499999971, -20.745116799999952 ], [ -42.016983799999942, -20.744861 ], [ -42.017081, -20.744734799999947 ], [ -42.017138499999938, -20.744683099999968 ], [ -42.017223099999974, -20.744630399999934 ], [ -42.017263599999986, -20.744605099999951 ], [ -42.017588599999947, -20.744446899999954 ], [ -42.01764019999996, -20.744421599999956 ], [ -42.017743399999979, -20.74437109999996 ], [ -42.017870599999988, -20.744347699999931 ], [ -42.018147699999936, -20.744255799999955 ], [ -42.018492099999946, -20.744126599999952 ], [ -42.018732099999966, -20.744052399999926 ], [ -42.018863599999975, -20.744240099999956 ], [ -42.01936869999998, -20.744010299999953 ], [ -42.019738799999971, -20.743813499999934 ], [ -42.020061799999951, -20.743603 ], [ -42.020168399999932, -20.743707699999955 ], [ -42.020269299999946, -20.743767599999948 ], [ -42.020295299999937, -20.743941099999958 ], [ -42.020407499999976, -20.744093399999937 ], [ -42.020525899999939, -20.744285399999971 ], [ -42.020738599999966, -20.744457699999938 ], [ -42.021119499999941, -20.74478659999993 ], [ -42.021566799999967, -20.745026899999967 ], [ -42.021755699999972, -20.745165399999962 ], [ -42.022218599999974, -20.745852499999955 ], [ -42.02271449999995, -20.746209 ], [ -42.023435899999981, -20.746158899999944 ], [ -42.023455699999936, -20.745907799999944 ], [ -42.022695699999986, -20.745161 ], [ -42.021932399999976, -20.744368 ], [ -42.020898099999954, -20.743013199999936 ], [ -42.020779199999936, -20.74199539999994 ], [ -42.021162499999946, -20.741387399999951 ], [ -42.022550299999978, -20.740951299999949 ], [ -42.025111199999969, -20.739793099999932 ], [ -42.025398699999982, -20.740430799999949 ], [ -42.025468099999962, -20.740873599999929 ], [ -42.025590299999976, -20.740962799999977 ], [ -42.025653099999943, -20.741250299999926 ], [ -42.025881099999935, -20.741798799999959 ], [ -42.026079399999951, -20.742220099999937 ], [ -42.026495699999948, -20.742429099999981 ], [ -42.027457199999958, -20.742643599999948 ], [ -42.027853, -20.741648399999974 ], [ -42.028109, -20.741923199999977 ], [ -42.028449799999976, -20.742183899999926 ], [ -42.028606199999956, -20.742644099999946 ], [ -42.028883899999983, -20.742954599999941 ], [ -42.03116509999996, -20.744490799999934 ], [ -42.032596899999938, -20.745717599999974 ], [ -42.032323099999978, -20.747306799999919 ], [ -42.032696499999929, -20.748153799999955 ], [ -42.035168, -20.749510099999942 ], [ -42.036013499999967, -20.749575599999947 ], [ -42.037331, -20.751136799999927 ] ] ], [ [ [ -42.147966799999949, -20.730436399999963 ], [ -42.148815699999943, -20.729550599999975 ], [ -42.149501099999952, -20.729248699999971 ], [ -42.150157199999967, -20.728600899999947 ], [ -42.150212699999948, -20.728520799999959 ], [ -42.150365399999949, -20.728413 ], [ -42.150162499999958, -20.728205699999933 ], [ -42.150014099999964, -20.728016199999946 ], [ -42.149859, -20.727810699999953 ], [ -42.149808, -20.727762899999949 ], [ -42.149741, -20.727750099999987 ], [ -42.149689799999983, -20.72776349999997 ], [ -42.149675599999973, -20.727860199999952 ], [ -42.149663099999941, -20.727950899999943 ], [ -42.149617499999977, -20.727996 ], [ -42.149571799999926, -20.727980299999945 ], [ -42.149503799999941, -20.727927099999921 ], [ -42.149482199999966, -20.727896799999918 ], [ -42.14951449999996, -20.727787699999958 ], [ -42.149589, -20.72767319999997 ], [ -42.149579299999971, -20.727583599999939 ], [ -42.14950209999995, -20.727564699999949 ], [ -42.149441199999956, -20.727631299999917 ], [ -42.149395699999957, -20.727645699999968 ], [ -42.149287499999957, -20.727623299999934 ], [ -42.1490065, -20.727600399999968 ], [ -42.148937499999924, -20.72757189999993 ], [ -42.148916, -20.727494699999959 ], [ -42.148977099999968, -20.727498499999964 ], [ -42.149023, -20.727484 ], [ -42.149081399999943, -20.727417899999971 ], [ -42.149094099999949, -20.727317599999932 ], [ -42.149102499999969, -20.727246499999971 ], [ -42.149068199999938, -20.727173699999963 ], [ -42.149017699999945, -20.727127699999983 ], [ -42.148984799999937, -20.727072899999929 ], [ -42.148932499999944, -20.727021799999921 ], [ -42.148877399999954, -20.726948699999976 ], [ -42.148783, -20.726932199999954 ], [ -42.148699299999983, -20.726931299999922 ], [ -42.148665599999958, -20.726922099999967 ], [ -42.148610099999985, -20.726863 ], [ -42.148602899999958, -20.72680779999996 ], [ -42.148568299999965, -20.72676419999992 ], [ -42.148485099999959, -20.726724199999975 ], [ -42.148433299999958, -20.72663679999993 ], [ -42.148423399999956, -20.726494899999974 ], [ -42.148436299999965, -20.72634 ], [ -42.14835539999995, -20.726139699999976 ], [ -42.148258699999985, -20.72586119999994 ], [ -42.148266699999972, -20.725573599999965 ], [ -42.148391599999968, -20.725319199999941 ], [ -42.147763, -20.724896599999955 ], [ -42.144660399999971, -20.724583 ], [ -42.141692599999949, -20.724376 ], [ -42.140417599999985, -20.72423539999993 ], [ -42.140310099999965, -20.72433 ], [ -42.140126599999974, -20.724194099999963 ], [ -42.139837399999983, -20.724123699999954 ], [ -42.139723199999928, -20.724192799999962 ], [ -42.139607199999936, -20.724269599999943 ], [ -42.139465599999937, -20.724374499999946 ], [ -42.139398099999937, -20.724356499999946 ], [ -42.139362699999943, -20.724283799999963 ], [ -42.13933429999998, -20.724143399999942 ], [ -42.139277, -20.724100799999967 ], [ -42.139184199999939, -20.724117199999956 ], [ -42.139088399999935, -20.724220299999949 ], [ -42.139064299999973, -20.72430509999997 ], [ -42.13907869999997, -20.724433 ], [ -42.139005599999962, -20.724456 ], [ -42.138804799999946, -20.724465199999937 ], [ -42.138368199999952, -20.724423399999978 ], [ -42.138282699999934, -20.724375299999963 ], [ -42.138286799999953, -20.724268799999937 ], [ -42.138217499999939, -20.724188199999947 ], [ -42.137875499999943, -20.724113699999975 ], [ -42.137705199999978, -20.724114699999973 ], [ -42.137553699999955, -20.724180899999961 ], [ -42.137045299999954, -20.724100899999936 ], [ -42.136711799999944, -20.723723399999983 ], [ -42.136484, -20.723519599999971 ], [ -42.13631259999994, -20.723293599999977 ], [ -42.136148799999944, -20.723097 ], [ -42.135986, -20.722856399999941 ], [ -42.13579, -20.722675399999954 ], [ -42.135731899999946, -20.722687699999927 ], [ -42.135667599999984, -20.722784499999925 ], [ -42.135373, -20.722861799999972 ], [ -42.135328299999969, -20.722900299999932 ], [ -42.13546039999995, -20.723162599999966 ], [ -42.135525499999972, -20.723322499999934 ], [ -42.135561399999979, -20.723422199999959 ], [ -42.135612699999974, -20.72353209999995 ], [ -42.135785399999982, -20.72387179999992 ], [ -42.135877299999947, -20.724060599999973 ], [ -42.135966599999968, -20.724239099999977 ], [ -42.136024399999947, -20.724361 ], [ -42.136069599999978, -20.724475899999963 ], [ -42.136150899999954, -20.724819599999922 ], [ -42.135815699999966, -20.725434899999986 ], [ -42.135147399999937, -20.72712649999994 ], [ -42.136787199999958, -20.728021499999958 ], [ -42.138792899999949, -20.728440599999939 ], [ -42.142813399999966, -20.73011519999995 ], [ -42.145563399999958, -20.730601899999943 ], [ -42.147966799999949, -20.730436399999963 ] ] ], [ [ [ -42.21381039999995, -20.707190599999926 ], [ -42.213807499999973, -20.707376199999949 ], [ -42.213957, -20.707981699999952 ], [ -42.213958399999974, -20.708082799999946 ], [ -42.214155099999971, -20.708420399999962 ], [ -42.21426589999993, -20.708454699999958 ], [ -42.214311499999944, -20.708464699999986 ], [ -42.214442, -20.708615699999946 ], [ -42.214591799999937, -20.708826799999944 ], [ -42.214723799999945, -20.708922599999944 ], [ -42.214850299999974, -20.709052599999957 ], [ -42.214977499999975, -20.70928189999994 ], [ -42.215099699999939, -20.70946019999997 ], [ -42.2151894, -20.709585099999959 ], [ -42.215178599999945, -20.709786 ], [ -42.21532069999995, -20.710168099999976 ], [ -42.215375299999955, -20.71046159999997 ], [ -42.215284299999951, -20.710804099999951 ], [ -42.215149899999979, -20.710904799999984 ], [ -42.21508069999993, -20.711095899999972 ], [ -42.215059, -20.71139449999998 ], [ -42.214961, -20.711563899999916 ], [ -42.214878399999982, -20.711625299999977 ], [ -42.214833499999948, -20.71198789999994 ], [ -42.214558699999948, -20.712062899999982 ], [ -42.214245199999937, -20.712340099999956 ], [ -42.214218099999989, -20.712460599999929 ], [ -42.214311599999967, -20.712639 ], [ -42.214301299999931, -20.712726299999918 ], [ -42.214233399999962, -20.712831899999955 ], [ -42.214221099999982, -20.712979299999962 ], [ -42.214420899999929, -20.713221 ], [ -42.214517399999977, -20.713268899999942 ], [ -42.214562099999974, -20.713363299999962 ], [ -42.214414599999941, -20.713540099999932 ], [ -42.214382199999932, -20.713770699999941 ], [ -42.214425199999944, -20.713876799999976 ], [ -42.21446879999997, -20.71391479999993 ], [ -42.214490699999935, -20.713994099999979 ], [ -42.214548899999961, -20.714061299999962 ], [ -42.21456759999996, -20.714144399999938 ], [ -42.21452369999998, -20.714160599999953 ], [ -42.214407899999969, -20.714242599999977 ], [ -42.214389799999935, -20.71432289999996 ], [ -42.215459199999941, -20.713971699999941 ], [ -42.217949, -20.713110599999933 ], [ -42.217579199999939, -20.711293 ], [ -42.217386399999953, -20.709481599999947 ], [ -42.217054699999949, -20.708998299999955 ], [ -42.21760409999996, -20.708222399999954 ], [ -42.21784319999994, -20.707981599999982 ], [ -42.218091299999969, -20.707414599999925 ], [ -42.218429099999987, -20.705884899999948 ], [ -42.217753299999977, -20.705219099999969 ], [ -42.217472599999951, -20.704484299999933 ], [ -42.217137299999941, -20.703653399999947 ], [ -42.216999599999951, -20.702765899999978 ], [ -42.216809099999978, -20.702074 ], [ -42.21673629999998, -20.701111 ], [ -42.217334599999965, -20.700800899999933 ], [ -42.217546399999939, -20.700412 ], [ -42.217423399999973, -20.699539199999933 ], [ -42.217366199999965, -20.698678599999937 ], [ -42.217020599999962, -20.698615299999958 ], [ -42.216811099999966, -20.698606599999945 ], [ -42.216581099999985, -20.698631599999942 ], [ -42.2163202, -20.698695099999959 ], [ -42.216097299999937, -20.698771899999944 ], [ -42.215947599999943, -20.698859199999951 ], [ -42.215786499999986, -20.699068599999968 ], [ -42.215626599999958, -20.699122299999942 ], [ -42.215601299999946, -20.699189499999918 ], [ -42.215586699999967, -20.699452599999972 ], [ -42.215496899999955, -20.699561699999936 ], [ -42.215430499999975, -20.69961829999993 ], [ -42.215421699999979, -20.699673 ], [ -42.215417299999963, -20.699784199999936 ], [ -42.215398, -20.69990509999996 ], [ -42.215357, -20.70003969999992 ], [ -42.215404799999931, -20.700067899999969 ], [ -42.215356899999961, -20.700183 ], [ -42.215298699999948, -20.70049239999997 ], [ -42.215343599999983, -20.700643099999976 ], [ -42.215403, -20.700760799999955 ], [ -42.215484299999957, -20.700966699999977 ], [ -42.215571199999957, -20.701277199999936 ], [ -42.215598199999938, -20.701593199999923 ], [ -42.21563469999996, -20.701718399999944 ], [ -42.215775299999969, -20.702025499999923 ], [ -42.215867299999957, -20.702240099999983 ], [ -42.21589229999995, -20.702368499999956 ], [ -42.215824699999985, -20.702504499999971 ], [ -42.215386799999976, -20.702761799999951 ], [ -42.215329699999984, -20.702843199999943 ], [ -42.215294699999959, -20.703132699999962 ], [ -42.215307, -20.703413799999947 ], [ -42.215255499999955, -20.703530499999932 ], [ -42.215272399999954, -20.703650199999956 ], [ -42.21544589999997, -20.703839899999924 ], [ -42.215483099999979, -20.703989699999958 ], [ -42.215302199999947, -20.70407519999997 ], [ -42.215346699999948, -20.704298799999947 ], [ -42.215454199999954, -20.704453799999953 ], [ -42.215632699999958, -20.704503799999934 ], [ -42.215626, -20.704538099999979 ], [ -42.215539299999932, -20.704580699999955 ], [ -42.215566199999962, -20.704767399999973 ], [ -42.215657299999975, -20.70510319999994 ], [ -42.215853099999947, -20.705170899999914 ], [ -42.215928699999949, -20.705319099999937 ], [ -42.215839, -20.705790599999936 ], [ -42.215839299999978, -20.706064799999965 ], [ -42.215753799999966, -20.706263299999929 ], [ -42.215599499999946, -20.706364899999972 ], [ -42.215415699999937, -20.70641 ], [ -42.215200199999977, -20.706427199999943 ], [ -42.214991899999973, -20.706411199999938 ], [ -42.214552299999987, -20.70640789999992 ], [ -42.214228399999961, -20.706497199999951 ], [ -42.213982199999975, -20.706629699999944 ], [ -42.213865, -20.706812599999974 ], [ -42.213748299999956, -20.707100899999936 ], [ -42.21381039999995, -20.707190599999926 ] ] ] ] } }
]
}
