{
"type": "FeatureCollection",
"name": "3113008",
"crs": { "type": "name", "properties": { "name": "urn:ogc:def:crs:OGC:1.3:CRS84" } },
"features": [
{ "type": "Feature", "properties": { "CD_MUN": "3113008", "NM_MUN": "Caraí" }, "geometry": { "type": "MultiPolygon", "coordinates": [ [ [ [ -41.517539099999965, -17.300923899999926 ], [ -41.517539099999965, -17.300972199999926 ], [ -41.517526499999981, -17.301020399999974 ], [ -41.517526499999974, -17.301068599999955 ], [ -41.517526399999959, -17.301141 ], [ -41.517526399999952, -17.301193799999954 ], [ -41.517526399999952, -17.301201399999968 ], [ -41.517526399999952, -17.301249599999959 ], [ -41.517526399999959, -17.301346199999958 ], [ -41.517526499999981, -17.301404 ], [ -41.51752659999994, -17.301438199999943 ], [ -41.517526699999962, -17.301508 ], [ -41.517514299999966, -17.301566499999961 ], [ -41.517501799999934, -17.301636499999979 ], [ -41.517501899999957, -17.301683 ], [ -41.517502, -17.301729499999972 ], [ -41.517502099999945, -17.301764399999968 ], [ -41.517502199999967, -17.301822399999924 ], [ -41.51750229999994, -17.301892 ], [ -41.517514899999988, -17.301938199999945 ], [ -41.517527499999979, -17.301995799999929 ], [ -41.517540099999962, -17.302041899999949 ], [ -41.517565199999979, -17.302087699999959 ], [ -41.517602899999929, -17.302120499999951 ], [ -41.517652899999973, -17.302141799999962 ], [ -41.517715399999936, -17.302162799999962 ], [ -41.517777799999983, -17.30217279999993 ], [ -41.517827699999948, -17.302183 ], [ -41.51786519999996, -17.302182399999943 ], [ -41.517915, -17.302203599999924 ], [ -41.517977099999939, -17.302235499999949 ], [ -41.51801429999994, -17.302278899999965 ], [ -41.518051399999933, -17.302322099999973 ], [ -41.518063499999975, -17.30237669999995 ], [ -41.518088, -17.302430899999937 ], [ -41.518100199999935, -17.302463499999931 ], [ -41.51812469999993, -17.302495699999959 ], [ -41.518136799999986, -17.302539099999937 ], [ -41.51818609999998, -17.302570799999952 ], [ -41.518223, -17.302591899999978 ], [ -41.518284699999988, -17.302590699999939 ], [ -41.518334, -17.302589399999931 ], [ -41.518383499999977, -17.302577699999976 ], [ -41.518420899999967, -17.302544799999971 ], [ -41.518446099999949, -17.302500799999951 ], [ -41.518471199999972, -17.302467699999973 ], [ -41.518496399999947, -17.302434499999951 ], [ -41.518497199999956, -17.302369 ], [ -41.51849789999995, -17.302314299999971 ], [ -41.518498799999982, -17.302248499999969 ], [ -41.518511699999976, -17.302204399999926 ], [ -41.518549499999956, -17.302159699999944 ], [ -41.518611899999947, -17.302136699999949 ], [ -41.518649699999962, -17.302103 ], [ -41.518712, -17.30207929999996 ], [ -41.518761799999936, -17.302043899999941 ], [ -41.518824099999954, -17.302008299999954 ], [ -41.518874, -17.301972899999956 ], [ -41.518911499999945, -17.301937699999932 ], [ -41.518949, -17.301902499999922 ], [ -41.518986699999978, -17.301855799999931 ], [ -41.519024399999985, -17.301797499999957 ], [ -41.519049699999989, -17.301750899999945 ], [ -41.519087699999943, -17.301705399999957 ], [ -41.519101399999961, -17.301637499999963 ], [ -41.519139899999978, -17.301569199999957 ], [ -41.519178299999972, -17.301512199999944 ], [ -41.519191699999965, -17.301466699999938 ], [ -41.519205199999938, -17.301409799999931 ], [ -41.519231499999933, -17.30134129999994 ], [ -41.519257599999953, -17.301284099999979 ], [ -41.519271399999973, -17.301215499999966 ], [ -41.519284899999946, -17.301169699999935 ], [ -41.519286199999954, -17.301101 ], [ -41.519287599999984, -17.301032199999952 ], [ -41.519289, -17.300963299999985 ], [ -41.519289899999933, -17.300905199999928 ], [ -41.519289699999945, -17.300820599999955 ], [ -41.519289599999979, -17.300760299999986 ], [ -41.519289499999957, -17.300699899999934 ], [ -41.519289299999969, -17.300615399999963 ], [ -41.519289199999946, -17.300543 ], [ -41.519300499999929, -17.300432299999954 ], [ -41.519299799999942, -17.300383 ], [ -41.519324199999978, -17.300333599999934 ], [ -41.519323499999985, -17.300284399999953 ], [ -41.519347899999957, -17.300235099999952 ], [ -41.519371799999938, -17.300149099999938 ], [ -41.519383699999942, -17.300112199999941 ], [ -41.51939519999997, -17.300038599999944 ], [ -41.519407, -17.29998959999994 ], [ -41.519418599999938, -17.299928399999938 ], [ -41.519442699999956, -17.299867299999956 ], [ -41.519441399999948, -17.299781899999971 ], [ -41.519453099999964, -17.299733099999973 ], [ -41.519464699999958, -17.299672199999968 ], [ -41.51946369999996, -17.299611399999947 ], [ -41.519475399999983, -17.299562699999971 ], [ -41.519499599999961, -17.29951409999995 ], [ -41.519523499999934, -17.299453399999948 ], [ -41.519547299999942, -17.299380699999965 ], [ -41.519571099999958, -17.299320099999939 ], [ -41.519582799999959, -17.299271799999932 ], [ -41.51960639999993, -17.299199299999934 ], [ -41.519617799999935, -17.299139 ], [ -41.519629799999962, -17.299114799999916 ], [ -41.519653399999989, -17.299042599999957 ], [ -41.51970149999994, -17.2989583 ], [ -41.519725699999981, -17.298922299999965 ], [ -41.519773899999961, -17.298850199999951 ], [ -41.519821899999954, -17.298778199999955 ], [ -41.519882599999953, -17.29873009999995 ], [ -41.519955599999946, -17.298682099999947 ], [ -41.519967699999931, -17.298670099999978 ], [ -41.52001659999997, -17.298646199999947 ], [ -41.520103399999982, -17.298622699999957 ], [ -41.520166899999943, -17.298611599999969 ], [ -41.520229699999952, -17.298588399999968 ], [ -41.520292599999948, -17.298565099999962 ], [ -41.520380699999983, -17.298542 ], [ -41.5204409, -17.298519799999948 ], [ -41.52044369999993, -17.298518699999939 ], [ -41.520506599999976, -17.298483599999951 ], [ -41.520582199999978, -17.298448399999934 ], [ -41.520645199999926, -17.298413199999963 ], [ -41.520695699999976, -17.29838969999998 ], [ -41.520758799999946, -17.298354499999945 ], [ -41.520809299999939, -17.298319099999958 ], [ -41.52088509999993, -17.298283799999982 ], [ -41.520948499999982, -17.298260399999954 ], [ -41.521024399999924, -17.298225099999975 ], [ -41.521074899999974, -17.298177699999943 ], [ -41.521125499999975, -17.298142299999949 ], [ -41.521163399999978, -17.298106699999945 ], [ -41.521201399999931, -17.298083099999925 ], [ -41.521302799999951, -17.298012 ], [ -41.521315499999957, -17.298000099999978 ], [ -41.521353199999965, -17.29794069999997 ], [ -41.521403699999951, -17.297881299999968 ], [ -41.521441399999958, -17.29782189999997 ], [ -41.521491699999963, -17.297738599999942 ], [ -41.521567599999976, -17.297655399999933 ], [ -41.521592799999958, -17.297619599999955 ], [ -41.521744199999944, -17.297393399999979 ], [ -41.52175619999997, -17.297322 ], [ -41.521768699999932, -17.297292199999962 ], [ -41.521781199999964, -17.297262399999951 ], [ -41.521805799999974, -17.29716719999994 ], [ -41.521818099999955, -17.297119599999977 ], [ -41.52183059999993, -17.297095799999969 ], [ -41.521842899999967, -17.29704809999992 ], [ -41.521867799999939, -17.296976699999956 ], [ -41.521893, -17.296940899999974 ], [ -41.521905499999946, -17.296905199999966 ], [ -41.521930299999951, -17.296833799999945 ], [ -41.521955299999952, -17.296774299999981 ], [ -41.521967599999982, -17.296726699999969 ], [ -41.521992699999942, -17.296679 ], [ -41.522004899999963, -17.296619499999959 ], [ -41.52202989999995, -17.29656 ], [ -41.522068, -17.296524099999935 ], [ -41.522131799999961, -17.296488 ], [ -41.522208599999942, -17.296451899999983 ], [ -41.52228539999993, -17.296415699999951 ], [ -41.522374199999945, -17.296379599999963 ], [ -41.522399599999979, -17.296367599999932 ], [ -41.522462699999949, -17.296331599999977 ], [ -41.522513199999935, -17.296295699999984 ], [ -41.5226019, -17.296259599999921 ], [ -41.522678199999966, -17.29623539999994 ], [ -41.522741599999961, -17.296211299999982 ], [ -41.522792399999958, -17.296187199999963 ], [ -41.522842899999944, -17.29615129999997 ], [ -41.522880199999975, -17.296091599999958 ], [ -41.522917099999979, -17.296008199999953 ], [ -41.522942399999977, -17.295996099999964 ], [ -41.522979799999966, -17.295936499999986 ], [ -41.523017099999947, -17.295876899999932 ], [ -41.523054599999973, -17.295829099999924 ], [ -41.523079299999942, -17.295781399999949 ], [ -41.523091399999942, -17.295745699999948 ], [ -41.523128699999972, -17.295686099999962 ], [ -41.523153399999963, -17.295638499999935 ], [ -41.523177899999951, -17.295578899999942 ], [ -41.523215, -17.295507499999928 ], [ -41.523239899999965, -17.295471699999943 ], [ -41.523263899999961, -17.295388499999945 ], [ -41.523288599999951, -17.295340899999925 ], [ -41.523313299999984, -17.295293299999976 ], [ -41.523338199999962, -17.295257499999938 ], [ -41.523376, -17.295221599999927 ], [ -41.523400599999952, -17.295174 ], [ -41.523463499999941, -17.295114199999944 ], [ -41.523526199999928, -17.295042499999965 ], [ -41.523550899999975, -17.294994899999942 ], [ -41.523563, -17.294959299999963 ], [ -41.523600699999974, -17.294923399999966 ], [ -41.523610699999949, -17.294909099999931 ], [ -41.523650499999967, -17.29485189999998 ], [ -41.523678499999967, -17.294811599999946 ], [ -41.523739299999939, -17.294733 ], [ -41.523774499999945, -17.29468629999996 ], [ -41.52379829999996, -17.294638099999926 ], [ -41.523810699999956, -17.294626199999986 ], [ -41.523872899999958, -17.294566699999958 ], [ -41.523910199999925, -17.294531 ], [ -41.523960899999963, -17.294494899999961 ], [ -41.524103399999944, -17.294432799999985 ], [ -41.524180799999954, -17.294419699999938 ], [ -41.523302399999977, -17.294119599999931 ], [ -41.522778599999981, -17.293884099999961 ], [ -41.521702299999959, -17.293407599999966 ], [ -41.520079299999963, -17.293813899999986 ], [ -41.51841079999997, -17.29426089999993 ], [ -41.51855479999994, -17.293928599999965 ], [ -41.519194199999966, -17.292668599999953 ], [ -41.519286, -17.292148 ], [ -41.519274799999948, -17.291571099999935 ], [ -41.51918869999998, -17.291064399999982 ], [ -41.519270099999972, -17.290652599999927 ], [ -41.519263699999954, -17.29063889999998 ], [ -41.519164399999966, -17.290428099999914 ], [ -41.518970399999937, -17.290474699999944 ], [ -41.518367, -17.290479 ], [ -41.517186099999954, -17.290578099999941 ], [ -41.516612799999962, -17.290789299999975 ], [ -41.51534909999998, -17.290537499999971 ], [ -41.514552599999938, -17.290272099999985 ], [ -41.513871699999989, -17.290220399999946 ], [ -41.51330269999994, -17.290504799999958 ], [ -41.513207899999941, -17.29114269999997 ], [ -41.51332, -17.291556499999956 ], [ -41.514475199999943, -17.292020399999956 ], [ -41.516517599999929, -17.29446659999995 ], [ -41.517212799999982, -17.294963199999934 ], [ -41.517530499999957, -17.294956599999963 ], [ -41.517817599999951, -17.294829799999931 ], [ -41.518004599999983, -17.294743499999989 ], [ -41.518009099999972, -17.29482019999994 ], [ -41.518013, -17.294883599999931 ], [ -41.518021, -17.295014599999945 ], [ -41.518025, -17.295071299999957 ], [ -41.518033299999956, -17.29516719999998 ], [ -41.518039899999962, -17.295247699999951 ], [ -41.518047499999966, -17.295338599999976 ], [ -41.518055299999965, -17.295432299999952 ], [ -41.518062899999961, -17.295522799999958 ], [ -41.518085799999945, -17.295771499999944 ], [ -41.518125, -17.296109899999976 ], [ -41.518154799999934, -17.296339199999966 ], [ -41.518196399999965, -17.296659799999933 ], [ -41.518203, -17.296921399999981 ], [ -41.518212, -17.297276299999968 ], [ -41.518165299999964, -17.297685599999962 ], [ -41.518002199999955, -17.298138899999973 ], [ -41.517757399999937, -17.298584799999965 ], [ -41.517497699999986, -17.298991599999955 ], [ -41.517352199999948, -17.299248099999943 ], [ -41.517205, -17.299527499999957 ], [ -41.517151, -17.299643499999952 ], [ -41.516864, -17.299432699999944 ], [ -41.516683499999949, -17.299237399999974 ], [ -41.516278099999973, -17.298909699999978 ], [ -41.516091, -17.298886599999943 ], [ -41.515784799999942, -17.298894799999964 ], [ -41.515536599999962, -17.299045399999958 ], [ -41.515404199999978, -17.299149699999926 ], [ -41.515326399999935, -17.299272199999958 ], [ -41.515388399999956, -17.299863899999934 ], [ -41.515691299999958, -17.300181699999936 ], [ -41.515837, -17.300271 ], [ -41.516208799999959, -17.300533499999972 ], [ -41.516259299999945, -17.300533 ], [ -41.516335, -17.300532099999941 ], [ -41.51644819999995, -17.300519299999966 ], [ -41.516511099999953, -17.300507 ], [ -41.516586499999967, -17.300494499999949 ], [ -41.516624199999967, -17.300482499999923 ], [ -41.516699599999988, -17.30047 ], [ -41.516762399999941, -17.300457699999985 ], [ -41.516850099999942, -17.30042189999995 ], [ -41.516900299999975, -17.300409799999944 ], [ -41.516937899999952, -17.300397699999955 ], [ -41.516975599999967, -17.300385699999925 ], [ -41.517025499999932, -17.300374499999972 ], [ -41.517087899999979, -17.300351799999941 ], [ -41.517112899999972, -17.300328299999936 ], [ -41.51716289999996, -17.300305299999938 ], [ -41.517213, -17.30027019999994 ], [ -41.517263, -17.300235199999978 ], [ -41.517313099999967, -17.300212099999968 ], [ -41.517350699999959, -17.300200499999971 ], [ -41.517357699999934, -17.300198899999934 ], [ -41.517379399999982, -17.300193699999966 ], [ -41.517401, -17.300188599999949 ], [ -41.51743869999995, -17.300224799999967 ], [ -41.517463799999973, -17.300273 ], [ -41.517476299999942, -17.300333299999977 ], [ -41.51750149999998, -17.300393499999934 ], [ -41.517501399999958, -17.300441699999975 ], [ -41.517514, -17.300514 ], [ -41.517526599999947, -17.300562299999971 ], [ -41.517526599999947, -17.300610499999941 ], [ -41.517539099999965, -17.300658699999929 ], [ -41.517539099999958, -17.300719 ], [ -41.517539099999965, -17.30074309999997 ], [ -41.517539099999965, -17.300781699999963 ], [ -41.517539099999965, -17.300815399999969 ], [ -41.517539099999965, -17.300863599999964 ], [ -41.517539099999965, -17.300923899999926 ] ] ], [ [ [ -41.375168899999949, -17.245338699999937 ], [ -41.384817799999951, -17.244533899999972 ], [ -41.385263899999984, -17.242399499999976 ], [ -41.384733199999971, -17.24129779999992 ], [ -41.384430799999961, -17.240544399999973 ], [ -41.383959699999934, -17.239618199999928 ], [ -41.383766099999946, -17.238953499999983 ], [ -41.38312929999995, -17.237356199999969 ], [ -41.382828299999971, -17.237637 ], [ -41.382730899999963, -17.237728 ], [ -41.382398699999953, -17.237939099999956 ], [ -41.381981799999949, -17.237739699999963 ], [ -41.381721099999943, -17.237556899999955 ], [ -41.381438399999979, -17.237531599999958 ], [ -41.381136099999928, -17.237583899999947 ], [ -41.380857299999946, -17.23783479999997 ], [ -41.380741199999939, -17.237958399999961 ], [ -41.38057689999993, -17.238133399999978 ], [ -41.380481, -17.238235499999973 ], [ -41.380416799999978, -17.238278499999989 ], [ -41.376073399999939, -17.236729799999988 ], [ -41.373105699999932, -17.238349 ], [ -41.373371299999974, -17.238771199999981 ], [ -41.374214499999937, -17.239377399999974 ], [ -41.374625599999952, -17.240144 ], [ -41.374565499999967, -17.240718199999936 ], [ -41.374458399999988, -17.241739799999941 ], [ -41.374179599999941, -17.242269399999941 ], [ -41.374193599999948, -17.242687499999931 ], [ -41.375168899999949, -17.245338699999937 ] ] ], [ [ [ -41.756458299999963, -17.261959699999959 ], [ -41.755759, -17.261597599999963 ], [ -41.75559949999996, -17.261425199999962 ], [ -41.755112499999939, -17.261239899999961 ], [ -41.754496099999983, -17.26123559999996 ], [ -41.75416429999995, -17.261162299999953 ], [ -41.753815099999947, -17.260959699999944 ], [ -41.753155699999979, -17.260834699999968 ], [ -41.752573899999959, -17.260800299999971 ], [ -41.752259199999969, -17.260882199999973 ], [ -41.751806699999975, -17.26102869999994 ], [ -41.751159799999982, -17.261216699999984 ], [ -41.750740499999949, -17.261 ], [ -41.75048019999997, -17.260595699999946 ], [ -41.750203399999975, -17.260289799999942 ], [ -41.750120699999968, -17.259518899999915 ], [ -41.749667399999971, -17.259236599999934 ], [ -41.749147199999982, -17.258824599999961 ], [ -41.749858599999982, -17.258334899999966 ], [ -41.750449, -17.258063399999966 ], [ -41.75130669999993, -17.25762809999998 ], [ -41.751802399999981, -17.257175599999986 ], [ -41.751858399999961, -17.256748899999909 ], [ -41.751785099999957, -17.256494599999936 ], [ -41.751569599999982, -17.256335099999934 ], [ -41.75127219999996, -17.256296299999974 ], [ -41.750858499999936, -17.256352299999943 ], [ -41.750375799999972, -17.256546299999965 ], [ -41.749953399999981, -17.25677039999994 ], [ -41.749509499999931, -17.257037599999922 ], [ -41.748725, -17.257485899999931 ], [ -41.748316699999975, -17.257633099999953 ], [ -41.748167199999962, -17.257541199999924 ], [ -41.748017799999957, -17.257414799999918 ], [ -41.747586799999958, -17.257202099999969 ], [ -41.747213299999942, -17.257035499999958 ], [ -41.746885699999957, -17.256932 ], [ -41.746437499999956, -17.256920499999978 ], [ -41.746086899999959, -17.256868799999957 ], [ -41.745891599999943, -17.256805599999943 ], [ -41.745701899999972, -17.25673659999994 ], [ -41.745684699999963, -17.256650399999952 ], [ -41.745431799999949, -17.256483799999938 ], [ -41.745242199999957, -17.256253899999923 ], [ -41.745167499999987, -17.25605279999996 ], [ -41.745230699999979, -17.25574819999996 ], [ -41.744884499999962, -17.255170699999951 ], [ -41.74451669999997, -17.254670699999949 ], [ -41.744190399999979, -17.253890099999968 ], [ -41.744062699999965, -17.2535329 ], [ -41.743852799999956, -17.253203299999917 ], [ -41.743447299999964, -17.25291709999992 ], [ -41.743236199999963, -17.253180199999971 ], [ -41.742917299999938, -17.253473299999932 ], [ -41.743223299999954, -17.254081 ], [ -41.743624099999977, -17.255098099999941 ], [ -41.74355089999996, -17.255606699999927 ], [ -41.743318099999954, -17.256776899999966 ], [ -41.743624099999977, -17.257281099999943 ], [ -41.744020699999965, -17.257746599999951 ], [ -41.744374099999959, -17.258022499999985 ], [ -41.744508799999956, -17.258074199999943 ], [ -41.744625099999958, -17.2581 ], [ -41.744623499999932, -17.258211199999941 ], [ -41.744579699999981, -17.25838259999993 ], [ -41.744540899999947, -17.25849359999993 ], [ -41.744482, -17.258661599999979 ], [ -41.744471799999985, -17.258683099999924 ], [ -41.744431, -17.258760599999952 ], [ -41.744377799999938, -17.258864199999937 ], [ -41.744316199999965, -17.258982 ], [ -41.744261299999955, -17.259066299999969 ], [ -41.744197299999932, -17.25916439999996 ], [ -41.744149599999965, -17.259237499999927 ], [ -41.744114299999985, -17.259291699999945 ], [ -41.744074699999942, -17.259350899999955 ], [ -41.744027699999947, -17.259424399999947 ], [ -41.74399539999996, -17.259474 ], [ -41.743861799999934, -17.25967769999993 ], [ -41.744545399999943, -17.259981399999941 ], [ -41.747907199999929, -17.26030029999993 ], [ -41.752113799999968, -17.263869 ], [ -41.752511899999945, -17.263431199999946 ], [ -41.752631, -17.263373299999959 ], [ -41.753152499999942, -17.263265599999936 ], [ -41.75413089999995, -17.263050099999909 ], [ -41.755212699999966, -17.263188 ], [ -41.756195299999952, -17.263209599999978 ], [ -41.756798799999956, -17.26302419999994 ], [ -41.756889299999962, -17.262679399999957 ], [ -41.756772899999937, -17.262188099999928 ], [ -41.756458299999963, -17.261959699999959 ] ] ], [ [ [ -41.708184499999959, -17.253100299999971 ], [ -41.708160099999937, -17.25323179999998 ], [ -41.708154499999978, -17.253261799999958 ], [ -41.70804279999993, -17.25346019999995 ], [ -41.707858099999946, -17.253468 ], [ -41.707678599999952, -17.253541 ], [ -41.707617599999935, -17.25378749999993 ], [ -41.707253199999968, -17.253919399999976 ], [ -41.707033299999978, -17.253998499999977 ], [ -41.706931199999985, -17.254069799999979 ], [ -41.7068197, -17.254140399999915 ], [ -41.70759019999997, -17.255419099999937 ], [ -41.707664199999961, -17.255510299999973 ], [ -41.708857399999943, -17.256779399999967 ], [ -41.708498, -17.259894699999954 ], [ -41.709316099999967, -17.260453899999966 ], [ -41.709707399999957, -17.260110699999917 ], [ -41.710671099999956, -17.259180799999971 ], [ -41.71155559999994, -17.258327299999962 ], [ -41.71146, -17.258182499999961 ], [ -41.711323799999953, -17.258080799999952 ], [ -41.711127399999953, -17.257991 ], [ -41.710920399999971, -17.257962499999952 ], [ -41.710764799999929, -17.257835799999953 ], [ -41.710537, -17.257735599999933 ], [ -41.710361399999947, -17.257561499999952 ], [ -41.71024349999994, -17.257422699999942 ], [ -41.710179299999936, -17.257270399999975 ], [ -41.710179299999936, -17.257089099999984 ], [ -41.710245099999952, -17.256874099999962 ], [ -41.710267599999952, -17.256678399999945 ], [ -41.71027079999994, -17.256490699999961 ], [ -41.710225, -17.256387299999972 ], [ -41.710371299999963, -17.25577769999995 ], [ -41.710955699999943, -17.255099899999937 ], [ -41.710968599999951, -17.255019699999945 ], [ -41.710936499999953, -17.25495559999997 ], [ -41.710946099999951, -17.254904199999938 ], [ -41.710910799999972, -17.254856099999923 ], [ -41.710869099999968, -17.254843299999951 ], [ -41.710820199999951, -17.254820299999935 ], [ -41.710814599999935, -17.254817599999971 ], [ -41.710744, -17.254788699999946 ], [ -41.710695899999969, -17.25473739999995 ], [ -41.710657399999945, -17.254692499999972 ], [ -41.710654199999965, -17.254660399999977 ], [ -41.710695899999962, -17.254644399999965 ], [ -41.710711899999978, -17.254605899999941 ], [ -41.710702199999957, -17.254576799999946 ], [ -41.710695899999962, -17.25455769999996 ], [ -41.710686199999934, -17.254509599999963 ], [ -41.710660599999983, -17.25448069999992 ], [ -41.710641299999956, -17.254442199999978 ], [ -41.710609199999965, -17.254384499999968 ], [ -41.710601899999979, -17.254352399999956 ], [ -41.710598399999981, -17.254338099999931 ], [ -41.710596399999936, -17.254329899999952 ], [ -41.710599599999966, -17.254301099999964 ], [ -41.710606, -17.254246499999969 ], [ -41.710605599999951, -17.254242799999925 ], [ -41.710599599999966, -17.254188799999948 ], [ -41.710602799999947, -17.254163099999968 ], [ -41.710602799999947, -17.254124599999944 ], [ -41.710599599999966, -17.254076499999947 ], [ -41.710583599999957, -17.254044399999934 ], [ -41.71058679999993, -17.254012299999939 ], [ -41.710596399999929, -17.253977 ], [ -41.710606, -17.253941699999928 ], [ -41.71059, -17.253906499999985 ], [ -41.710554699999932, -17.253861499999971 ], [ -41.710567499999968, -17.253810199999979 ], [ -41.71058359999995, -17.253746 ], [ -41.710599599999966, -17.253707499999958 ], [ -41.710618899999929, -17.253659399999957 ], [ -41.710660599999983, -17.253592 ], [ -41.710667, -17.253527899999924 ], [ -41.710667, -17.253483 ], [ -41.710697099999948, -17.253341799999934 ], [ -41.710710799999951, -17.253291199999982 ], [ -41.71078719999997, -17.253156499999939 ], [ -41.7108, -17.253136799999933 ], [ -41.710870799999952, -17.253027299999921 ], [ -41.710901199999967, -17.252920899999939 ], [ -41.710878399999963, -17.252814499999943 ], [ -41.710878399999956, -17.252661499999938 ], [ -41.710914599999974, -17.25244229999992 ], [ -41.710928899999949, -17.25240029999998 ], [ -41.710933499999953, -17.252380499999948 ], [ -41.710946799999931, -17.252305199999956 ], [ -41.710984799999956, -17.252206399999974 ], [ -41.71096, -17.252167099999959 ], [ -41.710938499999941, -17.252133099999973 ], [ -41.710918599999957, -17.252100499999919 ], [ -41.71081, -17.251894799999935 ], [ -41.710809699999977, -17.251786299999939 ], [ -41.71081, -17.251725699999945 ], [ -41.71081, -17.25172 ], [ -41.710810699999975, -17.251610699999944 ], [ -41.71081, -17.251438699999952 ], [ -41.71076439999996, -17.251370299999966 ], [ -41.710673199999974, -17.25130949999993 ], [ -41.710645099999972, -17.251187199999951 ], [ -41.710635199999956, -17.251149899999973 ], [ -41.710574399999985, -17.251043499999984 ], [ -41.710545699999962, -17.250935499999972 ], [ -41.710536399999967, -17.25090669999997 ], [ -41.710517599999946, -17.250858899999958 ], [ -41.710490799999953, -17.250792699999984 ], [ -41.710463, -17.25076039999993 ], [ -41.710483199999949, -17.250823099999931 ], [ -41.710464199999933, -17.250885299999947 ], [ -41.710460399999931, -17.250899099999984 ], [ -41.710454299999981, -17.250903899999951 ], [ -41.71039959999996, -17.250952299999941 ], [ -41.710354, -17.251013099999966 ], [ -41.710293199999967, -17.251149899999973 ], [ -41.7102551, -17.251279099999973 ], [ -41.710188199999955, -17.251378599999949 ], [ -41.710095499999966, -17.251499499999962 ], [ -41.710087899999962, -17.25172 ], [ -41.710080299999966, -17.251864399999935 ], [ -41.710057499999948, -17.252016399999942 ], [ -41.710004299999987, -17.252077199999977 ], [ -41.709935899999941, -17.252092399999977 ], [ -41.709852, -17.252075899999959 ], [ -41.70977629999993, -17.252054399999956 ], [ -41.709601099999936, -17.252064399999945 ], [ -41.708968, -17.252334099999924 ], [ -41.708816799999973, -17.252399399999952 ], [ -41.708689599999957, -17.252495599999961 ], [ -41.708523, -17.252687099999932 ], [ -41.708383799999979, -17.252787599999973 ], [ -41.708254099999984, -17.252922499999961 ], [ -41.708184499999959, -17.253100299999971 ] ] ], [ [ [ -41.474903099999949, -17.19235309999992 ], [ -41.474987699999986, -17.19209159999998 ], [ -41.475210799999957, -17.191814599999923 ], [ -41.475495399999936, -17.19163 ], [ -41.475726099999981, -17.191260799999963 ], [ -41.476134, -17.190564699999985 ], [ -41.476197199999945, -17.190499399999965 ], [ -41.476209, -17.190483 ], [ -41.476226199999985, -17.190463899999934 ], [ -41.479418399999936, -17.189617499999937 ], [ -41.483007099999959, -17.188861099999936 ], [ -41.485580699999957, -17.188367799999984 ], [ -41.486757399999931, -17.188083699999936 ], [ -41.486013799999974, -17.185041399999943 ], [ -41.486415099999931, -17.183575099999924 ], [ -41.487094199999945, -17.182694499999968 ], [ -41.487593099999977, -17.182375499999978 ], [ -41.487726499999951, -17.182288599999932 ], [ -41.488771199999974, -17.181808299999943 ], [ -41.488542399999979, -17.18133939999996 ], [ -41.488018399999937, -17.181245099999956 ], [ -41.48759019999995, -17.18151939999996 ], [ -41.487025399999936, -17.181657799999989 ], [ -41.486625099999962, -17.181767299999937 ], [ -41.486199799999952, -17.182039299999925 ], [ -41.485999699999986, -17.182233199999921 ], [ -41.485668299999929, -17.182442699999967 ], [ -41.485193, -17.182686599999965 ], [ -41.484389299999975, -17.183030599999935 ], [ -41.484007799999965, -17.182996199999931 ], [ -41.483578399999949, -17.183147399999928 ], [ -41.482926099999929, -17.183508499999963 ], [ -41.482446099999947, -17.183954199999942 ], [ -41.482171499999943, -17.184228699999942 ], [ -41.481399899999985, -17.184469499999988 ], [ -41.480713399999949, -17.184554699999978 ], [ -41.480123399999968, -17.184918899999953 ], [ -41.479506499999957, -17.185244299999969 ], [ -41.479119299999979, -17.185492699999941 ], [ -41.478690699999959, -17.185754699999958 ], [ -41.478281599999946, -17.186142699999952 ], [ -41.477858799999979, -17.18634829999997 ], [ -41.477444199999979, -17.186506699999935 ], [ -41.477063199999975, -17.186722599999936 ], [ -41.476538099999978, -17.187021699999942 ], [ -41.476157399999977, -17.18739189999997 ], [ -41.475670299999933, -17.187783599999925 ], [ -41.47531639999994, -17.188214899999931 ], [ -41.47521919999997, -17.188642499999965 ], [ -41.475144099999973, -17.189065399999951 ], [ -41.474859099999946, -17.189839899999988 ], [ -41.474850699999934, -17.18985449999996 ], [ -41.474733899999933, -17.189960899999964 ], [ -41.474272399999961, -17.190807 ], [ -41.473910899999964, -17.191437799999957 ], [ -41.473410899999976, -17.19171469999997 ], [ -41.473312799999981, -17.191882 ], [ -41.473181599999975, -17.192050399999967 ], [ -41.47313639999993, -17.192088899999941 ], [ -41.472934099999975, -17.192271399999981 ], [ -41.472779299999956, -17.19262939999993 ], [ -41.472698699999967, -17.192887499999912 ], [ -41.472506499999952, -17.193162199999961 ], [ -41.473497699999932, -17.193575199999952 ], [ -41.474154499999948, -17.193674399999971 ], [ -41.474216299999966, -17.193517099999944 ], [ -41.474474799999939, -17.19314049999997 ], [ -41.474710799999968, -17.192691 ], [ -41.474827599999969, -17.19247369999994 ], [ -41.474858399999967, -17.192419399999945 ], [ -41.474903099999949, -17.19235309999992 ] ] ], [ [ [ -41.497816599999965, -17.175689799999926 ], [ -41.498019799999952, -17.176102099999969 ], [ -41.498076199999957, -17.176279699999945 ], [ -41.498194499999954, -17.176416599999971 ], [ -41.4980475, -17.176968699999986 ], [ -41.497597699999979, -17.177237199999972 ], [ -41.497322099999963, -17.177340699999942 ], [ -41.497198399999945, -17.177450499999956 ], [ -41.497045199999953, -17.17755079999996 ], [ -41.496858499999973, -17.177785 ], [ -41.496656399999949, -17.177921899999944 ], [ -41.496488799999952, -17.178098399999946 ], [ -41.496167499999963, -17.178292 ], [ -41.495253899999966, -17.178949099999965 ], [ -41.501582499999984, -17.180429699999923 ], [ -41.502983799999988, -17.180571199999978 ], [ -41.503620299999966, -17.179188699999944 ], [ -41.501373899999983, -17.177164699999935 ], [ -41.50127829999996, -17.175675399999918 ], [ -41.499720099999934, -17.174085099999953 ], [ -41.499546699999939, -17.174317399999946 ], [ -41.498930399999942, -17.174490799999937 ], [ -41.498326499999962, -17.1744108 ], [ -41.498074, -17.174487 ], [ -41.497833499999956, -17.174718799999926 ], [ -41.497726099999966, -17.174947299999936 ], [ -41.497668199999971, -17.175311399999941 ], [ -41.497816599999965, -17.175689799999926 ] ] ], [ [ [ -41.704247799999962, -17.197777099999936 ], [ -41.70497, -17.197016499999972 ], [ -41.705120399999949, -17.196063599999949 ], [ -41.705346199999951, -17.19287229999998 ], [ -41.705258399999934, -17.192377 ], [ -41.704995099999955, -17.191988299999927 ], [ -41.704330499999969, -17.191718699999978 ], [ -41.703559299999938, -17.191217199999986 ], [ -41.702753199999968, -17.19030059999994 ], [ -41.702922699999931, -17.18970579999996 ], [ -41.702781, -17.189264899999952 ], [ -41.702637199999977, -17.188705899999938 ], [ -41.701972699999942, -17.187737399999939 ], [ -41.701142199999936, -17.186574699999937 ], [ -41.701008499999951, -17.186404299999925 ], [ -41.700945199999978, -17.186283899999975 ], [ -41.700932499999965, -17.18625969999994 ], [ -41.70092429999994, -17.186195699999935 ], [ -41.70091489999993, -17.186063099999959 ], [ -41.700897199999929, -17.185971199999926 ], [ -41.700888899999939, -17.185917399999934 ], [ -41.700958599999986, -17.184587799999974 ], [ -41.700923399999965, -17.184429099999935 ], [ -41.700894099999971, -17.18419329999994 ], [ -41.70084659999997, -17.183952099999932 ], [ -41.700841599999933, -17.183764899999964 ], [ -41.700786199999975, -17.183534599999977 ], [ -41.700754399999944, -17.183345099999929 ], [ -41.700771399999951, -17.183119699999967 ], [ -41.700779, -17.182920799999973 ], [ -41.700824499999953, -17.182750399999968 ], [ -41.700815899999952, -17.182480499999933 ], [ -41.70085, -17.18231 ], [ -41.700813099999941, -17.182114 ], [ -41.7008302, -17.181932099999923 ], [ -41.700872799999956, -17.181741799999944 ], [ -41.700904, -17.181562799999927 ], [ -41.70095519999996, -17.181437799999962 ], [ -41.700966499999943, -17.181307099999959 ], [ -41.70100629999996, -17.181128099999952 ], [ -41.7010802, -17.180878099999973 ], [ -41.70106879999998, -17.180670699999943 ], [ -41.701102899999974, -17.180466199999955 ], [ -41.70114609999996, -17.180315299999961 ], [ -41.701159699999948, -17.180153699999945 ], [ -41.701154, -17.180011599999943 ], [ -41.701171699999975, -17.179723399999943 ], [ -41.701123099999961, -17.179257099999969 ], [ -41.700946599999952, -17.177981099999947 ], [ -41.700143199999957, -17.177967399999932 ], [ -41.699520699999937, -17.178036599999935 ], [ -41.699481799999944, -17.177908899999974 ], [ -41.699392699999976, -17.177583799999969 ], [ -41.699171499999984, -17.177257799999953 ], [ -41.699045299999966, -17.17705769999997 ], [ -41.69895409999998, -17.176904 ], [ -41.69818719999995, -17.177013099999961 ], [ -41.697749599999959, -17.177136199999943 ], [ -41.697496599999965, -17.177245599999928 ], [ -41.697284599999932, -17.177525899999978 ], [ -41.697147899999948, -17.177867799999941 ], [ -41.697106799999979, -17.178223399999982 ], [ -41.697106799999979, -17.178722499999939 ], [ -41.696819699999942, -17.179980599999958 ], [ -41.696817599999974, -17.180089599999977 ], [ -41.696575199999984, -17.180150899999958 ], [ -41.696046399999943, -17.180279599999931 ], [ -41.695939499999945, -17.180301 ], [ -41.695676599999949, -17.180359399999929 ], [ -41.695257899999937, -17.180466499999966 ], [ -41.694771699999933, -17.180505099999955 ], [ -41.694395099999952, -17.180568099999967 ], [ -41.693999899999937, -17.18068 ], [ -41.693736299999948, -17.1807717 ], [ -41.69350819999994, -17.180788599999971 ], [ -41.693314399999963, -17.180815699999975 ], [ -41.693130799999949, -17.180877 ], [ -41.692943199999952, -17.180949299999952 ], [ -41.692529, -17.180954299999954 ], [ -41.691819099999982, -17.181188199999948 ], [ -41.691259099999975, -17.181078799999963 ], [ -41.690769899999971, -17.18090819999998 ], [ -41.690097199999968, -17.181008 ], [ -41.689578799999936, -17.181490499999949 ], [ -41.689315299999976, -17.181581399999967 ], [ -41.689252799999963, -17.18167219999998 ], [ -41.689116499999955, -17.181749499999977 ], [ -41.689016499999973, -17.181867599999979 ], [ -41.688962, -17.182017599999934 ], [ -41.68888469999996, -17.18214939999995 ], [ -41.688730199999952, -17.18245829999994 ], [ -41.688473099999953, -17.182911299999947 ], [ -41.688506599999982, -17.183051199999959 ], [ -41.688487899999984, -17.183462199999951 ], [ -41.688445699999939, -17.183412 ], [ -41.688318199999976, -17.183178099999967 ], [ -41.688202599999954, -17.182873499999967 ], [ -41.688168499999961, -17.182723599999971 ], [ -41.688100499999962, -17.182231599999966 ], [ -41.688019899999979, -17.182017599999945 ], [ -41.687696799999969, -17.181624499999934 ], [ -41.687339, -17.181223299999949 ], [ -41.687152699999963, -17.181094899999948 ], [ -41.686521899999953, -17.180888399999954 ], [ -41.6860425, -17.180772699999977 ], [ -41.685783199999946, -17.180800399999953 ], [ -41.685493699999938, -17.180911199999969 ], [ -41.685179699999942, -17.181222399999953 ], [ -41.68501839999994, -17.181399599999967 ], [ -41.684765899999945, -17.181701799999939 ], [ -41.684395599999952, -17.182207299999959 ], [ -41.683893799999971, -17.182952799999946 ], [ -41.683843, -17.183021099999969 ], [ -41.687189399999966, -17.185255 ], [ -41.687307499999974, -17.187733299999927 ], [ -41.687547699999982, -17.188099799999964 ], [ -41.68806079999996, -17.188299399999945 ], [ -41.688370299999974, -17.188303399999942 ], [ -41.688594299999977, -17.188205699999983 ], [ -41.688757099999975, -17.188177199999934 ], [ -41.688875899999971, -17.187873399999951 ], [ -41.691229399999948, -17.188527899999929 ], [ -41.692161599999963, -17.188990799999935 ], [ -41.69290929999994, -17.189250799999957 ], [ -41.693357299999953, -17.18946579999994 ], [ -41.693721799999942, -17.189521499999945 ], [ -41.693855299999939, -17.189657699999941 ], [ -41.694087799999977, -17.189816599999972 ], [ -41.694202, -17.189926699999951 ], [ -41.694870399999964, -17.19082329999997 ], [ -41.694871399999954, -17.190823699999964 ], [ -41.694740499999966, -17.190897299999953 ], [ -41.694577299999942, -17.191030299999969 ], [ -41.692858399999984, -17.193611599999933 ], [ -41.690214799999978, -17.198496699999968 ], [ -41.6914503, -17.199062699999956 ], [ -41.692239899999954, -17.199034499999968 ], [ -41.694917399999959, -17.198599099999974 ], [ -41.695075, -17.19856539999995 ], [ -41.695591499999978, -17.198422 ], [ -41.696738, -17.197671599999975 ], [ -41.697072599999956, -17.197440399999952 ], [ -41.697431699999981, -17.197285299999962 ], [ -41.697642199999962, -17.197108899999943 ], [ -41.697989499999956, -17.19687349999997 ], [ -41.698157899999963, -17.196642799999957 ], [ -41.6983441, -17.196327199999917 ], [ -41.698840199999957, -17.195787499999934 ], [ -41.699645299999929, -17.194429199999952 ], [ -41.700139499999985, -17.193602799999958 ], [ -41.700223899999976, -17.193775199999951 ], [ -41.702092199999981, -17.194740699999947 ], [ -41.701766199999959, -17.196458499999935 ], [ -41.702079699999963, -17.199856599999976 ], [ -41.703832699999964, -17.200344099999949 ], [ -41.703912199999934, -17.199426099999979 ], [ -41.704247799999962, -17.197777099999936 ] ] ], [ [ [ -41.559821099999965, -17.159760899999977 ], [ -41.560282099999938, -17.160368799999965 ], [ -41.563371899999936, -17.161230099999948 ], [ -41.564951699999938, -17.161334899999936 ], [ -41.566144799999961, -17.161330499999966 ], [ -41.567246699999941, -17.16122159999998 ], [ -41.568374699999936, -17.161464899999942 ], [ -41.56937319999998, -17.161946099999959 ], [ -41.570320299999935, -17.162706499999945 ], [ -41.574402599999985, -17.16515539999995 ], [ -41.574219099999944, -17.161816199999976 ], [ -41.573891599999975, -17.16194889999996 ], [ -41.573065599999957, -17.162047 ], [ -41.572642099999939, -17.161669299999971 ], [ -41.572212499999978, -17.161547799999948 ], [ -41.571886699999936, -17.161347099999944 ], [ -41.571594299999951, -17.161135399999985 ], [ -41.571450099999936, -17.160694499999988 ], [ -41.570859299999938, -17.160386099999975 ], [ -41.570460299999979, -17.160141499999948 ], [ -41.569816399999979, -17.159973299999937 ], [ -41.569644799999942, -17.159504399999957 ], [ -41.569339, -17.159249599999953 ], [ -41.569135199999948, -17.159109399999981 ], [ -41.568812199999961, -17.158571599999963 ], [ -41.568103099999973, -17.158663499999935 ], [ -41.566823499999948, -17.158307599999951 ], [ -41.566442199999983, -17.157947399999937 ], [ -41.566259, -17.157650299999943 ], [ -41.566150799999939, -17.157325599999986 ], [ -41.566779599999954, -17.156610699999927 ], [ -41.56722439999993, -17.154380099999976 ], [ -41.566170299999946, -17.154212299999923 ], [ -41.565952199999977, -17.15488329999992 ], [ -41.565627899999988, -17.155470499999979 ], [ -41.565325899999948, -17.155973799999984 ], [ -41.56495289999998, -17.156224599999973 ], [ -41.56494679999998, -17.156228699999922 ], [ -41.564458699999932, -17.156368199999978 ], [ -41.563983199999939, -17.155838499999966 ], [ -41.564166499999949, -17.155241099999959 ], [ -41.564257399999974, -17.154859399999975 ], [ -41.564230099999982, -17.15402329999996 ], [ -41.564048299999961, -17.152442 ], [ -41.563421299999959, -17.152323899999935 ], [ -41.562439799999929, -17.152841899999935 ], [ -41.562321599999962, -17.153232699999943 ], [ -41.562150899999942, -17.156176899999927 ], [ -41.562624299999982, -17.157811099999936 ], [ -41.562536899999948, -17.157894599999967 ], [ -41.562408599999976, -17.158016499999981 ], [ -41.562322499999937, -17.158134699999952 ], [ -41.562284699999964, -17.158186599999969 ], [ -41.562114899999983, -17.158301799999954 ], [ -41.561849799999948, -17.158356799999989 ], [ -41.561273399999948, -17.15847639999992 ], [ -41.560380499999958, -17.159060899999936 ], [ -41.559821099999965, -17.159760899999977 ] ] ], [ [ [ -41.379003699999949, -17.100368699999944 ], [ -41.380228599999953, -17.101224599999959 ], [ -41.380641699999956, -17.10138709999995 ], [ -41.381095399999936, -17.101461599999947 ], [ -41.381592799999957, -17.101724599999958 ], [ -41.382348299999933, -17.102287799999932 ], [ -41.382852299999968, -17.102697199999962 ], [ -41.383635, -17.10341869999997 ], [ -41.384308899999951, -17.103046499999941 ], [ -41.384273099999966, -17.10278749999997 ], [ -41.384334099999933, -17.102592699999938 ], [ -41.384436799999946, -17.102338299999925 ], [ -41.384517199999955, -17.102080899999969 ], [ -41.384596499999937, -17.101797499999961 ], [ -41.384703099999975, -17.101418599999924 ], [ -41.384753, -17.101037899999927 ], [ -41.384812, -17.100739099999931 ], [ -41.384824499999979, -17.100342099999967 ], [ -41.38475649999998, -17.099812399999969 ], [ -41.384683, -17.099465299999952 ], [ -41.384683, -17.099008 ], [ -41.384619099999952, -17.098645099999946 ], [ -41.384475699999939, -17.098345399999971 ], [ -41.384249399999931, -17.09805109999996 ], [ -41.384074, -17.09777 ], [ -41.383765099999955, -17.097380899999965 ], [ -41.381983399999974, -17.096735 ], [ -41.377647799999977, -17.095805699999961 ], [ -41.375523299999948, -17.095877899999959 ], [ -41.375513599999977, -17.09625049999995 ], [ -41.375682899999966, -17.096595899999947 ], [ -41.375876799999958, -17.097164599999925 ], [ -41.375949399999961, -17.097438 ], [ -41.376156899999948, -17.09834989999996 ], [ -41.376448099999948, -17.098851 ], [ -41.376834099999947, -17.099284399999931 ], [ -41.377707699999966, -17.099873599999981 ], [ -41.379003699999949, -17.100368699999944 ] ] ] ] } }
]
}
