{
"type": "FeatureCollection",
"name": "3121704",
"crs": { "type": "name", "properties": { "name": "urn:ogc:def:crs:OGC:1.3:CRS84" } },
"features": [
{ "type": "Feature", "properties": { "CD_MUN": "3121704", "NM_MUN": "Diogo de Vasconcelos" }, "geometry": { "type": "Polygon", "coordinates": [ [ [ -43.194156199999952, -20.490518799999961 ], [ -43.195496099999957, -20.490779199999963 ], [ -43.197261599999941, -20.490127599999933 ], [ -43.198652099999947, -20.490275599999961 ], [ -43.198782699999981, -20.49046439999994 ], [ -43.198875599999958, -20.490566599999966 ], [ -43.198931499999958, -20.490733899999945 ], [ -43.19891279999996, -20.490966299999965 ], [ -43.198847699999931, -20.491161599999941 ], [ -43.198764099999948, -20.491356699999972 ], [ -43.198543599999937, -20.491559899999977 ], [ -43.198263499999939, -20.491675299999944 ], [ -43.19785539999998, -20.491855 ], [ -43.197716899999939, -20.49202919999993 ], [ -43.197294399999976, -20.492270799999979 ], [ -43.197290399999986, -20.492320899999978 ], [ -43.197309499999967, -20.492485899999956 ], [ -43.197351799999979, -20.492646299999937 ], [ -43.197526399999958, -20.492684199999932 ], [ -43.1977452, -20.492827 ], [ -43.197887799999933, -20.4928877 ], [ -43.197946899999984, -20.492780699999958 ], [ -43.198002299999978, -20.492691299999926 ], [ -43.198077799999965, -20.49268479999995 ], [ -43.198167899999937, -20.49263459999997 ], [ -43.198645599999956, -20.492614099999969 ], [ -43.202293399999981, -20.490267799999977 ], [ -43.204123, -20.489943099999945 ], [ -43.204250499999944, -20.489840399999935 ], [ -43.204083699999956, -20.489601599999965 ], [ -43.204085299999974, -20.489128599999951 ], [ -43.203702099999923, -20.488628699999925 ], [ -43.204029, -20.487935 ], [ -43.2043341, -20.487123899999965 ], [ -43.204228299999954, -20.486943599999972 ], [ -43.204031099999952, -20.486696399999968 ], [ -43.203785399999958, -20.486515199999932 ], [ -43.203528099999978, -20.486307199999938 ], [ -43.203248, -20.486202399999957 ], [ -43.202997899999957, -20.486166799999971 ], [ -43.202820399999943, -20.486077399999935 ], [ -43.202609, -20.485933799999941 ], [ -43.202385599999964, -20.485805599999935 ], [ -43.202101, -20.485664799999938 ], [ -43.201905099999976, -20.485478499999935 ], [ -43.20179319999994, -20.485357399999927 ], [ -43.2014521, -20.48482179999996 ], [ -43.20135259999995, -20.484687899999976 ], [ -43.201229, -20.484564199999973 ], [ -43.201039399999956, -20.484328299999948 ], [ -43.201490799999938, -20.483571099999939 ], [ -43.201517699999961, -20.483514 ], [ -43.201722399999937, -20.483069199999939 ], [ -43.201611799999966, -20.48287949999996 ], [ -43.201502699999928, -20.482830499999977 ], [ -43.201379299999985, -20.482825799999951 ], [ -43.201294, -20.482874799999937 ], [ -43.201195899999966, -20.482895299999935 ], [ -43.201137399999936, -20.482895299999939 ], [ -43.201065599999929, -20.482822199999923 ], [ -43.201064699999961, -20.482740399999944 ], [ -43.201020399999948, -20.482672399999963 ], [ -43.200914499999953, -20.482672399999963 ], [ -43.200799399999937, -20.482727699999938 ], [ -43.200671, -20.482767299999985 ], [ -43.200622, -20.482716699999962 ], [ -43.200569799999975, -20.482647099999955 ], [ -43.200547699999952, -20.482610699999949 ], [ -43.200468599999965, -20.482514299999938 ], [ -43.200301, -20.482455799999954 ], [ -43.200214099999982, -20.482484199999931 ], [ -43.20015079999996, -20.482522199999952 ], [ -43.200074899999947, -20.48253329999995 ], [ -43.199992699999939, -20.482534799999936 ], [ -43.200049599999936, -20.481798 ], [ -43.199972399999979, -20.481555499999942 ], [ -43.200401699999937, -20.480835099999979 ], [ -43.200886299999979, -20.479909799999966 ], [ -43.202553399999942, -20.476684 ], [ -43.202687, -20.476425699999936 ], [ -43.202369899999958, -20.476314299999963 ], [ -43.202261, -20.47621219999996 ], [ -43.202148699999952, -20.476125599999943 ], [ -43.202101199999966, -20.476001899999964 ], [ -43.202087299999967, -20.475986699999968 ], [ -43.202111499999937, -20.475946 ], [ -43.20214679999998, -20.475878 ], [ -43.202150899999943, -20.475776 ], [ -43.202135099999964, -20.47563369999995 ], [ -43.202113, -20.475385499999955 ], [ -43.202082899999937, -20.475100899999969 ], [ -43.202049699999982, -20.474947499999931 ], [ -43.201965899999955, -20.474767299999932 ], [ -43.201768299999969, -20.474566499999984 ], [ -43.201637099999971, -20.474391 ], [ -43.201607, -20.474253399999952 ], [ -43.201591199999946, -20.474006799999927 ], [ -43.200204399999969, -20.474156699999984 ], [ -43.200046199999981, -20.474300399999944 ], [ -43.200062499999945, -20.474411099999934 ], [ -43.199973299999961, -20.474528599999925 ], [ -43.200123799999972, -20.474516299999944 ], [ -43.200173899999974, -20.474611499999988 ], [ -43.200264399999973, -20.474591399999948 ], [ -43.200371799999971, -20.474615599999925 ], [ -43.200385199999971, -20.474730399999931 ], [ -43.200430199999971, -20.474813 ], [ -43.200521499999979, -20.474761299999951 ], [ -43.200610599999948, -20.474792399999952 ], [ -43.200545399999953, -20.474924599999962 ], [ -43.200624599999969, -20.47503429999994 ], [ -43.200491799999959, -20.475144799999953 ], [ -43.200468399999977, -20.475237899999978 ], [ -43.200521099999946, -20.475289099999944 ], [ -43.200565599999941, -20.475389599999978 ], [ -43.200538199999983, -20.47554 ], [ -43.200464, -20.475563299999965 ], [ -43.200380899999978, -20.475593699999937 ], [ -43.200310399999978, -20.475679899999935 ], [ -43.200291, -20.475764099999932 ], [ -43.200302899999947, -20.475882499999951 ], [ -43.200366499999973, -20.475970599999982 ], [ -43.200412399999948, -20.475978 ], [ -43.200384399999962, -20.476068899999973 ], [ -43.200227599999948, -20.476091299999958 ], [ -43.200055, -20.476142599999942 ], [ -43.199902599999973, -20.476069799999951 ], [ -43.199861699999985, -20.476157199999939 ], [ -43.199904, -20.476243899999936 ], [ -43.200071499999979, -20.476293 ], [ -43.200162899999953, -20.476323899999958 ], [ -43.200103299999967, -20.476410599999941 ], [ -43.199923499999962, -20.476418499999966 ], [ -43.199816199999937, -20.476411699999968 ], [ -43.199719, -20.476439499999962 ], [ -43.199743, -20.476512799999981 ], [ -43.19964559999994, -20.476576599999937 ], [ -43.199449399999935, -20.476593499999986 ], [ -43.199283199999968, -20.476599299999965 ], [ -43.199130399999937, -20.476729 ], [ -43.199211799999944, -20.476829399999925 ], [ -43.199385499999948, -20.476853499999944 ], [ -43.199522599999973, -20.476839299999945 ], [ -43.19953309999994, -20.476920199999931 ], [ -43.199486199999974, -20.476982 ], [ -43.199271499999952, -20.477083599999954 ], [ -43.199036299999925, -20.477129799999947 ], [ -43.198842299999974, -20.477110499999977 ], [ -43.198693399999968, -20.477216399999982 ], [ -43.198629599999947, -20.477269899999953 ], [ -43.198534899999977, -20.477408699999962 ], [ -43.1984844, -20.47748329999995 ], [ -43.198471599999941, -20.477504399999919 ], [ -43.198405299999941, -20.47760139999998 ], [ -43.198325499999953, -20.477758599999952 ], [ -43.19833959999994, -20.477854399999956 ], [ -43.198346699999952, -20.477949399999943 ], [ -43.198234599999985, -20.478078699999951 ], [ -43.198165499999959, -20.478170299999942 ], [ -43.198158799999931, -20.478249799999961 ], [ -43.198217899999975, -20.478290599999969 ], [ -43.198300399999937, -20.47827609999996 ], [ -43.198450799999939, -20.478288 ], [ -43.198518799999938, -20.478394099999939 ], [ -43.198532499999942, -20.478533099999929 ], [ -43.198642499999949, -20.47871169999997 ], [ -43.198704499999963, -20.478836099999956 ], [ -43.198687099999972, -20.478938299999975 ], [ -43.198584399999959, -20.479012 ], [ -43.198538699999972, -20.479107499999941 ], [ -43.198567899999944, -20.479200399999971 ], [ -43.198653499999985, -20.479254099999928 ], [ -43.198762599999952, -20.47932139999994 ], [ -43.198786799999937, -20.479377799999959 ], [ -43.198777399999983, -20.479438299999963 ], [ -43.198678299999983, -20.479598099999965 ], [ -43.198613099999932, -20.479622399999986 ], [ -43.198614899999939, -20.479658799999978 ], [ -43.198738599999956, -20.479855899999954 ], [ -43.198721, -20.47998709999996 ], [ -43.1986285, -20.48018559999997 ], [ -43.198575099999971, -20.480316499999958 ], [ -43.198517099999947, -20.480475299999963 ], [ -43.198442299999954, -20.480527299999956 ], [ -43.198050899999949, -20.480736399999941 ], [ -43.197968299999957, -20.480798599999968 ], [ -43.197927099999966, -20.48086179999995 ], [ -43.197958299999982, -20.48095879999995 ], [ -43.198044799999934, -20.481016199999939 ], [ -43.198113199999973, -20.481137799999949 ], [ -43.19808119999994, -20.481208799999923 ], [ -43.197977599999945, -20.481281899999939 ], [ -43.197954599999946, -20.481347 ], [ -43.197955099999952, -20.481407499999918 ], [ -43.197954899999964, -20.481474099999961 ], [ -43.197922499999947, -20.481525 ], [ -43.197955299999933, -20.48174959999994 ], [ -43.197929599999952, -20.482111 ], [ -43.197806799999967, -20.482211599999978 ], [ -43.19760789999998, -20.482257199999932 ], [ -43.197547599999957, -20.481985099999978 ], [ -43.197463899999946, -20.481875799999955 ], [ -43.197320699999977, -20.48183129999995 ], [ -43.196921, -20.481993499999923 ], [ -43.196545599999986, -20.482080499999928 ], [ -43.196443799999948, -20.482017899999953 ], [ -43.1960218, -20.4822703 ], [ -43.19595709999993, -20.482258599999977 ], [ -43.195529499999964, -20.482228399999951 ], [ -43.195400799999959, -20.482126199999975 ], [ -43.195249399999966, -20.48213319999995 ], [ -43.195113399999975, -20.482071799999961 ], [ -43.194907699999931, -20.481981799999968 ], [ -43.194666599999948, -20.481919 ], [ -43.194515899999942, -20.481905299999937 ], [ -43.194259599999967, -20.48178879999994 ], [ -43.194023899999934, -20.48174249999995 ], [ -43.193776899999932, -20.481768299999946 ], [ -43.193678899999952, -20.481773499999964 ], [ -43.193600799999963, -20.481775499999955 ], [ -43.193562, -20.481786199999934 ], [ -43.19355829999995, -20.481815599999951 ], [ -43.193415699999946, -20.481905399999967 ], [ -43.19342249999994, -20.481928399999962 ], [ -43.193467299999959, -20.482027199999948 ], [ -43.193538, -20.482147599999966 ], [ -43.193567499999979, -20.482294099999937 ], [ -43.193578699999932, -20.482346399999987 ], [ -43.193561899999963, -20.482424799999926 ], [ -43.193517299999932, -20.482529299999957 ], [ -43.193500599999936, -20.482565799999975 ], [ -43.193472699999973, -20.482654699999955 ], [ -43.193411399999945, -20.482790499999968 ], [ -43.19331649999998, -20.482947299999967 ], [ -43.19335, -20.483171899999938 ], [ -43.195568499999979, -20.483743 ], [ -43.195442899999932, -20.484201899999963 ], [ -43.195183199999974, -20.484715499999933 ], [ -43.194876499999964, -20.485175699999949 ], [ -43.19470929999995, -20.485631799999968 ], [ -43.194665099999959, -20.485991199999933 ], [ -43.194823499999984, -20.486465399999926 ], [ -43.194937599999953, -20.486617599999928 ], [ -43.197017399999943, -20.487219799999934 ], [ -43.196968199999958, -20.48740729999998 ], [ -43.196912499999939, -20.487576599999965 ], [ -43.196778299999949, -20.487743199999951 ], [ -43.196703599999985, -20.48790229999998 ], [ -43.196632299999969, -20.488094799999942 ], [ -43.196499399999936, -20.488229 ], [ -43.196351, -20.488380099999976 ], [ -43.196176899999955, -20.488593199999968 ], [ -43.196121499999947, -20.488820299999929 ], [ -43.196069199999961, -20.489031099999973 ], [ -43.195961, -20.489183499999967 ], [ -43.195887399999954, -20.489360699999963 ], [ -43.195608399999976, -20.489533199999983 ], [ -43.195468199999937, -20.489573499999938 ], [ -43.19532989999994, -20.489503099999979 ], [ -43.195155499999942, -20.489552599999968 ], [ -43.194994, -20.489692699999974 ], [ -43.194856799999968, -20.489785099999953 ], [ -43.194657499999948, -20.489867599999958 ], [ -43.194436099999962, -20.489918699999969 ], [ -43.194360499999959, -20.489914199999916 ], [ -43.194287699999961, -20.489929199999953 ], [ -43.194239399999958, -20.489893299999945 ], [ -43.194177, -20.489818899999925 ], [ -43.194093799999962, -20.489803 ], [ -43.194047299999966, -20.489887 ], [ -43.193983799999955, -20.489994499999966 ], [ -43.194079299999935, -20.490458499999932 ], [ -43.194090099999983, -20.490507899999944 ], [ -43.194156199999952, -20.490518799999961 ] ] ] } }
]
}
