{
"type": "FeatureCollection",
"name": "3124203",
"crs": { "type": "name", "properties": { "name": "urn:ogc:def:crs:OGC:1.3:CRS84" } },
"features": [
{ "type": "Feature", "properties": { "CD_MUN": "3124203", "NM_MUN": "Espera Feliz" }, "geometry": { "type": "MultiPolygon", "coordinates": [ [ [ [ -41.911075199999971, -20.660115399999931 ], [ -41.911179299999958, -20.660206 ], [ -41.911312, -20.660255799999955 ], [ -41.911399899999935, -20.660207299999961 ], [ -41.911575399999947, -20.660284499999925 ], [ -41.911673899999982, -20.660255 ], [ -41.911788099999974, -20.660324399999972 ], [ -41.911892099999939, -20.660278799999954 ], [ -41.912054599999976, -20.660294399999934 ], [ -41.91219709999995, -20.660361599999927 ], [ -41.912388899999947, -20.660393799999941 ], [ -41.912513499999939, -20.660381699999949 ], [ -41.912649199999983, -20.66041169999993 ], [ -41.912797099999985, -20.660401399999937 ], [ -41.912773299999969, -20.660351499999926 ], [ -41.912792, -20.660302399999974 ], [ -41.91285819999996, -20.660315799999974 ], [ -41.912897799999939, -20.660373 ], [ -41.913010399999969, -20.66035109999995 ], [ -41.913176499999963, -20.66039469999992 ], [ -41.913315799999964, -20.660482899999973 ], [ -41.913429399999984, -20.660439199999921 ], [ -41.913498, -20.660452 ], [ -41.913598399999955, -20.660521099999986 ], [ -41.913649699999951, -20.660613099999967 ], [ -41.913741199999954, -20.660629599999929 ], [ -41.913965099999984, -20.660604199999955 ], [ -41.914038199999943, -20.660641599999945 ], [ -41.914083599999962, -20.660718 ], [ -41.914091599999949, -20.660833199999953 ], [ -41.914181099999951, -20.660913799999946 ], [ -41.914326599999981, -20.660950799999956 ], [ -41.914346199999962, -20.661056899999927 ], [ -41.914540099999954, -20.661131799999957 ], [ -41.914562499999931, -20.661135799999958 ], [ -41.914588199999969, -20.661142199999972 ], [ -41.914659899999947, -20.661160099999961 ], [ -41.916207799999938, -20.661543 ], [ -41.916213599999935, -20.661546299999944 ], [ -41.916311, -20.661602 ], [ -41.916481, -20.661752 ], [ -41.916699, -20.661857 ], [ -41.916955, -20.661985 ], [ -41.917198, -20.662113 ], [ -41.917417, -20.662206 ], [ -41.917697, -20.662276 ], [ -41.917929, -20.662289 ], [ -41.918197, -20.662337 ], [ -41.918453, -20.662373 ], [ -41.918758, -20.662443 ], [ -41.919038, -20.662502 ], [ -41.91927, -20.662527 ], [ -41.919513, -20.662586 ], [ -41.919782, -20.662622 ], [ -41.920013, -20.662692 ], [ -41.92022, -20.662796 ], [ -41.920524, -20.662856 ], [ -41.920792, -20.662926 ], [ -41.921036, -20.663031 ], [ -41.921267, -20.663193 ], [ -41.921498, -20.663321 ], [ -41.921765, -20.663529 ], [ -41.921971, -20.663657 ], [ -41.922227, -20.663796 ], [ -41.922396, -20.663958 ], [ -41.922615, -20.664051 ], [ -41.922847, -20.664121 ], [ -41.923066, -20.664203 ], [ -41.923162, -20.664422 ], [ -41.923063, -20.664628 ], [ -41.923448399999984, -20.664814199999945 ], [ -41.924052599999982, -20.664475099999933 ], [ -41.924660299999964, -20.664374599999977 ], [ -41.925069399999984, -20.664177399999971 ], [ -41.925408699999942, -20.664079599999972 ], [ -41.925267699999957, -20.66372459999997 ], [ -41.924866799999961, -20.662872399999962 ], [ -41.924695899999968, -20.66251179999994 ], [ -41.92451049999994, -20.662187199999948 ], [ -41.924366599999985, -20.66200589999994 ], [ -41.924258899999984, -20.66193459999992 ], [ -41.924182499999972, -20.661850699999938 ], [ -41.923970599999961, -20.661769499999927 ], [ -41.923737799999977, -20.661698699999924 ], [ -41.923349499999979, -20.661625699999938 ], [ -41.92315519999994, -20.661598499999958 ], [ -41.922938099999953, -20.661568399999954 ], [ -41.922698399999945, -20.661516799999958 ], [ -41.922396499999934, -20.661405599999956 ], [ -41.922160899999938, -20.661289399999916 ], [ -41.921828799999957, -20.661110099999973 ], [ -41.921290799999959, -20.660787899999953 ], [ -41.920990899999936, -20.660609299999976 ], [ -41.920833099999982, -20.660471 ], [ -41.920689599999946, -20.660291699999963 ], [ -41.92059339999998, -20.660097199999932 ], [ -41.920500399999987, -20.659828199999922 ], [ -41.920434, -20.659545899999959 ], [ -41.920344299999954, -20.659163899999946 ], [ -41.920316399999933, -20.658901499999963 ], [ -41.920311499999976, -20.658655499999945 ], [ -41.920311099999935, -20.658633 ], [ -41.920306099999948, -20.658378599999928 ], [ -41.920248, -20.658172499999967 ], [ -41.920161599999979, -20.658038099999938 ], [ -41.919980199999941, -20.657876899999952 ], [ -41.919793, -20.657755799999943 ], [ -41.919625499999945, -20.657643899999982 ], [ -41.919410199999959, -20.657486 ], [ -41.919128799999953, -20.657214499999945 ], [ -41.918923899999989, -20.657022099999942 ], [ -41.918945699999938, -20.656897 ], [ -41.918927, -20.656719599999963 ], [ -41.918924299999951, -20.656564299999957 ], [ -41.918956699999967, -20.656436199999966 ], [ -41.919011299999966, -20.65632469999996 ], [ -41.919134699999972, -20.656211299999935 ], [ -41.919184099999946, -20.656178599999965 ], [ -41.919566799999984, -20.656200499999947 ], [ -41.919739, -20.655650499999975 ], [ -41.919850799999949, -20.655166299999955 ], [ -41.920004399999982, -20.654873 ], [ -41.920269799999971, -20.654244499999947 ], [ -41.920386199999939, -20.653257499999942 ], [ -41.921200899999981, -20.652857099999945 ], [ -41.921098499999978, -20.652656899999947 ], [ -41.923511099999985, -20.652228299999923 ], [ -41.923535199999947, -20.652169 ], [ -41.92415619999997, -20.651077899999958 ], [ -41.924306599999966, -20.649867199999964 ], [ -41.924138099999936, -20.649200499999953 ], [ -41.924864499999963, -20.649433899999963 ], [ -41.925774399999966, -20.649441799999966 ], [ -41.926508599999984, -20.64919 ], [ -41.926905, -20.648589399999921 ], [ -41.927245199999959, -20.648141 ], [ -41.927865199999985, -20.648089699999954 ], [ -41.928601199999946, -20.648094799999967 ], [ -41.929152499999937, -20.647871 ], [ -41.929657099999936, -20.647424199999922 ], [ -41.930293799999959, -20.646710299999938 ], [ -41.930880299999963, -20.646209899999967 ], [ -41.931847599999976, -20.646034799999928 ], [ -41.932528899999973, -20.645787099999943 ], [ -41.93247359999998, -20.645651099999938 ], [ -41.93239, -20.645556199999916 ], [ -41.932239499999973, -20.645507199999933 ], [ -41.932053699999983, -20.64520229999993 ], [ -41.932026599999972, -20.644986899999928 ], [ -41.931898699999977, -20.644819299999931 ], [ -41.931796699999957, -20.644765399999972 ], [ -41.931718699999983, -20.644670899999937 ], [ -41.931685099999982, -20.644539699999928 ], [ -41.931649899999961, -20.644478 ], [ -41.93163519999996, -20.644442099999928 ], [ -41.931662, -20.644415199999965 ], [ -41.931701399999959, -20.644418199999961 ], [ -41.931746299999929, -20.644458 ], [ -41.931792499999965, -20.644501599999955 ], [ -41.931850299999951, -20.644528 ], [ -41.931929499999967, -20.644526599999946 ], [ -41.932020399999942, -20.644511299999959 ], [ -41.932074199999938, -20.644523 ], [ -41.932164099999959, -20.64458279999997 ], [ -41.932235099999957, -20.644621399999949 ], [ -41.932273899999984, -20.644628299999958 ], [ -41.932316699999944, -20.644602199999955 ], [ -41.932349699999975, -20.644574 ], [ -41.932375199999974, -20.644517799999957 ], [ -41.932387299999967, -20.644452 ], [ -41.93241009999997, -20.644405899999978 ], [ -41.932454899999989, -20.644346499999912 ], [ -41.932503, -20.644292199999931 ], [ -41.932616699999983, -20.644188499999924 ], [ -41.932687, -20.644122899999957 ], [ -41.932716, -20.644052 ], [ -41.932763399999942, -20.643783499999923 ], [ -41.932823499999984, -20.643664399999974 ], [ -41.932911699999977, -20.643580399999959 ], [ -41.933052299999986, -20.643520699999957 ], [ -41.933317699999975, -20.64344909999993 ], [ -41.933430699999974, -20.643392 ], [ -41.933453199999974, -20.643306199999923 ], [ -41.933430699999974, -20.643148299999957 ], [ -41.933475399999971, -20.643094099999917 ], [ -41.933551299999976, -20.643042699999945 ], [ -41.933656699999979, -20.643037399999965 ], [ -41.933844499999971, -20.643027899999936 ], [ -41.933967699999982, -20.642982299999971 ], [ -41.934047, -20.642912099999922 ], [ -41.934101, -20.642805499999952 ], [ -41.934213599999971, -20.642702599999954 ], [ -41.934377499999982, -20.642547699999973 ], [ -41.934504499999953, -20.642465399999921 ], [ -41.934186, -20.642205 ], [ -41.933896799999964, -20.64196289999995 ], [ -41.933183799999938, -20.64133309999993 ], [ -41.932931599999968, -20.641488599999938 ], [ -41.932821399999973, -20.641517099999923 ], [ -41.932728599999969, -20.641523699999926 ], [ -41.932523299999957, -20.641476699999942 ], [ -41.932340899999986, -20.641493699999952 ], [ -41.932159, -20.641461199999977 ], [ -41.932001199999945, -20.641481199999923 ], [ -41.931898599999961, -20.641541799999956 ], [ -41.931769199999955, -20.641558299999936 ], [ -41.931676699999969, -20.641582199999959 ], [ -41.93152809999998, -20.641567199999933 ], [ -41.931382299999939, -20.641603599999936 ], [ -41.9311982, -20.641637299999946 ], [ -41.9310129, -20.641641699999969 ], [ -41.930881299999953, -20.64157339999997 ], [ -41.930826699999947, -20.641491 ], [ -41.930692599999922, -20.641438199999975 ], [ -41.930492599999987, -20.641396 ], [ -41.93031, -20.641330199999963 ], [ -41.930168199999962, -20.641259299999934 ], [ -41.929949599999937, -20.641141 ], [ -41.929715899999955, -20.641038899999959 ], [ -41.929493499999985, -20.640896699999928 ], [ -41.92932339999993, -20.640795299999965 ], [ -41.929154599999947, -20.640704299999978 ], [ -41.928953299999932, -20.640561099999957 ], [ -41.928636299999937, -20.640380399999966 ], [ -41.928320699999979, -20.640239699999928 ], [ -41.928054, -20.640141099999937 ], [ -41.927852699999967, -20.640080099999963 ], [ -41.927596199999982, -20.639998499999933 ], [ -41.9273257, -20.639912599999942 ], [ -41.92704649999996, -20.639881599999956 ], [ -41.926799899999935, -20.639855299999962 ], [ -41.926623099999972, -20.639724199999918 ], [ -41.926525799999986, -20.63956369999994 ], [ -41.9263979, -20.639367499999924 ], [ -41.926297699999971, -20.63927869999997 ], [ -41.926147199999953, -20.639316099999963 ], [ -41.926005699999962, -20.639176099999922 ], [ -41.925991899999985, -20.63896869999996 ], [ -41.9260374, -20.638766699999959 ], [ -41.926091799999938, -20.638634199999956 ], [ -41.92605019999997, -20.638595 ], [ -41.925839899999964, -20.638522799999969 ], [ -41.925767, -20.638479199999946 ], [ -41.925655399999989, -20.638396199999931 ], [ -41.925429, -20.638321499999947 ], [ -41.925394599999954, -20.638274 ], [ -41.925357199999951, -20.638194199999933 ], [ -41.925149899999958, -20.638082499999939 ], [ -41.924896899999965, -20.637971299999943 ], [ -41.92371049999997, -20.637567899999954 ], [ -41.922900799999979, -20.637352399999937 ], [ -41.922482399999986, -20.637072499999931 ], [ -41.921840599999939, -20.637096699999965 ], [ -41.920008199999984, -20.636529299999943 ], [ -41.919050199999965, -20.636198399999945 ], [ -41.918245099999979, -20.635731299999968 ], [ -41.917598299999959, -20.63530129999997 ], [ -41.91687509999997, -20.635016599999972 ], [ -41.916084499999954, -20.634851699999945 ], [ -41.915372699999985, -20.63483019999995 ], [ -41.914544099999951, -20.634351299999928 ], [ -41.914121099999932, -20.63470179999997 ], [ -41.913913, -20.635112499999931 ], [ -41.913823099999952, -20.635557099999954 ], [ -41.913609099999974, -20.635722099999946 ], [ -41.913357499999968, -20.635738099999958 ], [ -41.913227799999952, -20.636023899999941 ], [ -41.913070399999988, -20.636150499999921 ], [ -41.913058599999943, -20.636457299999947 ], [ -41.912968, -20.636648299999923 ], [ -41.912932399999931, -20.63687519999996 ], [ -41.912913499999945, -20.637020599999971 ], [ -41.912879899999957, -20.63714149999992 ], [ -41.912839299999973, -20.637245199999935 ], [ -41.912743199999966, -20.637625199999945 ], [ -41.912778599999967, -20.637952699999975 ], [ -41.912623799999949, -20.638230599999925 ], [ -41.912469899999969, -20.638361499999966 ], [ -41.912609399999951, -20.63855239999997 ], [ -41.912858599999936, -20.638684199999947 ], [ -41.913174399999953, -20.638847799999937 ], [ -41.913478699999985, -20.638984699999973 ], [ -41.913279799999941, -20.639248199999944 ], [ -41.913267299999973, -20.639444 ], [ -41.913493899999935, -20.639937399999948 ], [ -41.91338369999994, -20.640346699999956 ], [ -41.912458799999968, -20.640920499999936 ], [ -41.910977299999956, -20.641439599999938 ], [ -41.9100883, -20.641954199999926 ], [ -41.90932109999995, -20.64251969999998 ], [ -41.908073, -20.642682899999933 ], [ -41.906753499999979, -20.642632 ], [ -41.906200199999944, -20.643125899999955 ], [ -41.90608009999994, -20.643749699999933 ], [ -41.906300299999941, -20.644476399999963 ], [ -41.906594699999964, -20.645187899999943 ], [ -41.906673699999949, -20.646247 ], [ -41.906642199999965, -20.646754799999936 ], [ -41.906552, -20.647917299999953 ], [ -41.90631429999997, -20.648384799999963 ], [ -41.905614799999967, -20.649508 ], [ -41.904725099999943, -20.649670899999915 ], [ -41.904238899999939, -20.650016399999959 ], [ -41.903484499999934, -20.650166099999964 ], [ -41.903504299999945, -20.649956599999939 ], [ -41.903533099999947, -20.649773499999977 ], [ -41.903703099999973, -20.649456699999966 ], [ -41.903880799999968, -20.649018799999951 ], [ -41.90388169999995, -20.64868969999997 ], [ -41.903829199999961, -20.648493899999938 ], [ -41.903691899999963, -20.648319699999938 ], [ -41.903533299999935, -20.648205499999964 ], [ -41.903360899999939, -20.648507699999985 ], [ -41.90316549999995, -20.648763 ], [ -41.902994, -20.648991499999955 ], [ -41.902895099999974, -20.649024099999945 ], [ -41.902730899999945, -20.649013799999977 ], [ -41.902609199999972, -20.649014899999926 ], [ -41.902524399999947, -20.649046099999964 ], [ -41.902475299999942, -20.649091399999968 ], [ -41.902392099999936, -20.649152699999934 ], [ -41.902340399999964, -20.649237499999966 ], [ -41.902275599999939, -20.649258599999932 ], [ -41.9022485, -20.649300899999954 ], [ -41.902228899999962, -20.649365499999934 ], [ -41.90218919999996, -20.64944639999992 ], [ -41.902153299999959, -20.649476699999965 ], [ -41.902085499999949, -20.649481699999971 ], [ -41.902045499999979, -20.649513599999974 ], [ -41.902046199999972, -20.649575099999929 ], [ -41.902104099999981, -20.649632699999916 ], [ -41.902193599999976, -20.64966529999996 ], [ -41.902329599999973, -20.649709199999954 ], [ -41.902421799999949, -20.64985639999998 ], [ -41.902522099999949, -20.650129 ], [ -41.902558899999981, -20.650419699999929 ], [ -41.902560599999958, -20.650488599999953 ], [ -41.902495, -20.650499599999918 ], [ -41.90233829999994, -20.650990599999922 ], [ -41.902130299999961, -20.651093799999956 ], [ -41.901807399999939, -20.651076099999941 ], [ -41.901493599999974, -20.651008899999958 ], [ -41.901317699999943, -20.650975499999941 ], [ -41.901143599999955, -20.650952799999978 ], [ -41.900990699999966, -20.650924699999955 ], [ -41.900965299999939, -20.650988599999945 ], [ -41.900878, -20.650992599999924 ], [ -41.900778199999941, -20.651019399999942 ], [ -41.900757499999948, -20.651094699999923 ], [ -41.900881899999952, -20.651222099999927 ], [ -41.901053899999958, -20.651331699999961 ], [ -41.90124909999998, -20.651497199999934 ], [ -41.901477299999961, -20.651738699999942 ], [ -41.90157609999995, -20.651900199999936 ], [ -41.90153719999995, -20.652043899999963 ], [ -41.901393399999968, -20.652230099999944 ], [ -41.901275599999956, -20.652309699999925 ], [ -41.900852, -20.653163599999967 ], [ -41.900781699999982, -20.653183 ], [ -41.900562, -20.653503 ], [ -41.90047849999997, -20.653616 ], [ -41.900222699999965, -20.653721 ], [ -41.899919399999931, -20.653785299999971 ], [ -41.899630699999932, -20.653820799999931 ], [ -41.899460099999942, -20.65377889999996 ], [ -41.89905859999994, -20.65358939999992 ], [ -41.89887259999994, -20.653731899999968 ], [ -41.898808599999946, -20.653920099999922 ], [ -41.8988, -20.654804 ], [ -41.898572599999966, -20.654964799999956 ], [ -41.898557799999935, -20.655181599999942 ], [ -41.898527399999985, -20.655494399999942 ], [ -41.898575199999989, -20.655772599999967 ], [ -41.89834519999993, -20.655859599999935 ], [ -41.898308399999962, -20.655958399999964 ], [ -41.89825849999994, -20.656118599999964 ], [ -41.898180399999944, -20.656189299999919 ], [ -41.898048499999959, -20.656161 ], [ -41.897880099999952, -20.656073 ], [ -41.897695499999941, -20.656067599999968 ], [ -41.897481, -20.656125399999944 ], [ -41.897207499999979, -20.656387299999935 ], [ -41.897022499999935, -20.656620799999931 ], [ -41.8969618, -20.656881299999938 ], [ -41.896770899999986, -20.657034499999948 ], [ -41.896523699999939, -20.657043599999955 ], [ -41.896294, -20.657130399999964 ], [ -41.896119499999941, -20.657205599999937 ], [ -41.896020599999929, -20.657382 ], [ -41.895879599999951, -20.657581399999966 ], [ -41.89568219999996, -20.657641099999974 ], [ -41.895405399999959, -20.657575299999966 ], [ -41.895216799999965, -20.657604599999949 ], [ -41.895055399999933, -20.657575599999952 ], [ -41.894948399999976, -20.657666199999927 ], [ -41.894795199999976, -20.657663899999935 ], [ -41.894671499999951, -20.657585899999955 ], [ -41.894547, -20.657611299999928 ], [ -41.894370399999964, -20.65753409999995 ], [ -41.89421, -20.657502199999943 ], [ -41.894056299999939, -20.657547099999928 ], [ -41.893861099999988, -20.65757729999995 ], [ -41.893687299999954, -20.657601 ], [ -41.893468699999978, -20.657583199999969 ], [ -41.89326989999995, -20.657642799999955 ], [ -41.893133199999966, -20.657602699999913 ], [ -41.893030599999975, -20.657543899999947 ], [ -41.892941699999938, -20.657504599999971 ], [ -41.89267909999996, -20.657900499999979 ], [ -41.892855399999974, -20.657940499999931 ], [ -41.893071199999952, -20.657951 ], [ -41.894667599999934, -20.657959799999968 ], [ -41.895370799999966, -20.657979099999974 ], [ -41.8957875, -20.658040699999944 ], [ -41.896423699999964, -20.658160699999936 ], [ -41.896790099999976, -20.658303499999935 ], [ -41.897166099999936, -20.658472 ], [ -41.897379799999953, -20.658588099999957 ], [ -41.897610199999974, -20.658715 ], [ -41.897833399999968, -20.658838599999978 ], [ -41.898091599999923, -20.65899539999997 ], [ -41.898242499999988, -20.659078599999937 ], [ -41.89864689999996, -20.659280099999929 ], [ -41.898831499999979, -20.659361399999959 ], [ -41.898995599999971, -20.659432699999968 ], [ -41.899341299999946, -20.659491799999948 ], [ -41.899619199999968, -20.65944729999994 ], [ -41.899677, -20.659630599999954 ], [ -41.899720199999933, -20.659759699999928 ], [ -41.899720799999955, -20.659930499999962 ], [ -41.899754599999945, -20.660108799999922 ], [ -41.900304399999989, -20.660021 ], [ -41.900602699999979, -20.659838599999926 ], [ -41.900832199999968, -20.659777 ], [ -41.901178, -20.659704499999972 ], [ -41.901447699999956, -20.659711099999967 ], [ -41.90156379999997, -20.659714 ], [ -41.901770099999972, -20.659570299999924 ], [ -41.901906799999949, -20.659364599999932 ], [ -41.90204, -20.659146899999929 ], [ -41.902253799999976, -20.659064799999943 ], [ -41.90267, -20.658978899999955 ], [ -41.90309579999996, -20.658882899999984 ], [ -41.903566, -20.658838 ], [ -41.90391029999995, -20.658865799999933 ], [ -41.904711599999985, -20.659272899999937 ], [ -41.905015799999944, -20.659365299999923 ], [ -41.905282499999942, -20.659408699999961 ], [ -41.905673799999924, -20.65934929999996 ], [ -41.905877099999934, -20.659277799999927 ], [ -41.906161199999985, -20.659264299999954 ], [ -41.90638, -20.659297 ], [ -41.906582799999967, -20.659311099999975 ], [ -41.90665459999996, -20.659273499999934 ], [ -41.906699799999963, -20.659199099999952 ], [ -41.90678749999995, -20.659193799999962 ], [ -41.906935899999958, -20.65923129999992 ], [ -41.907043799999933, -20.659231299999917 ], [ -41.907086099999965, -20.659308199999945 ], [ -41.90716979999997, -20.659487 ], [ -41.907309199999929, -20.659644299999965 ], [ -41.907403299999942, -20.659708499999965 ], [ -41.907507, -20.659728499999968 ], [ -41.907614799999976, -20.659752799999978 ], [ -41.907777499999952, -20.659720199999985 ], [ -41.9079263, -20.659744699999969 ], [ -41.90805249999994, -20.65974859999994 ], [ -41.908099799999938, -20.659683199999964 ], [ -41.908182899999986, -20.659659 ], [ -41.908323099999969, -20.659637799999928 ], [ -41.908393299999943, -20.659643399999933 ], [ -41.908456499999943, -20.659586299999933 ], [ -41.90854829999995, -20.659540399999976 ], [ -41.90864009999995, -20.659538299999937 ], [ -41.908720399999943, -20.659553899999921 ], [ -41.90885609999998, -20.659676499999929 ], [ -41.908936299999937, -20.659721799999943 ], [ -41.909062, -20.659669599999965 ], [ -41.909120599999945, -20.659577799999962 ], [ -41.909230499999978, -20.659553799999962 ], [ -41.909353899999985, -20.659556199999937 ], [ -41.909481, -20.659596799999971 ], [ -41.909568099999944, -20.659568799999921 ], [ -41.909679, -20.659566499999983 ], [ -41.909815599999945, -20.65959179999993 ], [ -41.90994859999995, -20.659612099999951 ], [ -41.910148899999967, -20.659586499999921 ], [ -41.910200499999974, -20.659598 ], [ -41.910464599999955, -20.659893099999969 ], [ -41.910511699999979, -20.659918599999965 ], [ -41.910567499999971, -20.659927599999932 ], [ -41.910672499999976, -20.659939 ], [ -41.910797, -20.659944 ], [ -41.911075199999971, -20.660115399999931 ] ] ], [ [ [ -41.835408099999938, -20.569099499999929 ], [ -41.835587099999941, -20.569351799999929 ], [ -41.836332499999976, -20.569935099999942 ], [ -41.836591899999981, -20.57054289999995 ], [ -41.836809899999942, -20.571067199999948 ], [ -41.837164, -20.57144 ], [ -41.837530499999964, -20.571432599999959 ], [ -41.837825399999979, -20.57166919999996 ], [ -41.838095899999978, -20.571370299999955 ], [ -41.8382994, -20.571054199999924 ], [ -41.838528099999969, -20.570720199999986 ], [ -41.838712499999986, -20.570279099999937 ], [ -41.838830099999939, -20.569943499999962 ], [ -41.83908409999998, -20.569551799999932 ], [ -41.838266499999975, -20.568704199999942 ], [ -41.837219699999942, -20.567684699999969 ], [ -41.836149199999966, -20.5680723 ], [ -41.834870299999984, -20.568328199999936 ], [ -41.834709599999947, -20.568431499999964 ], [ -41.834400699999946, -20.568531399999934 ], [ -41.834502099999959, -20.568598699999924 ], [ -41.834517299999959, -20.568640299999966 ], [ -41.834892699999955, -20.569667299999931 ], [ -41.834995, -20.569460299999935 ], [ -41.835047399999951, -20.569052399999968 ], [ -41.835408099999938, -20.569099499999929 ] ] ] ] } }
]
}
