{
"type": "FeatureCollection",
"name": "3125804",
"crs": { "type": "name", "properties": { "name": "urn:ogc:def:crs:OGC:1.3:CRS84" } },
"features": [
{ "type": "Feature", "properties": { "CD_MUN": "3125804", "NM_MUN": "Fernandes Tourinho" }, "geometry": { "type": "MultiPolygon", "coordinates": [ [ [ [ -42.07961719999998, -19.159104899999935 ], [ -42.080019799999945, -19.156802099999936 ], [ -42.080114499999979, -19.156680199999968 ], [ -42.080261199999939, -19.156636 ], [ -42.080504199999957, -19.156611899999966 ], [ -42.080892799999958, -19.156573099999939 ], [ -42.081449199999959, -19.156417399999938 ], [ -42.081794799999955, -19.156113099999967 ], [ -42.081978699999979, -19.155814 ], [ -42.082068899999967, -19.155501 ], [ -42.082106099999976, -19.154876599999959 ], [ -42.083090299999981, -19.154546099999937 ], [ -42.083808, -19.154544199999979 ], [ -42.083870499999932, -19.154070699999973 ], [ -42.083853799999929, -19.153387699999936 ], [ -42.083845599999968, -19.152966499999931 ], [ -42.083930199999934, -19.152814199999952 ], [ -42.084186899999963, -19.152734699999943 ], [ -42.084302399999956, -19.152272299999922 ], [ -42.084535, -19.151331799999976 ], [ -42.084599899999951, -19.15087259999995 ], [ -42.084692, -19.150773699999942 ], [ -42.084878, -19.150772199999949 ], [ -42.084877299999967, -19.15042969999995 ], [ -42.082741, -19.148954 ], [ -42.082705899999958, -19.14895 ], [ -42.081765299999965, -19.148844 ], [ -42.081529099999955, -19.148820599999961 ], [ -42.08124909999998, -19.148864 ], [ -42.08107229999996, -19.148967899999953 ], [ -42.080613, -19.148795 ], [ -42.080288799999941, -19.148714499999976 ], [ -42.079887399999969, -19.14870859999996 ], [ -42.079545099999969, -19.148841899999972 ], [ -42.078284199999985, -19.149716 ], [ -42.077980199999949, -19.149843399999959 ], [ -42.077738599999975, -19.149880099999969 ], [ -42.077409799999941, -19.149913299999984 ], [ -42.077382799999953, -19.1506166 ], [ -42.077367299999935, -19.151161799999951 ], [ -42.077621599999929, -19.153381399999947 ], [ -42.077683099999945, -19.154998299999928 ], [ -42.077119499999988, -19.155786299999924 ], [ -42.076927299999966, -19.156149199999959 ], [ -42.076820399999981, -19.156473699999928 ], [ -42.076782299999934, -19.156722699999932 ], [ -42.076795299999958, -19.156971099999961 ], [ -42.076891, -19.157165699999929 ], [ -42.077192899999943, -19.157387899999939 ], [ -42.07733159999998, -19.157627299999934 ], [ -42.07735439999994, -19.157896299999948 ], [ -42.077222099999972, -19.158119799999938 ], [ -42.077521599999962, -19.159206099999952 ], [ -42.077836099999956, -19.159921399999963 ], [ -42.078853799999941, -19.159703699999977 ], [ -42.07961719999998, -19.159104899999935 ] ] ], [ [ [ -42.143439099999966, -19.104591099999936 ], [ -42.143832499999974, -19.105357799999972 ], [ -42.144158599999976, -19.105334599999928 ], [ -42.145413499999968, -19.105000699999945 ], [ -42.14587169999993, -19.104819299999971 ], [ -42.146438, -19.104502 ], [ -42.146705299999958, -19.10430749999994 ], [ -42.146387599999976, -19.103733499999965 ], [ -42.149227599999961, -19.101412199999956 ], [ -42.150156299999935, -19.100493399999948 ], [ -42.149240299999974, -19.09962969999998 ], [ -42.148513099999946, -19.100324199999921 ], [ -42.145382699999978, -19.102904799999969 ], [ -42.144763599999976, -19.102884399999926 ], [ -42.143082499999934, -19.103612899999963 ], [ -42.143439099999966, -19.104591099999936 ] ] ] ] } }
]
}
