{
"type": "FeatureCollection",
"name": "3132107",
"crs": { "type": "name", "properties": { "name": "urn:ogc:def:crs:OGC:1.3:CRS84" } },
"features": [
{ "type": "Feature", "properties": { "CD_MUN": "3132107", "NM_MUN": "Itacarambi" }, "geometry": { "type": "MultiPolygon", "coordinates": [ [ [ [ -44.096386799999948, -15.108732499999986 ], [ -44.096523699999977, -15.109390499999961 ], [ -44.096533699999959, -15.10938809999994 ], [ -44.098136299999965, -15.10920869999995 ], [ -44.103881599999966, -15.108619799999929 ], [ -44.104999899999946, -15.108508599999926 ], [ -44.107616099999973, -15.106564399999971 ], [ -44.10514569999998, -15.105022099999937 ], [ -44.104904, -15.104836799999934 ], [ -44.104691899999978, -15.104652699999976 ], [ -44.1046166, -15.10458739999995 ], [ -44.104399699999931, -15.104286399999975 ], [ -44.104390499999965, -15.104265199999935 ], [ -44.104258699999946, -15.103958299999919 ], [ -44.104190899999928, -15.103752299999949 ], [ -44.104169099999986, -15.10368809999993 ], [ -44.104198799999949, -15.103332399999937 ], [ -44.104216699999945, -15.103193699999951 ], [ -44.104371199999953, -15.10269209999997 ], [ -44.104716899999971, -15.102148499999949 ], [ -44.10518929999995, -15.101415899999944 ], [ -44.105467499999968, -15.100912499999927 ], [ -44.105588099999977, -15.098407299999966 ], [ -44.105774099999969, -15.098149599999944 ], [ -44.106193, -15.097909299999962 ], [ -44.106451, -15.097685099999968 ], [ -44.107590399999943, -15.096699899999974 ], [ -44.108010399999962, -15.096359699999951 ], [ -44.10906319999998, -15.095687 ], [ -44.107222399999962, -15.091740499999965 ], [ -44.106809299999952, -15.090891799999959 ], [ -44.105379499999962, -15.088522699999938 ], [ -44.105230799999958, -15.088634399999936 ], [ -44.099883499999976, -15.080827399999967 ], [ -44.098717399999934, -15.082884699999974 ], [ -44.09790849999996, -15.081816299999954 ], [ -44.097139899999945, -15.080768899999946 ], [ -44.096836899999971, -15.080320499999971 ], [ -44.095769299999972, -15.080828299999956 ], [ -44.094136599999963, -15.081570899999971 ], [ -44.093220099999947, -15.082303499999968 ], [ -44.093068699999954, -15.083566299999966 ], [ -44.092745899999954, -15.085171499999946 ], [ -44.092332, -15.08635879999998 ], [ -44.091687099999945, -15.088155799999987 ], [ -44.091177, -15.089055899999943 ], [ -44.090015299999955, -15.085945 ], [ -44.086115499999948, -15.088171199999977 ], [ -44.084899599999979, -15.089022899999962 ], [ -44.085539899999958, -15.089513599999979 ], [ -44.086198399999951, -15.090151499999925 ], [ -44.087059899999986, -15.09112 ], [ -44.088270099999932, -15.092879 ], [ -44.085454599999935, -15.094575299999976 ], [ -44.084647, -15.094891099999938 ], [ -44.085937799999954, -15.095629099999936 ], [ -44.086520299999961, -15.096332 ], [ -44.088916599999955, -15.100614 ], [ -44.089187, -15.101143899999954 ], [ -44.089902099999961, -15.102176399999969 ], [ -44.089928099999945, -15.102223099999938 ], [ -44.092138299999931, -15.102971 ], [ -44.092830699999986, -15.104247599999939 ], [ -44.094272799999942, -15.105389699999934 ], [ -44.094682699999964, -15.10595359999996 ], [ -44.095855699999959, -15.107519399999951 ], [ -44.096088399999985, -15.10827349999995 ], [ -44.096386799999948, -15.108732499999986 ] ] ], [ [ [ -44.336199199999953, -15.013622 ], [ -44.335593399999937, -15.015370799999967 ], [ -44.334990299999959, -15.016236399999972 ], [ -44.334160599999969, -15.016927899999933 ], [ -44.331428299999978, -15.01634429999994 ], [ -44.33042329999995, -15.016002299999961 ], [ -44.328519299999982, -15.015184399999951 ], [ -44.328356, -15.015507299999957 ], [ -44.327987899999989, -15.016472099999939 ], [ -44.327461199999959, -15.01774 ], [ -44.328206299999977, -15.017994699999983 ], [ -44.328678099999934, -15.018161299999974 ], [ -44.329521899999975, -15.01844359999996 ], [ -44.329748099999961, -15.018557 ], [ -44.330290699999985, -15.018795199999936 ], [ -44.330684899999937, -15.018984499999936 ], [ -44.331175199999969, -15.01927 ], [ -44.333845, -15.021281 ], [ -44.334176, -15.020981 ], [ -44.334578, -15.02075 ], [ -44.334885, -15.020428 ], [ -44.335216, -15.020013 ], [ -44.335475, -15.019645 ], [ -44.335687, -15.019208 ], [ -44.335971, -15.018816 ], [ -44.336301, -15.01847 ], [ -44.33668, -15.018217 ], [ -44.337105, -15.018032 ], [ -44.337317, -15.017618 ], [ -44.337601, -15.017249 ], [ -44.337931, -15.01695 ], [ -44.338286, -15.01665 ], [ -44.338521, -15.016052 ], [ -44.338592, -15.015568 ], [ -44.338591, -15.015085 ], [ -44.338542, -15.014625 ], [ -44.338162, -15.013798 ], [ -44.33802, -15.013361 ], [ -44.337948, -15.012924 ], [ -44.337947, -15.012464 ], [ -44.337875, -15.012028 ], [ -44.337732, -15.011522 ], [ -44.337589, -15.011085 ], [ -44.337612, -15.010579 ], [ -44.337753, -15.010119 ], [ -44.337989, -15.009658 ], [ -44.338603, -15.008921 ], [ -44.339052, -15.008667 ], [ -44.33943, -15.008414 ], [ -44.339903, -15.00816 ], [ -44.340234, -15.007791 ], [ -44.340493, -15.007423 ], [ -44.340705, -15.006986 ], [ -44.340893, -15.006111 ], [ -44.341034, -15.005605 ], [ -44.341199, -15.005168 ], [ -44.341388, -15.004753 ], [ -44.341671, -15.004408 ], [ -44.342002, -15.004085 ], [ -44.342309, -15.003763 ], [ -44.342639, -15.003325 ], [ -44.342899, -15.002865 ], [ -44.343009, -15.002694699999958 ], [ -44.343182, -15.002427 ], [ -44.343465, -15.002036 ], [ -44.343724, -15.001621 ], [ -44.34396, -15.001184 ], [ -44.344149, -15.000746 ], [ -44.34429, -15.000263 ], [ -44.344542, -14.999791 ], [ -44.345119, -14.999245 ], [ -44.345771, -14.998667 ], [ -44.346255, -14.998332 ], [ -44.346539, -14.997987 ], [ -44.346824, -14.997412 ], [ -44.34699, -14.996951 ], [ -44.347204, -14.996284 ], [ -44.347394, -14.9958 ], [ -44.347608, -14.995409 ], [ -44.347893, -14.994833 ], [ -44.348225, -14.994304 ], [ -44.348509, -14.993752 ], [ -44.348747, -14.993337 ], [ -44.349031, -14.992877 ], [ -44.349198, -14.992462 ], [ -44.349506, -14.991956 ], [ -44.349838, -14.991542 ], [ -44.345699299999985, -14.989456099999916 ], [ -44.345789, -14.991037 ], [ -44.345811099999935, -14.991588599999945 ], [ -44.345266799999933, -14.992699099999983 ], [ -44.342902299999942, -14.995398299999982 ], [ -44.342167, -14.996173099999966 ], [ -44.340831899999955, -14.997683299999943 ], [ -44.339655599999965, -15.000329399999952 ], [ -44.337854299999947, -15.005686199999952 ], [ -44.335924299999938, -15.009526699999974 ], [ -44.335575099999978, -15.010797199999942 ], [ -44.336090299999967, -15.012091899999959 ], [ -44.336199199999953, -15.013622 ] ] ] ] } }
]
}
