{
"type": "FeatureCollection",
"name": "3132404",
"crs": { "type": "name", "properties": { "name": "urn:ogc:def:crs:OGC:1.3:CRS84" } },
"features": [
{ "type": "Feature", "properties": { "CD_MUN": "3132404", "NM_MUN": "Itajubá" }, "geometry": { "type": "MultiPolygon", "coordinates": [ [ [ [ -45.475868899999973, -22.455544299999929 ], [ -45.476383299999952, -22.456219599999933 ], [ -45.47672979999993, -22.456784199999948 ], [ -45.477434399999936, -22.457619199999947 ], [ -45.479921, -22.458389699999941 ], [ -45.480093299999957, -22.459813099999963 ], [ -45.480616699999985, -22.460307899999986 ], [ -45.481592499999969, -22.460118799999975 ], [ -45.482163, -22.459951099999955 ], [ -45.48237289999998, -22.459917299999969 ], [ -45.48235609999994, -22.459699099999966 ], [ -45.482309399999956, -22.459444399999942 ], [ -45.482362699999953, -22.459247599999962 ], [ -45.482429599999932, -22.459 ], [ -45.482626499999988, -22.458689099999955 ], [ -45.482645699999978, -22.458658699999937 ], [ -45.482669899999969, -22.458422399999954 ], [ -45.482675699999959, -22.458239199999976 ], [ -45.48262839999996, -22.457982899999926 ], [ -45.482497699999954, -22.457646699999934 ], [ -45.482372799999951, -22.457351299999981 ], [ -45.482302499999953, -22.457176499999946 ], [ -45.482192299999952, -22.45688569999993 ], [ -45.482040299999937, -22.456517499999961 ], [ -45.481875299999956, -22.456231699999915 ], [ -45.481724899999961, -22.456025399999923 ], [ -45.481515, -22.455781899999973 ], [ -45.481243, -22.455459299999976 ], [ -45.481086499999947, -22.455195599999968 ], [ -45.481159299999952, -22.455144099999913 ], [ -45.482944499999974, -22.455135199999972 ], [ -45.482896099999941, -22.455018099999958 ], [ -45.482881899999946, -22.454954 ], [ -45.482905699999947, -22.454800199999973 ], [ -45.482971099999986, -22.454619 ], [ -45.482975599999975, -22.454485399999953 ], [ -45.483008499999983, -22.454268 ], [ -45.48300439999997, -22.45408679999997 ], [ -45.483054299999935, -22.453895499999913 ], [ -45.483006299999943, -22.453636499999959 ], [ -45.483042399999931, -22.453500099999928 ], [ -45.483041, -22.453321599999988 ], [ -45.483081199999958, -22.452945499999931 ], [ -45.483122799999933, -22.452767 ], [ -45.483125099999945, -22.452517199999928 ], [ -45.483117299999954, -22.452315699999932 ], [ -45.483199199999945, -22.452041299999959 ], [ -45.4833632, -22.451841699999928 ], [ -45.483472499999948, -22.451806899999951 ], [ -45.483571199999972, -22.451731799999941 ], [ -45.483858299999952, -22.451633899999923 ], [ -45.483974399999965, -22.451520499999969 ], [ -45.484388899999949, -22.451311699999955 ], [ -45.484490799999946, -22.451116499999952 ], [ -45.484911199999935, -22.450918299999955 ], [ -45.485119199999986, -22.450877399999968 ], [ -45.485148699999968, -22.45086619999995 ], [ -45.485175099999935, -22.45086339999995 ], [ -45.4855568, -22.450823499999952 ], [ -45.485588399999983, -22.450820199999956 ], [ -45.48726129999995, -22.450645 ], [ -45.488078, -22.450402499999942 ], [ -45.488846099999932, -22.450172099999975 ], [ -45.488637299999937, -22.449613599999964 ], [ -45.488667, -22.448785699999974 ], [ -45.48919589999997, -22.447806799999977 ], [ -45.489629599999937, -22.447005 ], [ -45.490277299999953, -22.445750099999945 ], [ -45.490419899999949, -22.445135 ], [ -45.490627899999936, -22.444195899999961 ], [ -45.490717, -22.443421599999965 ], [ -45.490461499999988, -22.44341739999993 ], [ -45.48936219999996, -22.443346 ], [ -45.488621699999946, -22.443250899999942 ], [ -45.488586599999962, -22.443246399999961 ], [ -45.488969499999939, -22.441956 ], [ -45.489157199999966, -22.441628899999952 ], [ -45.489291599999952, -22.441052899999928 ], [ -45.489459199999942, -22.440362499999924 ], [ -45.48954759999998, -22.439978699999976 ], [ -45.48956689999995, -22.439698799999977 ], [ -45.489522699999952, -22.439274099999977 ], [ -45.489556299999947, -22.439271399999939 ], [ -45.489606899999956, -22.439267399999942 ], [ -45.489972499999972, -22.43923749999994 ], [ -45.491211699999951, -22.43919639999995 ], [ -45.494051099999986, -22.439071799999951 ], [ -45.495458099999951, -22.439010099999955 ], [ -45.499344699999938, -22.438755499999942 ], [ -45.499452899999937, -22.438748399999948 ], [ -45.500080299999986, -22.438707299999969 ], [ -45.505202299999951, -22.438232599999935 ], [ -45.505294699999986, -22.438221399999975 ], [ -45.505373799999973, -22.438211699999954 ], [ -45.505388, -22.437943599999979 ], [ -45.50543219999998, -22.437759799999959 ], [ -45.50560489999998, -22.437185399999972 ], [ -45.505876299999954, -22.436364499999957 ], [ -45.505991399999971, -22.435998 ], [ -45.506068899999946, -22.435770599999955 ], [ -45.506405199999961, -22.434400599999943 ], [ -45.506666299999956, -22.433771199999963 ], [ -45.506747899999937, -22.43339919999994 ], [ -45.506236599999966, -22.434008799999948 ], [ -45.505451299999955, -22.435144899999951 ], [ -45.504956199999981, -22.435726399999965 ], [ -45.504688899999962, -22.436032099999981 ], [ -45.504618599999965, -22.436106299999942 ], [ -45.504547699999932, -22.436178499999976 ], [ -45.504476299999972, -22.436248899999949 ], [ -45.504404199999954, -22.436317499999966 ], [ -45.504214799999943, -22.436484399999923 ], [ -45.504122, -22.436555299999949 ], [ -45.504065099999927, -22.436593099999982 ], [ -45.503949499999976, -22.436664799999971 ], [ -45.50385609999995, -22.436712899999982 ], [ -45.503769299999931, -22.436754199999939 ], [ -45.503692199999932, -22.436785 ], [ -45.503520499999972, -22.436841899999937 ], [ -45.50334179999993, -22.436891 ], [ -45.503201099999963, -22.43692069999997 ], [ -45.503036299999962, -22.436946199999969 ], [ -45.50281519999993, -22.43697 ], [ -45.50264569999996, -22.436978499999942 ], [ -45.502495599999975, -22.436974599999921 ], [ -45.50234759999995, -22.436963299999935 ], [ -45.5021814, -22.436938 ], [ -45.502019699999948, -22.436901899999942 ], [ -45.501865599999974, -22.436856599999935 ], [ -45.501589599999939, -22.436752499999965 ], [ -45.501231, -22.436621899999977 ], [ -45.50105979999995, -22.43656239999995 ], [ -45.500788499999942, -22.436455699999954 ], [ -45.500391599999944, -22.436344399999946 ], [ -45.499908199999936, -22.436245099999944 ], [ -45.499313099999945, -22.436113899999956 ], [ -45.498966899999971, -22.436047699999957 ], [ -45.498756399999934, -22.436004899999929 ], [ -45.498360199999986, -22.435924499999935 ], [ -45.49788429999996, -22.435828199999943 ], [ -45.497188099999967, -22.435694899999923 ], [ -45.496999199999941, -22.435653099999961 ], [ -45.496847299999956, -22.43561759999994 ], [ -45.496860399999946, -22.435594 ], [ -45.497143, -22.435089099999974 ], [ -45.497572299999945, -22.434610599999928 ], [ -45.497641099999953, -22.434169599999962 ], [ -45.497749399999975, -22.433874099999969 ], [ -45.498064599999964, -22.433564299999937 ], [ -45.49818659999994, -22.433478499999975 ], [ -45.498316699999975, -22.43342379999995 ], [ -45.498733499999958, -22.433333799999954 ], [ -45.498987599999971, -22.433249799999942 ], [ -45.499141799999961, -22.433180399999976 ], [ -45.499211299999956, -22.433113099999954 ], [ -45.499261099999948, -22.43303329999998 ], [ -45.499296699999945, -22.432898399999935 ], [ -45.499339099999986, -22.432708499999926 ], [ -45.499359099999936, -22.432553899999952 ], [ -45.499389599999979, -22.432457399999972 ], [ -45.499533099999951, -22.432130499999971 ], [ -45.500309699999946, -22.430630499999936 ], [ -45.50038939999996, -22.429773699999938 ], [ -45.500286799999969, -22.429233599999982 ], [ -45.500684399999955, -22.428392199999962 ], [ -45.500678699999987, -22.427864799999949 ], [ -45.500636799999938, -22.427590399999925 ], [ -45.500577899999939, -22.427409899999933 ], [ -45.50038409999997, -22.427098299999951 ], [ -45.500157699999932, -22.426823599999981 ], [ -45.49985269999997, -22.426683399999934 ], [ -45.499480799999965, -22.426520299999943 ], [ -45.499300299999952, -22.426353 ], [ -45.499186799999961, -22.426205699999976 ], [ -45.499017299999934, -22.425645 ], [ -45.49881, -22.425235099999941 ], [ -45.498678, -22.424925099999932 ], [ -45.498655499999984, -22.424624699999981 ], [ -45.498879199999976, -22.424261499999936 ], [ -45.499335299999984, -22.423304499999968 ], [ -45.499518499999972, -22.423006699999966 ], [ -45.500050599999959, -22.422477399999938 ], [ -45.500084099999988, -22.42220049999997 ], [ -45.499849699999977, -22.419974499999963 ], [ -45.496582399999966, -22.421815399999961 ], [ -45.496538199999975, -22.421850099999975 ], [ -45.495783599999989, -22.420816599999966 ], [ -45.495521099999969, -22.420504899999955 ], [ -45.49557029999994, -22.418766 ], [ -45.4958, -22.418208199999981 ], [ -45.495849199999952, -22.41797849999994 ], [ -45.495750799999939, -22.417765299999932 ], [ -45.495324299999943, -22.417568399999929 ], [ -45.495111, -22.41747 ], [ -45.495111, -22.417125499999937 ], [ -45.495867, -22.415835099999978 ], [ -45.496062499999944, -22.415501399999975 ], [ -45.497018199999964, -22.41494009999996 ], [ -45.496449099999943, -22.41450129999993 ], [ -45.496907299999975, -22.413708199999981 ], [ -45.496934199999941, -22.413561399999942 ], [ -45.496910599999978, -22.413368599999959 ], [ -45.496873499999936, -22.413231499999938 ], [ -45.496770899999945, -22.413129 ], [ -45.496608399999964, -22.413024099999959 ], [ -45.496461899999986, -22.412921799999932 ], [ -45.495493499999945, -22.412305799999949 ], [ -45.495347599999945, -22.412816199999952 ], [ -45.495177499999947, -22.413496599999974 ], [ -45.495082099999934, -22.413830399999938 ], [ -45.494939, -22.414545799999924 ], [ -45.494817799999964, -22.415135099999919 ], [ -45.494514899999956, -22.416364599999948 ], [ -45.494360699999959, -22.416989599999955 ], [ -45.494093799999966, -22.417155 ], [ -45.494051099999979, -22.417253699999943 ], [ -45.493825, -22.417777 ], [ -45.493540899999971, -22.418442599999928 ], [ -45.493501099999953, -22.419075899999946 ], [ -45.493567699999971, -22.419581799999953 ], [ -45.493541099999959, -22.420007799999951 ], [ -45.493673799999947, -22.420753499999933 ], [ -45.493900499999938, -22.421512199999928 ], [ -45.493754099999933, -22.421858299999929 ], [ -45.493328099999985, -22.422191099999957 ], [ -45.49308069999995, -22.422286299999943 ], [ -45.492033099999965, -22.422056699999917 ], [ -45.491397699999943, -22.421920499999931 ], [ -45.490875699999947, -22.421829699999929 ], [ -45.490467199999962, -22.421784299999945 ], [ -45.490263, -22.421784299999953 ], [ -45.490036, -22.421852399999981 ], [ -45.489604799999945, -22.421943199999934 ], [ -45.489060099999953, -22.42185239999997 ], [ -45.488697, -22.421852399999988 ], [ -45.487857299999973, -22.421648199999925 ], [ -45.487562299999979, -22.42155739999998 ], [ -45.4872673, -22.421602799999949 ], [ -45.486904199999962, -22.421716199999928 ], [ -45.486473, -22.421897799999943 ], [ -45.48615529999995, -22.42189779999995 ], [ -45.485769499999954, -22.42173889999998 ], [ -45.48547439999993, -22.421580099999971 ], [ -45.485292899999934, -22.42130769999995 ], [ -45.485111299999971, -22.420808499999957 ], [ -45.48490709999993, -22.420422699999964 ], [ -45.484589299999989, -22.420127599999947 ], [ -45.484350499999948, -22.420049 ], [ -45.484523799999977, -22.419875699999981 ], [ -45.484540599999946, -22.419860099999951 ], [ -45.48511289999994, -22.419328 ], [ -45.485595699999976, -22.418898 ], [ -45.486094399999956, -22.418369699999964 ], [ -45.486563499999932, -22.417828699999962 ], [ -45.486741, -22.417502599999985 ], [ -45.48685729999994, -22.417166899999913 ], [ -45.486625099999969, -22.41675459999993 ], [ -45.486453399999959, -22.416573399999944 ], [ -45.486242499999946, -22.416074899999956 ], [ -45.486119699999968, -22.415394699999972 ], [ -45.48596, -22.41483409999995 ], [ -45.4860781, -22.414218399999989 ], [ -45.486117399999962, -22.413791699999937 ], [ -45.48631249999994, -22.413223699999932 ], [ -45.486556499999942, -22.412477299999971 ], [ -45.486565199999973, -22.412186799999965 ], [ -45.486469899999982, -22.412025399999941 ], [ -45.486285599999974, -22.411768799999948 ], [ -45.485961699999969, -22.41116149999992 ], [ -45.485812499999952, -22.410747199999943 ], [ -45.485648399999945, -22.410408 ], [ -45.485305299999936, -22.410154899999945 ], [ -45.485110799999966, -22.409973599999944 ], [ -45.48501059999996, -22.409754599999925 ], [ -45.484876199999981, -22.409375699999924 ], [ -45.48467409999995, -22.408879799999966 ], [ -45.484532, -22.408494899999926 ], [ -45.484490199999982, -22.40824369999995 ], [ -45.484469, -22.407724299999934 ], [ -45.484534699999983, -22.407361399999964 ], [ -45.484555399999984, -22.407114899999947 ], [ -45.484513399999969, -22.406835399999974 ], [ -45.484379599999954, -22.406351699999959 ], [ -45.484372099999973, -22.405912299999947 ], [ -45.484384499999976, -22.404377199999949 ], [ -45.48423279999998, -22.403739699999974 ], [ -45.484108299999946, -22.402819899999933 ], [ -45.484218399999975, -22.402069 ], [ -45.484221899999966, -22.402045499999922 ], [ -45.483411299999936, -22.401944299999975 ], [ -45.482609299999986, -22.401900099999974 ], [ -45.481803499999955, -22.401947199999938 ], [ -45.480280299999954, -22.401922399999943 ], [ -45.479675199999981, -22.401483899999956 ], [ -45.479071599999934, -22.401318199999938 ], [ -45.478496, -22.401416499999982 ], [ -45.477738699999982, -22.401579099999935 ], [ -45.477168699999943, -22.401609499999946 ], [ -45.476246599999968, -22.401745199999933 ], [ -45.475588099999975, -22.401204 ], [ -45.475332699999967, -22.400545799999978 ], [ -45.475064799999984, -22.399851899999931 ], [ -45.474736, -22.399681099999949 ], [ -45.474112299999945, -22.399186399999952 ], [ -45.471848699999953, -22.397993899999957 ], [ -45.470155899999945, -22.397970899999954 ], [ -45.467477499999973, -22.396724299999953 ], [ -45.467352699999935, -22.395916199999931 ], [ -45.467401, -22.394301899999959 ], [ -45.466686799999941, -22.39346229999995 ], [ -45.466471599999977, -22.392786099999967 ], [ -45.466472099999976, -22.392257099999934 ], [ -45.466642799999931, -22.391616099999968 ], [ -45.466635399999973, -22.391373299999934 ], [ -45.4657309, -22.390486699999954 ], [ -45.464937799999973, -22.390152099999963 ], [ -45.46451379999997, -22.389905699999925 ], [ -45.464119299999943, -22.389600799999972 ], [ -45.464057399999952, -22.389300199999973 ], [ -45.463883099999983, -22.387698599999958 ], [ -45.463295, -22.387840599999951 ], [ -45.463008899999984, -22.387898199999924 ], [ -45.462589599999944, -22.38809109999994 ], [ -45.46228659999997, -22.388250099999933 ], [ -45.462108299999954, -22.388369199999939 ], [ -45.461760299999987, -22.388135599999931 ], [ -45.461472899999933, -22.38819059999997 ], [ -45.461048199999937, -22.388395099999968 ], [ -45.460677799999985, -22.388519499999969 ], [ -45.460449399999966, -22.388582799999931 ], [ -45.460229899999945, -22.388647299999949 ], [ -45.46004749999998, -22.388763 ], [ -45.459814099999953, -22.388870599999958 ], [ -45.459613399999959, -22.388827799999934 ], [ -45.459204199999931, -22.388793399999933 ], [ -45.45897809999996, -22.388760799999933 ], [ -45.458544899999936, -22.3887506 ], [ -45.45434309999996, -22.388826599999962 ], [ -45.453409899999933, -22.389170199999963 ], [ -45.452552, -22.389506099999945 ], [ -45.451759899999963, -22.389816799999963 ], [ -45.450931399999952, -22.390123299999964 ], [ -45.450608699999975, -22.390152899999972 ], [ -45.450358599999966, -22.390064499999927 ], [ -45.449750799999954, -22.389797 ], [ -45.448494299999936, -22.389171599999944 ], [ -45.44816689999994, -22.388991 ], [ -45.447798199999973, -22.38851359999995 ], [ -45.447431099999967, -22.388288199999973 ], [ -45.446965399999954, -22.388038799999954 ], [ -45.44607869999993, -22.388352 ], [ -45.445789399999967, -22.388796299999967 ], [ -45.445554299999969, -22.389341199999929 ], [ -45.444679199999932, -22.389348 ], [ -45.443046199999976, -22.388869699999923 ], [ -45.442448599999977, -22.388745399999955 ], [ -45.442007499999939, -22.388731699999937 ], [ -45.441030299999966, -22.389038399999937 ], [ -45.439509199999982, -22.389380899999917 ], [ -45.439175099999943, -22.389868299999929 ], [ -45.438987799999957, -22.390318399999945 ], [ -45.439027699999947, -22.390718699999972 ], [ -45.438804199999936, -22.391686799999942 ], [ -45.438350799999974, -22.392714 ], [ -45.437762899999946, -22.393522099999927 ], [ -45.437476899999979, -22.393675599999934 ], [ -45.437056699999971, -22.394325399999953 ], [ -45.436908899999935, -22.394655799999956 ], [ -45.436400099999958, -22.395834499999978 ], [ -45.434006099999976, -22.401562299999963 ], [ -45.433727299999923, -22.403034499999947 ], [ -45.433901599999963, -22.404414399999947 ], [ -45.433533699999934, -22.404557899999922 ], [ -45.433390399999951, -22.404687299999974 ], [ -45.433321499999977, -22.404886699999949 ], [ -45.433055499999966, -22.405088699999968 ], [ -45.432543299999963, -22.405325099999967 ], [ -45.432409799999959, -22.405437499999952 ], [ -45.432247799999971, -22.405576199999924 ], [ -45.432208399999979, -22.405709199999947 ], [ -45.4321518, -22.405913599999959 ], [ -45.432124699999981, -22.406044099999971 ], [ -45.432297099999978, -22.406137699999938 ], [ -45.43235859999993, -22.406297699999982 ], [ -45.432267699999954, -22.406574399999958 ], [ -45.431947399999956, -22.406960199999954 ], [ -45.431725799999974, -22.407245799999949 ], [ -45.431662799999977, -22.407408799999921 ], [ -45.4315534, -22.407546199999956 ], [ -45.431523899999945, -22.40767429999995 ], [ -45.431437699999947, -22.407827 ], [ -45.4312973, -22.407974699999951 ], [ -45.431184, -22.408132299999963 ], [ -45.431070799999937, -22.408307099999941 ], [ -45.430932899999959, -22.408531199999974 ], [ -45.430799899999961, -22.408741799999977 ], [ -45.43069289999994, -22.408815299999965 ], [ -45.43063369999993, -22.408997899999978 ], [ -45.430529099999944, -22.409111899999967 ], [ -45.430353599999933, -22.409337 ], [ -45.430306399999957, -22.409497 ], [ -45.430076299999939, -22.409588499999927 ], [ -45.429934399999972, -22.409614299999927 ], [ -45.429900399999951, -22.409802 ], [ -45.430050499999943, -22.409923799999945 ], [ -45.430173099999934, -22.410065699999969 ], [ -45.430205299999955, -22.410375299999934 ], [ -45.430051399999975, -22.410586299999967 ], [ -45.42989579999994, -22.41061389999993 ], [ -45.429721599999937, -22.410484899999979 ], [ -45.429560399999957, -22.410452599999921 ], [ -45.429418499999933, -22.410517099999936 ], [ -45.429276699999939, -22.410665499999936 ], [ -45.429076699999946, -22.410829899999968 ], [ -45.428799399999939, -22.410968599999933 ], [ -45.428618899999947, -22.41099429999997 ], [ -45.428489899999931, -22.410981499999931 ], [ -45.42829, -22.411065299999965 ], [ -45.428085199999948, -22.411231299999947 ], [ -45.427845, -22.411276499999921 ], [ -45.427683799999954, -22.411342599999966 ], [ -45.427548299999955, -22.411349 ], [ -45.427309699999967, -22.411342599999951 ], [ -45.427116299999966, -22.411394199999965 ], [ -45.426932499999971, -22.411371599999935 ], [ -45.426761599999963, -22.411449 ], [ -45.426613299999985, -22.411426399999986 ], [ -45.426468199999938, -22.411429699999932 ], [ -45.426303699999949, -22.411342599999951 ], [ -45.426153799999959, -22.411407099999959 ], [ -45.425981299999933, -22.411458699999958 ], [ -45.42582, -22.411452199999928 ], [ -45.425691099999945, -22.411568299999942 ], [ -45.425555599999939, -22.411478 ], [ -45.425420199999962, -22.411471599999977 ], [ -45.425200899999936, -22.411549 ], [ -45.425059099999942, -22.411600499999963 ], [ -45.424943, -22.411536099999985 ], [ -45.424833399999955, -22.411645699999941 ], [ -45.424452899999942, -22.411677899999976 ], [ -45.424198799999942, -22.411816799999944 ], [ -45.424167299999965, -22.411832699999934 ], [ -45.424177599999958, -22.411846 ], [ -45.425449399999934, -22.413483 ], [ -45.42545279999996, -22.413487399999944 ], [ -45.42552029999996, -22.413583899999939 ], [ -45.42559209999996, -22.413679499999937 ], [ -45.425754399999967, -22.413905399999969 ], [ -45.425891699999973, -22.414086 ], [ -45.425926799999957, -22.41413209999995 ], [ -45.426069099999957, -22.414298799999965 ], [ -45.426230399999959, -22.414290299999944 ], [ -45.426327, -22.414324599999929 ], [ -45.427081, -22.415305599999954 ], [ -45.427746299999967, -22.416171199999955 ], [ -45.428104499999968, -22.416637 ], [ -45.428538599999968, -22.417201399999957 ], [ -45.428655399999961, -22.417353299999945 ], [ -45.428660299999933, -22.417359599999944 ], [ -45.428831799999955, -22.417453199999954 ], [ -45.429032499999948, -22.417481399999915 ], [ -45.42866319999996, -22.41761629999997 ], [ -45.426425799999947, -22.418317799999947 ], [ -45.426048, -22.420193799999943 ], [ -45.425833099999984, -22.421131299999949 ], [ -45.425631399999986, -22.42203619999998 ], [ -45.425527699999982, -22.422721099999936 ], [ -45.425781699999952, -22.423716799999955 ], [ -45.425845899999963, -22.424036099999974 ], [ -45.425981199999967, -22.424399899999973 ], [ -45.425950599999965, -22.424645199999926 ], [ -45.425840199999982, -22.424955499999946 ], [ -45.42570859999995, -22.425202 ], [ -45.425053499999933, -22.425923699999942 ], [ -45.424464599999958, -22.427084899999954 ], [ -45.42413369999997, -22.427819499999938 ], [ -45.423930499999983, -22.429718299999934 ], [ -45.423575399999947, -22.431367899999934 ], [ -45.423303199999964, -22.431892799999954 ], [ -45.42246739999996, -22.432734199999967 ], [ -45.421716299999957, -22.433962299999973 ], [ -45.420189299999954, -22.435458799999939 ], [ -45.421747799999935, -22.440509299999967 ], [ -45.418705899999971, -22.442945699999932 ], [ -45.418120399999971, -22.446645299999936 ], [ -45.418017899999938, -22.446969399999936 ], [ -45.417131199999972, -22.449774 ], [ -45.417009299999961, -22.450239099999976 ], [ -45.417004, -22.450256399999947 ], [ -45.417002, -22.450263199999934 ], [ -45.416868099999931, -22.450601599999974 ], [ -45.412389, -22.462037099999968 ], [ -45.412522499999973, -22.464044699999935 ], [ -45.41268249999996, -22.464184 ], [ -45.413555799999983, -22.464652 ], [ -45.413421399999947, -22.464398299999971 ], [ -45.413467099999934, -22.46415329999995 ], [ -45.413620599999945, -22.464038199999944 ], [ -45.413981699999965, -22.463909699999935 ], [ -45.414534899999985, -22.463761199999958 ], [ -45.414796, -22.463742 ], [ -45.414999499999965, -22.463730499999922 ], [ -45.415272199999954, -22.463649499999967 ], [ -45.415322499999945, -22.463433399999925 ], [ -45.415333099999948, -22.46328079999995 ], [ -45.415394299999946, -22.463173799999925 ], [ -45.415477299999957, -22.463028799999947 ], [ -45.415679799999971, -22.462896499999946 ], [ -45.415932399999974, -22.462917199999943 ], [ -45.416176299999961, -22.463029399999982 ], [ -45.416366599999954, -22.46318159999992 ], [ -45.416557799999964, -22.463360499999972 ], [ -45.416455199999973, -22.46339 ], [ -45.416375899999935, -22.463479299999964 ], [ -45.416358299999956, -22.463553099999952 ], [ -45.416468099999967, -22.463702099999974 ], [ -45.416459299999985, -22.463817199999941 ], [ -45.416663399999948, -22.463950099999977 ], [ -45.416962499999954, -22.464028299999935 ], [ -45.41706, -22.464112599999961 ], [ -45.417168099999969, -22.464253399999965 ], [ -45.417153499999984, -22.464469399999928 ], [ -45.416910599999937, -22.464621399999928 ], [ -45.416869599999984, -22.46470719999996 ], [ -45.416848599999987, -22.46490359999995 ], [ -45.416846199999952, -22.464996399999954 ], [ -45.416795599999951, -22.465091699999956 ], [ -45.416677299999947, -22.465219299999941 ], [ -45.416565499999933, -22.465339599999929 ], [ -45.416473399999973, -22.465453699999955 ], [ -45.416345899999953, -22.465568299999966 ], [ -45.416360299999951, -22.465661399999927 ], [ -45.416395799999982, -22.465739399999958 ], [ -45.416773299999932, -22.465387599999929 ], [ -45.417123399999973, -22.464980699999959 ], [ -45.417386699999952, -22.46458859999996 ], [ -45.417813499999966, -22.46376929999996 ], [ -45.4183, -22.463113 ], [ -45.41929719999996, -22.46253769999992 ], [ -45.419749199999956, -22.462084199999936 ], [ -45.419872499999933, -22.461732299999941 ], [ -45.420061499999974, -22.461157499999963 ], [ -45.420074399999983, -22.461114 ], [ -45.420185099999969, -22.460738799999937 ], [ -45.420500899999979, -22.459994099999957 ], [ -45.420908099999963, -22.459354399999931 ], [ -45.421408599999957, -22.458542299999973 ], [ -45.421823299999971, -22.457876499999944 ], [ -45.421887399999953, -22.457773499999973 ], [ -45.422122499999951, -22.457406299999956 ], [ -45.422225899999937, -22.457244199999934 ], [ -45.422561799999983, -22.456708299999939 ], [ -45.42360739999998, -22.455033399999937 ], [ -45.42404449999998, -22.454277899999965 ], [ -45.424385, -22.453680899999934 ], [ -45.424502099999984, -22.453465 ], [ -45.424617599999983, -22.452932599999937 ], [ -45.424576099999975, -22.452496599999957 ], [ -45.424346, -22.451894099999947 ], [ -45.423732199999961, -22.450861499999974 ], [ -45.423757, -22.450498399999965 ], [ -45.423909099999946, -22.450263299999957 ], [ -45.424177, -22.450107299999949 ], [ -45.424509899999975, -22.45002919999996 ], [ -45.424902599999939, -22.449857599999969 ], [ -45.425771199999986, -22.449065499999957 ], [ -45.426397099999974, -22.449883599999954 ], [ -45.432135099999982, -22.449494499999943 ], [ -45.435005499999939, -22.449316599999975 ], [ -45.43511349999995, -22.449309899999939 ], [ -45.436006099999986, -22.449254599999954 ], [ -45.442168199999969, -22.448717 ], [ -45.447420499999964, -22.451954499999943 ], [ -45.455592699999954, -22.456991799999972 ], [ -45.46203979999995, -22.453710299999948 ], [ -45.462086299999953, -22.453686599999966 ], [ -45.462231599999932, -22.453612699999955 ], [ -45.46317849999997, -22.453017299999932 ], [ -45.465142399999941, -22.45177509999996 ], [ -45.466932699999973, -22.450644499999942 ], [ -45.468410799999958, -22.449771099999964 ], [ -45.469684, -22.450145399999936 ], [ -45.470453899999946, -22.450619699999944 ], [ -45.471224299999967, -22.451197299999929 ], [ -45.471786499999958, -22.451485599999952 ], [ -45.472911699999941, -22.451237799999944 ], [ -45.47306489999994, -22.452073499999972 ], [ -45.472886599999981, -22.452843 ], [ -45.472946399999955, -22.454408 ], [ -45.473783299999972, -22.454496799999959 ], [ -45.474638899999952, -22.454694499999967 ], [ -45.475577799999947, -22.455302699999951 ], [ -45.475868899999973, -22.455544299999929 ] ] ], [ [ [ -45.323565599999938, -22.367159299999965 ], [ -45.323426299999937, -22.367256599999962 ], [ -45.323276399999948, -22.367327499999924 ], [ -45.323118699999952, -22.367356499999982 ], [ -45.323003, -22.367351199999977 ], [ -45.32292989999997, -22.367404699999934 ], [ -45.322972, -22.367688799999929 ], [ -45.323235, -22.367962499999976 ], [ -45.323435, -22.368046699999972 ], [ -45.323582299999948, -22.368109799999939 ], [ -45.323693, -22.368190299999984 ], [ -45.323698099999945, -22.368194 ], [ -45.323784499999938, -22.368242 ], [ -45.323786799999937, -22.368243699999937 ], [ -45.323898399999962, -22.368324299999973 ], [ -45.324151699999959, -22.368438299999976 ], [ -45.32430369999998, -22.368527 ], [ -45.324481, -22.368609299999946 ], [ -45.324620299999935, -22.368672599999972 ], [ -45.32471529999998, -22.368780199999939 ], [ -45.324810299999967, -22.368951199999973 ], [ -45.324892599999949, -22.369236199999921 ], [ -45.324955899999971, -22.369388099999981 ], [ -45.324930599999959, -22.36981239999994 ], [ -45.324898899999937, -22.370021299999962 ], [ -45.324873599999933, -22.370198599999974 ], [ -45.324620299999935, -22.370470899999923 ], [ -45.324449299999969, -22.370850799999964 ], [ -45.324417699999969, -22.371268799999935 ], [ -45.324490699999956, -22.371656799999975 ], [ -45.327708899999948, -22.371140799999989 ], [ -45.331002499999961, -22.372569 ], [ -45.332764, -22.373077099999929 ], [ -45.333995799999968, -22.372582299999962 ], [ -45.334555799999976, -22.372402 ], [ -45.33455849999995, -22.371857899999952 ], [ -45.334456599999953, -22.371525399999943 ], [ -45.334319599999958, -22.371200199999972 ], [ -45.334194, -22.370887299999936 ], [ -45.33401809999998, -22.370517199999938 ], [ -45.333890799999949, -22.370315599999955 ], [ -45.333760799999936, -22.370169399999941 ], [ -45.333668599999953, -22.370066199999936 ], [ -45.333525199999947, -22.369923799999974 ], [ -45.333372, -22.369803299999937 ], [ -45.3333406, -22.369778499999942 ], [ -45.333253399999933, -22.369708199999941 ], [ -45.333190499999944, -22.369625899999956 ], [ -45.333161399999938, -22.369543499999963 ], [ -45.333091199999956, -22.369445899999949 ], [ -45.332999399999956, -22.369459 ], [ -45.332916599999976, -22.369547799999964 ], [ -45.332761099999964, -22.369573699999926 ], [ -45.3324674, -22.369582299999923 ], [ -45.332165099999948, -22.369565 ], [ -45.331689899999958, -22.369452699999943 ], [ -45.331439399999972, -22.369375 ], [ -45.331197499999966, -22.369210899999931 ], [ -45.330662, -22.368830799999941 ], [ -45.330340099999944, -22.368565699999984 ], [ -45.330319, -22.368549199999961 ], [ -45.330085099999962, -22.368365899999944 ], [ -45.329948399999978, -22.368234499999978 ], [ -45.329706499999986, -22.36806359999996 ], [ -45.329577699999959, -22.36794529999997 ], [ -45.329512, -22.36789269999997 ], [ -45.329435799999942, -22.367827 ], [ -45.329288499999961, -22.367740299999976 ], [ -45.329202, -22.367683 ], [ -45.329101899999955, -22.367616699999928 ], [ -45.328949399999942, -22.367514199999952 ], [ -45.328799599999975, -22.367453699999945 ], [ -45.328694399999961, -22.367343299999959 ], [ -45.328639199999934, -22.367246099999935 ], [ -45.328594499999959, -22.367138299999972 ], [ -45.328591899999935, -22.367083099999952 ], [ -45.328589299999976, -22.36702 ], [ -45.328594499999951, -22.366920099999959 ], [ -45.328586599999937, -22.366786 ], [ -45.328576099999971, -22.366649299999953 ], [ -45.3285183, -22.36654939999994 ], [ -45.328194899999978, -22.366536299999947 ], [ -45.327982, -22.366565199999975 ], [ -45.326906799999968, -22.366604599999953 ], [ -45.326599199999976, -22.366588799999924 ], [ -45.326325799999957, -22.366544199999954 ], [ -45.326097099999977, -22.366507299999967 ], [ -45.325758, -22.366454799999939 ], [ -45.325495099999955, -22.366399599999969 ], [ -45.32534, -22.366375899999969 ], [ -45.325269099999957, -22.366347 ], [ -45.325166499999973, -22.36631279999995 ], [ -45.325027199999965, -22.366286499999941 ], [ -45.324901, -22.366360099999955 ], [ -45.324814299999957, -22.366454799999925 ], [ -45.324722299999962, -22.366531 ], [ -45.324617099999955, -22.366588799999931 ], [ -45.324530399999965, -22.366602 ], [ -45.324430499999941, -22.366583599999956 ], [ -45.324312199999952, -22.366578299999954 ], [ -45.324191199999973, -22.366575699999945 ], [ -45.324128099999939, -22.366604599999963 ], [ -45.324041399999942, -22.366636199999956 ], [ -45.323962499999936, -22.366691399999972 ], [ -45.323710199999937, -22.367027899999972 ], [ -45.323565599999938, -22.367159299999965 ] ] ] ] } }
]
}
