{
"type": "FeatureCollection",
"name": "3136207",
"crs": { "type": "name", "properties": { "name": "urn:ogc:def:crs:OGC:1.3:CRS84" } },
"features": [
{ "type": "Feature", "properties": { "CD_MUN": "3136207", "NM_MUN": "João Monlevade" }, "geometry": { "type": "MultiPolygon", "coordinates": [ [ [ [ -43.090856, -19.858267 ], [ -43.090978, -19.85829 ], [ -43.091148, -19.858289 ], [ -43.091294, -19.858312 ], [ -43.091415, -19.858312 ], [ -43.091561, -19.858334 ], [ -43.091731, -19.858357 ], [ -43.09195, -19.858403 ], [ -43.092145, -19.858471 ], [ -43.092242, -19.858517 ], [ -43.092388, -19.85854 ], [ -43.09251, -19.858563 ], [ -43.092801, -19.858562 ], [ -43.092923, -19.858539 ], [ -43.09336, -19.858538 ], [ -43.093506, -19.858515 ], [ -43.0937, -19.858468 ], [ -43.094041, -19.858468 ], [ -43.094138, -19.858445 ], [ -43.094478, -19.858444 ], [ -43.094575, -19.858421 ], [ -43.094721, -19.858467 ], [ -43.094818, -19.858443 ], [ -43.094964, -19.858466 ], [ -43.095062, -19.858489 ], [ -43.095183, -19.858558 ], [ -43.095329, -19.858626 ], [ -43.095427, -19.858695 ], [ -43.0955, -19.858787 ], [ -43.095597, -19.858925 ], [ -43.095622, -19.859086 ], [ -43.095695, -19.859178 ], [ -43.095792, -19.859246 ], [ -43.09589, -19.859269 ], [ -43.096108, -19.859269 ], [ -43.09623, -19.859246 ], [ -43.096327, -19.859268 ], [ -43.096497, -19.859268 ], [ -43.096692, -19.859222 ], [ -43.096886, -19.859152 ], [ -43.097056, -19.85906 ], [ -43.09725, -19.858991 ], [ -43.097445, -19.858967 ], [ -43.097517, -19.858852 ], [ -43.097663, -19.858829 ], [ -43.09776, -19.85876 ], [ -43.097857, -19.858714 ], [ -43.097954, -19.858644 ], [ -43.098076, -19.858598 ], [ -43.098221, -19.858483 ], [ -43.098367, -19.858437 ], [ -43.098464, -19.858436 ], [ -43.098707, -19.85839 ], [ -43.098926, -19.85839 ], [ -43.099023, -19.858458 ], [ -43.099121, -19.858504 ], [ -43.099169, -19.858596 ], [ -43.099194, -19.858688 ], [ -43.099316, -19.858918 ], [ -43.099389, -19.859079 ], [ -43.099535, -19.859239 ], [ -43.099584, -19.859377 ], [ -43.09973, -19.859538 ], [ -43.099925, -19.859699 ], [ -43.100168, -19.859698 ], [ -43.100217, -19.859606 ], [ -43.100338, -19.859537 ], [ -43.100556, -19.859329 ], [ -43.100678, -19.85926 ], [ -43.100799, -19.859214 ], [ -43.100969, -19.859099 ], [ -43.100993, -19.859007 ], [ -43.101188, -19.858983 ], [ -43.101455, -19.858983 ], [ -43.101601, -19.859005199999963 ], [ -43.101722, -19.859005 ], [ -43.10182, -19.859028 ], [ -43.103229, -19.859025 ], [ -43.103351, -19.859048 ], [ -43.103546, -19.85914 ], [ -43.103667, -19.859231 ], [ -43.103765, -19.859323 ], [ -43.103814, -19.859438 ], [ -43.103936, -19.859576 ], [ -43.103863, -19.859668 ], [ -43.103814, -19.859783 ], [ -43.103766, -19.859944 ], [ -43.103768, -19.860887 ], [ -43.103842, -19.861094 ], [ -43.104644, -19.861092 ], [ -43.104789, -19.861069 ], [ -43.104887, -19.861069 ], [ -43.104984, -19.861046 ], [ -43.105543, -19.861045 ], [ -43.10564, -19.861067 ], [ -43.106005, -19.861067 ], [ -43.106102, -19.861089 ], [ -43.10654, -19.861089 ], [ -43.106685, -19.861111 ], [ -43.106807, -19.861134 ], [ -43.107342, -19.861133 ], [ -43.107463, -19.86111 ], [ -43.108338, -19.861108 ], [ -43.108484, -19.861085 ], [ -43.10863, -19.861108 ], [ -43.108752, -19.86113 ], [ -43.108897, -19.86113 ], [ -43.109019, -19.861153 ], [ -43.109311, -19.861244 ], [ -43.109603, -19.86129 ], [ -43.109773, -19.861312 ], [ -43.110138, -19.86145 ], [ -43.110235, -19.861495 ], [ -43.110405, -19.861587 ], [ -43.110503, -19.861633 ], [ -43.110624, -19.861656 ], [ -43.111837499999986, -19.861689599999981 ], [ -43.112400599999951, -19.861585599999948 ], [ -43.113408399999969, -19.861546699999959 ], [ -43.113863, -19.861675899999955 ], [ -43.114269299999933, -19.861944299999955 ], [ -43.114545799999981, -19.862622699999964 ], [ -43.115210399999967, -19.862704599999972 ], [ -43.116292299999948, -19.862224099999928 ], [ -43.1181299, -19.862442599999948 ], [ -43.119153299999944, -19.862706099999961 ], [ -43.119780799999951, -19.862620399999962 ], [ -43.120111299999962, -19.862095399999923 ], [ -43.119204799999977, -19.861749299999925 ], [ -43.11829929999994, -19.861352599999972 ], [ -43.117353599999944, -19.860947199999934 ], [ -43.114935499999937, -19.860229499999942 ], [ -43.114300399999934, -19.859945799999927 ], [ -43.113522699999983, -19.859813099999936 ], [ -43.110806399999952, -19.860154399999939 ], [ -43.110292799999968, -19.860133699999942 ], [ -43.107722399999943, -19.859618799999961 ], [ -43.107474, -19.859457699999957 ], [ -43.10729079999993, -19.859189099999977 ], [ -43.107205599999936, -19.858639 ], [ -43.107286, -19.858314 ], [ -43.10743309999998, -19.858083299999976 ], [ -43.111617199999948, -19.854653699999979 ], [ -43.111787599999957, -19.85429159999995 ], [ -43.111917599999977, -19.853948299999953 ], [ -43.111932, -19.853275899999979 ], [ -43.111683699999965, -19.852585799999936 ], [ -43.10975289999994, -19.849830899999962 ], [ -43.109199099999955, -19.849076299999972 ], [ -43.108732699999969, -19.847094199999965 ], [ -43.108211399999959, -19.846370899999943 ], [ -43.107580199999965, -19.845485499999945 ], [ -43.104667199999945, -19.844063899999977 ], [ -43.104348599999987, -19.844022199999923 ], [ -43.104339, -19.844029 ], [ -43.104202699999973, -19.844158699999976 ], [ -43.104194, -19.844167 ], [ -43.104073, -19.84426 ], [ -43.103976, -19.844421 ], [ -43.103879, -19.844536 ], [ -43.10383, -19.844651 ], [ -43.103758, -19.844766 ], [ -43.103661, -19.844881 ], [ -43.103588, -19.844974 ], [ -43.103491, -19.845089 ], [ -43.10337, -19.845227 ], [ -43.103273, -19.845342 ], [ -43.103152, -19.845503 ], [ -43.102788, -19.845849 ], [ -43.102691, -19.845895 ], [ -43.102569, -19.845964 ], [ -43.102448, -19.845988 ], [ -43.102327, -19.84608 ], [ -43.102181, -19.846195 ], [ -43.102084, -19.846241 ], [ -43.101914, -19.846311 ], [ -43.101793, -19.846357 ], [ -43.101695, -19.84638 ], [ -43.10155, -19.846426 ], [ -43.101452, -19.846426 ], [ -43.101355, -19.84645 ], [ -43.101234, -19.84645 ], [ -43.101201, -19.846389 ], [ -43.101161, -19.846381 ], [ -43.101063, -19.846381 ], [ -43.100893, -19.846428 ], [ -43.100675, -19.846428 ], [ -43.100529, -19.846474 ], [ -43.100432, -19.846497 ], [ -43.10031, -19.846521 ], [ -43.100165, -19.846544 ], [ -43.100043, -19.846567 ], [ -43.099897, -19.846613 ], [ -43.099752, -19.846706 ], [ -43.099606, -19.846752 ], [ -43.099485, -19.846821 ], [ -43.099315, -19.846844 ], [ -43.099169, -19.846914 ], [ -43.099121, -19.847006 ], [ -43.098999, -19.847052 ], [ -43.098853, -19.847075 ], [ -43.098756, -19.847076 ], [ -43.098635, -19.847168 ], [ -43.098513, -19.847237 ], [ -43.098416, -19.847237 ], [ -43.098125, -19.847307 ], [ -43.098028, -19.847376 ], [ -43.09793, -19.847422 ], [ -43.097833, -19.847422 ], [ -43.097761, -19.847514 ], [ -43.09759, -19.847538 ], [ -43.097469, -19.847607 ], [ -43.097275, -19.847699 ], [ -43.097154, -19.847791 ], [ -43.097032, -19.847861 ], [ -43.096911, -19.847907 ], [ -43.096765, -19.848022 ], [ -43.096644, -19.848091 ], [ -43.096522, -19.848138 ], [ -43.096401, -19.848253 ], [ -43.096304, -19.848322 ], [ -43.096183, -19.848368 ], [ -43.096061, -19.848529 ], [ -43.096013, -19.848622 ], [ -43.095892, -19.848737 ], [ -43.095795, -19.848875 ], [ -43.095674, -19.849013 ], [ -43.095577, -19.849174 ], [ -43.09548, -19.849381 ], [ -43.095335, -19.84975 ], [ -43.095287, -19.849957 ], [ -43.095214, -19.850095 ], [ -43.095141, -19.850256 ], [ -43.095069, -19.850348 ], [ -43.09502, -19.850486 ], [ -43.094923, -19.850578 ], [ -43.094851, -19.850693 ], [ -43.094657, -19.85097 ], [ -43.09456, -19.851062 ], [ -43.09456, -19.851154 ], [ -43.094439, -19.851269 ], [ -43.09439, -19.851361 ], [ -43.094391, -19.851476 ], [ -43.094367, -19.851591 ], [ -43.094269, -19.85166 ], [ -43.09427, -19.851752 ], [ -43.094173, -19.851845 ], [ -43.094076, -19.85196 ], [ -43.093857, -19.852167 ], [ -43.093809, -19.852282 ], [ -43.093761, -19.852374 ], [ -43.093688, -19.852489 ], [ -43.093591, -19.852605 ], [ -43.09347, -19.85272 ], [ -43.093373, -19.852858 ], [ -43.0933, -19.852973 ], [ -43.093154, -19.853111 ], [ -43.093058, -19.853272 ], [ -43.092961, -19.853342 ], [ -43.092888, -19.853457 ], [ -43.092694, -19.853641 ], [ -43.092597, -19.853779 ], [ -43.092379, -19.854056 ], [ -43.092233, -19.854194 ], [ -43.092088, -19.854309 ], [ -43.091991, -19.854401 ], [ -43.091966, -19.854516 ], [ -43.091942, -19.854608 ], [ -43.091918, -19.854723 ], [ -43.091846, -19.854815 ], [ -43.091724, -19.854954 ], [ -43.0917, -19.855069 ], [ -43.091555, -19.85523 ], [ -43.091385, -19.855414 ], [ -43.091264, -19.855506 ], [ -43.091094, -19.855622 ], [ -43.090997, -19.85576 ], [ -43.0909, -19.855875 ], [ -43.090803, -19.856013 ], [ -43.090657, -19.856105 ], [ -43.09056, -19.85629 ], [ -43.090488, -19.856382 ], [ -43.090439, -19.856566 ], [ -43.090367, -19.856658 ], [ -43.090318, -19.85675 ], [ -43.090173, -19.85698 ], [ -43.090027, -19.857118 ], [ -43.089979, -19.857257 ], [ -43.089955, -19.857349 ], [ -43.089882, -19.857441 ], [ -43.089785, -19.857533 ], [ -43.089737, -19.857625 ], [ -43.089616, -19.857763 ], [ -43.089494, -19.857878 ], [ -43.08947, -19.857993 ], [ -43.089423, -19.858083 ], [ -43.089519, -19.858062 ], [ -43.089981, -19.858061 ], [ -43.090078, -19.858084 ], [ -43.090321, -19.858199 ], [ -43.090443, -19.858222 ], [ -43.09054, -19.858267 ], [ -43.090856, -19.858267 ] ] ], [ [ [ -43.189347799999958, -19.854114599999939 ], [ -43.189787199999955, -19.852944399999959 ], [ -43.189689599999951, -19.852471199999975 ], [ -43.200162699999971, -19.854407299999931 ], [ -43.200282399999935, -19.854429399999962 ], [ -43.205094499999973, -19.856126799999959 ], [ -43.210711199999935, -19.85939459999997 ], [ -43.210867599999972, -19.859248399999959 ], [ -43.21138469999994, -19.858896399999939 ], [ -43.211756599999944, -19.858678499999932 ], [ -43.212512599999968, -19.858451 ], [ -43.212584399999969, -19.858417499999977 ], [ -43.213060899999967, -19.858195699999953 ], [ -43.213199699999961, -19.858151899999946 ], [ -43.21566219999994, -19.855550199999975 ], [ -43.215650699999969, -19.855215 ], [ -43.215641599999962, -19.854949799999929 ], [ -43.215573, -19.854255399999928 ], [ -43.215563199999963, -19.85360779999996 ], [ -43.215697599999949, -19.853006399999973 ], [ -43.215990499999968, -19.852526699999938 ], [ -43.216418299999923, -19.852241 ], [ -43.21680079999993, -19.852072 ], [ -43.217461799999967, -19.851910599999933 ], [ -43.217964099999961, -19.851762299999972 ], [ -43.218932299999949, -19.849821799999969 ], [ -43.219124, -19.849437499999951 ], [ -43.219696099999965, -19.848287599999928 ], [ -43.219703599999946, -19.847995899999948 ], [ -43.219737199999948, -19.846704199999969 ], [ -43.219318, -19.846753099999944 ], [ -43.216626399999939, -19.846566899999978 ], [ -43.21559149999996, -19.846445199999938 ], [ -43.214617399999959, -19.845958099999979 ], [ -43.21380319999998, -19.845758799999942 ], [ -43.212197099999969, -19.845158099999942 ], [ -43.210548199999955, -19.843916099999934 ], [ -43.209024499999941, -19.842276099999946 ], [ -43.20799159999995, -19.841617099999954 ], [ -43.207035299999973, -19.84069959999994 ], [ -43.206778, -19.839850099999975 ], [ -43.206481899999972, -19.839282099999931 ], [ -43.205127499999953, -19.838925299999975 ], [ -43.204680899999971, -19.838648599999939 ], [ -43.204302299999938, -19.838575799999944 ], [ -43.204105699999964, -19.838551499999934 ], [ -43.203503699999942, -19.838126799999937 ], [ -43.20241029999994, -19.837315 ], [ -43.201639299999961, -19.83663219999994 ], [ -43.201412099999978, -19.836423199999974 ], [ -43.201229599999976, -19.836327299999933 ], [ -43.200457, -19.836205299999957 ], [ -43.199268099999983, -19.836020399999928 ], [ -43.199998699999981, -19.834314299999953 ], [ -43.200047, -19.834198599999976 ], [ -43.198288, -19.830282399999938 ], [ -43.204319099999971, -19.828706699999952 ], [ -43.207679, -19.827828899999922 ], [ -43.211837, -19.826816 ], [ -43.211691, -19.826678 ], [ -43.211618, -19.826517 ], [ -43.211496, -19.826334 ], [ -43.211447, -19.826173 ], [ -43.211373, -19.826012 ], [ -43.2113, -19.825805 ], [ -43.211202, -19.825576 ], [ -43.211104, -19.825369 ], [ -43.210909, -19.825001 ], [ -43.210543, -19.824588 ], [ -43.210397, -19.824474 ], [ -43.210275, -19.82429 ], [ -43.210177, -19.824106 ], [ -43.210055, -19.823969 ], [ -43.209763, -19.823693 ], [ -43.209617, -19.823579 ], [ -43.209471, -19.823487 ], [ -43.209276, -19.823373 ], [ -43.209081, -19.823281 ], [ -43.208935, -19.823166 ], [ -43.208765, -19.823029 ], [ -43.208594, -19.822868 ], [ -43.208424, -19.822731 ], [ -43.208253, -19.822639 ], [ -43.208058, -19.822525 ], [ -43.207864, -19.822364 ], [ -43.207680399999965, -19.821832499999964 ], [ -43.206897299999987, -19.82110809999994 ], [ -43.206534099999942, -19.820608099999959 ], [ -43.205751099999929, -19.819530399999969 ], [ -43.204877599999975, -19.817327699999964 ], [ -43.206597599999959, -19.813937199999948 ], [ -43.206616599999961, -19.813445199999926 ], [ -43.206898599999931, -19.81255949999996 ], [ -43.207148, -19.811833199999963 ], [ -43.208030399999984, -19.809264299999935 ], [ -43.208164099999983, -19.808874899999982 ], [ -43.208178399999959, -19.808833199999974 ], [ -43.208277299999963, -19.808879199999986 ], [ -43.208376099999946, -19.808925199999976 ], [ -43.208439399999975, -19.809187699999928 ], [ -43.208500599999986, -19.809354299999942 ], [ -43.208575399999972, -19.809463099999963 ], [ -43.208779399999969, -19.809633099999928 ], [ -43.208935599999961, -19.809698 ], [ -43.209087699999941, -19.809795099999977 ], [ -43.209211099999948, -19.809875199999972 ], [ -43.209369299999942, -19.809982899999966 ], [ -43.209669099999985, -19.81015889999998 ], [ -43.209765899999987, -19.810247199999932 ], [ -43.209819799999941, -19.810530599999943 ], [ -43.209936899999953, -19.81069569999994 ], [ -43.209969299999962, -19.81074139999992 ], [ -43.210098499999958, -19.810850199999951 ], [ -43.210175799999945, -19.810841 ], [ -43.210473499999971, -19.81080569999996 ], [ -43.210720399999957, -19.810812099999968 ], [ -43.210783399999968, -19.810957 ], [ -43.210759399999972, -19.811087199999964 ], [ -43.210745299999985, -19.811164 ], [ -43.210864899999947, -19.811316799999918 ], [ -43.210869299999963, -19.811332499999939 ], [ -43.210918699999972, -19.811507199999948 ], [ -43.210995099999934, -19.811645799999948 ], [ -43.211070899999982, -19.811877 ], [ -43.211260599999946, -19.811731499999944 ], [ -43.211417699999977, -19.811618599999964 ], [ -43.211637299999957, -19.811714799999944 ], [ -43.211916499999973, -19.811975499999971 ], [ -43.21206379999996, -19.81217829999996 ], [ -43.212076199999956, -19.812320899999978 ], [ -43.212156499999935, -19.81247019999995 ], [ -43.212315199999978, -19.812448099999934 ], [ -43.212461499999961, -19.812537299999978 ], [ -43.212498799999935, -19.812828899999943 ], [ -43.212668799999967, -19.81303969999993 ], [ -43.212893199999947, -19.813202899999965 ], [ -43.213066599999934, -19.81315189999998 ], [ -43.213192399999961, -19.813026099999941 ], [ -43.21332839999998, -19.812767699999934 ], [ -43.21348339999998, -19.812708099999952 ], [ -43.21367319999996, -19.812609199999944 ], [ -43.21381249999996, -19.812428299999976 ], [ -43.213830199999968, -19.812387199999932 ], [ -43.213952699999936, -19.812103199999967 ], [ -43.214446299999963, -19.812148299999922 ], [ -43.214765199999938, -19.812136 ], [ -43.215035099999973, -19.812216899999964 ], [ -43.215100599999971, -19.812300899999968 ], [ -43.215240099999967, -19.812479599999961 ], [ -43.215477099999937, -19.812692899999941 ], [ -43.215794899999935, -19.812672599999917 ], [ -43.215980299999956, -19.812590899999982 ], [ -43.215585099999942, -19.812160899999974 ], [ -43.215572499999951, -19.812115499999951 ], [ -43.215529099999969, -19.811957899999971 ], [ -43.21579509999998, -19.811579799999944 ], [ -43.21590939999993, -19.81150329999997 ], [ -43.216097299999952, -19.811561699999974 ], [ -43.216305, -19.81169119999992 ], [ -43.21634609999996, -19.811707 ], [ -43.21645419999993, -19.811748599999927 ], [ -43.216590399999973, -19.811760599999953 ], [ -43.216714599999939, -19.811693399999967 ], [ -43.216706599999945, -19.811516599999951 ], [ -43.216705499999939, -19.811492 ], [ -43.216923699999938, -19.811003499999977 ], [ -43.217095399999948, -19.810802599999931 ], [ -43.217004799999984, -19.810564899999971 ], [ -43.216996699999982, -19.810542699999932 ], [ -43.215992799999981, -19.808985 ], [ -43.215289899999959, -19.808489 ], [ -43.204709, -19.802540899999933 ], [ -43.203264, -19.802439399999962 ], [ -43.194736, -19.803852299999956 ], [ -43.194658699999927, -19.803845399999929 ], [ -43.190632699999988, -19.800926699999941 ], [ -43.183783799999951, -19.798786699999937 ], [ -43.179074199999945, -19.799045 ], [ -43.178526299999938, -19.79867019999995 ], [ -43.178263399999928, -19.797418399999977 ], [ -43.177760899999953, -19.796962299999976 ], [ -43.177279899999974, -19.797722299999986 ], [ -43.176458499999967, -19.798603199999942 ], [ -43.175791899999979, -19.798829399999921 ], [ -43.174375399999974, -19.799067399999949 ], [ -43.173589699999987, -19.79909119999995 ], [ -43.173125399999954, -19.799412599999975 ], [ -43.172458799999966, -19.800150699999964 ], [ -43.171863599999938, -19.800662599999953 ], [ -43.17125649999997, -19.800960199999945 ], [ -43.170897399999944, -19.800868099999935 ], [ -43.170256599999959, -19.800317299999964 ], [ -43.169613799999979, -19.800353099999928 ], [ -43.169149499999946, -19.800734 ], [ -43.168661499999985, -19.800614899999964 ], [ -43.168232899999971, -19.800103099999934 ], [ -43.167709199999933, -19.799603099999953 ], [ -43.166864, -19.799281699999945 ], [ -43.166069399999976, -19.799162 ], [ -43.165792599999975, -19.799198399999952 ], [ -43.165459299999952, -19.799555499999933 ], [ -43.165257, -19.800245899999933 ], [ -43.165626, -19.801412499999966 ], [ -43.165899799999977, -19.8026862 ], [ -43.166471199999933, -19.803376599999979 ], [ -43.167221099999949, -19.804221799999929 ], [ -43.166685399999956, -19.804412299999978 ], [ -43.165647199999967, -19.804570599999984 ], [ -43.165316499999953, -19.804376599999959 ], [ -43.164935599999978, -19.804852699999977 ], [ -43.164632, -19.805186 ], [ -43.164227299999936, -19.805459799999934 ], [ -43.163905899999975, -19.805852699999939 ], [ -43.16382439999996, -19.806342799999971 ], [ -43.163786799999968, -19.806543099999942 ], [ -43.163963899999942, -19.806993099999939 ], [ -43.163584499999956, -19.807364499999952 ], [ -43.162786899999965, -19.807662099999966 ], [ -43.162167899999986, -19.807543 ], [ -43.161834599999963, -19.807138299999956 ], [ -43.161548899999964, -19.806043099999943 ], [ -43.161156099999971, -19.806459799999956 ], [ -43.160346599999976, -19.806519299999934 ], [ -43.159596699999952, -19.806066899999948 ], [ -43.159049099999947, -19.806019299999953 ], [ -43.158612, -19.806010599999979 ], [ -43.158848199999973, -19.806505199999943 ], [ -43.158656199999939, -19.806793099999943 ], [ -43.158811, -19.807412099999965 ], [ -43.159108599999968, -19.807959699999973 ], [ -43.159549, -19.808507199999948 ], [ -43.160177899999951, -19.808931599999934 ], [ -43.160572799999954, -19.809114299999973 ], [ -43.161239399999943, -19.80925719999993 ], [ -43.161394099999946, -19.809721399999948 ], [ -43.161477499999933, -19.810554699999951 ], [ -43.16157149999998, -19.811651599999955 ], [ -43.161164199999973, -19.811849699999986 ], [ -43.16030109999997, -19.812056199999969 ], [ -43.15973159999993, -19.812131399999956 ], [ -43.159411899999952, -19.812013 ], [ -43.159096499999968, -19.811866299999952 ], [ -43.158641299999942, -19.811807299999934 ], [ -43.158244399999944, -19.81193159999998 ], [ -43.157949399999957, -19.812239899999952 ], [ -43.157608199999977, -19.812637799999958 ], [ -43.156854399999929, -19.812836699999938 ], [ -43.1560856, -19.813005799999921 ], [ -43.154914, -19.813438899999944 ], [ -43.154367599999951, -19.813773099999921 ], [ -43.153761199999963, -19.814467899999947 ], [ -43.153568599999971, -19.814633399999941 ], [ -43.153330399999952, -19.814826099999959 ], [ -43.152634399999961, -19.815036 ], [ -43.151763899999942, -19.814818299999963 ], [ -43.151315699999948, -19.814845 ], [ -43.150945499999985, -19.815036499999966 ], [ -43.150183599999934, -19.815441299999982 ], [ -43.148822399999965, -19.816302199999939 ], [ -43.148025399999931, -19.816839199999951 ], [ -43.146904699999943, -19.81742949999995 ], [ -43.145563599999946, -19.817970799999951 ], [ -43.144981599999937, -19.817476799999955 ], [ -43.144386399999973, -19.817322099999956 ], [ -43.143791199999946, -19.817548299999938 ], [ -43.142803199999946, -19.817726799999949 ], [ -43.141577099999949, -19.817703 ], [ -43.140481899999941, -19.817798199999963 ], [ -43.139660599999949, -19.817714899999945 ], [ -43.1393025, -19.817518 ], [ -43.138708299999962, -19.81714949999996 ], [ -43.138267799999937, -19.81684 ], [ -43.137565499999944, -19.816685199999934 ], [ -43.136875099999941, -19.81659 ], [ -43.136446499999984, -19.816161399999949 ], [ -43.135866199999946, -19.815465099999972 ], [ -43.135580499999946, -19.815447199999937 ], [ -43.135461499999963, -19.815512699999939 ], [ -43.135479299999979, -19.815696899999985 ], [ -43.135471699999975, -19.815794399999955 ], [ -43.135376099999974, -19.8159429 ], [ -43.135308499999951, -19.815870299999972 ], [ -43.135163, -19.815713799999962 ], [ -43.134772899999973, -19.815391699999967 ], [ -43.1317203, -19.815080099999932 ], [ -43.129893699999968, -19.815489399999922 ], [ -43.129322199999933, -19.81606289999996 ], [ -43.129093599999976, -19.818930499999954 ], [ -43.125283499999966, -19.822407399999964 ], [ -43.123264099999972, -19.821762199999959 ], [ -43.121092299999937, -19.82233569999994 ], [ -43.119635499999958, -19.825639599999931 ], [ -43.11709419999994, -19.825483799999972 ], [ -43.116285799999964, -19.825687699999946 ], [ -43.113911499999965, -19.826766399999933 ], [ -43.113196899999934, -19.826893799999933 ], [ -43.112625099999946, -19.826885899999979 ], [ -43.112013399999974, -19.826777499999938 ], [ -43.109583, -19.825479699999953 ], [ -43.108962099999985, -19.825348 ], [ -43.108295299999959, -19.825244599999955 ], [ -43.105809, -19.825406399999959 ], [ -43.10504479999998, -19.825142299999975 ], [ -43.102819099999977, -19.823728799999987 ], [ -43.10197839999995, -19.823554599999962 ], [ -43.1007039, -19.823586199999969 ], [ -43.099945299999945, -19.823530699999942 ], [ -43.099344399999957, -19.82319439999997 ], [ -43.098940899999945, -19.822863699999967 ], [ -43.09863, -19.822262 ], [ -43.098533, -19.822331 ], [ -43.098363, -19.822447 ], [ -43.098242, -19.822539 ], [ -43.098218, -19.822631 ], [ -43.098194, -19.822723 ], [ -43.098145, -19.822815 ], [ -43.098073, -19.822907 ], [ -43.098073099999965, -19.822940899999935 ], [ -43.098073899999974, -19.823292399999957 ], [ -43.098075, -19.823758 ], [ -43.098087, -19.823815499999959 ], [ -43.098099, -19.823873 ], [ -43.098148, -19.823988 ], [ -43.098148399999964, -19.824118799999937 ], [ -43.098149, -19.824333 ], [ -43.098149699999965, -19.824336899999942 ], [ -43.098173, -19.824471 ], [ -43.098198, -19.824632 ], [ -43.098198, -19.824724 ], [ -43.098223, -19.824816 ], [ -43.098247, -19.824931 ], [ -43.098247799999967, -19.824934 ], [ -43.098272, -19.825022 ], [ -43.09832, -19.825114 ], [ -43.098442, -19.825206 ], [ -43.098515, -19.825321 ], [ -43.098539499999966, -19.82539 ], [ -43.098564, -19.825459 ], [ -43.098595299999943, -19.825532499999959 ], [ -43.098613, -19.825574 ], [ -43.098614299999952, -19.825576399999939 ], [ -43.098662, -19.825666 ], [ -43.098711, -19.825804 ], [ -43.098832, -19.825895 ], [ -43.098853, -19.82597229999994 ], [ -43.098857, -19.825987 ], [ -43.09888, -19.826030199999941 ], [ -43.099425899999979, -19.826364199999951 ], [ -43.10066409999996, -19.826977799999959 ], [ -43.100755399999976, -19.827081 ], [ -43.110690199999965, -19.829361599999967 ], [ -43.112325, -19.829352 ], [ -43.121335199999983, -19.828983699999977 ], [ -43.12421, -19.830401799999944 ], [ -43.125053699999967, -19.833166599999963 ], [ -43.123761699999932, -19.834664399999948 ], [ -43.12284039999998, -19.83624 ], [ -43.124133, -19.837927599999944 ], [ -43.126415799999968, -19.838739799999932 ], [ -43.128335799999945, -19.839925899999958 ], [ -43.128557599999965, -19.839966899999972 ], [ -43.128408499999978, -19.840516 ], [ -43.12822539999997, -19.840727799999971 ], [ -43.127725299999945, -19.840988499999966 ], [ -43.127519099999972, -19.841006899999982 ], [ -43.126879399999943, -19.840852599999952 ], [ -43.12661049999997, -19.840931899999919 ], [ -43.126384199999961, -19.841108099999929 ], [ -43.1260875, -19.841611299999947 ], [ -43.125993699999981, -19.841858499999951 ], [ -43.125858099999959, -19.84199639999996 ], [ -43.125673799999959, -19.842233199999953 ], [ -43.125198099999984, -19.842835599999944 ], [ -43.124870199999982, -19.843103399999961 ], [ -43.124604499999982, -19.843354399999953 ], [ -43.124383499999972, -19.843421699999958 ], [ -43.123967199999981, -19.843517299999981 ], [ -43.123501499999982, -19.843777599999957 ], [ -43.123427799999945, -19.844153499999948 ], [ -43.123249699999974, -19.84456439999996 ], [ -43.123001299999942, -19.845878199999966 ], [ -43.122318799999967, -19.84684169999996 ], [ -43.122112199999947, -19.847231099999942 ], [ -43.121823199999938, -19.847927899999945 ], [ -43.12187039999997, -19.84836319999993 ], [ -43.121427399999959, -19.849093199999981 ], [ -43.121054599999972, -19.84941 ], [ -43.120523299999938, -19.849796799999975 ], [ -43.120372199999956, -19.849998299999989 ], [ -43.120187699999981, -19.8508467 ], [ -43.120071499999945, -19.851281099999948 ], [ -43.119836299999974, -19.851659099999953 ], [ -43.119521499999962, -19.852411599999968 ], [ -43.119552699999986, -19.852904599999942 ], [ -43.119527399999981, -19.853316599999964 ], [ -43.119527399999981, -19.853796099999954 ], [ -43.119664399999976, -19.855027099999973 ], [ -43.120034899999951, -19.856411399999963 ], [ -43.120005099999958, -19.857087799999931 ], [ -43.120115599999963, -19.858663599999939 ], [ -43.120400199999949, -19.860519499999956 ], [ -43.120272099999966, -19.861465599999956 ], [ -43.120111299999962, -19.862095399999923 ], [ -43.120533799999983, -19.862329599999953 ], [ -43.120753099999952, -19.861619799999968 ], [ -43.120937299999987, -19.860951199999935 ], [ -43.121059, -19.859977299999962 ], [ -43.121045699999975, -19.859315599999945 ], [ -43.121143099999983, -19.858582899999938 ], [ -43.121097499999969, -19.858065199999935 ], [ -43.121081899999986, -19.85744619999997 ], [ -43.12110679999995, -19.856884 ], [ -43.12104729999993, -19.856336399999979 ], [ -43.12108019999993, -19.856115 ], [ -43.121220599999951, -19.855883499999948 ], [ -43.121604899999966, -19.855785 ], [ -43.122344899999973, -19.855638499999948 ], [ -43.122757699999966, -19.855536799999982 ], [ -43.123180599999955, -19.854988499999926 ], [ -43.123280499999964, -19.854853299999942 ], [ -43.123312, -19.854691099999961 ], [ -43.12334489999995, -19.854646399999979 ], [ -43.12357789999993, -19.85455 ], [ -43.123716799999954, -19.854462899999934 ], [ -43.123886199999959, -19.854279799999969 ], [ -43.124200699999967, -19.854270299999932 ], [ -43.124489299999944, -19.854232699999969 ], [ -43.124860299999973, -19.85417 ], [ -43.125116599999956, -19.854007699999944 ], [ -43.125359799999956, -19.854015 ], [ -43.125160199999982, -19.852652899999956 ], [ -43.124148299999952, -19.852854499999985 ], [ -43.123184099999946, -19.851771199999966 ], [ -43.122910299999951, -19.850711799999939 ], [ -43.123493599999954, -19.849414299999989 ], [ -43.123587199999967, -19.847765799999948 ], [ -43.123662099999933, -19.847486699999926 ], [ -43.123969699999975, -19.846670399999926 ], [ -43.124469699999963, -19.845456199999933 ], [ -43.124945899999943, -19.844492 ], [ -43.125481099999952, -19.843904499999944 ], [ -43.126076699999942, -19.843349199999988 ], [ -43.127338499999951, -19.842480199999958 ], [ -43.129019199999966, -19.842381899999953 ], [ -43.129642799999942, -19.841728399999958 ], [ -43.130843, -19.8411 ], [ -43.132683399999969, -19.840480399999933 ], [ -43.133659499999972, -19.83955189999994 ], [ -43.133969, -19.836242599999931 ], [ -43.133921399999963, -19.834552199999958 ], [ -43.133254799999975, -19.832481 ], [ -43.13294529999996, -19.831552499999919 ], [ -43.133761199999981, -19.830289799999935 ], [ -43.1321617, -19.828075 ], [ -43.130996299999936, -19.827032699999954 ], [ -43.135872599999978, -19.827150099999987 ], [ -43.138019199999974, -19.828172199999937 ], [ -43.145290299999942, -19.833457599999974 ], [ -43.146358099999929, -19.833266299999931 ], [ -43.147082599999976, -19.83254879999993 ], [ -43.146898299999982, -19.829391899999951 ], [ -43.1464089, -19.82709 ], [ -43.144490799999964, -19.823904699999957 ], [ -43.144749899999965, -19.823744 ], [ -43.145074699999945, -19.821130899999961 ], [ -43.149907799999937, -19.821911299999957 ], [ -43.151063699999952, -19.824699399999918 ], [ -43.153913199999977, -19.826636899999968 ], [ -43.154041299999967, -19.829391699999974 ], [ -43.154424299999953, -19.830758 ], [ -43.152193899999936, -19.8321 ], [ -43.152384399999953, -19.832671399999978 ], [ -43.152336799999944, -19.833719 ], [ -43.152812899999958, -19.834861699999962 ], [ -43.15367, -19.835576 ], [ -43.155050799999977, -19.83657589999995 ], [ -43.156765, -19.838147199999987 ], [ -43.158951699999925, -19.838062399999963 ], [ -43.159925599999951, -19.838235099999963 ], [ -43.160052299999968, -19.839280899999938 ], [ -43.159480299999984, -19.840142399999934 ], [ -43.159783699999942, -19.840418399999965 ], [ -43.160069099999937, -19.840820299999958 ], [ -43.160352399999965, -19.841429499999954 ], [ -43.160571, -19.841743 ], [ -43.16098779999993, -19.842167299999975 ], [ -43.161367199999972, -19.842504699999953 ], [ -43.16165669999998, -19.842825099999978 ], [ -43.161889599999938, -19.843215799999943 ], [ -43.162401799999948, -19.844416599999924 ], [ -43.162548499999964, -19.845085 ], [ -43.162582399999962, -19.845742299999934 ], [ -43.161990799999955, -19.846539099999969 ], [ -43.161274699999971, -19.848218799999927 ], [ -43.16095949999994, -19.848370299999935 ], [ -43.16092749999995, -19.849092399999972 ], [ -43.161055199999971, -19.849635299999932 ], [ -43.161418499999975, -19.850038799999918 ], [ -43.165828199999972, -19.850276699999938 ], [ -43.168555799999986, -19.848219199999953 ], [ -43.168327199999958, -19.846767799999942 ], [ -43.169089299999939, -19.845549299999963 ], [ -43.170327599999951, -19.845656799999979 ], [ -43.171661099999945, -19.845943499999976 ], [ -43.172167699999939, -19.84687 ], [ -43.173756699999956, -19.847896699999982 ], [ -43.174957399999982, -19.848302399999959 ], [ -43.175625399999952, -19.84883909999995 ], [ -43.175966499999959, -19.850369499999942 ], [ -43.17615209999996, -19.851516199999931 ], [ -43.176404, -19.851751399999941 ], [ -43.176549799999975, -19.852068399999951 ], [ -43.177677699999947, -19.853077699999961 ], [ -43.178805699999948, -19.854411199999955 ], [ -43.18125109999994, -19.854646799999955 ], [ -43.181291299999948, -19.854191499999963 ], [ -43.181372599999975, -19.853460799999937 ], [ -43.181407199999967, -19.853038 ], [ -43.181473599999947, -19.852275799999983 ], [ -43.18314909999998, -19.851364 ], [ -43.183608099999965, -19.854716799999945 ], [ -43.183929899999953, -19.857064199999954 ], [ -43.185193899999945, -19.85843489999996 ], [ -43.186481199999939, -19.857333499999978 ], [ -43.188046299999947, -19.855873699999954 ], [ -43.189107599999943, -19.854754299999954 ], [ -43.189288199999972, -19.854273299999928 ], [ -43.189347799999958, -19.854114599999939 ] ] ] ] } }
]
}
