{
"type": "FeatureCollection",
"name": "3145307",
"crs": { "type": "name", "properties": { "name": "urn:ogc:def:crs:OGC:1.3:CRS84" } },
"features": [
{ "type": "Feature", "properties": { "CD_MUN": "3145307", "NM_MUN": "Novo Cruzeiro" }, "geometry": { "type": "MultiPolygon", "coordinates": [ [ [ [ -41.905768899999934, -17.471497699999919 ], [ -41.906062099999986, -17.468767899999921 ], [ -41.905932499999949, -17.468623799999921 ], [ -41.906162699999982, -17.468655499999947 ], [ -41.906816299999953, -17.468757799999928 ], [ -41.90709, -17.468854299999983 ], [ -41.907516199999975, -17.469020699999916 ], [ -41.907709599999976, -17.469206799999927 ], [ -41.907792899999954, -17.469283399999931 ], [ -41.907935699999939, -17.469435599999926 ], [ -41.908168799999942, -17.469663499999964 ], [ -41.908306, -17.469838299999918 ], [ -41.908451399999933, -17.469925699999976 ], [ -41.908682099999972, -17.470130799999922 ], [ -41.908865, -17.470247899999944 ], [ -41.909077099999941, -17.470368499999935 ], [ -41.90962339999993, -17.470043 ], [ -41.910925299999974, -17.469540699999985 ], [ -41.911519899999973, -17.468771899999986 ], [ -41.910822799999949, -17.467459799999965 ], [ -41.909295399999962, -17.466865299999935 ], [ -41.908024299999965, -17.466147699999954 ], [ -41.90729649999998, -17.465255899999914 ], [ -41.906763399999939, -17.463503 ], [ -41.905359099999941, -17.463379899999936 ], [ -41.903565899999933, -17.464191799999984 ], [ -41.903497599999973, -17.464177799999959 ], [ -41.902620399999932, -17.464055299999924 ], [ -41.900638799999975, -17.463848 ], [ -41.899895199999946, -17.463622699999974 ], [ -41.899151599999989, -17.463262199999974 ], [ -41.898543199999956, -17.462924199999971 ], [ -41.898047399999939, -17.462586199999976 ], [ -41.897382, -17.46226949999992 ], [ -41.89674569999994, -17.461983199999953 ], [ -41.89601939999995, -17.461826899999945 ], [ -41.895956799999965, -17.461836 ], [ -41.89493779999998, -17.461984599999937 ], [ -41.894182299999947, -17.461955399999958 ], [ -41.893434699999943, -17.462034899999935 ], [ -41.89245909999994, -17.462090399999965 ], [ -41.891490199999964, -17.462248199999962 ], [ -41.890431099999951, -17.462293199999969 ], [ -41.889665, -17.462315799999931 ], [ -41.889259399999965, -17.462315799999931 ], [ -41.888583399999966, -17.462383399999965 ], [ -41.887884799999938, -17.462518599999949 ], [ -41.887620699999964, -17.461196899999944 ], [ -41.886793399999931, -17.460325499999957 ], [ -41.883698299999935, -17.459105699999949 ], [ -41.885740299999959, -17.457857199999982 ], [ -41.884223799999972, -17.456480099999975 ], [ -41.872993599999973, -17.454847199999946 ], [ -41.871966199999974, -17.455109099999945 ], [ -41.870921399999922, -17.451775199999933 ], [ -41.870859199999984, -17.449675799999952 ], [ -41.869654, -17.448451199999955 ], [ -41.86935079999995, -17.448338399999944 ], [ -41.868701499999936, -17.44825679999996 ], [ -41.867694599999936, -17.448322899999933 ], [ -41.867268899999942, -17.448540599999941 ], [ -41.867233899999974, -17.449292899999929 ], [ -41.866860699999961, -17.450886799999974 ], [ -41.86581879999995, -17.451361099999929 ], [ -41.865542699999935, -17.452062799999965 ], [ -41.865490299999976, -17.452173599999966 ], [ -41.865387199999937, -17.452301899999952 ], [ -41.865341199999939, -17.452346099999943 ], [ -41.866497599999946, -17.452476 ], [ -41.868348699999956, -17.45326209999995 ], [ -41.869024899999943, -17.454445399999937 ], [ -41.869692599999958, -17.455375099999962 ], [ -41.870085599999982, -17.45672 ], [ -41.870410699999987, -17.456956 ], [ -41.870800699999968, -17.457190399999938 ], [ -41.870866299999939, -17.457220699999919 ], [ -41.869059199999988, -17.458224 ], [ -41.869661799999967, -17.459555099999918 ], [ -41.870260499999979, -17.460380599999954 ], [ -41.87083569999993, -17.461248899999937 ], [ -41.869786199999965, -17.462006699999957 ], [ -41.869136399999952, -17.463178499999973 ], [ -41.868800799999974, -17.464591 ], [ -41.870888499999985, -17.466310899999929 ], [ -41.873170899999941, -17.465274299999969 ], [ -41.873748299999932, -17.467031599999924 ], [ -41.873626199999933, -17.468344299999956 ], [ -41.872985099999944, -17.469351699999951 ], [ -41.87243559999996, -17.470145499999926 ], [ -41.871702899999946, -17.471152899999932 ], [ -41.871367099999937, -17.472251899999947 ], [ -41.871061799999957, -17.473778399999944 ], [ -41.871061799999957, -17.474388899999944 ], [ -41.871153399999969, -17.47515219999995 ], [ -41.871153399999969, -17.476312199999935 ], [ -41.87258269999996, -17.477241699999983 ], [ -41.872623299999937, -17.479144599999923 ], [ -41.872330399999953, -17.480436799999936 ], [ -41.871610399999959, -17.48157389999993 ], [ -41.871157299999936, -17.482396 ], [ -41.871413799999971, -17.483177099999981 ], [ -41.871686899999936, -17.483347099999932 ], [ -41.8722557, -17.48290789999993 ], [ -41.87384069999996, -17.483029199999962 ], [ -41.87401239999997, -17.482971199999945 ], [ -41.874023, -17.482987799999933 ], [ -41.874036099999955, -17.483016199999934 ], [ -41.874328799999951, -17.483637299999927 ], [ -41.87463, -17.484353699999915 ], [ -41.87506389999993, -17.484246499999927 ], [ -41.876508599999966, -17.484348599999979 ], [ -41.877543199999941, -17.484648 ], [ -41.878325899999936, -17.484811399999955 ], [ -41.879959499999984, -17.48520619999994 ], [ -41.880381499999942, -17.485206199999936 ], [ -41.880521, -17.485158499999955 ], [ -41.88063219999998, -17.485129299999979 ], [ -41.881290199999974, -17.484831 ], [ -41.881267499999979, -17.484591599999927 ], [ -41.881249299999986, -17.484200199999968 ], [ -41.881287899999968, -17.483903 ], [ -41.881342399999937, -17.483721499999941 ], [ -41.881494399999958, -17.483388 ], [ -41.881546, -17.483189799999916 ], [ -41.881594199999938, -17.48290129999998 ], [ -41.881559799999934, -17.479794599999927 ], [ -41.877371099999948, -17.47301589999994 ], [ -41.884301099999959, -17.474411499999974 ], [ -41.884776099999954, -17.474626199999928 ], [ -41.889470499999959, -17.475045799999982 ], [ -41.890700599999946, -17.474404899999961 ], [ -41.892096399999957, -17.473491699999954 ], [ -41.899711599999932, -17.474378199999915 ], [ -41.905768899999934, -17.471497699999919 ] ] ], [ [ [ -42.025776799999953, -17.470435099999978 ], [ -42.025362399999956, -17.470403199999957 ], [ -42.024754, -17.470568899999918 ], [ -42.023887399999971, -17.470413 ], [ -42.023517799999986, -17.470492199999953 ], [ -42.023105699999967, -17.470453599999928 ], [ -42.022630499999941, -17.470598799999934 ], [ -42.021950699999934, -17.470790199999932 ], [ -42.021541399999933, -17.471090299999936 ], [ -42.020528899999931, -17.471098799999925 ], [ -42.02069, -17.471712 ], [ -42.021007, -17.472512899999952 ], [ -42.021057399999968, -17.47264019999993 ], [ -42.021072099999969, -17.472853099999949 ], [ -42.026443299999983, -17.473014599999942 ], [ -42.026684, -17.471991499999945 ], [ -42.026295699999935, -17.47118 ], [ -42.026138399999979, -17.470394399999972 ], [ -42.025776799999953, -17.470435099999978 ] ] ], [ [ [ -42.061622899999975, -17.462474599999947 ], [ -42.061926599999936, -17.462892599999979 ], [ -42.062096199999978, -17.463230099999972 ], [ -42.061945799999933, -17.463903399999925 ], [ -42.068175099999962, -17.463339 ], [ -42.069002599999976, -17.462836399999947 ], [ -42.069232499999949, -17.462711799999958 ], [ -42.070373799999977, -17.461965899999925 ], [ -42.067832599999974, -17.458824599999943 ], [ -42.067659399999975, -17.457082 ], [ -42.06729619999993, -17.456650099999919 ], [ -42.066364799999981, -17.457471899999977 ], [ -42.065641699999958, -17.457168699999954 ], [ -42.065432199999982, -17.457934799999972 ], [ -42.066304799999962, -17.458652499999964 ], [ -42.065443799999969, -17.459469699999929 ], [ -42.063744499999977, -17.459304599999935 ], [ -42.062689799999937, -17.460129199999916 ], [ -42.062083099999938, -17.459969799999953 ], [ -42.06135909999994, -17.459967 ], [ -42.061032, -17.460661499999951 ], [ -42.060995399999968, -17.461369499999925 ], [ -42.061223, -17.46148479999993 ], [ -42.061525499999966, -17.461649299999969 ], [ -42.061738899999966, -17.461744699999933 ], [ -42.061670699999979, -17.462065299999953 ], [ -42.061622899999975, -17.462474599999947 ] ] ], [ [ [ -42.015669099999968, -17.285369799999945 ], [ -42.015923299999933, -17.285028099999966 ], [ -42.016088599999932, -17.284765499999938 ], [ -42.016327399999966, -17.284251499999986 ], [ -42.01635639999995, -17.283851199999937 ], [ -42.016383299999973, -17.283517 ], [ -42.016450099999922, -17.283169399999956 ], [ -42.01647689999993, -17.28271489999997 ], [ -42.016495899999939, -17.282209499999961 ], [ -42.016351099999959, -17.281668499999963 ], [ -42.016064699999966, -17.281244199999946 ], [ -42.015612, -17.280839399999941 ], [ -42.015356299999951, -17.280583299999918 ], [ -42.016320799999967, -17.280898899999951 ], [ -42.017781, -17.28017 ], [ -42.018883499999959, -17.279013699999954 ], [ -42.017996, -17.275707099999966 ], [ -42.015936899999986, -17.275049299999964 ], [ -42.016257399999979, -17.27580139999997 ], [ -42.01616439999998, -17.27607809999995 ], [ -42.016107099999942, -17.276286199999959 ], [ -42.015865, -17.276512099999941 ], [ -42.015440099999978, -17.276490099999936 ], [ -42.015254499999969, -17.276508 ], [ -42.014733499999977, -17.276558199999961 ], [ -42.014145699999972, -17.276654399999913 ], [ -42.013496299999986, -17.277332699999938 ], [ -42.013496799999984, -17.277338399999955 ], [ -42.01354259999993, -17.277832099999955 ], [ -42.01339459999997, -17.278190399999964 ], [ -42.013392, -17.278480899999966 ], [ -42.013004199999962, -17.278562299999958 ], [ -42.012849599999988, -17.278562299999965 ], [ -42.012643499999967, -17.278586699999952 ], [ -42.012482199999965, -17.278684299999959 ], [ -42.012217799999974, -17.278833399999943 ], [ -42.011874799999937, -17.279034099999933 ], [ -42.011784, -17.279080199999946 ], [ -42.011579099999949, -17.279239299999965 ], [ -42.011523, -17.279285099999964 ], [ -42.011404299999981, -17.279462499999969 ], [ -42.010235499999972, -17.282746299999918 ], [ -42.011922299999981, -17.28621319999997 ], [ -42.012284499999971, -17.286218299999959 ], [ -42.012593699999968, -17.286218599999927 ], [ -42.0132445, -17.28622839999996 ], [ -42.014117, -17.28625409999994 ], [ -42.014384899999982, -17.28625779999993 ], [ -42.015141699999958, -17.285890899999952 ], [ -42.015493, -17.285620599999945 ], [ -42.015669099999968, -17.285369799999945 ] ] ], [ [ [ -41.934088699999961, -17.245335199999932 ], [ -41.934304599999962, -17.245224899999982 ], [ -41.934545399999934, -17.245183499999936 ], [ -41.934658799999966, -17.245164 ], [ -41.934917199999973, -17.244984499999937 ], [ -41.935168, -17.245029299999942 ], [ -41.936153199999978, -17.245038299999969 ], [ -41.936546, -17.244753499999938 ], [ -41.936698499999977, -17.244646099999937 ], [ -41.937069099999974, -17.244375799999926 ], [ -41.937331499999971, -17.243374499999955 ], [ -41.937004099999967, -17.242955899999963 ], [ -41.93755809999994, -17.242060399999946 ], [ -41.937651399999936, -17.24152749999995 ], [ -41.937395799999933, -17.241068199999972 ], [ -41.937149599999948, -17.240547799999923 ], [ -41.936826799999949, -17.239712399999966 ], [ -41.936674699999969, -17.238825599999927 ], [ -41.936370699999948, -17.23816679999992 ], [ -41.936244, -17.237406599999918 ], [ -41.936015899999973, -17.236849099999954 ], [ -41.935889199999963, -17.236063599999969 ], [ -41.935585099999969, -17.235506099999949 ], [ -41.935503399999959, -17.235001799999957 ], [ -41.935407799999957, -17.234467199999916 ], [ -41.935237599999944, -17.233744599999955 ], [ -41.935078399999959, -17.233048199999921 ], [ -41.935027699999985, -17.232186699999936 ], [ -41.934426299999984, -17.230828899999938 ], [ -41.933192, -17.230190799999939 ], [ -41.932014899999956, -17.22938879999997 ], [ -41.931234, -17.230376899999939 ], [ -41.931105699999939, -17.231839699999966 ], [ -41.930253, -17.238767599999949 ], [ -41.930254, -17.238871699999947 ], [ -41.930255399999957, -17.23902319999997 ], [ -41.93025549999993, -17.239034199999935 ], [ -41.930270199999939, -17.239131399999959 ], [ -41.930296499999933, -17.239301 ], [ -41.930308199999963, -17.239379899999946 ], [ -41.930323199999975, -17.239456299999965 ], [ -41.930341399999982, -17.239549199999935 ], [ -41.930374, -17.239658799999972 ], [ -41.930385499999943, -17.239697699999965 ], [ -41.930416399999963, -17.239767099999938 ], [ -41.93043949999997, -17.239819199999946 ], [ -41.930493499999962, -17.239880499999963 ], [ -41.930597599999949, -17.239944099999931 ], [ -41.930688399999951, -17.239998499999945 ], [ -41.930756199999969, -17.240035199999959 ], [ -41.930818699999982, -17.240068199999929 ], [ -41.930924599999969, -17.240115499999938 ], [ -41.93103009999993, -17.240162599999959 ], [ -41.931070899999959, -17.240180799999965 ], [ -41.931172, -17.240225899999928 ], [ -41.931312299999945, -17.240267099999979 ], [ -41.931412899999941, -17.240296599999944 ], [ -41.931552399999937, -17.240337499999963 ], [ -41.93164029999997, -17.240367299999949 ], [ -41.931724199999962, -17.240396399999945 ], [ -41.93182029999997, -17.240449699999932 ], [ -41.931905099999945, -17.240496299999961 ], [ -41.932006399999985, -17.240552299999919 ], [ -41.932099299999955, -17.24062559999993 ], [ -41.932168299999951, -17.240680199999922 ], [ -41.932247, -17.240777899999941 ], [ -41.932298, -17.240842599999937 ], [ -41.932320499999946, -17.240869099999941 ], [ -41.93239779999994, -17.241032299999961 ], [ -41.932414899999969, -17.241117 ], [ -41.932423299999982, -17.241158699999971 ], [ -41.932426, -17.241172199999937 ], [ -41.932425699999953, -17.241207399999936 ], [ -41.932425299999977, -17.241231299999978 ], [ -41.932425499999972, -17.24123939999992 ], [ -41.932425199999955, -17.241290799999938 ], [ -41.932424599999933, -17.241324399999939 ], [ -41.932423599999936, -17.241359399999958 ], [ -41.932422899999949, -17.241382199999961 ], [ -41.932422, -17.241411899999942 ], [ -41.932420299999933, -17.241468599999962 ], [ -41.932418899999959, -17.241497699999954 ], [ -41.932417399999956, -17.241531699999943 ], [ -41.932413899999979, -17.241577199999924 ], [ -41.932412, -17.241609599999936 ], [ -41.932409899999989, -17.241635 ], [ -41.932406799999967, -17.241680599999938 ], [ -41.932404, -17.241716399999977 ], [ -41.932397799999933, -17.241803199999925 ], [ -41.932332799999983, -17.242037499999981 ], [ -41.932226299999975, -17.242177099999921 ], [ -41.932176899999952, -17.242241799999931 ], [ -41.932099099999959, -17.242412699999921 ], [ -41.932056199999977, -17.242494399999924 ], [ -41.931979399999932, -17.242627099999925 ], [ -41.931883699999965, -17.242843299999947 ], [ -41.931718, -17.243076499999965 ], [ -41.931573299999968, -17.24329369999997 ], [ -41.931327599999982, -17.243542499999922 ], [ -41.931141399999952, -17.243709899999935 ], [ -41.930896099999984, -17.243861899999953 ], [ -41.930764, -17.243940399999921 ], [ -41.930435799999948, -17.244118499999949 ], [ -41.930218799999984, -17.244268299999923 ], [ -41.930064399999942, -17.244379599999931 ], [ -41.929960899999969, -17.244453499999945 ], [ -41.9298199, -17.244565699999949 ], [ -41.929696, -17.244705599999961 ], [ -41.929621199999985, -17.244881099999933 ], [ -41.929565899999943, -17.245004099999953 ], [ -41.92951179999995, -17.245192399999947 ], [ -41.929450399999951, -17.245402799999962 ], [ -41.929405699999961, -17.245540399999985 ], [ -41.929313199999974, -17.245876799999955 ], [ -41.929336499999977, -17.246161399999949 ], [ -41.929402099999947, -17.246624899999969 ], [ -41.92944209999996, -17.246918599999962 ], [ -41.929529099999975, -17.247511399999947 ], [ -41.929459299999955, -17.247648899999952 ], [ -41.929340199999956, -17.247826699999969 ], [ -41.92935, -17.247893 ], [ -41.929651499999977, -17.249199099999938 ], [ -41.930215099999948, -17.248742199999977 ], [ -41.930860899999971, -17.248111099999949 ], [ -41.931646299999954, -17.247340899999923 ], [ -41.932544599999972, -17.246549299999959 ], [ -41.932885099999972, -17.246309399999969 ], [ -41.933656, -17.24548319999996 ], [ -41.934088699999961, -17.245335199999932 ] ] ] ] } }
]
}
