{
"type": "FeatureCollection",
"name": "3148202",
"crs": { "type": "name", "properties": { "name": "urn:ogc:def:crs:OGC:1.3:CRS84" } },
"features": [
{ "type": "Feature", "properties": { "CD_MUN": "3148202", "NM_MUN": "Patrocínio do Muriaé" }, "geometry": { "type": "Polygon", "coordinates": [ [ [ -42.20644469999997, -21.167169099999963 ], [ -42.20505, -21.162022399999948 ], [ -42.204958499999982, -21.161936599999937 ], [ -42.205295799999931, -21.160684499999935 ], [ -42.204895599999929, -21.160255699999929 ], [ -42.204129499999965, -21.159489599999965 ], [ -42.203157499999975, -21.157965899999962 ], [ -42.204484, -21.157274099999931 ], [ -42.20561029999994, -21.156719499999944 ], [ -42.206124799999941, -21.15641079999995 ], [ -42.206725199999937, -21.155999099999967 ], [ -42.207617099999936, -21.155787599999943 ], [ -42.209212199999975, -21.157863 ], [ -42.209412899999961, -21.157921199999969 ], [ -42.210559899999971, -21.157272199999969 ], [ -42.211601599999945, -21.157471299999941 ], [ -42.211678799999952, -21.157538399999964 ], [ -42.212448399999978, -21.158207099999967 ], [ -42.21368369999994, -21.159154099999963 ], [ -42.214308399999936, -21.159778599999974 ], [ -42.214401399999986, -21.15988969999994 ], [ -42.214529399999947, -21.159814199999964 ], [ -42.214858199999988, -21.159806599999971 ], [ -42.215185199999951, -21.159916799999948 ], [ -42.2156902, -21.159868899999928 ], [ -42.216366599999965, -21.159733099999976 ], [ -42.216958499999976, -21.159520599999958 ], [ -42.218208799999957, -21.158590799999956 ], [ -42.218492099999935, -21.158488699999975 ], [ -42.218960199999977, -21.158603499999963 ], [ -42.219363899999969, -21.158687299999926 ], [ -42.21988209999995, -21.158878799999954 ], [ -42.220497599999931, -21.159020699999932 ], [ -42.221267299999965, -21.159196299999962 ], [ -42.222185599999925, -21.159490699999942 ], [ -42.222603099999951, -21.159689199999942 ], [ -42.222944699999971, -21.159759299999951 ], [ -42.223263699999961, -21.159794299999916 ], [ -42.223749, -21.160036599999948 ], [ -42.224258899999938, -21.160191199999918 ], [ -42.224663, -21.16021609999996 ], [ -42.225093599999987, -21.159701299999927 ], [ -42.22478469999993, -21.159411499999965 ], [ -42.224530899999941, -21.159212599999933 ], [ -42.224168199999951, -21.159077899999943 ], [ -42.223808799999972, -21.15886 ], [ -42.223310699999956, -21.158461099999954 ], [ -42.222681499999972, -21.157985099999944 ], [ -42.222373799999964, -21.157645 ], [ -42.222019899999964, -21.157173799999942 ], [ -42.221762699999935, -21.156785899999935 ], [ -42.221478799999943, -21.156459199999972 ], [ -42.221076299999943, -21.156059 ], [ -42.220713399999966, -21.155829499999978 ], [ -42.22036739999993, -21.155643199999929 ], [ -42.219927099999957, -21.155447599999942 ], [ -42.219348799999977, -21.154905499999916 ], [ -42.218909699999983, -21.154360799999939 ], [ -42.218468199999961, -21.15373349999992 ], [ -42.218048399999937, -21.15308709999994 ], [ -42.217655099999945, -21.152343799999972 ], [ -42.21743309999993, -21.151924099999974 ], [ -42.217302399999944, -21.151498799999949 ], [ -42.217102099999977, -21.151115099999963 ], [ -42.21679759999995, -21.150839099999924 ], [ -42.216487399999941, -21.150620099999966 ], [ -42.216066299999959, -21.150473799999933 ], [ -42.214941799999963, -21.150312199999966 ], [ -42.214460899999949, -21.150295399999941 ], [ -42.213772199999944, -21.15027689999993 ], [ -42.213273099999988, -21.150286099999946 ], [ -42.212834099999952, -21.150309199999974 ], [ -42.212316499999936, -21.150341599999926 ], [ -42.211761899999942, -21.150383199999958 ], [ -42.210823699999942, -21.150489499999935 ], [ -42.210264499999944, -21.150517199999967 ], [ -42.209654399999977, -21.150572699999934 ], [ -42.209109099999985, -21.150581899999956 ], [ -42.20867, -21.150655799999978 ], [ -42.208175499999982, -21.150789899999946 ], [ -42.207699499999933, -21.151011699999966 ], [ -42.207426799999951, -21.151118 ], [ -42.206932299999949, -21.151150399999953 ], [ -42.206430499999954, -21.151137399999971 ], [ -42.205862399999944, -21.15107429999993 ], [ -42.205932499999967, -21.150196 ], [ -42.205957, -21.149879899999963 ], [ -42.206153599999936, -21.147308899999928 ], [ -42.205243, -21.145732799999958 ], [ -42.204343499999936, -21.143917599999959 ], [ -42.203525299999967, -21.142161399999971 ], [ -42.203252499999955, -21.14137079999994 ], [ -42.20308509999996, -21.140294199999975 ], [ -42.202914299999982, -21.139016099999942 ], [ -42.202725, -21.136469599999934 ], [ -42.20286949999997, -21.134470299999975 ], [ -42.202911699999959, -21.133974399999946 ], [ -42.202967499999936, -21.13334 ], [ -42.202892599999984, -21.131686199999923 ], [ -42.203296699999953, -21.131232599999965 ], [ -42.203748499999968, -21.130658 ], [ -42.203978399999983, -21.130291499999942 ], [ -42.203878899999957, -21.130077 ], [ -42.203669899999966, -21.12961179999995 ], [ -42.203351299999959, -21.129227399999927 ], [ -42.20286119999998, -21.128967699999972 ], [ -42.201929099999973, -21.128312899999969 ], [ -42.201611199999952, -21.128093799999924 ], [ -42.201702799999964, -21.127951499999934 ], [ -42.202066899999977, -21.127675799999952 ], [ -42.202483299999983, -21.127471 ], [ -42.20294709999996, -21.127176 ], [ -42.203319699999952, -21.12687729999994 ], [ -42.203654499999978, -21.126435099999973 ], [ -42.203215199999931, -21.12593129999992 ], [ -42.201957, -21.124388 ], [ -42.201908, -21.124422 ], [ -42.201871, -21.124468 ], [ -42.201846, -21.12456 ], [ -42.201822, -21.12464 ], [ -42.201797, -21.124686 ], [ -42.201785, -21.124754 ], [ -42.201748, -21.1248 ], [ -42.201723, -21.124858 ], [ -42.201711, -21.124903 ], [ -42.201674, -21.124961 ], [ -42.201661, -21.125029 ], [ -42.201624, -21.12511 ], [ -42.201575, -21.12519 ], [ -42.201526, -21.125281 ], [ -42.201427, -21.125488 ], [ -42.20139, -21.125602 ], [ -42.201316, -21.125809 ], [ -42.201291, -21.125912 ], [ -42.201254, -21.126003 ], [ -42.201229, -21.126072 ], [ -42.20120449999996, -21.126100499999957 ], [ -42.20118, -21.126129 ], [ -42.201168, -21.126175 ], [ -42.201155, -21.126244 ], [ -42.201131, -21.12629 ], [ -42.201118, -21.126336 ], [ -42.201094, -21.126382 ], [ -42.201032, -21.126439 ], [ -42.200971, -21.126485 ], [ -42.200898, -21.126519 ], [ -42.200824, -21.126541 ], [ -42.200775, -21.126553 ], [ -42.200714, -21.126564 ], [ -42.200653, -21.126587 ], [ -42.200579, -21.126598 ], [ -42.200518, -21.126621 ], [ -42.200432, -21.126643 ], [ -42.200347, -21.126655 ], [ -42.200298, -21.126689 ], [ -42.200237, -21.1267 ], [ -42.200188, -21.126712 ], [ -42.200114, -21.126757 ], [ -42.20004, -21.126826 ], [ -42.200004, -21.126872 ], [ -42.199942, -21.126929 ], [ -42.199893, -21.126997 ], [ -42.19982, -21.127055 ], [ -42.199746, -21.1271 ], [ -42.199697, -21.127123 ], [ -42.199636, -21.127169 ], [ -42.199623, -21.127226 ], [ -42.199599, -21.127272 ], [ -42.19955, -21.127318 ], [ -42.199402, -21.127409 ], [ -42.199353, -21.127466 ], [ -42.199292, -21.127523 ], [ -42.199231, -21.127569 ], [ -42.199194, -21.127615 ], [ -42.199157, -21.127672 ], [ -42.199108, -21.127729 ], [ -42.199046, -21.127786 ], [ -42.198985, -21.127821 ], [ -42.198924, -21.127866 ], [ -42.198875, -21.127912 ], [ -42.198826, -21.127935 ], [ -42.198777, -21.127992 ], [ -42.19874, -21.128038 ], [ -42.198691, -21.128095 ], [ -42.198730199999943, -21.128150699999935 ], [ -42.198768899999955, -21.128270399999955 ], [ -42.198824299999956, -21.128348399999929 ], [ -42.198872899999969, -21.12840429999995 ], [ -42.198915899999974, -21.128440399999921 ], [ -42.198915199999924, -21.1284879 ], [ -42.198882, -21.12853049999995 ], [ -42.198835699999954, -21.128569599999945 ], [ -42.198789099999935, -21.128602 ], [ -42.198781699999984, -21.128643699999945 ], [ -42.198864199999953, -21.128688699999945 ], [ -42.198928899999942, -21.128708499999949 ], [ -42.199019799999967, -21.128724199999958 ], [ -42.19907459999996, -21.128729099999916 ], [ -42.199124499999982, -21.128705699999948 ], [ -42.199157, -21.128674399999962 ], [ -42.199223899999929, -21.128614099999918 ], [ -42.199295099999972, -21.128600499999944 ], [ -42.19934359999997, -21.128618799999966 ], [ -42.199351099999944, -21.128664199999939 ], [ -42.199317899999983, -21.128712 ], [ -42.199194899999952, -21.128794099999929 ], [ -42.199068, -21.128816199999946 ], [ -42.198994599999935, -21.12887029999996 ], [ -42.198952, -21.128951799999985 ], [ -42.1989521, -21.129014299999934 ], [ -42.198942, -21.129056299999945 ], [ -42.198887399999926, -21.129064099999933 ], [ -42.198826499999946, -21.129067799999977 ], [ -42.198773599999988, -21.12906589999994 ], [ -42.198735799999952, -21.129106699999959 ], [ -42.198725, -21.129162799999971 ], [ -42.198703299999977, -21.129206499999945 ], [ -42.19864129999997, -21.129240399999961 ], [ -42.19859219999995, -21.129269799999978 ], [ -42.198523799999982, -21.129323399999965 ], [ -42.198439499999949, -21.129379699999951 ], [ -42.198309899999977, -21.12942239999995 ], [ -42.198211199999939, -21.129422799999936 ], [ -42.198106399999965, -21.129389399999969 ], [ -42.197984399999939, -21.129341599999968 ], [ -42.197855599999968, -21.129284 ], [ -42.197770399999975, -21.129237099999944 ], [ -42.197714899999944, -21.129200699999956 ], [ -42.197609799999952, -21.129194299999934 ], [ -42.197521499999937, -21.1292036 ], [ -42.1974757, -21.129256799999947 ], [ -42.197449899999981, -21.129367 ], [ -42.197472399999988, -21.129498499999954 ], [ -42.197562699999935, -21.129574299999945 ], [ -42.197750699999972, -21.129622799999936 ], [ -42.1979482, -21.129650299999966 ], [ -42.198117799999977, -21.129726499999947 ], [ -42.1982273, -21.129863 ], [ -42.198372899999981, -21.129964399999945 ], [ -42.198641499999958, -21.130078199999943 ], [ -42.198802699999938, -21.130126299999965 ], [ -42.199005899999975, -21.130198399999912 ], [ -42.199106699999966, -21.130280199999959 ], [ -42.199167799999948, -21.130387 ], [ -42.199202, -21.130502099999944 ], [ -42.199134, -21.130556699999936 ], [ -42.199010899999969, -21.130559499999933 ], [ -42.198848699999985, -21.130529599999917 ], [ -42.198705299999979, -21.130501199999966 ], [ -42.19856139999996, -21.130527199999964 ], [ -42.198473099999951, -21.130579499999961 ], [ -42.198438499999952, -21.130665799999971 ], [ -42.19848079999997, -21.130775499999984 ], [ -42.198671199999978, -21.130844 ], [ -42.19891309999997, -21.130886399999948 ], [ -42.199105799999984, -21.130942299999948 ], [ -42.199259899999959, -21.13102769999994 ], [ -42.199441699999973, -21.131074699999939 ], [ -42.199606599999989, -21.131074699999942 ], [ -42.199730099999961, -21.131129499999915 ], [ -42.199787499999957, -21.131224199999959 ], [ -42.199742699999938, -21.131310699999972 ], [ -42.199613599999964, -21.131401499999978 ], [ -42.199463, -21.131443699999966 ], [ -42.199251099999977, -21.131416399999978 ], [ -42.199185799999952, -21.131481499999943 ], [ -42.199158, -21.131620499999933 ], [ -42.199212699999975, -21.131735099999954 ], [ -42.199267199999952, -21.131833299999979 ], [ -42.199270499999955, -21.131933899999975 ], [ -42.199217, -21.132054099999937 ], [ -42.199138699999928, -21.132154699999937 ], [ -42.199076499999926, -21.132356 ], [ -42.199064499999963, -21.132457799999941 ], [ -42.199066899999941, -21.132637 ], [ -42.199080099999954, -21.132784499999939 ], [ -42.199065299999972, -21.132900899999967 ], [ -42.198948499999979, -21.13300519999996 ], [ -42.198865399999924, -21.133074299999965 ], [ -42.198730499999954, -21.133130199999989 ], [ -42.1986, -21.133160799999928 ], [ -42.198466, -21.133169499999944 ], [ -42.198344199999951, -21.133220899999973 ], [ -42.198279799999973, -21.133254099999942 ], [ -42.198228699999959, -21.133376699999928 ], [ -42.198235599999968, -21.133509099999976 ], [ -42.198153, -21.133646199999934 ], [ -42.198054899999931, -21.133736399999979 ], [ -42.198027099999941, -21.133890199999943 ], [ -42.197995699999979, -21.134002199999937 ], [ -42.19789829999997, -21.134138099999962 ], [ -42.197837699999987, -21.134297 ], [ -42.197803199999953, -21.134441799999923 ], [ -42.197818299999938, -21.134599599999948 ], [ -42.197870299999977, -21.134719699999945 ], [ -42.197931399999966, -21.134805299999972 ], [ -42.197958, -21.134856899999924 ], [ -42.197943699999939, -21.134920799999975 ], [ -42.19792259999997, -21.135046599999946 ], [ -42.197923799999963, -21.135175199999928 ], [ -42.197977099999946, -21.135259499999954 ], [ -42.198005399999943, -21.135377299999959 ], [ -42.197972499999935, -21.135507 ], [ -42.197886, -21.135633299999924 ], [ -42.19778, -21.135704099999931 ], [ -42.197645899999941, -21.135716699999929 ], [ -42.197530699999966, -21.135732899999937 ], [ -42.197448399999978, -21.135763 ], [ -42.197344399999963, -21.135875199999937 ], [ -42.197299, -21.135965099999968 ], [ -42.197291599999971, -21.136058299999934 ], [ -42.197216599999926, -21.136122499999942 ], [ -42.197099, -21.136165799999951 ], [ -42.197039699999955, -21.136213199999922 ], [ -42.197005099999956, -21.13630059999997 ], [ -42.197029, -21.136407899999934 ], [ -42.197147099999945, -21.136484599999946 ], [ -42.197268199999947, -21.136543299999968 ], [ -42.197420699999959, -21.136566299999977 ], [ -42.19752479999994, -21.136540899999932 ], [ -42.197614799999947, -21.136501599999978 ], [ -42.197688, -21.136517799999979 ], [ -42.197740799999963, -21.136564299999968 ], [ -42.197809899999982, -21.136701 ], [ -42.197855699999934, -21.136806699999962 ], [ -42.197904699999974, -21.136902899999939 ], [ -42.197973599999955, -21.1369395 ], [ -42.198065199999974, -21.137036799999962 ], [ -42.1981105, -21.137110499999931 ], [ -42.198060299999952, -21.137148099999933 ], [ -42.19793489999995, -21.137167299999938 ], [ -42.197761899999925, -21.137176099999976 ], [ -42.197532599999931, -21.137157299999949 ], [ -42.197355199999954, -21.137188 ], [ -42.197122, -21.137211599999954 ], [ -42.196953899999983, -21.137216 ], [ -42.196814699999948, -21.137268799999958 ], [ -42.19667, -21.137336699999938 ], [ -42.19656719999994, -21.137415699999952 ], [ -42.196573299999947, -21.137521599999957 ], [ -42.196605899999952, -21.137711899999953 ], [ -42.196668, -21.137814799999937 ], [ -42.196755399999972, -21.137873299999967 ], [ -42.196829299999933, -21.13784209999994 ], [ -42.19694359999994, -21.137800799999976 ], [ -42.197027499999933, -21.137791299999947 ], [ -42.197141499999937, -21.137854299999955 ], [ -42.197257499999978, -21.137945599999963 ], [ -42.197397299999977, -21.138035099999957 ], [ -42.197581099999987, -21.138156699999971 ], [ -42.197764799999952, -21.138274899999939 ], [ -42.197861, -21.13837969999998 ], [ -42.19788049999994, -21.138482499999945 ], [ -42.19788889999996, -21.13867509999994 ], [ -42.197874499999955, -21.138793899999929 ], [ -42.197775599999936, -21.138998799999968 ], [ -42.197692, -21.139167099999959 ], [ -42.197620799999989, -21.139403799999968 ], [ -42.197590799999951, -21.139559 ], [ -42.197537799999964, -21.139729399999961 ], [ -42.197471699999944, -21.139841499999928 ], [ -42.197463299999981, -21.139999799999952 ], [ -42.197483199999972, -21.140096299999978 ], [ -42.1975968, -21.140217399999983 ], [ -42.197634499999928, -21.140343299999927 ], [ -42.197597299999984, -21.140485599999984 ], [ -42.197509299999986, -21.140630899999966 ], [ -42.197427399999974, -21.140796399999928 ], [ -42.197395799999981, -21.140973499999973 ], [ -42.197303, -21.141054899999961 ], [ -42.1972095, -21.141093499999943 ], [ -42.197100599999935, -21.141121699999928 ], [ -42.196938799999948, -21.141182199999935 ], [ -42.196860199999954, -21.141212899999971 ], [ -42.196770399999942, -21.1412061 ], [ -42.196627, -21.141156799999973 ], [ -42.196495499999969, -21.141132499999959 ], [ -42.196371, -21.141151899999961 ], [ -42.196312599999949, -21.141348499999925 ], [ -42.19626159999995, -21.141518 ], [ -42.196286599999951, -21.141668199999966 ], [ -42.19633129999994, -21.141834899999932 ], [ -42.196375199999984, -21.142018 ], [ -42.196352099999963, -21.142146399999934 ], [ -42.19625689999998, -21.142215599999929 ], [ -42.196111299999984, -21.142211399999947 ], [ -42.195947899999972, -21.14220459999996 ], [ -42.195839799999938, -21.142091199999982 ], [ -42.195756199999941, -21.141956599999951 ], [ -42.19561189999996, -21.141907099999965 ], [ -42.195485499999968, -21.141918499999967 ], [ -42.195271799999936, -21.141983099999944 ], [ -42.19512219999995, -21.142034399999943 ], [ -42.194983399999956, -21.142067799999953 ], [ -42.194759099999949, -21.142040099999964 ], [ -42.194565399999931, -21.142033899999944 ], [ -42.194290799999983, -21.142066099999965 ], [ -42.194139299999961, -21.142091499999935 ], [ -42.193981099999974, -21.142082399999936 ], [ -42.193853799999943, -21.142197499999952 ], [ -42.193858699999964, -21.142304599999932 ], [ -42.194008299999958, -21.142450099999966 ], [ -42.194095299999958, -21.142544699999977 ], [ -42.194306, -21.142779799999964 ], [ -42.194582299999979, -21.142929199999962 ], [ -42.194870699999974, -21.142984099999975 ], [ -42.195079699999951, -21.142993 ], [ -42.195236499999965, -21.142933199999952 ], [ -42.195448699999929, -21.142858599999958 ], [ -42.195680099999947, -21.142838499999971 ], [ -42.195819599999936, -21.14283579999994 ], [ -42.195901699999986, -21.142901599999959 ], [ -42.195951399999956, -21.143075599999968 ], [ -42.195914099999982, -21.143185399999929 ], [ -42.195759799999962, -21.143238699999923 ], [ -42.195676799999951, -21.143319299999959 ], [ -42.195673599999971, -21.143496299999967 ], [ -42.195745799999948, -21.143795899999933 ], [ -42.195863699999968, -21.14404119999994 ], [ -42.195936599999989, -21.14431629999995 ], [ -42.19604529999998, -21.144491499999955 ], [ -42.196211599999977, -21.144626199999951 ], [ -42.196386699999948, -21.144691 ], [ -42.196557299999938, -21.144715699999949 ], [ -42.19685539999994, -21.144679 ], [ -42.197141199999976, -21.144609299999953 ], [ -42.197506099999941, -21.144511899999927 ], [ -42.197775799999931, -21.144405799999966 ], [ -42.197979799999985, -21.14424919999993 ], [ -42.198188399999935, -21.144203599999969 ], [ -42.198321, -21.144190099999939 ], [ -42.198408899999947, -21.144227399999984 ], [ -42.198509699999924, -21.144346299999935 ], [ -42.198594399999934, -21.144464299999974 ], [ -42.198777, -21.14461069999993 ], [ -42.198951299999976, -21.144743199999919 ], [ -42.199185499999935, -21.145122599999979 ], [ -42.199363399999982, -21.145501 ], [ -42.199626499999965, -21.14591079999996 ], [ -42.19981619999993, -21.146252199999928 ], [ -42.199896099999933, -21.146360499999957 ], [ -42.199951099999971, -21.14649819999994 ], [ -42.200019, -21.146529099999949 ], [ -42.200096699999968, -21.146504599999954 ], [ -42.200205499999981, -21.146452699999937 ], [ -42.200393399999939, -21.146373199999964 ], [ -42.200588099999948, -21.146286 ], [ -42.200741299999947, -21.146231199999939 ], [ -42.200902399999968, -21.146147499999916 ], [ -42.201016199999977, -21.146078799999945 ], [ -42.201087299999983, -21.146033899999949 ], [ -42.201112799999976, -21.145961199999917 ], [ -42.201129799999933, -21.145884399999943 ], [ -42.201214, -21.145792599999925 ], [ -42.201308299999937, -21.145767799999934 ], [ -42.201395299999952, -21.14579639999992 ], [ -42.201456899999982, -21.145850499999938 ], [ -42.201509699999967, -21.145934799999957 ], [ -42.2015507, -21.146042899999941 ], [ -42.201547599999969, -21.146232199999929 ], [ -42.20147529999997, -21.146456899999976 ], [ -42.201332299999933, -21.146699499999944 ], [ -42.201168, -21.146903 ], [ -42.201062899999954, -21.147007199999955 ], [ -42.201077299999945, -21.147098499999966 ], [ -42.201124199999981, -21.147205499999917 ], [ -42.201205499999951, -21.147315199999973 ], [ -42.201232499999946, -21.147440499999963 ], [ -42.201174899999955, -21.147580099999971 ], [ -42.201187599999969, -21.147782399999983 ], [ -42.201241099999955, -21.147911299999972 ], [ -42.201245, -21.148051699999932 ], [ -42.201225799999975, -21.148174499999985 ], [ -42.20125, -21.148287699999962 ], [ -42.201279199999938, -21.14839019999993 ], [ -42.201327899999967, -21.148475499999954 ], [ -42.201401499999974, -21.148525299999971 ], [ -42.201496199999951, -21.148568699999931 ], [ -42.201561199999958, -21.148622699999983 ], [ -42.201603899999952, -21.148705599999964 ], [ -42.201601599999947, -21.148808599999921 ], [ -42.201595099999963, -21.148897 ], [ -42.201603599999949, -21.148973699999949 ], [ -42.201540099999931, -21.149034799999978 ], [ -42.201456599999972, -21.149088599999967 ], [ -42.201349, -21.149098899999959 ], [ -42.201274799999972, -21.149066099999956 ], [ -42.201202399999943, -21.148950599999974 ], [ -42.201089699999955, -21.148851199999971 ], [ -42.200984199999944, -21.148742899999935 ], [ -42.20088979999997, -21.148656 ], [ -42.20079869999995, -21.148630399999945 ], [ -42.200684099999933, -21.148635799999962 ], [ -42.20062709999997, -21.148700499999958 ], [ -42.200632399999968, -21.148838699999938 ], [ -42.200720399999966, -21.148972199999939 ], [ -42.200814299999941, -21.149092399999965 ], [ -42.200894099999978, -21.149260599999927 ], [ -42.200947099999951, -21.149402499999955 ], [ -42.200992799999945, -21.149542499999935 ], [ -42.201140299999963, -21.149702199999972 ], [ -42.201311599999947, -21.149863799999924 ], [ -42.201425899999947, -21.150017799999933 ], [ -42.201512, -21.150124499999936 ], [ -42.201521799999966, -21.150202799999921 ], [ -42.201466, -21.150277399999922 ], [ -42.201366199999939, -21.150364 ], [ -42.201260899999966, -21.150434 ], [ -42.201124899999968, -21.150452899999944 ], [ -42.200983099999974, -21.150415499999955 ], [ -42.2008939, -21.150383399999949 ], [ -42.200800499999957, -21.150336299999925 ], [ -42.200666499999954, -21.150311799999937 ], [ -42.200547699999966, -21.150318899999949 ], [ -42.20051529999995, -21.150396199999935 ], [ -42.200499899999954, -21.150512699999979 ], [ -42.200561699999987, -21.150635899999937 ], [ -42.200698099999961, -21.150726599999921 ], [ -42.200829, -21.150795399999925 ], [ -42.20098459999997, -21.150886 ], [ -42.201070099999981, -21.150992 ], [ -42.201128899999958, -21.151165099999954 ], [ -42.201197899999954, -21.151314 ], [ -42.201169199999974, -21.151505099999948 ], [ -42.200477699999972, -21.151843799999938 ], [ -42.199891499999978, -21.152165 ], [ -42.199205499999948, -21.152624199999927 ], [ -42.198500599999925, -21.153009399999966 ], [ -42.197743599999974, -21.153425099999929 ], [ -42.197042099999976, -21.15386849999993 ], [ -42.196458, -21.154335199999924 ], [ -42.19601629999994, -21.154837399999959 ], [ -42.195848099999971, -21.155126699999975 ], [ -42.195818399999951, -21.155387599999987 ], [ -42.195938699999935, -21.15559809999996 ], [ -42.196204099999932, -21.155697199999953 ], [ -42.196469699999966, -21.155954299999959 ], [ -42.19675029999997, -21.156248499999933 ], [ -42.197079499999973, -21.156623099999923 ], [ -42.197347, -21.156755399999955 ], [ -42.197729599999946, -21.156981399999953 ], [ -42.197974299999942, -21.157216099999975 ], [ -42.19817809999995, -21.157524499999958 ], [ -42.198276199999952, -21.157868599999961 ], [ -42.198373599999975, -21.158415899999962 ], [ -42.198339599999947, -21.158826699999963 ], [ -42.198173599999969, -21.159210799999979 ], [ -42.197942099999977, -21.159528 ], [ -42.197563699999925, -21.15976929999994 ], [ -42.197128899999939, -21.159934199999945 ], [ -42.196948499999969, -21.160253199999943 ], [ -42.1968495, -21.160647899999958 ], [ -42.196706699999943, -21.160965099999931 ], [ -42.196553499999936, -21.161181099999954 ], [ -42.196439699999985, -21.161279799999928 ], [ -42.196315499999969, -21.161282399999944 ], [ -42.196168499999949, -21.161141899999961 ], [ -42.195894299999971, -21.160805099999951 ], [ -42.195622899999933, -21.16050869999998 ], [ -42.195318699999966, -21.160257699999935 ], [ -42.195262199999945, -21.160571599999962 ], [ -42.195111499999939, -21.160910699999928 ], [ -42.194816399999986, -21.161281099999936 ], [ -42.194533899999954, -21.161638899999954 ], [ -42.194307899999963, -21.162047 ], [ -42.194494699999957, -21.16204619999996 ], [ -42.194674299999988, -21.162138 ], [ -42.19479739999997, -21.162276199999944 ], [ -42.194900599999983, -21.162427899999944 ], [ -42.195070199999975, -21.162602799999952 ], [ -42.195283299999971, -21.162741099999941 ], [ -42.195491, -21.162846399999978 ], [ -42.195765299999948, -21.162829499999937 ], [ -42.196081899999974, -21.162754899999982 ], [ -42.196393299999954, -21.162653399999954 ], [ -42.196616099999972, -21.162560499999923 ], [ -42.19690159999994, -21.162356799999937 ], [ -42.197117499999933, -21.162199699999974 ], [ -42.197301299999943, -21.162068399999953 ], [ -42.197488199999952, -21.161937 ], [ -42.197614599999952, -21.161804699999944 ], [ -42.197653099999968, -21.161699799999958 ], [ -42.197675599999968, -21.161587299999947 ], [ -42.197629, -21.16138629999994 ], [ -42.197562599999969, -21.161139 ], [ -42.197547299999947, -21.16092969999994 ], [ -42.197592399999962, -21.16072249999997 ], [ -42.197644599999933, -21.16049889999994 ], [ -42.197810599999968, -21.160334599999942 ], [ -42.198108899999966, -21.160074699999942 ], [ -42.198491899999965, -21.159827499999935 ], [ -42.198810599999945, -21.159645299999962 ], [ -42.199168699999973, -21.159495199999984 ], [ -42.199410899999975, -21.15935839999997 ], [ -42.19963039999994, -21.159219699999934 ], [ -42.200106499999947, -21.158941899999927 ], [ -42.200800399999935, -21.158591799999947 ], [ -42.201340199999947, -21.158300899999965 ], [ -42.201632799999977, -21.158149 ], [ -42.201707499999941, -21.158118599999966 ], [ -42.201789599999984, -21.158106699999959 ], [ -42.201811099999922, -21.158347599999946 ], [ -42.201823899999958, -21.158427799999973 ], [ -42.201840499999946, -21.158499299999946 ], [ -42.201912799999953, -21.158794299999951 ], [ -42.20203349999997, -21.159183699999961 ], [ -42.202140099999959, -21.159605399999979 ], [ -42.202290599999976, -21.15993219999995 ], [ -42.20248, -21.160151599999946 ], [ -42.20278669999994, -21.160496699999953 ], [ -42.202823799999976, -21.160558699999971 ], [ -42.203076799999963, -21.160981199999981 ], [ -42.203245199999976, -21.161335899999987 ], [ -42.203367799999974, -21.161690399999948 ], [ -42.203408, -21.161917499999955 ], [ -42.203416599999976, -21.16233649999997 ], [ -42.203642299999956, -21.163843399999951 ], [ -42.20373729999995, -21.164378399999979 ], [ -42.20375329999996, -21.164497299999937 ], [ -42.203784499999983, -21.164580099999959 ], [ -42.203843599999963, -21.164675099999947 ], [ -42.204011399999963, -21.165010699999982 ], [ -42.204321799999953, -21.165576799999926 ], [ -42.204537599999981, -21.165973799999961 ], [ -42.204536099999984, -21.166068399999965 ], [ -42.204412299999952, -21.16649829999993 ], [ -42.205730299999971, -21.16706789999995 ], [ -42.20644469999997, -21.167169099999963 ] ] ] } }
]
}
