{
"type": "FeatureCollection",
"name": "3154903",
"crs": { "type": "name", "properties": { "name": "urn:ogc:def:crs:OGC:1.3:CRS84" } },
"features": [
{ "type": "Feature", "properties": { "CD_MUN": "3154903", "NM_MUN": "Rio Casca" }, "geometry": { "type": "MultiPolygon", "coordinates": [ [ [ [ -42.616591299999982, -20.247428499999952 ], [ -42.616755399999931, -20.247540399999934 ], [ -42.616971599999943, -20.247570199999924 ], [ -42.617090899999937, -20.247521799999948 ], [ -42.617243799999983, -20.247309199999961 ], [ -42.617568199999944, -20.247085499999972 ], [ -42.617795699999931, -20.246951299999974 ], [ -42.617985899999951, -20.246820799999966 ], [ -42.618269199999929, -20.246649199999975 ], [ -42.618616, -20.246526199999938 ], [ -42.618966499999942, -20.246533599999957 ], [ -42.619235, -20.246345299999977 ], [ -42.619533299999937, -20.246240899999968 ], [ -42.619630199999968, -20.246061899999972 ], [ -42.619675, -20.245868099999932 ], [ -42.619675, -20.245681599999948 ], [ -42.619652599999945, -20.245375899999942 ], [ -42.619712299999946, -20.245204299999944 ], [ -42.619764499999981, -20.244913499999932 ], [ -42.619839099999979, -20.244630099999924 ], [ -42.619839099999979, -20.244331799999944 ], [ -42.619689899999969, -20.244063299999933 ], [ -42.619496, -20.243809799999944 ], [ -42.619525799999963, -20.243451799999953 ], [ -42.619786899999951, -20.243116199999985 ], [ -42.620010599999944, -20.242735899999957 ], [ -42.620197, -20.241937899999964 ], [ -42.620390899999954, -20.241378599999969 ], [ -42.62045059999997, -20.240431499999929 ], [ -42.620666899999954, -20.239998899999918 ], [ -42.621084499999938, -20.239320299999974 ], [ -42.621196299999959, -20.239007099999984 ], [ -42.621077, -20.238902699999972 ], [ -42.620599699999957, -20.238872899999929 ], [ -42.620398399999942, -20.238596899999941 ], [ -42.620327499999981, -20.237974199999929 ], [ -42.619950899999935, -20.237351499999928 ], [ -42.619641399999978, -20.237023399999931 ], [ -42.620264099999979, -20.236654199999961 ], [ -42.619615299999971, -20.235643699999962 ], [ -42.619360599999943, -20.235377499999956 ], [ -42.620579199999952, -20.235280799999945 ], [ -42.622503299999948, -20.234403899999979 ], [ -42.622375099999942, -20.233956799999941 ], [ -42.622604099999933, -20.233664499999968 ], [ -42.623080599999987, -20.233234699999958 ], [ -42.623183299999944, -20.233224599999978 ], [ -42.624193399999974, -20.233894499999955 ], [ -42.624586899999933, -20.233256199999971 ], [ -42.625275599999945, -20.231083799999965 ], [ -42.625762099999974, -20.230137299999967 ], [ -42.626023, -20.229607299999934 ], [ -42.626425599999948, -20.229211099999933 ], [ -42.626912899999979, -20.229121899999935 ], [ -42.627685299999939, -20.229088499999925 ], [ -42.628267699999988, -20.229088499999932 ], [ -42.628913399999931, -20.229210399999946 ], [ -42.629681099999978, -20.229622899999985 ], [ -42.630545199999972, -20.230383599999975 ], [ -42.630576, -20.230411499999938 ], [ -42.63075809999998, -20.230248599999982 ], [ -42.630862599999936, -20.230155599999932 ], [ -42.630904099999952, -20.230118499999943 ], [ -42.630902, -20.23011729999995 ], [ -42.630862899999954, -20.230094099999974 ], [ -42.630838, -20.230074499999947 ], [ -42.630826099999986, -20.230029699999925 ], [ -42.630790499999932, -20.229896099999955 ], [ -42.630768099999955, -20.229826 ], [ -42.630769199999975, -20.229824399999934 ], [ -42.630767, -20.22982269999995 ], [ -42.630523099999948, -20.229638699999949 ], [ -42.630288099999966, -20.229502699999948 ], [ -42.629881699999942, -20.229328599999981 ], [ -42.629765, -20.229149799999959 ], [ -42.629535499999974, -20.228987599999979 ], [ -42.629360899999945, -20.228734499999973 ], [ -42.629095199999938, -20.228466799999968 ], [ -42.628902899999957, -20.228459299999937 ], [ -42.628784599999967, -20.228525299999944 ], [ -42.628556599999975, -20.228533199999962 ], [ -42.62839589999993, -20.228571799999933 ], [ -42.628260099999984, -20.22846809999993 ], [ -42.627948299999964, -20.228408899999966 ], [ -42.62784, -20.228407899999986 ], [ -42.627763, -20.228372699999966 ], [ -42.627582699999955, -20.228364299999946 ], [ -42.627248399999985, -20.228256199999979 ], [ -42.626980899999978, -20.228321599999958 ], [ -42.626724499999966, -20.228284099999932 ], [ -42.626399099999958, -20.228289 ], [ -42.6261229, -20.228383599999979 ], [ -42.625877199999934, -20.228452599999958 ], [ -42.625653199999938, -20.228539299999955 ], [ -42.625453299999947, -20.228685799999926 ], [ -42.624999599999967, -20.228840299999948 ], [ -42.624747699999944, -20.229093499999973 ], [ -42.624718, -20.229137499999979 ], [ -42.62460649999997, -20.229283399999922 ], [ -42.624129099999948, -20.229105599999976 ], [ -42.623538799999949, -20.228934699999968 ], [ -42.623164, -20.228847799999983 ], [ -42.622363399999983, -20.228619599999949 ], [ -42.621992899999952, -20.228561599999971 ], [ -42.621707699999952, -20.228528099999949 ], [ -42.62123239999994, -20.228349699999967 ], [ -42.620519299999955, -20.228015199999948 ], [ -42.620120399999962, -20.227691799999953 ], [ -42.620044, -20.227496699999957 ], [ -42.6200128, -20.226983 ], [ -42.620067699999943, -20.226755099999931 ], [ -42.620091799999955, -20.226074899999954 ], [ -42.619959499999936, -20.225797099999962 ], [ -42.61979439999994, -20.225556399999956 ], [ -42.619693399999953, -20.225326099999961 ], [ -42.619604499999987, -20.225011199999976 ], [ -42.619496199999958, -20.224890599999977 ], [ -42.619428599999935, -20.224786599999955 ], [ -42.619185799999961, -20.224657399999955 ], [ -42.619046199999957, -20.224644399999939 ], [ -42.618925699999977, -20.224671199999921 ], [ -42.618874299999952, -20.225080699999985 ], [ -42.618792299999939, -20.225187699999935 ], [ -42.618678699999975, -20.225325099999957 ], [ -42.618561399999976, -20.225387199999947 ], [ -42.618442199999947, -20.225477599999984 ], [ -42.618357599999968, -20.225548699999948 ], [ -42.618132799999955, -20.225645499999921 ], [ -42.617924799999969, -20.225837 ], [ -42.617790199999945, -20.225950699999942 ], [ -42.617572199999984, -20.226034 ], [ -42.617438499999935, -20.226044 ], [ -42.61730989999996, -20.226046899999972 ], [ -42.617196899999961, -20.226060399999938 ], [ -42.617244099999937, -20.22618319999998 ], [ -42.617265199999963, -20.22628669999995 ], [ -42.61743869999998, -20.226473599999963 ], [ -42.617762199999959, -20.226833199999927 ], [ -42.618007799999923, -20.227227199999962 ], [ -42.618319199999974, -20.227805699999976 ], [ -42.617815799999967, -20.22806 ], [ -42.61795809999996, -20.228405499999951 ], [ -42.618033, -20.228749199999978 ], [ -42.618301, -20.22897939999995 ], [ -42.618533599999985, -20.229063099999955 ], [ -42.619081699999988, -20.229446599999957 ], [ -42.619535299999946, -20.229736699999929 ], [ -42.619942899999963, -20.229961 ], [ -42.620376699999959, -20.230407 ], [ -42.621762499999932, -20.230351199999976 ], [ -42.622265699999957, -20.23054459999998 ], [ -42.622967799999969, -20.230906 ], [ -42.622842599999949, -20.231131899999976 ], [ -42.622284099999945, -20.231867799999982 ], [ -42.622117699999933, -20.232104799999938 ], [ -42.62188, -20.232461599999962 ], [ -42.622671199999949, -20.23309009999997 ], [ -42.622288499999968, -20.233360499999936 ], [ -42.621401599999963, -20.233800699999961 ], [ -42.620394899999944, -20.234247099999948 ], [ -42.619279399999982, -20.234739699999977 ], [ -42.619045699999958, -20.234843 ], [ -42.618911599999933, -20.234902199999954 ], [ -42.618500099999956, -20.235135799999959 ], [ -42.618223599999965, -20.235353099999937 ], [ -42.617986799999983, -20.235615899999967 ], [ -42.6178422, -20.235822099999954 ], [ -42.617659299999957, -20.236199599999956 ], [ -42.617454799999962, -20.236689499999951 ], [ -42.617201899999941, -20.237297699999939 ], [ -42.61718319999995, -20.237350299999939 ], [ -42.617035799999947, -20.2377638 ], [ -42.616931299999969, -20.238023799999954 ], [ -42.616818199999955, -20.23828629999997 ], [ -42.616545599999938, -20.238914899999934 ], [ -42.616516499999925, -20.238972599999943 ], [ -42.616388399999948, -20.239227299999971 ], [ -42.616159099999948, -20.239570899999933 ], [ -42.615951699999989, -20.239839299999964 ], [ -42.615673, -20.240141 ], [ -42.6142311, -20.241386899999949 ], [ -42.614226899999949, -20.24139149999997 ], [ -42.61391969999994, -20.241643399999923 ], [ -42.613883199999975, -20.241673699999978 ], [ -42.615231699999988, -20.243173 ], [ -42.61571129999993, -20.243752 ], [ -42.615838099999962, -20.243960799999961 ], [ -42.616244499999944, -20.24596309999998 ], [ -42.616087899999968, -20.246447899999968 ], [ -42.616110299999946, -20.246735 ], [ -42.616222099999959, -20.24694009999995 ], [ -42.616401099999969, -20.247227199999937 ], [ -42.616591299999982, -20.247428499999952 ] ] ], [ [ [ -42.659811199999979, -20.229834399999962 ], [ -42.659959499999957, -20.229632699999971 ], [ -42.660123099999964, -20.229467699999933 ], [ -42.660392299999955, -20.229014899999989 ], [ -42.660564699999959, -20.228655299999961 ], [ -42.66019979999993, -20.228490499999953 ], [ -42.660294399999948, -20.228502499999941 ], [ -42.660896199999968, -20.227977799999952 ], [ -42.661373199999957, -20.227848399999974 ], [ -42.661569199999974, -20.227731299999959 ], [ -42.6620554, -20.227328599999964 ], [ -42.662454, -20.227203 ], [ -42.662795499999952, -20.227033899999963 ], [ -42.662966899999958, -20.226984499999958 ], [ -42.66368639999996, -20.226172599999927 ], [ -42.663932799999948, -20.225941599999935 ], [ -42.663842299999949, -20.225658099999972 ], [ -42.663547899999976, -20.225391099999953 ], [ -42.663583, -20.225146799999958 ], [ -42.664134399999966, -20.225097899999977 ], [ -42.664258299999965, -20.224833699999987 ], [ -42.664385799999941, -20.224838099999943 ], [ -42.6646358, -20.224826 ], [ -42.665127799999937, -20.224626799999946 ], [ -42.665394899999967, -20.224727199999965 ], [ -42.665485299999943, -20.224611299999935 ], [ -42.665561, -20.2244664 ], [ -42.665574699999979, -20.224294099999941 ], [ -42.665478, -20.22410769999993 ], [ -42.665190499999945, -20.223927899999982 ], [ -42.664756199999943, -20.223854 ], [ -42.664296599999943, -20.22371529999997 ], [ -42.663926899999979, -20.223507199999961 ], [ -42.663479899999977, -20.223244099999921 ], [ -42.663167, -20.223028199999931 ], [ -42.662807199999968, -20.222856699999966 ], [ -42.662503199999946, -20.222771499999961 ], [ -42.662209899999944, -20.222819299999951 ], [ -42.661912499999971, -20.222843699999942 ], [ -42.66161459999995, -20.222886099999975 ], [ -42.661485299999981, -20.222883699999947 ], [ -42.660453299999979, -20.222481399999925 ], [ -42.660467, -20.222176499999932 ], [ -42.660484699999984, -20.221786799999961 ], [ -42.660496199999955, -20.221666 ], [ -42.660481499999953, -20.221493699999943 ], [ -42.660377299999929, -20.221111099999973 ], [ -42.6608629, -20.220933099999957 ], [ -42.66123539999996, -20.219738599999978 ], [ -42.660473599999939, -20.219518299999951 ], [ -42.66007, -20.220815399999932 ], [ -42.659389, -20.220992299999963 ], [ -42.6587191, -20.220903 ], [ -42.658190599999962, -20.220919 ], [ -42.657548499999962, -20.221145799999924 ], [ -42.657243499999936, -20.22124459999997 ], [ -42.656767299999949, -20.221284599999933 ], [ -42.656368299999947, -20.221321699999969 ], [ -42.655648, -20.221385399999981 ], [ -42.655474499999961, -20.221427499999955 ], [ -42.655131599999955, -20.22157529999993 ], [ -42.654892, -20.221692799999975 ], [ -42.654557099999977, -20.221917099999924 ], [ -42.654344, -20.222095 ], [ -42.654180399999973, -20.22222029999995 ], [ -42.653992699999947, -20.222477199999958 ], [ -42.653443599999946, -20.222407599999933 ], [ -42.653427, -20.222085099999966 ], [ -42.6529063, -20.222154299999936 ], [ -42.652692, -20.222336 ], [ -42.652682799999987, -20.222583499999914 ], [ -42.652530599999977, -20.222589199999945 ], [ -42.652343199999954, -20.222558 ], [ -42.652337799999948, -20.222435799999975 ], [ -42.652097699999963, -20.222442299999951 ], [ -42.652087, -20.222570199999943 ], [ -42.651787499999948, -20.22258219999998 ], [ -42.651456, -20.222595399999925 ], [ -42.651515, -20.222487 ], [ -42.651249899999982, -20.222001899999949 ], [ -42.651032899999969, -20.221782599999919 ], [ -42.650723299999981, -20.221678499999928 ], [ -42.650371699999944, -20.221535799999955 ], [ -42.650121599999977, -20.221282599999924 ], [ -42.65000189999995, -20.221084799999961 ], [ -42.649954499999978, -20.221028499999928 ], [ -42.649913699999956, -20.220990699999952 ], [ -42.649893799999965, -20.220974 ], [ -42.649836699999987, -20.220889899999968 ], [ -42.650002299999983, -20.220764899999942 ], [ -42.650151899999962, -20.220613 ], [ -42.650243699999969, -20.220480899999917 ], [ -42.650325599999967, -20.220340699999955 ], [ -42.650514599999951, -20.219956599999936 ], [ -42.650815099999939, -20.219370399999935 ], [ -42.650950199999961, -20.21905339999995 ], [ -42.651113499999951, -20.219112599999953 ], [ -42.651390699999979, -20.219048599999947 ], [ -42.651469299999981, -20.218908099999965 ], [ -42.651506699999977, -20.218643599999954 ], [ -42.651568799999957, -20.218486299999924 ], [ -42.651613499999939, -20.218347399999956 ], [ -42.651648099999932, -20.218222899999951 ], [ -42.651738499999965, -20.218080499999939 ], [ -42.651886599999955, -20.217932499999968 ], [ -42.652052, -20.217789199999967 ], [ -42.652426299999945, -20.217585699999976 ], [ -42.653329599999957, -20.217527099999913 ], [ -42.653774099999964, -20.217373399999929 ], [ -42.654115699999977, -20.216936699999962 ], [ -42.655060799999937, -20.216202599999978 ], [ -42.656090199999937, -20.215149499999935 ], [ -42.656589599999968, -20.2150928 ], [ -42.657009899999942, -20.214779599999936 ], [ -42.65748949999994, -20.214379599999972 ], [ -42.657702899999947, -20.214133899999975 ], [ -42.658184599999977, -20.213818799999959 ], [ -42.658629899999937, -20.213497899999936 ], [ -42.659716499999938, -20.212609699999973 ], [ -42.660672, -20.211812599999966 ], [ -42.661032199999966, -20.211516899999939 ], [ -42.66115439999993, -20.211264399999951 ], [ -42.660880899999938, -20.211192399999952 ], [ -42.660618899999974, -20.211171699999962 ], [ -42.660367099999974, -20.211141099999971 ], [ -42.660522799999967, -20.211010499999915 ], [ -42.660572299999956, -20.210911599999978 ], [ -42.66067709999993, -20.210695399999967 ], [ -42.661251, -20.210109 ], [ -42.660999, -20.209986699999941 ], [ -42.660734599999955, -20.209919099999972 ], [ -42.660737099999956, -20.209290799999955 ], [ -42.660843299999961, -20.208820499999938 ], [ -42.660764899999947, -20.208580199999972 ], [ -42.65877549999994, -20.209931099999952 ], [ -42.657916099999973, -20.210718899999943 ], [ -42.657262, -20.211559199999957 ], [ -42.656827, -20.211973499999932 ], [ -42.655934699999932, -20.212552299999974 ], [ -42.655352899999976, -20.213202199999944 ], [ -42.654864699999962, -20.214040099999966 ], [ -42.654063199999939, -20.214858299999943 ], [ -42.652189, -20.216069499999939 ], [ -42.651725099999972, -20.216236 ], [ -42.651613299999951, -20.216238599999929 ], [ -42.651274199999932, -20.215964599999946 ], [ -42.651114599999971, -20.215830599999947 ], [ -42.651062799999977, -20.215691099999965 ], [ -42.650998699999946, -20.215537 ], [ -42.650884299999973, -20.215466 ], [ -42.650578299999957, -20.21541859999996 ], [ -42.650346799999966, -20.215326699999931 ], [ -42.650115199999966, -20.215218399999966 ], [ -42.649969, -20.215238399999979 ], [ -42.649714599999982, -20.215653599999932 ], [ -42.649425299999969, -20.216119399999975 ], [ -42.648837, -20.216335299999955 ], [ -42.648465899999962, -20.216573099999948 ], [ -42.648305099999966, -20.216848899999938 ], [ -42.647696, -20.2173 ], [ -42.646852899999935, -20.217989499999931 ], [ -42.646083, -20.218668099999931 ], [ -42.64526989999996, -20.219103399999931 ], [ -42.64494, -20.219218799999958 ], [ -42.644169799999936, -20.219726199999968 ], [ -42.643307599999964, -20.218986199999957 ], [ -42.6416081, -20.21850449999992 ], [ -42.639886, -20.218540799999971 ], [ -42.638232399999936, -20.221140399999964 ], [ -42.639171199999964, -20.222093899999944 ], [ -42.640276399999955, -20.223722 ], [ -42.641524099999977, -20.225204899999934 ], [ -42.641541799999978, -20.225222499999965 ], [ -42.641474699999947, -20.225426299999988 ], [ -42.641346699999986, -20.225811399999934 ], [ -42.641285899999957, -20.226007799999927 ], [ -42.641195899999964, -20.226274 ], [ -42.641125, -20.22648339999995 ], [ -42.641005299999968, -20.226826399999943 ], [ -42.640974699999958, -20.226902399999961 ], [ -42.6409111, -20.227050599999913 ], [ -42.640837099999942, -20.22720709999993 ], [ -42.640763899999961, -20.227341699999965 ], [ -42.640677899999964, -20.227489 ], [ -42.640556299999957, -20.227680699999944 ], [ -42.640392799999965, -20.2279076 ], [ -42.64019, -20.228121899999969 ], [ -42.640145199999949, -20.228162599999962 ], [ -42.639730799999946, -20.228560199999947 ], [ -42.639318199999934, -20.228838699999987 ], [ -42.639148699999964, -20.228938099999944 ], [ -42.639015499999971, -20.229003499999969 ], [ -42.638562299999933, -20.229218599999967 ], [ -42.638018399999972, -20.229457299999975 ], [ -42.637718499999956, -20.229587499999965 ], [ -42.63744819999993, -20.22971629999995 ], [ -42.637508499999967, -20.229785 ], [ -42.637987199999948, -20.230253499999943 ], [ -42.638688599999973, -20.230477499999957 ], [ -42.638830599999949, -20.230951799999957 ], [ -42.639291899999932, -20.231279199999957 ], [ -42.639470699999954, -20.23158159999997 ], [ -42.639489, -20.231843699999953 ], [ -42.6395869, -20.232349599999971 ], [ -42.642453299999943, -20.232065099999936 ], [ -42.643290899999954, -20.230977799999955 ], [ -42.644086799999968, -20.230003599999975 ], [ -42.64456249999995, -20.229366899999942 ], [ -42.645080499999942, -20.228851399999943 ], [ -42.645166899999943, -20.228601099999931 ], [ -42.645182299999931, -20.228404 ], [ -42.645193199999937, -20.228265099999927 ], [ -42.645332499999938, -20.228012799999924 ], [ -42.645396899999987, -20.227924199999954 ], [ -42.645440299999969, -20.22784739999998 ], [ -42.645485399999984, -20.227762799999919 ], [ -42.645543099999941, -20.227663 ], [ -42.645640499999956, -20.227589799999969 ], [ -42.645799099999969, -20.227551599999966 ], [ -42.646156299999973, -20.22756669999994 ], [ -42.646283699999962, -20.227735799999948 ], [ -42.647994799999935, -20.228527099999948 ], [ -42.648215299999954, -20.22860629999996 ], [ -42.648366, -20.228673699999938 ], [ -42.648242499999988, -20.228796 ], [ -42.648097099999973, -20.228913899999959 ], [ -42.647934199999952, -20.229006799999972 ], [ -42.647818599999937, -20.229068799999929 ], [ -42.647593399999948, -20.229199699999974 ], [ -42.647515899999966, -20.229275399999949 ], [ -42.647185099999945, -20.229549399999929 ], [ -42.646994099999972, -20.229686499999946 ], [ -42.646762799999969, -20.229848899999986 ], [ -42.646534599999939, -20.230054099999958 ], [ -42.646356899999944, -20.230214899999961 ], [ -42.646174699999968, -20.230329799999939 ], [ -42.646029099999964, -20.230403299999978 ], [ -42.645874499999934, -20.230527399999975 ], [ -42.64572279999993, -20.230708099999962 ], [ -42.645565099999935, -20.230931699999932 ], [ -42.644923299999959, -20.231801699999941 ], [ -42.644866599999951, -20.231925799999946 ], [ -42.644754799999937, -20.232184599999968 ], [ -42.644641499999985, -20.232397499999941 ], [ -42.644543499999948, -20.232555299999945 ], [ -42.644399499999963, -20.232687 ], [ -42.644249399999978, -20.232726799999966 ], [ -42.644065599999976, -20.232817199999939 ], [ -42.643633699999953, -20.233076 ], [ -42.643443699999978, -20.233299699999982 ], [ -42.643217099999958, -20.23356919999997 ], [ -42.643047099999933, -20.233795899999969 ], [ -42.642929099999947, -20.233909199999975 ], [ -42.642844399999944, -20.233977299999939 ], [ -42.642758399999941, -20.234034499999947 ], [ -42.642824499999968, -20.234100399999932 ], [ -42.642996499999988, -20.234216799999949 ], [ -42.643202299999977, -20.234288899999964 ], [ -42.643515399999963, -20.234417899999979 ], [ -42.643624799999948, -20.234217099999952 ], [ -42.643671099999956, -20.234012299999947 ], [ -42.643800799999944, -20.233843899999954 ], [ -42.64393339999998, -20.233646299999972 ], [ -42.644275, -20.233379099999976 ], [ -42.64455049999998, -20.233224499999938 ], [ -42.644745899999975, -20.233154599999967 ], [ -42.645552299999963, -20.232725 ], [ -42.646414599999964, -20.232074799999967 ], [ -42.647257299999978, -20.231190299999977 ], [ -42.64760769999998, -20.230611899999911 ], [ -42.647890899999943, -20.230085299999921 ], [ -42.64812749999993, -20.229674299999932 ], [ -42.649228199999989, -20.230297499999939 ], [ -42.649387299999951, -20.230005699999925 ], [ -42.649406, -20.229933599999981 ], [ -42.649413699999975, -20.229850499999948 ], [ -42.649483699999962, -20.229754599999971 ], [ -42.649563099999959, -20.229698399999972 ], [ -42.649659, -20.229680899999945 ], [ -42.649687599999936, -20.229678 ], [ -42.649733099999942, -20.229655699999959 ], [ -42.649829199999942, -20.229547099999941 ], [ -42.649893099999979, -20.229469399999982 ], [ -42.649929299999933, -20.229377 ], [ -42.649926199999982, -20.229313899999958 ], [ -42.649913899999945, -20.229134499999933 ], [ -42.649901599999971, -20.228901299999947 ], [ -42.649961599999983, -20.228586499999953 ], [ -42.650033199999939, -20.228475699999915 ], [ -42.650245299999938, -20.228222899999938 ], [ -42.650359699999967, -20.228072299999948 ], [ -42.650491099999954, -20.227914 ], [ -42.650548899999926, -20.227912399999973 ], [ -42.651687299999935, -20.227777299999957 ], [ -42.651839799999948, -20.227959599999956 ], [ -42.651907899999976, -20.227961199999989 ], [ -42.652679199999966, -20.22755229999995 ], [ -42.65297639999995, -20.227404799999924 ], [ -42.653038499999987, -20.227541499999962 ], [ -42.653852, -20.227367 ], [ -42.654109899999987, -20.227361699999964 ], [ -42.654689799999979, -20.227406699999953 ], [ -42.65510949999998, -20.227520599999931 ], [ -42.655157, -20.22773379999995 ], [ -42.655213099999969, -20.227954299999947 ], [ -42.655447699999968, -20.228362199999932 ], [ -42.655632299999986, -20.228870499999967 ], [ -42.6557835, -20.229157299999944 ], [ -42.655963599999943, -20.22942 ], [ -42.6561296, -20.229561199999971 ], [ -42.656408699999929, -20.229745199999961 ], [ -42.656870799999979, -20.229991899999966 ], [ -42.6571211, -20.230326399999964 ], [ -42.657315599999947, -20.230752399999972 ], [ -42.657394099999976, -20.230848499999979 ], [ -42.657579199999923, -20.230680699999937 ], [ -42.657804399999975, -20.23047779999996 ], [ -42.658109599999932, -20.230395799999933 ], [ -42.658261099999955, -20.230361399999943 ], [ -42.658407799999971, -20.230378599999923 ], [ -42.658691499999975, -20.23041359999997 ], [ -42.658799399999964, -20.23038419999995 ], [ -42.658986299999981, -20.230380399999941 ], [ -42.659260399999937, -20.230264499999979 ], [ -42.659339399999958, -20.230311399999952 ], [ -42.6594712, -20.230370699999973 ], [ -42.659694599999966, -20.230036 ], [ -42.659811199999979, -20.229834399999962 ] ] ], [ [ [ -42.678256299999937, -20.13648239999997 ], [ -42.678113699999983, -20.136510299999944 ], [ -42.678000799999957, -20.136510299999941 ], [ -42.678149399999931, -20.137096099999955 ], [ -42.678229799999947, -20.137389799999937 ], [ -42.678053299999931, -20.137781 ], [ -42.677900399999949, -20.138248499999978 ], [ -42.67787989999993, -20.138893599999971 ], [ -42.67775659999996, -20.139108699999952 ], [ -42.677775799999949, -20.139390799999944 ], [ -42.677432199999942, -20.140038 ], [ -42.677277899999979, -20.140371299999977 ], [ -42.677173, -20.140925299999925 ], [ -42.677149199999974, -20.141398099999947 ], [ -42.677104899999961, -20.141508399999957 ], [ -42.677121399999983, -20.14193 ], [ -42.67714669999998, -20.142309399999927 ], [ -42.677152799999938, -20.142320799999929 ], [ -42.67716669999993, -20.142449799999952 ], [ -42.677395299999951, -20.142409399999952 ], [ -42.677731, -20.14239629999998 ], [ -42.677749699999936, -20.142467299999957 ], [ -42.677821799999947, -20.142541099999963 ], [ -42.677845899999973, -20.142617599999937 ], [ -42.677859499999961, -20.142713299999965 ], [ -42.678055399999941, -20.142736499999963 ], [ -42.678097199999968, -20.142905199999966 ], [ -42.678153099999975, -20.143006699999937 ], [ -42.67819309999993, -20.143117599999979 ], [ -42.678192299999985, -20.143172099999958 ], [ -42.678309699999943, -20.143263899999965 ], [ -42.678425899999972, -20.143375699999979 ], [ -42.678405499999933, -20.143553399999973 ], [ -42.678411699999963, -20.1436442 ], [ -42.678451099999968, -20.143721599999939 ], [ -42.678674699999931, -20.143735 ], [ -42.678861199999979, -20.143644099999953 ], [ -42.678870899999943, -20.143729399999927 ], [ -42.679111399999954, -20.143537499999976 ], [ -42.679180299999985, -20.143202499999969 ], [ -42.6798697, -20.142989699999923 ], [ -42.680818399999964, -20.143095599999974 ], [ -42.68148919999993, -20.143190299999961 ], [ -42.682243899999939, -20.142562799999961 ], [ -42.682793099999962, -20.14172 ], [ -42.682744199999952, -20.140998899999943 ], [ -42.682632499999961, -20.140339 ], [ -42.681967699999973, -20.139883599999962 ], [ -42.681774399999938, -20.139759299999977 ], [ -42.681622499999953, -20.139469299999966 ], [ -42.681265099999962, -20.139278699999974 ], [ -42.682151, -20.13775459999993 ], [ -42.684083099999953, -20.135631199999985 ], [ -42.682213099999949, -20.134674699999941 ], [ -42.681329799999965, -20.136492099999952 ], [ -42.68127839999994, -20.136720099999931 ], [ -42.681060299999963, -20.136924599999912 ], [ -42.680880499999944, -20.13712159999994 ], [ -42.680488499999967, -20.136901099999928 ], [ -42.678500199999981, -20.135908399999948 ], [ -42.678274199999976, -20.136197899999946 ], [ -42.678268199999934, -20.136320599999966 ], [ -42.678286, -20.136398699999965 ], [ -42.678303899999946, -20.136465599999944 ], [ -42.678256299999937, -20.13648239999997 ] ] ], [ [ [ -42.621798399999932, -20.092384399999954 ], [ -42.622048199999945, -20.092640299999964 ], [ -42.622282499999983, -20.092662399999927 ], [ -42.622432899999971, -20.092676599999951 ], [ -42.622984199999955, -20.092568899999954 ], [ -42.623475099999951, -20.092439199999948 ], [ -42.624506, -20.092166799999976 ], [ -42.624544199999953, -20.092156699999972 ], [ -42.624972299999968, -20.09204359999995 ], [ -42.625268499999947, -20.091893599999928 ], [ -42.625372499999976, -20.091840899999948 ], [ -42.626061499999935, -20.091492099999982 ], [ -42.626253899999945, -20.091421599999919 ], [ -42.62693, -20.091174099999922 ], [ -42.62716469999998, -20.091088099999972 ], [ -42.627378699999959, -20.091039099999925 ], [ -42.627648899999947, -20.090977199999955 ], [ -42.627890199999975, -20.090921899999945 ], [ -42.626759099999951, -20.0895614 ], [ -42.62571819999993, -20.088424199999963 ], [ -42.624716299999932, -20.087138 ], [ -42.624701099999982, -20.087124899999932 ], [ -42.624671899999946, -20.087099799999972 ], [ -42.624652199999964, -20.087082799999958 ], [ -42.621973, -20.084777499999966 ], [ -42.622277799999949, -20.085453699999952 ], [ -42.622582599999923, -20.08613 ], [ -42.622403499999962, -20.086750299999945 ], [ -42.621929099999939, -20.088583799999974 ], [ -42.621707, -20.089505699999957 ], [ -42.621694499999933, -20.089748799999924 ], [ -42.621694199999979, -20.08975409999994 ], [ -42.6216697, -20.09023 ], [ -42.621661, -20.090397799999955 ], [ -42.621677499999976, -20.091512299999966 ], [ -42.621686799999964, -20.09180119999996 ], [ -42.621694799999943, -20.092051099999939 ], [ -42.621798399999932, -20.092384399999954 ] ] ] ] } }
]
}
