{
"type": "FeatureCollection",
"name": "3154150",
"crs": { "type": "name", "properties": { "name": "urn:ogc:def:crs:OGC:1.3:CRS84" } },
"features": [
{ "type": "Feature", "properties": { "CD_MUN": "3154150", "NM_MUN": "Reduto" }, "geometry": { "type": "MultiPolygon", "coordinates": [ [ [ [ -41.985587399999929, -20.251404899999955 ], [ -41.985844299999947, -20.251205199999944 ], [ -41.986458199999966, -20.250020799999948 ], [ -41.986462699999947, -20.249949 ], [ -41.986513799999955, -20.249127899999959 ], [ -41.986453199999971, -20.248400199999942 ], [ -41.986802599999983, -20.247592 ], [ -41.986918799999962, -20.246923299999928 ], [ -41.986978099999931, -20.246497599999945 ], [ -41.987119699999937, -20.245678299999938 ], [ -41.987026699999952, -20.244828399999967 ], [ -41.986835899999967, -20.244194 ], [ -41.986504, -20.243338699999974 ], [ -41.986385699999971, -20.24284 ], [ -41.986376299999961, -20.242800699999965 ], [ -41.986192699999947, -20.242026599999971 ], [ -41.986392699999953, -20.241126399999921 ], [ -41.986504, -20.240092 ], [ -41.986770799999931, -20.238757699999947 ], [ -41.985747899999978, -20.237112099999926 ], [ -41.985187599999961, -20.23642269999992 ], [ -41.981286499999953, -20.236702399999956 ], [ -41.981074799999931, -20.23629 ], [ -41.980844099999956, -20.235843099999951 ], [ -41.980899, -20.234870099999949 ], [ -41.981041599999976, -20.234487399999978 ], [ -41.981016699999941, -20.233908099999944 ], [ -41.980969699999939, -20.233613899999966 ], [ -41.980979699999985, -20.233350799999972 ], [ -41.980943, -20.232797799999954 ], [ -41.980819, -20.232868599999954 ], [ -41.980667799999942, -20.233284499999961 ], [ -41.980585, -20.233683 ], [ -41.980595899999976, -20.234080899999974 ], [ -41.980684499999931, -20.234275699999948 ], [ -41.980652299999981, -20.235064 ], [ -41.980574399999973, -20.235201299999957 ], [ -41.980535299999985, -20.235542 ], [ -41.980560799999985, -20.23582719999996 ], [ -41.9798967, -20.23603209999991 ], [ -41.979466199999941, -20.236252199999971 ], [ -41.979020299999945, -20.236494599999961 ], [ -41.978487, -20.236669499999934 ], [ -41.977915899999971, -20.236648299999949 ], [ -41.977327, -20.236836799999921 ], [ -41.977314299999932, -20.237129699999958 ], [ -41.977395299999955, -20.237799699999975 ], [ -41.97760559999994, -20.238134099999971 ], [ -41.978150599999935, -20.238785199999935 ], [ -41.979809499999931, -20.239606699999968 ], [ -41.979585499999985, -20.240011699999968 ], [ -41.979426599999954, -20.240511799999965 ], [ -41.979248499999976, -20.240914699999966 ], [ -41.979161099999949, -20.241011499999946 ], [ -41.978919499999961, -20.241407899999949 ], [ -41.978079199999975, -20.241784899999967 ], [ -41.977823399999984, -20.242321699999923 ], [ -41.977758, -20.24305169999996 ], [ -41.977708399999983, -20.243396299999972 ], [ -41.978360199999941, -20.243525599999938 ], [ -41.978549599999951, -20.243565199999971 ], [ -41.978790299999964, -20.243652099999963 ], [ -41.979281799999967, -20.243976399999944 ], [ -41.979416499999957, -20.244127599999953 ], [ -41.979804699999931, -20.244574299999957 ], [ -41.98016819999998, -20.244445499999919 ], [ -41.9804956, -20.244304399999969 ], [ -41.980641899999974, -20.245573199999974 ], [ -41.98072389999993, -20.245733499999968 ], [ -41.98081, -20.246030199999947 ], [ -41.980761299999983, -20.246240699999909 ], [ -41.980760099999934, -20.246436399999936 ], [ -41.980631399999943, -20.246809699999972 ], [ -41.980637499999951, -20.247184399999981 ], [ -41.980659799999955, -20.247392 ], [ -41.980665299999941, -20.247442399999954 ], [ -41.980131, -20.247529599999954 ], [ -41.979038599999974, -20.247588099999966 ], [ -41.978266799999972, -20.247417399999954 ], [ -41.978074299999946, -20.247352899999942 ], [ -41.97804, -20.247569699999929 ], [ -41.977992, -20.248554899999935 ], [ -41.97807209999997, -20.248967399999955 ], [ -41.978144199999974, -20.24954 ], [ -41.9782082, -20.249856399999935 ], [ -41.978092099999969, -20.250329 ], [ -41.977992, -20.250571299999923 ], [ -41.977571499999961, -20.250899699999938 ], [ -41.97749939999995, -20.251007799999947 ], [ -41.979657899999957, -20.253594799999973 ], [ -41.979938299999958, -20.253370599999965 ], [ -41.980955499999936, -20.252986099999926 ], [ -41.981283899999937, -20.252769899999986 ], [ -41.981524099999945, -20.252489499999957 ], [ -41.981764399999975, -20.251812699999963 ], [ -41.981811899999968, -20.251553199999933 ], [ -41.9818959, -20.251838399999933 ], [ -41.982010699999933, -20.252073299999935 ], [ -41.984433599999932, -20.253174499999947 ], [ -41.985005499999943, -20.252297099999968 ], [ -41.985388899999975, -20.251559299999947 ], [ -41.985587399999929, -20.251404899999955 ] ] ], [ [ [ -41.896785599999937, -20.20369769999995 ], [ -41.896834399999932, -20.203780699999967 ], [ -41.896839899999975, -20.203994799999965 ], [ -41.896639899999968, -20.204239199999964 ], [ -41.896555099999944, -20.204490499999956 ], [ -41.896430499999951, -20.204811 ], [ -41.896350199999972, -20.205077099999976 ], [ -41.896408799999968, -20.205179199999979 ], [ -41.896359799999971, -20.205340299999921 ], [ -41.897202, -20.205448299999933 ], [ -41.898574899999979, -20.205580599999958 ], [ -41.901423199999954, -20.205645599999972 ], [ -41.904189, -20.20560619999997 ], [ -41.904201099999973, -20.205606 ], [ -41.904276499999987, -20.205605 ], [ -41.904279899999956, -20.205604899999965 ], [ -41.905193899999979, -20.20558909999993 ], [ -41.90515929999998, -20.205207599999945 ], [ -41.904964799999966, -20.204987599999967 ], [ -41.904980599999938, -20.204908799999938 ], [ -41.904950399999962, -20.204851899999927 ], [ -41.904949599999952, -20.204578399999946 ], [ -41.904858399999966, -20.204281099999946 ], [ -41.904840199999967, -20.204104 ], [ -41.904726899999957, -20.203942599999937 ], [ -41.904525099999944, -20.203509399999962 ], [ -41.904524899999963, -20.203293199999962 ], [ -41.904381, -20.203127299999945 ], [ -41.904427, -20.200417399999925 ], [ -41.904078899999952, -20.200506699999945 ], [ -41.90389, -20.200790699999967 ], [ -41.903747, -20.200941599999965 ], [ -41.90322169999996, -20.20114789999996 ], [ -41.902769399999961, -20.201176899999929 ], [ -41.902346899999948, -20.200954599999918 ], [ -41.902125, -20.200990699999963 ], [ -41.901619299999936, -20.201357099999942 ], [ -41.901387599999964, -20.201548299999946 ], [ -41.901371, -20.201582199999965 ], [ -41.901237199999969, -20.20179579999996 ], [ -41.901069499999949, -20.20194059999994 ], [ -41.900848799999949, -20.201850299999936 ], [ -41.900413499999956, -20.201622299999929 ], [ -41.899841299999942, -20.201952299999942 ], [ -41.899830099999974, -20.201356199999957 ], [ -41.899780199999952, -20.201169399999959 ], [ -41.899503799999941, -20.20096669999997 ], [ -41.899164, -20.200714499999947 ], [ -41.89870429999997, -20.2006 ], [ -41.89842, -20.200762799999939 ], [ -41.898234799999955, -20.200915299999959 ], [ -41.898016899999966, -20.200940199999916 ], [ -41.897749, -20.200905099999943 ], [ -41.897490699999935, -20.200972099999934 ], [ -41.896530699999978, -20.201322899999976 ], [ -41.896100199999971, -20.201603499999969 ], [ -41.896109699999954, -20.202139299999935 ], [ -41.896208599999966, -20.202512399999932 ], [ -41.896321499999942, -20.202714799999974 ], [ -41.896406399999933, -20.202863199999971 ], [ -41.896527799999944, -20.203182799999968 ], [ -41.896564599999977, -20.203416699999927 ], [ -41.896588799999968, -20.203499 ], [ -41.896681299999955, -20.20356959999997 ], [ -41.896785599999937, -20.20369769999995 ] ] ] ] } }
]
}
