{
"type": "FeatureCollection",
"name": "3161106",
"crs": { "type": "name", "properties": { "name": "urn:ogc:def:crs:OGC:1.3:CRS84" } },
"features": [
{ "type": "Feature", "properties": { "CD_MUN": "3161106", "NM_MUN": "São Francisco" }, "geometry": { "type": "MultiPolygon", "coordinates": [ [ [ [ -44.850635599999976, -16.097594899999933 ], [ -44.850774299999962, -16.097595199999947 ], [ -44.8545142, -16.097826299999955 ], [ -44.854602399999976, -16.097711499999953 ], [ -44.854694799999955, -16.097603799999955 ], [ -44.853703799999955, -16.096526599999947 ], [ -44.85304129999998, -16.094640799999969 ], [ -44.853431, -16.094494399999967 ], [ -44.852806199999975, -16.09320929999997 ], [ -44.85291969999998, -16.093039499999978 ], [ -44.852523699999949, -16.092467699999933 ], [ -44.852362599999928, -16.092268199999982 ], [ -44.85065039999995, -16.092721099999945 ], [ -44.85025619999994, -16.092686699999938 ], [ -44.849585199999979, -16.092538899999965 ], [ -44.8491964, -16.092774299999967 ], [ -44.848846199999969, -16.092964599999963 ], [ -44.848598899999956, -16.093025499999946 ], [ -44.848458099999966, -16.093017899999957 ], [ -44.848595099999962, -16.093284299999937 ], [ -44.848610299999962, -16.09349739999994 ], [ -44.848727799999949, -16.093702699999955 ], [ -44.845036499999928, -16.094903699999975 ], [ -44.845750599999974, -16.097501799999971 ], [ -44.845837099999983, -16.097817199999945 ], [ -44.84753019999993, -16.097118299999977 ], [ -44.848370899999971, -16.096892499999974 ], [ -44.848672, -16.096861099999945 ], [ -44.848973199999939, -16.096829699999958 ], [ -44.849826099999973, -16.096842599999938 ], [ -44.850494, -16.097058 ], [ -44.850635599999976, -16.097594899999933 ] ] ], [ [ [ -44.678370799999982, -16.044960399999979 ], [ -44.677754799999946, -16.045885299999959 ], [ -44.679666799999957, -16.04658889999995 ], [ -44.679818599999976, -16.04633229999996 ], [ -44.679824499999938, -16.046330399999931 ], [ -44.679971499999965, -16.046019099999974 ], [ -44.680143099999952, -16.046009 ], [ -44.680365299999949, -16.045891199999968 ], [ -44.68148629999996, -16.045514199999964 ], [ -44.681582399999968, -16.045550599999945 ], [ -44.681705699999959, -16.04548879999993 ], [ -44.681880399999955, -16.045662099999966 ], [ -44.682418199999972, -16.045918399999941 ], [ -44.682756099999949, -16.046256499999977 ], [ -44.682965299999978, -16.046142899999943 ], [ -44.682885499999941, -16.045978299999941 ], [ -44.683442099999979, -16.045181799999959 ], [ -44.683603599999969, -16.045033699999983 ], [ -44.683738299999959, -16.044865299999973 ], [ -44.684162399999934, -16.044575799999958 ], [ -44.684472099999937, -16.044333499999954 ], [ -44.684579799999938, -16.04393629999992 ], [ -44.6846202, -16.043552499999961 ], [ -44.684639599999976, -16.043478499999949 ], [ -44.684654599999931, -16.043417499999961 ], [ -44.684950099999988, -16.043562599999969 ], [ -44.685488699999951, -16.043791499999948 ], [ -44.685973499999939, -16.044013699999937 ], [ -44.686034099999965, -16.043906 ], [ -44.686256199999946, -16.043582799999964 ], [ -44.686300799999962, -16.043505699999962 ], [ -44.686322099999984, -16.043486899999959 ], [ -44.686377399999969, -16.043374099999937 ], [ -44.68648509999997, -16.043226 ], [ -44.686606299999937, -16.042990299999936 ], [ -44.686808299999939, -16.042606599999946 ], [ -44.686810499999979, -16.04245879999997 ], [ -44.686827, -16.042307599999955 ], [ -44.686815, -16.042207699999942 ], [ -44.686761199999978, -16.041972099999956 ], [ -44.686707299999966, -16.041696 ], [ -44.686599599999965, -16.041440199999958 ], [ -44.686565899999955, -16.04117759999998 ], [ -44.686613099999931, -16.041002599999953 ], [ -44.686794799999973, -16.040733299999935 ], [ -44.68706409999993, -16.04045049999997 ], [ -44.687125099999946, -16.040426099999927 ], [ -44.687224599999986, -16.040321199999926 ], [ -44.687128099999931, -16.040094499999942 ], [ -44.687111299999962, -16.039928699999958 ], [ -44.687141599999961, -16.039753399999945 ], [ -44.687259399999959, -16.039524799999988 ], [ -44.687333299999977, -16.039497099999949 ], [ -44.687333599999938, -16.03949539999995 ], [ -44.687326699999979, -16.039242 ], [ -44.687219, -16.039040099999962 ], [ -44.687003499999946, -16.038622599999954 ], [ -44.686943, -16.038528399999961 ], [ -44.686928099999932, -16.038517399999925 ], [ -44.686758899999973, -16.038109399999936 ], [ -44.686660199999949, -16.038060499999968 ], [ -44.686552499999948, -16.038026799999948 ], [ -44.686491899999972, -16.037966199999968 ], [ -44.686438, -16.037885399999944 ], [ -44.686404399999951, -16.037811399999956 ], [ -44.686411099999937, -16.037730599999975 ], [ -44.686478399999949, -16.037636299999978 ], [ -44.68658609999995, -16.037616099999976 ], [ -44.686734199999933, -16.037643099999965 ], [ -44.686949699999957, -16.037797899999926 ], [ -44.687068099999983, -16.037873699999988 ], [ -44.68718529999996, -16.037890499999957 ], [ -44.687266099999931, -16.037789499999977 ], [ -44.687353599999945, -16.037594199999933 ], [ -44.687272799999967, -16.037513499999935 ], [ -44.687138199999936, -16.037425899999967 ], [ -44.687086599999922, -16.037429 ], [ -44.687072899999976, -16.037308899999964 ], [ -44.686936199999941, -16.037138099999925 ], [ -44.68696319999998, -16.037123 ], [ -44.687003499999939, -16.037048899999956 ], [ -44.687003499999939, -16.036921 ], [ -44.686895799999945, -16.036860399999959 ], [ -44.686700599999945, -16.036843799999922 ], [ -44.686653499999977, -16.03684689999994 ], [ -44.68648509999997, -16.03677289999996 ], [ -44.686357199999975, -16.036597799999981 ], [ -44.686296599999942, -16.036375699999954 ], [ -44.686222599999951, -16.036247699999933 ], [ -44.686222599999958, -16.035991899999939 ], [ -44.686269699999976, -16.035736099999944 ], [ -44.68632359999998, -16.035527399999982 ], [ -44.686229299999972, -16.035325399999973 ], [ -44.686195599999962, -16.035150299999941 ], [ -44.686343799999982, -16.034934899999936 ], [ -44.686403, -16.034507099999914 ], [ -44.684981899999968, -16.033496699999947 ], [ -44.683622899999932, -16.034918499999936 ], [ -44.681432, -16.035739699999962 ], [ -44.678864499999975, -16.037160399999955 ], [ -44.676997299999982, -16.038033199999976 ], [ -44.676753699999949, -16.038814599999967 ], [ -44.675862899999977, -16.039745899999961 ], [ -44.675515099999984, -16.040368199999939 ], [ -44.675522, -16.040772499999946 ], [ -44.675516199999954, -16.040773699999924 ], [ -44.675391699999984, -16.041036199999947 ], [ -44.675273899999972, -16.041446899999976 ], [ -44.675152699999956, -16.041835699999979 ], [ -44.675108899999941, -16.042047799999981 ], [ -44.67514929999993, -16.042411299999962 ], [ -44.675078599999956, -16.042850599999944 ], [ -44.675082, -16.043052599999942 ], [ -44.675044899999932, -16.043187299999936 ], [ -44.674974299999967, -16.04335889999993 ], [ -44.674974299999974, -16.043476799999958 ], [ -44.674930499999959, -16.043567699999912 ], [ -44.677004099999976, -16.044410899999953 ], [ -44.678370799999982, -16.044960399999979 ] ] ], [ [ [ -45.013777199999943, -16.05136019999998 ], [ -45.013603499999938, -16.051143299999982 ], [ -45.011503399999988, -16.048526899999946 ], [ -45.011149899999957, -16.048731799999931 ], [ -45.009145699999976, -16.049906299999979 ], [ -45.00907419999993, -16.049947799999924 ], [ -45.008558099999966, -16.050112499999948 ], [ -45.007778299999984, -16.050249499999936 ], [ -45.007681899999973, -16.049965299999943 ], [ -45.006332199999974, -16.050538699999933 ], [ -45.005241299999973, -16.050949699999919 ], [ -45.006164799999965, -16.052629199999949 ], [ -45.006859899999938, -16.052497299999974 ], [ -45.007844299999931, -16.05450159999998 ], [ -45.007879799999955, -16.054526899999924 ], [ -45.008123399999938, -16.05447109999994 ], [ -45.008351699999935, -16.055201799999956 ], [ -45.008372, -16.05543519999997 ], [ -45.008874299999945, -16.056033899999914 ], [ -45.009123, -16.055841099999942 ], [ -45.00944769999996, -16.056272399999941 ], [ -45.009598099999948, -16.05613 ], [ -45.009992099999977, -16.056606099999946 ], [ -45.013354399999969, -16.053100299999915 ], [ -45.014139699999923, -16.052511099999958 ], [ -45.014098899999972, -16.052455399999911 ], [ -45.013708399999985, -16.051922399999977 ], [ -45.013670499999932, -16.051870699999927 ], [ -45.013518499999975, -16.05165529999994 ], [ -45.01353069999994, -16.051646 ], [ -45.013827199999987, -16.051420099999966 ], [ -45.013777199999943, -16.05136019999998 ] ] ], [ [ [ -44.540068299999973, -15.951948499999947 ], [ -44.541962499999954, -15.950463699999952 ], [ -44.542301699999939, -15.950865599999918 ], [ -44.542411399999935, -15.950825 ], [ -44.542816399999936, -15.950432099999942 ], [ -44.542569899999933, -15.950145 ], [ -44.542339599999927, -15.950307499999944 ], [ -44.541773399999954, -15.949554399999945 ], [ -44.542252899999944, -15.949020599999914 ], [ -44.542453399999943, -15.948741599999956 ], [ -44.542293399999949, -15.948576299999955 ], [ -44.542263799999944, -15.948539599999936 ], [ -44.542428699999952, -15.94837449999995 ], [ -44.542124899999976, -15.947977199999961 ], [ -44.542155399999963, -15.947676499999941 ], [ -44.541998899999953, -15.947489599999932 ], [ -44.541633199999978, -15.947758199999956 ], [ -44.54111329999995, -15.947114 ], [ -44.540242299999939, -15.947741899999931 ], [ -44.540096299999959, -15.947552199999963 ], [ -44.539023499999985, -15.948186199999958 ], [ -44.537855799999939, -15.948891499999943 ], [ -44.536793799999948, -15.948880699999968 ], [ -44.536551799999984, -15.949122699999968 ], [ -44.537165899999941, -15.949769299999952 ], [ -44.537248899999952, -15.949982399999964 ], [ -44.536512, -15.950589299999931 ], [ -44.537035799999956, -15.951019099999939 ], [ -44.536699899999974, -15.951481499999952 ], [ -44.536805299999969, -15.951642899999969 ], [ -44.537349599999978, -15.952396199999956 ], [ -44.536899499999947, -15.952802199999956 ], [ -44.537678799999988, -15.953950599999928 ], [ -44.537598099999968, -15.954338 ], [ -44.537342899999942, -15.954487299999965 ], [ -44.53731879999998, -15.954988199999947 ], [ -44.53837359999995, -15.954824399999945 ], [ -44.538527699999975, -15.955219399999983 ], [ -44.539572899999932, -15.955050799999983 ], [ -44.539630699999975, -15.954704 ], [ -44.539799199999948, -15.954708799999931 ], [ -44.539539099999956, -15.95396709999995 ], [ -44.539621, -15.953528799999955 ], [ -44.539451199999974, -15.953261899999978 ], [ -44.541062799999963, -15.952322099999943 ], [ -44.540068299999973, -15.951948499999947 ] ] ], [ [ [ -44.857530399999973, -15.983760899999936 ], [ -44.863669399999935, -15.984033699999937 ], [ -44.867079899999965, -15.983488 ], [ -44.874338399999935, -15.980916199999958 ], [ -44.876449799999925, -15.979733499999947 ], [ -44.876594099999977, -15.979633699999976 ], [ -44.879611, -15.977275499999948 ], [ -44.883495299999929, -15.973564199999933 ], [ -44.880514799999965, -15.970549199999937 ], [ -44.879844899999966, -15.96984259999995 ], [ -44.879370499999936, -15.969384599999964 ], [ -44.879135899999937, -15.969146299999984 ], [ -44.878924699999978, -15.968931899999964 ], [ -44.876708, -15.966888 ], [ -44.874340299999979, -15.964425399999969 ], [ -44.873268399999972, -15.963310499999986 ], [ -44.872067599999987, -15.961974599999964 ], [ -44.871959799999964, -15.961920099999928 ], [ -44.871631199999968, -15.961510499999987 ], [ -44.871439099999975, -15.961220799999966 ], [ -44.871050699999962, -15.960645599999967 ], [ -44.870832599999979, -15.960303599999976 ], [ -44.870653399999973, -15.960062299999949 ], [ -44.8701612, -15.95930409999993 ], [ -44.870943399999931, -15.958869699999974 ], [ -44.871041899999973, -15.958821799999955 ], [ -44.871428699999967, -15.958576799999946 ], [ -44.871554499999945, -15.958413699999941 ], [ -44.871722199999965, -15.958096899999916 ], [ -44.871774799999969, -15.957766099999958 ], [ -44.87176409999995, -15.957570399999943 ], [ -44.87173619999993, -15.957425299999954 ], [ -44.871589699999952, -15.95711909999995 ], [ -44.871457899999946, -15.956870099999959 ], [ -44.871099799999975, -15.956189799999946 ], [ -44.870937399999946, -15.955865 ], [ -44.871284899999978, -15.955675899999942 ], [ -44.871856599999944, -15.955328899999916 ], [ -44.872104699999966, -15.955054099999945 ], [ -44.87496109999995, -15.953551899999983 ], [ -44.874366499999951, -15.952946599999963 ], [ -44.874307, -15.952886 ], [ -44.873782, -15.952287 ], [ -44.873115, -15.95155 ], [ -44.872614, -15.950952 ], [ -44.872066, -15.950307 ], [ -44.872063199999957, -15.950303699999949 ], [ -44.870754, -15.948787 ], [ -44.870484, -15.948480499999953 ], [ -44.87040479999996, -15.9483906 ], [ -44.870206, -15.948165 ], [ -44.869896, -15.947797 ], [ -44.869302699999935, -15.947109199999941 ], [ -44.8693, -15.947106 ], [ -44.868847, -15.946622 ], [ -44.867727, -15.945586 ], [ -44.867369, -15.945287 ], [ -44.867012, -15.944964 ], [ -44.866416, -15.944435 ], [ -44.866034, -15.944113 ], [ -44.865343, -15.943491 ], [ -44.865009, -15.943122 ], [ -44.864721799999984, -15.942809899999943 ], [ -44.864365699999951, -15.942309499999972 ], [ -44.864223, -15.942109 ], [ -44.863913, -15.941718 ], [ -44.86369719999994, -15.941405399999947 ], [ -44.863433699999973, -15.940981699999952 ], [ -44.863149599999986, -15.940528099999936 ], [ -44.862818899999986, -15.93997359999997 ], [ -44.862407499999961, -15.939306399999955 ], [ -44.86206679999998, -15.93875689999992 ], [ -44.861718299999957, -15.938206399999951 ], [ -44.861390899999947, -15.937711299999945 ], [ -44.860917899999954, -15.937058699999968 ], [ -44.86056, -15.936567899999938 ], [ -44.860206499999947, -15.936024199999956 ], [ -44.859867099999981, -15.935470299999967 ], [ -44.859446299999952, -15.934757499999924 ], [ -44.858956499999977, -15.933960199999955 ], [ -44.858500699999979, -15.933268299999959 ], [ -44.8581789, -15.932742799999952 ], [ -44.857517899999948, -15.931897299999939 ], [ -44.857213899999984, -15.931552099999973 ], [ -44.856856199999982, -15.931210299999981 ], [ -44.854963, -15.932092299999972 ], [ -44.853961399999946, -15.932749299999951 ], [ -44.853203299999961, -15.933129499999939 ], [ -44.852610499999962, -15.933429799999942 ], [ -44.851468899999936, -15.934008199999935 ], [ -44.850055599999969, -15.93472429999996 ], [ -44.850046499999962, -15.934811899999945 ], [ -44.84775819999993, -15.936041899999969 ], [ -44.846613899999966, -15.934580899999952 ], [ -44.845800699999984, -15.933788599999948 ], [ -44.843432, -15.931530299999967 ], [ -44.840714399999975, -15.928939299999977 ], [ -44.838229699999935, -15.926585299999937 ], [ -44.835633099999939, -15.924112499999975 ], [ -44.833626199999969, -15.923044199999941 ], [ -44.8313146, -15.921562299999954 ], [ -44.826470599999936, -15.926505399999943 ], [ -44.826368199999933, -15.926626899999974 ], [ -44.822933299999939, -15.932237099999941 ], [ -44.822775799999924, -15.933379599999968 ], [ -44.82208239999995, -15.938412199999954 ], [ -44.821848899999964, -15.940106599999977 ], [ -44.823975799999971, -15.946053499999961 ], [ -44.825668399999984, -15.949187099999955 ], [ -44.826079799999938, -15.950883199999973 ], [ -44.825598799999973, -15.951045399999932 ], [ -44.825588299999936, -15.951160899999927 ], [ -44.824612299999956, -15.951370799999946 ], [ -44.825042599999961, -15.954204499999943 ], [ -44.825567399999954, -15.95799329999994 ], [ -44.825993099999955, -15.961869899999941 ], [ -44.828480099999979, -15.961318899999982 ], [ -44.828820899999975, -15.961784899999939 ], [ -44.831791599999981, -15.968736699999971 ], [ -44.833067199999959, -15.969418099999935 ], [ -44.835115399999957, -15.97051229999993 ], [ -44.836400099999935, -15.973082599999939 ], [ -44.837286899999981, -15.972672099999954 ], [ -44.839929299999937, -15.977741099999951 ], [ -44.844276299999933, -15.975906899999933 ], [ -44.848959599999951, -15.978286599999926 ], [ -44.848977699999978, -15.978298 ], [ -44.848986599999932, -15.978304 ], [ -44.848998499999936, -15.978312 ], [ -44.853028399999964, -15.981032399999949 ], [ -44.857530399999973, -15.983760899999936 ] ] ], [ [ [ -44.692064, -15.822380599999985 ], [ -44.691773499999954, -15.822760599999977 ], [ -44.691672899999958, -15.822961699999949 ], [ -44.691315299999985, -15.823520399999959 ], [ -44.692444, -15.823922699999963 ], [ -44.693483199999946, -15.824213299999936 ], [ -44.695327, -15.824783199999972 ], [ -44.695863399999951, -15.824906099999971 ], [ -44.696366199999943, -15.825062499999937 ], [ -44.697237799999982, -15.82533069999994 ], [ -44.697427799999964, -15.824570799999941 ], [ -44.69772949999998, -15.823531599999962 ], [ -44.697830099999976, -15.823084599999977 ], [ -44.697855199999935, -15.822905799999948 ], [ -44.697897799999964, -15.822734 ], [ -44.697701599999959, -15.822602699999942 ], [ -44.696768499999955, -15.821972799999964 ], [ -44.697194499999966, -15.821361699999965 ], [ -44.696941699999968, -15.821162599999989 ], [ -44.697022699999934, -15.820756099999935 ], [ -44.697194499999959, -15.820017199999951 ], [ -44.694861799999948, -15.818490599999967 ], [ -44.694595099999958, -15.818257299999971 ], [ -44.694315699999947, -15.818078499999952 ], [ -44.694069899999938, -15.817888499999977 ], [ -44.693231799999985, -15.817363299999963 ], [ -44.692298699999981, -15.818975199999953 ], [ -44.692547299999951, -15.81912889999996 ], [ -44.693027799999975, -15.819458499999961 ], [ -44.693759799999953, -15.819972499999951 ], [ -44.693710199999941, -15.820032 ], [ -44.693664499999954, -15.820092099999943 ], [ -44.693525099999938, -15.820324499999964 ], [ -44.693307199999936, -15.820676499999928 ], [ -44.692868599999933, -15.821274399999938 ], [ -44.692432799999949, -15.821866599999957 ], [ -44.692064, -15.822380599999985 ] ] ], [ [ [ -45.0957461, -15.767640599999936 ], [ -45.097212, -15.770510399999974 ], [ -45.09590119999995, -15.771262799999921 ], [ -45.097314599999947, -15.773305 ], [ -45.09452559999994, -15.776109199999933 ], [ -45.095337799999974, -15.778208599999964 ], [ -45.101911799999989, -15.775722299999915 ], [ -45.100731799999949, -15.772412299999937 ], [ -45.098862299999951, -15.773178499999968 ], [ -45.097482199999945, -15.770332099999967 ], [ -45.098767599999974, -15.769748699999987 ], [ -45.09720429999993, -15.766865 ], [ -45.0957461, -15.767640599999936 ] ] ] ] } }
]
}
