{
"type": "FeatureCollection",
"name": "3164001",
"crs": { "type": "name", "properties": { "name": "urn:ogc:def:crs:OGC:1.3:CRS84" } },
"features": [
{ "type": "Feature", "properties": { "CD_MUN": "3164001", "NM_MUN": "São Pedro dos Ferros" }, "geometry": { "type": "MultiPolygon", "coordinates": [ [ [ [ -42.533974899999983, -20.177635499999958 ], [ -42.531734199999967, -20.178911699999954 ], [ -42.529922399999975, -20.176480099999925 ], [ -42.53020219999997, -20.176386499999964 ], [ -42.530380499999978, -20.176192 ], [ -42.530565, -20.175985399999952 ], [ -42.530726299999969, -20.175733 ], [ -42.53076549999998, -20.175444799999973 ], [ -42.530821799999963, -20.175288099999925 ], [ -42.530914499999938, -20.175096599999947 ], [ -42.531092199999932, -20.17491809999996 ], [ -42.531231499999933, -20.174775099999987 ], [ -42.531379199999954, -20.174686799999947 ], [ -42.531188699999973, -20.174409199999964 ], [ -42.5310631, -20.174240299999944 ], [ -42.530864199999947, -20.173917899999932 ], [ -42.530690799999952, -20.173473399999985 ], [ -42.53054579999997, -20.173155599999973 ], [ -42.530227399999951, -20.172438599999943 ], [ -42.53002249999998, -20.172438099999962 ], [ -42.529876399999978, -20.172648699999964 ], [ -42.529299699999974, -20.172513599999927 ], [ -42.529286, -20.172394 ], [ -42.528586699999956, -20.172232899999923 ], [ -42.528200399999946, -20.172157899999938 ], [ -42.527987099999969, -20.172085199999966 ], [ -42.527671199999922, -20.171794299999927 ], [ -42.527373, -20.171326799999978 ], [ -42.52706349999994, -20.170783899999947 ], [ -42.526818299999945, -20.170299 ], [ -42.52671469999995, -20.17001079999994 ], [ -42.526615299999953, -20.169765 ], [ -42.526408199999935, -20.169184 ], [ -42.526281399999966, -20.168764799999956 ], [ -42.526128099999937, -20.168456499999927 ], [ -42.52609259999997, -20.168325499999987 ], [ -42.526183399999979, -20.168060099999931 ], [ -42.526443399999948, -20.167725799999968 ], [ -42.526608399999937, -20.167511499999929 ], [ -42.526768699999941, -20.167377 ], [ -42.526866599999948, -20.167135499999979 ], [ -42.527062899999969, -20.16691139999995 ], [ -42.527139499999976, -20.166787899999967 ], [ -42.527189199999953, -20.166659399999961 ], [ -42.52724749999993, -20.166518699999923 ], [ -42.527352899999983, -20.164787299999944 ], [ -42.527363599999944, -20.163649199999956 ], [ -42.527349499999957, -20.16345089999993 ], [ -42.527259299999969, -20.163317899999981 ], [ -42.52726679999995, -20.163286899999946 ], [ -42.527292599999953, -20.163252599999968 ], [ -42.5272763, -20.163194399999938 ], [ -42.527253499999979, -20.163162 ], [ -42.527226799999937, -20.163155299999957 ], [ -42.527191499999965, -20.163136299999973 ], [ -42.527157199999984, -20.163147699999964 ], [ -42.527119, -20.163126699999967 ], [ -42.526938799999982, -20.163085699999947 ], [ -42.526873, -20.1631 ], [ -42.526839699999982, -20.163108599999941 ], [ -42.526683299999945, -20.163098099999957 ], [ -42.526611799999955, -20.163104799999932 ], [ -42.526442099999947, -20.163156299999962 ], [ -42.526363, -20.163143899999966 ], [ -42.526303799999937, -20.16314959999994 ], [ -42.52626, -20.163185899999977 ], [ -42.526221899999939, -20.163185899999963 ], [ -42.526157599999969, -20.163244299999981 ], [ -42.526117, -20.163281199999982 ], [ -42.526014, -20.163311699999948 ], [ -42.525926299999981, -20.163340299999952 ], [ -42.525857599999945, -20.163330799999983 ], [ -42.525788199999965, -20.163311499999953 ], [ -42.525450699999972, -20.163111899999933 ], [ -42.525371399999983, -20.163101899999948 ], [ -42.525289399999963, -20.163111499999957 ], [ -42.525173099999961, -20.163178199999951 ], [ -42.524935699999965, -20.163302199999968 ], [ -42.524857499999939, -20.163414699999972 ], [ -42.524837299999945, -20.163426299999966 ], [ -42.524787899999978, -20.163454699999932 ], [ -42.524718299999961, -20.16349 ], [ -42.524610499999937, -20.163491 ], [ -42.524467499999957, -20.1634395 ], [ -42.524358799999959, -20.163380399999934 ], [ -42.524243499999955, -20.163378399999942 ], [ -42.524131899999929, -20.16339269999996 ], [ -42.523881399999944, -20.163454799999943 ], [ -42.523843, -20.163464299999927 ], [ -42.523679099999981, -20.163515799999967 ], [ -42.523591299999964, -20.163543399999973 ], [ -42.52323089999993, -20.163643499999974 ], [ -42.522974499999982, -20.163728399999972 ], [ -42.522896499999945, -20.163734899999952 ], [ -42.522839099999942, -20.163739799999973 ], [ -42.522680799999932, -20.163765499999954 ], [ -42.522451, -20.163910499999929 ], [ -42.522274599999946, -20.164014399999918 ], [ -42.522210799999982, -20.164052499999951 ], [ -42.522158299999944, -20.164040099999962 ], [ -42.522059899999931, -20.164048599999941 ], [ -42.521981899999957, -20.164027699999963 ], [ -42.52193809999995, -20.163958099999949 ], [ -42.521857, -20.163901899999917 ], [ -42.521677799999971, -20.163766499999948 ], [ -42.521652, -20.163667299999926 ], [ -42.521621, -20.163634599999963 ], [ -42.521508099999942, -20.163515699999945 ], [ -42.521438799999942, -20.16345339999997 ], [ -42.521393699999976, -20.16339749999997 ], [ -42.521297399999987, -20.163369899999967 ], [ -42.521211699999981, -20.163342 ], [ -42.521158199999945, -20.163288799999972 ], [ -42.521146699999974, -20.163237299999931 ], [ -42.521070499999958, -20.163118199999918 ], [ -42.521042799999968, -20.163089599999974 ], [ -42.52103, -20.16309989999997 ], [ -42.52101319999997, -20.16311339999994 ], [ -42.520978, -20.163134399999933 ], [ -42.520927399999948, -20.163128599999933 ], [ -42.520919, -20.163114699999948 ], [ -42.520872099999963, -20.163037099999929 ], [ -42.520848299999962, -20.162930299999971 ], [ -42.520736699999929, -20.162749199999947 ], [ -42.520651899999962, -20.162693899999965 ], [ -42.520586099999946, -20.162649099999953 ], [ -42.520482199999954, -20.162558499999921 ], [ -42.520371599999983, -20.162444099999952 ], [ -42.52026, -20.162361099999941 ], [ -42.520156099999959, -20.162258199999936 ], [ -42.520080799999967, -20.162210499999947 ], [ -42.520038799999952, -20.162196599999959 ], [ -42.520001399999963, -20.162257 ], [ -42.519949699999984, -20.162298399999941 ], [ -42.51996019999995, -20.162342699999957 ], [ -42.519817799999934, -20.162441 ], [ -42.519713699999954, -20.162473199999969 ], [ -42.519599599999935, -20.162554399999976 ], [ -42.519607799999967, -20.16260949999997 ], [ -42.519646, -20.162731899999983 ], [ -42.519690199999957, -20.162873299999948 ], [ -42.519820899999957, -20.16302079999997 ], [ -42.519658599999957, -20.163055 ], [ -42.519477699999982, -20.163093099999955 ], [ -42.519194899999945, -20.163128899999954 ], [ -42.518966499999976, -20.163203199999945 ], [ -42.518756799999956, -20.163271499999937 ], [ -42.518548799999969, -20.163412599999965 ], [ -42.518402299999934, -20.163512099999938 ], [ -42.518297199999942, -20.163618199999974 ], [ -42.518267099999946, -20.163623299999934 ], [ -42.518280699999941, -20.163681 ], [ -42.518254499999955, -20.163954899999961 ], [ -42.518238499999946, -20.164209799999984 ], [ -42.518231399999934, -20.164490299999937 ], [ -42.51828009999997, -20.164739299999944 ], [ -42.51830689999997, -20.164896399999975 ], [ -42.51839549999994, -20.165039899999954 ], [ -42.518550399999981, -20.165255299999941 ], [ -42.518621099999962, -20.165339399999944 ], [ -42.518680199999949, -20.165391199999924 ], [ -42.518748899999942, -20.165443699999965 ], [ -42.518861399999935, -20.165478199999928 ], [ -42.519230499999935, -20.165458499999943 ], [ -42.519567699999982, -20.165319799999963 ], [ -42.519800499999974, -20.165084099999952 ], [ -42.519900299999961, -20.16512379999994 ], [ -42.519700599999972, -20.165504099999957 ], [ -42.519909199999972, -20.165634199999939 ], [ -42.520091599999951, -20.165818299999945 ], [ -42.520263399999976, -20.165880699999935 ], [ -42.520320899999945, -20.165901199999954 ], [ -42.52049169999998, -20.16606 ], [ -42.520541699999967, -20.166106399999929 ], [ -42.520632899999953, -20.166281299999984 ], [ -42.520687699999939, -20.166376799999966 ], [ -42.520951699999955, -20.166834899999962 ], [ -42.521154299999978, -20.167176099999939 ], [ -42.521344599999971, -20.167359599999937 ], [ -42.521402199999947, -20.167683799999978 ], [ -42.521337699999954, -20.168118399999969 ], [ -42.521306399999965, -20.168198199999949 ], [ -42.521157199999941, -20.168579599999916 ], [ -42.520934, -20.168386599999959 ], [ -42.520731499999954, -20.168280699999976 ], [ -42.520555299999948, -20.16825 ], [ -42.520355199999983, -20.168235499999973 ], [ -42.520084399999973, -20.168188099999956 ], [ -42.519882, -20.168279499999979 ], [ -42.519725699999981, -20.168459599999949 ], [ -42.519636899999966, -20.168621399999953 ], [ -42.519528099999945, -20.168907599999958 ], [ -42.519554, -20.169060899999966 ], [ -42.519271399999987, -20.169696599999956 ], [ -42.519150799999977, -20.170200799999979 ], [ -42.519607299999969, -20.170367299999956 ], [ -42.520195, -20.170504899999965 ], [ -42.520145099999986, -20.170633199999926 ], [ -42.520082, -20.170795499999944 ], [ -42.519803599999932, -20.171755499999957 ], [ -42.519166599999949, -20.171126199999932 ], [ -42.518396699999983, -20.171782499999942 ], [ -42.518845299999953, -20.172140299999967 ], [ -42.519032599999946, -20.172344699999936 ], [ -42.51929, -20.17262569999998 ], [ -42.519184499999945, -20.172718899999939 ], [ -42.518192799999952, -20.173461099999937 ], [ -42.517964099999972, -20.173693499999942 ], [ -42.517178499999943, -20.174491799999934 ], [ -42.517491299999968, -20.174902499999973 ], [ -42.517587799999944, -20.174902799999927 ], [ -42.517632099999965, -20.174905399999933 ], [ -42.517672399999981, -20.174804799999958 ], [ -42.517715599999981, -20.174716499999917 ], [ -42.517785499999945, -20.174713399999977 ], [ -42.517898099999968, -20.174780399999982 ], [ -42.518034299999947, -20.174703099999924 ], [ -42.518038599999961, -20.174700699999956 ], [ -42.518110599999943, -20.174662 ], [ -42.518112599999938, -20.174660899999932 ], [ -42.51824019999998, -20.174604899999952 ], [ -42.518380199999974, -20.174562 ], [ -42.518454099999985, -20.174498899999953 ], [ -42.518535199999981, -20.174317 ], [ -42.518611, -20.174218199999935 ], [ -42.518679899999938, -20.174190599999964 ], [ -42.518755, -20.174123799999968 ], [ -42.51883609999993, -20.174061299999934 ], [ -42.518997899999931, -20.173959899999943 ], [ -42.519132599999978, -20.173944799999955 ], [ -42.519297599999959, -20.173906299999935 ], [ -42.519416799999924, -20.173832499999946 ], [ -42.519503599999958, -20.173751599999939 ], [ -42.519606199999949, -20.17370029999994 ], [ -42.51967529999996, -20.173568899999967 ], [ -42.519736099999939, -20.173477699999982 ], [ -42.519833, -20.173411899999959 ], [ -42.519924799999963, -20.173410899999951 ], [ -42.520038299999953, -20.173410599999947 ], [ -42.520189499999965, -20.173123799999924 ], [ -42.520320099999942, -20.173007599999938 ], [ -42.520398199999931, -20.172855 ], [ -42.520531499999947, -20.172681299999965 ], [ -42.52061139999995, -20.172578099999953 ], [ -42.520688899999982, -20.172475399999946 ], [ -42.520803299999955, -20.172420199999966 ], [ -42.520879299999933, -20.172401599999944 ], [ -42.520998499999969, -20.172387699999938 ], [ -42.521076199999975, -20.172369699999944 ], [ -42.521157, -20.172081199999969 ], [ -42.521198899999945, -20.172019899999949 ], [ -42.521250899999984, -20.171943899999956 ], [ -42.521428399999941, -20.171749499999983 ], [ -42.521564599999977, -20.171619799999974 ], [ -42.521673399999948, -20.171534299999962 ], [ -42.521770099999969, -20.171488099999966 ], [ -42.521822199999967, -20.171463199999948 ], [ -42.521850899999947, -20.171440699999955 ], [ -42.521892, -20.171719799999941 ], [ -42.521977499999934, -20.171877799999951 ], [ -42.522107099999964, -20.172032199999933 ], [ -42.522254499999974, -20.172142099999974 ], [ -42.522502399999951, -20.172273199999946 ], [ -42.522743599999949, -20.172380799999928 ], [ -42.523254299999962, -20.172646499999921 ], [ -42.52361, -20.17283129999992 ], [ -42.52382369999998, -20.172878499999971 ], [ -42.524087699999932, -20.172864399999977 ], [ -42.524386799999945, -20.172818599999964 ], [ -42.524756399999944, -20.172793199999948 ], [ -42.52498079999998, -20.17284009999997 ], [ -42.525176599999952, -20.172943099999927 ], [ -42.525571699999951, -20.173186599999941 ], [ -42.525698199999965, -20.173333599999975 ], [ -42.525791099999935, -20.173481599999938 ], [ -42.525808399999967, -20.173570799999929 ], [ -42.525833399999954, -20.173713699999954 ], [ -42.525897899999961, -20.174079399999989 ], [ -42.525969699999962, -20.174484299999961 ], [ -42.526033199999979, -20.174943499999923 ], [ -42.526009, -20.174926099999933 ], [ -42.525980299999958, -20.174942499999936 ], [ -42.525910299999964, -20.17498229999995 ], [ -42.52584539999998, -20.174988399999958 ], [ -42.52577279999997, -20.174982099999966 ], [ -42.52572379999998, -20.174938299999958 ], [ -42.525585299999939, -20.174966899999962 ], [ -42.525481499999955, -20.174978799999963 ], [ -42.525464499999941, -20.175079399999952 ], [ -42.525449299999941, -20.175149599999926 ], [ -42.525406099999941, -20.175197799999971 ], [ -42.525378599999954, -20.175263199999957 ], [ -42.5252852, -20.175315799999961 ], [ -42.525213399999984, -20.175302 ], [ -42.525127499999947, -20.17527119999993 ], [ -42.525082199999986, -20.175203499999938 ], [ -42.525052599999988, -20.175410099999954 ], [ -42.52501349999995, -20.175386699999926 ], [ -42.524928699999982, -20.175334799999977 ], [ -42.524866699999968, -20.175376 ], [ -42.524802499999957, -20.175392799999948 ], [ -42.524780799999981, -20.175481799999929 ], [ -42.524780799999974, -20.175609299999959 ], [ -42.524702499999933, -20.175725099999955 ], [ -42.524660099999956, -20.175755799999941 ], [ -42.524582099999982, -20.175704 ], [ -42.524526, -20.175635599999968 ], [ -42.524495099999967, -20.175625599999929 ], [ -42.524405599999973, -20.175596499999916 ], [ -42.52429049999995, -20.175605399999945 ], [ -42.524163699999981, -20.175571599999952 ], [ -42.524073899999969, -20.175546599999965 ], [ -42.524001799999951, -20.175528 ], [ -42.523969099999931, -20.175541099999972 ], [ -42.523924299999976, -20.175559 ], [ -42.523890899999969, -20.17563739999996 ], [ -42.523821799999951, -20.175652 ], [ -42.523784099999943, -20.175715199999956 ], [ -42.523712199999984, -20.175695199999957 ], [ -42.523623199999982, -20.175703499999941 ], [ -42.523550099999959, -20.175728699999979 ], [ -42.523455599999984, -20.17577419999996 ], [ -42.52338529999998, -20.175816899999976 ], [ -42.524793299999949, -20.176436099999929 ], [ -42.526482599999952, -20.176617099999937 ], [ -42.526755799999933, -20.177050199999933 ], [ -42.526850499999966, -20.178196099999983 ], [ -42.527636899999948, -20.177817599999969 ], [ -42.527913799999965, -20.177618599999953 ], [ -42.528122399999972, -20.177408699999955 ], [ -42.528723299999974, -20.177970499999951 ], [ -42.529122199999961, -20.178310299999975 ], [ -42.529082699999947, -20.178405699999931 ], [ -42.529126, -20.178538599999971 ], [ -42.529085299999963, -20.178726099999938 ], [ -42.529114499999935, -20.178904899999957 ], [ -42.52918909999994, -20.179046399999965 ], [ -42.529214599999932, -20.179151599999944 ], [ -42.529355099999975, -20.179175 ], [ -42.529524, -20.179203599999948 ], [ -42.529639, -20.179327899999976 ], [ -42.529984099999979, -20.179927899999939 ], [ -42.530669, -20.180366499999934 ], [ -42.532157699999971, -20.181263599999962 ], [ -42.532857099999944, -20.181766799999924 ], [ -42.533832299999979, -20.182153799999966 ], [ -42.533951099999967, -20.182189499999936 ], [ -42.53457659999998, -20.181485799999955 ], [ -42.533256299999955, -20.18031689999998 ], [ -42.535441499999941, -20.178134499999935 ], [ -42.533974899999983, -20.177635499999958 ] ] ], [ [ [ -42.628196499999937, -20.095427499999964 ], [ -42.628230499999979, -20.095155399999957 ], [ -42.628312199999989, -20.094856 ], [ -42.628434599999942, -20.094543 ], [ -42.628625799999959, -20.094208499999972 ], [ -42.628849499999937, -20.093817 ], [ -42.628866599999981, -20.093787099999918 ], [ -42.628951699999959, -20.093638099999968 ], [ -42.629189899999979, -20.093250299999973 ], [ -42.629326, -20.093127799999934 ], [ -42.62957769999997, -20.09288969999994 ], [ -42.629727399999986, -20.092590299999923 ], [ -42.629761399999957, -20.092277299999964 ], [ -42.629679799999963, -20.091957599999944 ], [ -42.629530099999954, -20.091733 ], [ -42.629458799999952, -20.091657099999956 ], [ -42.629454, -20.091652 ], [ -42.629442799999943, -20.091640099999946 ], [ -42.629439399999967, -20.091636499999925 ], [ -42.62943579999996, -20.091632699999927 ], [ -42.629431499999953, -20.091628099999969 ], [ -42.6294276, -20.091624 ], [ -42.629400099999948, -20.091594699999966 ], [ -42.629319199999941, -20.091508499999971 ], [ -42.629062399999953, -20.091246899999931 ], [ -42.629008899999981, -20.091232099999946 ], [ -42.628661, -20.091135399999931 ], [ -42.628429499999974, -20.090978199999935 ], [ -42.627890199999975, -20.090921899999945 ], [ -42.627648899999947, -20.090977199999955 ], [ -42.627378699999959, -20.091039099999925 ], [ -42.62716469999998, -20.091088099999972 ], [ -42.62693, -20.091174099999922 ], [ -42.626253899999945, -20.091421599999919 ], [ -42.626061499999935, -20.091492099999982 ], [ -42.625372499999976, -20.091840899999948 ], [ -42.625268499999947, -20.091893599999928 ], [ -42.624972299999968, -20.09204359999995 ], [ -42.624544199999953, -20.092156699999972 ], [ -42.624506, -20.092166799999976 ], [ -42.623475099999951, -20.092439199999948 ], [ -42.622984199999955, -20.092568899999954 ], [ -42.622432899999971, -20.092676599999951 ], [ -42.622282499999983, -20.092662399999927 ], [ -42.622048199999945, -20.092640299999964 ], [ -42.621798399999932, -20.092384399999954 ], [ -42.621694799999943, -20.092051099999939 ], [ -42.621686799999964, -20.09180119999996 ], [ -42.621677499999976, -20.091512299999966 ], [ -42.621661, -20.090397799999955 ], [ -42.6216697, -20.09023 ], [ -42.621694199999979, -20.08975409999994 ], [ -42.621694499999933, -20.089748799999924 ], [ -42.621528299999966, -20.08982519999995 ], [ -42.620495, -20.090908899999938 ], [ -42.62020129999997, -20.09117689999994 ], [ -42.620191499999976, -20.091227199999924 ], [ -42.619985899999961, -20.091322299999952 ], [ -42.61983349999997, -20.091394399999963 ], [ -42.61973, -20.091441299999925 ], [ -42.619410499999965, -20.091594899999961 ], [ -42.619126599999966, -20.091729599999958 ], [ -42.618746499999922, -20.091909 ], [ -42.618407699999977, -20.092069899999949 ], [ -42.618049599999949, -20.092236499999959 ], [ -42.617866699999986, -20.092268899999961 ], [ -42.617506499999934, -20.092287 ], [ -42.617165899999982, -20.092286 ], [ -42.616436299999982, -20.092273499999969 ], [ -42.616778499999953, -20.092777699999939 ], [ -42.617821399999968, -20.095075899999919 ], [ -42.6282983, -20.096927099999945 ], [ -42.628230499999979, -20.096339299999961 ], [ -42.628203299999946, -20.095910599999964 ], [ -42.628196499999937, -20.095427499999964 ] ] ] ] } }
]
}
