{
"type": "FeatureCollection",
"name": "3169356",
"crs": { "type": "name", "properties": { "name": "urn:ogc:def:crs:OGC:1.3:CRS84" } },
"features": [
{ "type": "Feature", "properties": { "CD_MUN": "3169356", "NM_MUN": "Três Marias" }, "geometry": { "type": "MultiPolygon", "coordinates": [ [ [ [ -44.978948599999967, -18.278456799999947 ], [ -44.978711699999963, -18.278646299999927 ], [ -44.978569599999965, -18.278883199999932 ], [ -44.97838, -18.27945179999994 ], [ -44.978743699999939, -18.279826499999952 ], [ -44.978819399999963, -18.279922199999934 ], [ -44.97944039999993, -18.280677399999952 ], [ -44.979503899999941, -18.280755 ], [ -44.97994129999995, -18.281289199999954 ], [ -44.979959199999939, -18.281311 ], [ -44.980008, -18.281370699999961 ], [ -44.98086909999995, -18.281944899999935 ], [ -44.98090179999997, -18.281966599999976 ], [ -44.980934399999974, -18.281988399999918 ], [ -44.981075699999963, -18.28208269999994 ], [ -44.981160699999982, -18.282103199999938 ], [ -44.98268029999997, -18.283097899999984 ], [ -44.983191899999952, -18.282444 ], [ -44.986064499999941, -18.284659899999944 ], [ -44.986126299999967, -18.284524699999963 ], [ -44.986179599999957, -18.284404599999966 ], [ -44.986246299999948, -18.284271199999967 ], [ -44.986273, -18.284151099999978 ], [ -44.986286399999983, -18.284044399999971 ], [ -44.98643309999995, -18.283937699999974 ], [ -44.986539899999968, -18.283897599999932 ], [ -44.98658649999993, -18.283897599999939 ], [ -44.986633199999972, -18.283897599999928 ], [ -44.98672659999994, -18.283964299999969 ], [ -44.986806699999931, -18.283977699999976 ], [ -44.986846699999937, -18.283871 ], [ -44.98684, -18.283830899999934 ], [ -44.986806699999931, -18.283617499999931 ], [ -44.986786699999982, -18.283564099999975 ], [ -44.986766699999976, -18.283510699999951 ], [ -44.98674, -18.283350599999949 ], [ -44.986766699999983, -18.283217199999971 ], [ -44.98686, -18.283150499999987 ], [ -44.986873399999986, -18.283110499999953 ], [ -44.986886699999957, -18.283070499999955 ], [ -44.986833399999959, -18.282923699999984 ], [ -44.986833399999973, -18.282777 ], [ -44.986913399999935, -18.28267019999992 ], [ -44.987020099999938, -18.28255009999997 ], [ -44.987073499999958, -18.282416699999931 ], [ -44.987073499999951, -18.2822566 ], [ -44.987140199999942, -18.282096499999966 ], [ -44.987193599999955, -18.281963099999924 ], [ -44.98723, -18.281916299999974 ], [ -44.987231799999968, -18.281914 ], [ -44.987263199999973, -18.281873699999945 ], [ -44.987287, -18.281843099999943 ], [ -44.987300299999951, -18.281783 ], [ -44.987313699999959, -18.281723 ], [ -44.987367, -18.28162959999996 ], [ -44.98743369999994, -18.28162959999997 ], [ -44.987593799999956, -18.281576199999954 ], [ -44.987633899999935, -18.281456199999976 ], [ -44.987620499999942, -18.281416099999952 ], [ -44.987685699999986, -18.281298899999975 ], [ -44.987730799999952, -18.281242199999955 ], [ -44.987779199999977, -18.281181399999976 ], [ -44.987847299999942, -18.281095899999958 ], [ -44.987847299999942, -18.281045799999962 ], [ -44.987847299999942, -18.281002499999946 ], [ -44.987860699999949, -18.280882499999954 ], [ -44.987954, -18.280762399999961 ], [ -44.987967399999953, -18.28073569999998 ], [ -44.988017399999933, -18.280722399999942 ], [ -44.988074099999956, -18.280695699999956 ], [ -44.98815419999994, -18.280589 ], [ -44.98820749999993, -18.280495599999934 ], [ -44.988220899999931, -18.280455499999952 ], [ -44.988234199999965, -18.28041549999994 ], [ -44.98836759999994, -18.280282099999962 ], [ -44.988421799999969, -18.280197 ], [ -44.988424299999963, -18.280193099999966 ], [ -44.98845619999998, -18.280143 ], [ -44.988458799999933, -18.280138899999944 ], [ -44.988461, -18.280135399999939 ], [ -44.988501, -18.280102 ], [ -44.988541099999971, -18.280068599999936 ], [ -44.988594399999954, -18.279975299999922 ], [ -44.988607799999954, -18.279775099999931 ], [ -44.988567699999976, -18.279628399999982 ], [ -44.988487699999958, -18.279575 ], [ -44.988447699999945, -18.279561699999917 ], [ -44.988407699999982, -18.279521599999946 ], [ -44.988407699999982, -18.279454899999966 ], [ -44.988381, -18.279414899999946 ], [ -44.988369199999966, -18.279366 ], [ -44.988352, -18.279294599999965 ], [ -44.988330699999949, -18.279206399999964 ], [ -44.988187499999981, -18.27893059999997 ], [ -44.987950599999976, -18.278504199999922 ], [ -44.987950599999976, -18.278219899999947 ], [ -44.98776109999995, -18.277746099999945 ], [ -44.987524199999939, -18.277319699999953 ], [ -44.987382099999934, -18.277035399999928 ], [ -44.987050399999937, -18.276940699999944 ], [ -44.986766099999954, -18.276798499999916 ], [ -44.986671399999977, -18.276277399999962 ], [ -44.986671399999977, -18.275851 ], [ -44.986339699999981, -18.275329799999959 ], [ -44.986339699999974, -18.27528239999997 ], [ -44.986102799999962, -18.275092899999944 ], [ -44.985771199999931, -18.274903399999978 ], [ -44.985534299999983, -18.274382199999923 ], [ -44.985439499999984, -18.274145299999926 ], [ -44.985155299999974, -18.273861 ], [ -44.985155299999974, -18.273387199999942 ], [ -44.98482359999997, -18.273292499999958 ], [ -44.984871, -18.272960799999961 ], [ -44.984586699999966, -18.272629199999919 ], [ -44.984349799999968, -18.272297499999972 ], [ -44.984112899999957, -18.272108 ], [ -44.983923399999981, -18.271729 ], [ -44.983876, -18.27120779999996 ], [ -44.983733899999947, -18.27087609999996 ], [ -44.983787699999937, -18.270553099999976 ], [ -44.983733899999947, -18.270639299999971 ], [ -44.983497, -18.270781399999976 ], [ -44.983260099999939, -18.271207799999964 ], [ -44.983212699999974, -18.271539499999953 ], [ -44.983307499999974, -18.271823699999963 ], [ -44.983165299999939, -18.27225009999994 ], [ -44.983023199999927, -18.272723899999967 ], [ -44.982738899999958, -18.273055599999967 ], [ -44.982549399999982, -18.273339899999943 ], [ -44.982123, -18.273955799999953 ], [ -44.981649199999943, -18.274477 ], [ -44.981459699999952, -18.275092899999947 ], [ -44.981175399999984, -18.275614099999927 ], [ -44.98136489999996, -18.276087899999936 ], [ -44.980852499999969, -18.276833199999945 ], [ -44.980843799999946, -18.276845899999955 ], [ -44.98055949999997, -18.277272299999929 ], [ -44.980038299999933, -18.277604 ], [ -44.979564499999981, -18.278172499999968 ], [ -44.978948599999967, -18.278456799999947 ] ] ], [ [ [ -45.23422469999997, -18.240864599999952 ], [ -45.234671399999968, -18.241018299999958 ], [ -45.235226599999983, -18.24096829999996 ], [ -45.235629699999954, -18.240805599999927 ], [ -45.235767199999941, -18.240255699999974 ], [ -45.236172799999963, -18.240252199999933 ], [ -45.236457, -18.240038899999938 ], [ -45.236712599999983, -18.239629599999944 ], [ -45.2368312, -18.239246199999968 ], [ -45.236814499999973, -18.238653499999952 ], [ -45.237004, -18.238968599999964 ], [ -45.237507799999946, -18.239052 ], [ -45.238128499999959, -18.238755899999951 ], [ -45.238918899999931, -18.239128 ], [ -45.239621499999949, -18.238905799999937 ], [ -45.239679, -18.238794199999965 ], [ -45.23954, -18.23849649999994 ], [ -45.239828099999961, -18.23850529999994 ], [ -45.240816299999949, -18.239129299999945 ], [ -45.241707799999965, -18.239296099999944 ], [ -45.242141, -18.239142199999954 ], [ -45.242186299999958, -18.238263699999951 ], [ -45.242263499999986, -18.237483599999951 ], [ -45.24258169999996, -18.236761299999966 ], [ -45.242791299999972, -18.235991 ], [ -45.242716099999946, -18.235252399999982 ], [ -45.24256859999997, -18.234943699999967 ], [ -45.242416099999957, -18.234898199999986 ], [ -45.242624899999953, -18.234565099999944 ], [ -45.242306799999938, -18.234460699999936 ], [ -45.242300799999953, -18.234256499999951 ], [ -45.242269599999986, -18.233982199999954 ], [ -45.242575299999935, -18.234182599999947 ], [ -45.243300399999946, -18.233909299999944 ], [ -45.243918, -18.233727199999965 ], [ -45.244014, -18.233477399999966 ], [ -45.244407, -18.233521799999956 ], [ -45.244954199999945, -18.233452799999963 ], [ -45.245361899999978, -18.233177899999937 ], [ -45.245611199999985, -18.232587399999957 ], [ -45.245971499999946, -18.232459699999939 ], [ -45.246599499999945, -18.231970899999968 ], [ -45.24710649999998, -18.232091 ], [ -45.247492399999949, -18.231768099999947 ], [ -45.247527399999967, -18.231344299999936 ], [ -45.247805399999947, -18.230816499999943 ], [ -45.247818699999982, -18.229999799999973 ], [ -45.247824299999934, -18.229775599999975 ], [ -45.248134599999958, -18.229822199999948 ], [ -45.248556699999938, -18.229752499999964 ], [ -45.248899, -18.229458399999935 ], [ -45.249108599999943, -18.229118499999974 ], [ -45.249043099999945, -18.228749899999958 ], [ -45.249192, -18.228538699999941 ], [ -45.249561, -18.228401499999958 ], [ -45.249731699999984, -18.227989699999959 ], [ -45.250249799999949, -18.227785499999978 ], [ -45.250440899999944, -18.227604899999957 ], [ -45.250861199999974, -18.227467599999947 ], [ -45.251045599999941, -18.227763799999941 ], [ -45.251408, -18.227902599999933 ], [ -45.252187599999957, -18.227590899999942 ], [ -45.252573799999936, -18.227055 ], [ -45.252690199999954, -18.227073199999953 ], [ -45.253805099999973, -18.226739799999972 ], [ -45.253976399999942, -18.226573399999946 ], [ -45.254089499999971, -18.226088699999938 ], [ -45.254849799999931, -18.225512299999927 ], [ -45.254942599999936, -18.225106599999947 ], [ -45.25473, -18.224532099999976 ], [ -45.255243599999964, -18.22422419999997 ], [ -45.255571399999951, -18.223739699999943 ], [ -45.255615, -18.223344 ], [ -45.25529819999997, -18.222979199999937 ], [ -45.254896299999984, -18.222713 ], [ -45.254629099999931, -18.222557199999923 ], [ -45.254658399999983, -18.222173799999943 ], [ -45.254896699999954, -18.221738299999963 ], [ -45.254957499999932, -18.221175799999962 ], [ -45.254786699999954, -18.220842199999936 ], [ -45.25440169999996, -18.220642899999973 ], [ -45.254337199999952, -18.220354599999943 ], [ -45.25445869999993, -18.219406799999938 ], [ -45.254960399999959, -18.219095199999966 ], [ -45.255111, -18.218356899999943 ], [ -45.255468899999983, -18.217988199999979 ], [ -45.256238, -18.218016499999983 ], [ -45.256881499999963, -18.217161799999936 ], [ -45.257288599999988, -18.217009199999946 ], [ -45.257900699999936, -18.216252499999943 ], [ -45.258264199999978, -18.215205299999969 ], [ -45.25910609999994, -18.215405 ], [ -45.259094399999981, -18.215956599999959 ], [ -45.259154099999932, -18.216307199999964 ], [ -45.259314699999955, -18.216582399999933 ], [ -45.259513, -18.216800899999949 ], [ -45.259643299999937, -18.216735899999946 ], [ -45.259893799999936, -18.216605299999976 ], [ -45.260025699999964, -18.216737199999947 ], [ -45.260141499999975, -18.216814399999976 ], [ -45.260272199999974, -18.216846199999956 ], [ -45.260432799999933, -18.216892 ], [ -45.26062769999993, -18.216869099999936 ], [ -45.260869099999979, -18.216772199999976 ], [ -45.261085899999955, -18.216436599999955 ], [ -45.26116769999993, -18.216160799999948 ], [ -45.261258099999964, -18.215373499999941 ], [ -45.261647299999943, -18.215166499999956 ], [ -45.261114499999969, -18.214782 ], [ -45.261037099999953, -18.214573399999946 ], [ -45.260908, -18.214489499999949 ], [ -45.260697299999947, -18.214472299999947 ], [ -45.26021309999993, -18.214418199999947 ], [ -45.260039199999945, -18.214274399999979 ], [ -45.259918799999987, -18.214111 ], [ -45.259931699999974, -18.213908899999975 ], [ -45.260077899999949, -18.213027199999942 ], [ -45.260159699999974, -18.21261 ], [ -45.260275799999931, -18.2120207 ], [ -45.260361799999941, -18.211590599999973 ], [ -45.260456399999953, -18.211164799999953 ], [ -45.260645299999972, -18.20920129999995 ], [ -45.260748099999937, -18.208631299999983 ], [ -45.26074639999996, -18.207398899999923 ], [ -45.260640199999955, -18.206536 ], [ -45.260041599999973, -18.205205099999947 ], [ -45.259668899999951, -18.204318599999979 ], [ -45.25856, -18.202322199999969 ], [ -45.25788579999994, -18.201108399999956 ], [ -45.257722899999983, -18.200815199999965 ], [ -45.256871499999939, -18.199912499999968 ], [ -45.255964099999979, -18.198950499999956 ], [ -45.255568299999936, -18.198197699999987 ], [ -45.255264199999942, -18.197250299999947 ], [ -45.254770399999984, -18.195922 ], [ -45.254269, -18.194506699999977 ], [ -45.25417159999995, -18.193556599999955 ], [ -45.25365249999993, -18.192360099999956 ], [ -45.253345899999935, -18.191630399999951 ], [ -45.252298199999984, -18.188386 ], [ -45.25023189999996, -18.185636 ], [ -45.249926099999982, -18.185290099999978 ], [ -45.248692299999959, -18.184367299999977 ], [ -45.2423108, -18.180151599999938 ], [ -45.240788699999939, -18.179590799999971 ], [ -45.239051099999983, -18.17862729999996 ], [ -45.238844599999929, -18.178403699999937 ], [ -45.238011399999948, -18.179608499999976 ], [ -45.23776909999998, -18.179810399999948 ], [ -45.23760759999994, -18.180093099999958 ], [ -45.237728799999957, -18.18045649999992 ], [ -45.237809499999976, -18.18065839999997 ], [ -45.23776909999998, -18.180941099999917 ], [ -45.237567199999951, -18.181102599999971 ], [ -45.237405699999961, -18.181304499999953 ], [ -45.237567199999951, -18.181506499999951 ], [ -45.237728799999964, -18.181708399999934 ], [ -45.237567199999951, -18.181869899999988 ], [ -45.237526899999985, -18.182152599999942 ], [ -45.237082599999951, -18.182152599999952 ], [ -45.23682139999994, -18.182082299999941 ], [ -45.236274699999967, -18.182229 ], [ -45.235769599999969, -18.182451499999964 ], [ -45.234946399999956, -18.183902799999935 ], [ -45.234642199999939, -18.184003299999976 ], [ -45.234598899999973, -18.184035499999947 ], [ -45.232782699999973, -18.184190699999935 ], [ -45.231405099999961, -18.18430849999994 ], [ -45.230425199999956, -18.184392299999942 ], [ -45.230287399999952, -18.184428399999938 ], [ -45.230211299999958, -18.184807699999965 ], [ -45.230211299999958, -18.185173599999931 ], [ -45.230206499999952, -18.185313599999976 ], [ -45.230047299999967, -18.185690699999942 ], [ -45.228673499999957, -18.188973899999947 ], [ -45.227803599999959, -18.187903599999974 ], [ -45.227563599999939, -18.1888135 ], [ -45.227399599999956, -18.189425499999963 ], [ -45.227242699999984, -18.190057699999961 ], [ -45.227077199999947, -18.190721899999975 ], [ -45.226914699999959, -18.191362799999975 ], [ -45.226750399999965, -18.191975799999973 ], [ -45.226382899999976, -18.191866699999938 ], [ -45.226659799999936, -18.192483699999965 ], [ -45.227134099999944, -18.193577399999977 ], [ -45.225272, -18.194400399999953 ], [ -45.225181099999929, -18.194316299999969 ], [ -45.224908299999981, -18.194427699999959 ], [ -45.22454, -18.193604699999984 ], [ -45.223003099999971, -18.194241299999927 ], [ -45.223455499999943, -18.195387099999934 ], [ -45.221741199999933, -18.19612379999996 ], [ -45.22191909999998, -18.19659489999998 ], [ -45.221638899999959, -18.196495 ], [ -45.220028399999933, -18.195164499999976 ], [ -45.217028899999946, -18.196939399999962 ], [ -45.217288599999961, -18.19848729999995 ], [ -45.217439199999944, -18.199275099999955 ], [ -45.217443599999974, -18.199304599999952 ], [ -45.217761799999948, -18.201239699999967 ], [ -45.218516799999968, -18.20328579999995 ], [ -45.218830899999944, -18.204024699999938 ], [ -45.218842699999982, -18.205344699999955 ], [ -45.218667799999935, -18.206404099999929 ], [ -45.218593099999964, -18.206657799999963 ], [ -45.218395699999974, -18.207294599999962 ], [ -45.218595199999982, -18.208177299999925 ], [ -45.217831, -18.208894199999975 ], [ -45.216965399999935, -18.209241299999963 ], [ -45.215685, -18.209135499999942 ], [ -45.215461599999969, -18.209107199999949 ], [ -45.215512, -18.209056699999959 ], [ -45.215442699999983, -18.20898109999996 ], [ -45.215291399999956, -18.208968499999973 ], [ -45.215222, -18.208829799999929 ], [ -45.215108599999951, -18.208817199999935 ], [ -45.215045499999974, -18.208798299999959 ], [ -45.215058099999965, -18.20867219999996 ], [ -45.215001399999956, -18.208565 ], [ -45.21491309999994, -18.208489399999952 ], [ -45.214805899999931, -18.208457799999966 ], [ -45.214686199999967, -18.208438899999976 ], [ -45.214560099999979, -18.20842 ], [ -45.214478099999958, -18.208369599999966 ], [ -45.214473299999945, -18.208241499999922 ], [ -45.214364, -18.208203099999928 ], [ -45.2142449, -18.208180399999954 ], [ -45.21405569999996, -18.208186699999949 ], [ -45.213976899999977, -18.208145799999958 ], [ -45.213888699999984, -18.208070099999926 ], [ -45.213787799999977, -18.208019699999973 ], [ -45.213573499999939, -18.207931399999953 ], [ -45.213447399999957, -18.207729699999952 ], [ -45.213283499999932, -18.207591 ], [ -45.212684099999933, -18.210923499999986 ], [ -45.213135, -18.211039699999951 ], [ -45.213764799999979, -18.21093239999994 ], [ -45.2141807, -18.211050899999965 ], [ -45.214691799999969, -18.210887299999957 ], [ -45.215363199999963, -18.211005799999956 ], [ -45.215719699999966, -18.211169499999976 ], [ -45.216034399999955, -18.211056 ], [ -45.216143099999954, -18.211345799999954 ], [ -45.216143099999947, -18.211635599999958 ], [ -45.216070599999966, -18.211925499999953 ], [ -45.215871399999962, -18.212088499999933 ], [ -45.215509099999963, -18.212342099999951 ], [ -45.215327899999977, -18.212740599999957 ], [ -45.215219199999979, -18.212885499999981 ], [ -45.214911299999983, -18.21308479999993 ], [ -45.214693899999986, -18.213302199999934 ], [ -45.214494699999932, -18.213519499999958 ], [ -45.214367899999957, -18.213827499999983 ], [ -45.214259199999958, -18.214099199999964 ], [ -45.214005599999957, -18.214334699999934 ], [ -45.213896899999952, -18.214298499999931 ], [ -45.213552699999987, -18.214099199999968 ], [ -45.213407799999977, -18.214044899999973 ], [ -45.213136099999986, -18.214153499999959 ], [ -45.212882499999978, -18.214189799999922 ], [ -45.212665099999988, -18.214262199999943 ], [ -45.212502099999945, -18.214352799999958 ], [ -45.212375299999955, -18.214389 ], [ -45.212212199999954, -18.214370899999949 ], [ -45.212067299999944, -18.214461499999974 ], [ -45.211686899999954, -18.214533899999935 ], [ -45.21145139999993, -18.214606399999969 ], [ -45.211234099999956, -18.214841899999943 ], [ -45.210980399999983, -18.214986799999952 ], [ -45.210781199999985, -18.214968699999943 ], [ -45.210690599999964, -18.215059299999943 ], [ -45.210292099999947, -18.215168 ], [ -45.210147199999938, -18.215276599999974 ], [ -45.209984199999951, -18.215349099999958 ], [ -45.209984199999958, -18.215494 ], [ -45.209911699999971, -18.21560269999997 ], [ -45.209712399999944, -18.215729499999959 ], [ -45.209531299999981, -18.215820099999977 ], [ -45.209475899999973, -18.215868599999961 ], [ -45.209386399999971, -18.215946899999945 ], [ -45.209187099999951, -18.216055599999937 ], [ -45.208897299999933, -18.216146099999957 ], [ -45.208788599999934, -18.216291 ], [ -45.208535, -18.216309199999966 ], [ -45.208263299999942, -18.216436 ], [ -45.208154599999943, -18.216580899999951 ], [ -45.207882899999966, -18.216780099999934 ], [ -45.20753869999993, -18.216689599999945 ], [ -45.207357499999944, -18.216834499999951 ], [ -45.20717639999998, -18.216925099999965 ], [ -45.20699529999996, -18.217088099999959 ], [ -45.206770899999981, -18.217291099999954 ], [ -45.206681099999969, -18.217386899999951 ], [ -45.206596699999977, -18.217414099999925 ], [ -45.206379399999946, -18.21754089999995 ], [ -45.206180099999983, -18.217685899999935 ], [ -45.20601709999994, -18.217939499999947 ], [ -45.205745399999955, -18.218156799999988 ], [ -45.205473599999948, -18.218338 ], [ -45.205057, -18.218573499999934 ], [ -45.204694699999955, -18.218935799999947 ], [ -45.204404899999979, -18.219189399999951 ], [ -45.20426, -18.21931619999997 ], [ -45.204096899999968, -18.219515399999967 ], [ -45.203952, -18.219714699999933 ], [ -45.20364409999997, -18.219732799999967 ], [ -45.203372399999985, -18.220131299999927 ], [ -45.203173099999965, -18.220475499999957 ], [ -45.202883299999947, -18.220620399999973 ], [ -45.202724399999973, -18.220741399999948 ], [ -45.20275079999994, -18.220854099999944 ], [ -45.202758899999935, -18.220888599999977 ], [ -45.202595799999983, -18.220929799999972 ], [ -45.201149299999948, -18.221322199999964 ], [ -45.201092, -18.221343199999975 ], [ -45.20064019999996, -18.221509499999971 ], [ -45.19951889999993, -18.222077499999951 ], [ -45.198817399999946, -18.222531 ], [ -45.198277299999972, -18.222940299999937 ], [ -45.197589199999989, -18.223673799999979 ], [ -45.197155399999986, -18.224136199999972 ], [ -45.196697, -18.224624699999936 ], [ -45.196264699999972, -18.225100299999955 ], [ -45.1958236, -18.225579299999939 ], [ -45.195530099999985, -18.225458499999942 ], [ -45.193845099999983, -18.225101799999951 ], [ -45.193497299999933, -18.225377699999964 ], [ -45.192880499999951, -18.225349199999986 ], [ -45.184362, -18.21687739999992 ], [ -45.183397799999966, -18.217654099999951 ], [ -45.193486, -18.2281364 ], [ -45.193509499999948, -18.22816019999993 ], [ -45.190240099999983, -18.231674399999964 ], [ -45.188270899999964, -18.233801899999946 ], [ -45.187479199999977, -18.234649499999932 ], [ -45.187404499999957, -18.23472019999997 ], [ -45.187342299999955, -18.23478729999993 ], [ -45.182686699999977, -18.239807699999979 ], [ -45.176952499999977, -18.246013799999968 ], [ -45.176271399999962, -18.246613 ], [ -45.175319799999954, -18.247286099999943 ], [ -45.17400889999994, -18.247904099999968 ], [ -45.172955799999961, -18.24819 ], [ -45.172054899999978, -18.248317799999946 ], [ -45.171396, -18.248317599999957 ], [ -45.169711899999982, -18.248289499999942 ], [ -45.168628399999925, -18.248141699999959 ], [ -45.167957699999931, -18.248054799999966 ], [ -45.167461299999957, -18.248017699999924 ], [ -45.167649899999958, -18.248107699999945 ], [ -45.167747399999939, -18.248200899999965 ], [ -45.167798, -18.248264799999966 ], [ -45.167816499999958, -18.248361399999968 ], [ -45.167795, -18.248526499999965 ], [ -45.167765899999949, -18.248618 ], [ -45.167766699999952, -18.248714799999959 ], [ -45.167803, -18.24879169999997 ], [ -45.167870899999961, -18.248858499999937 ], [ -45.167961199999979, -18.248889499999958 ], [ -45.168063899999943, -18.248892699999942 ], [ -45.168145199999969, -18.248871 ], [ -45.168205, -18.248825599999986 ], [ -45.168263399999951, -18.248772199999951 ], [ -45.168423699999948, -18.24866069999997 ], [ -45.168660899999963, -18.248546 ], [ -45.169461699999943, -18.24846209999993 ], [ -45.169811399999958, -18.248435399999948 ], [ -45.170439499999937, -18.24843349999998 ], [ -45.170843899999959, -18.248449899999969 ], [ -45.171372899999945, -18.248501499999985 ], [ -45.171960599999977, -18.24857029999993 ], [ -45.183276499999984, -18.249863799999964 ], [ -45.186768099999938, -18.250269799999966 ], [ -45.191690199999989, -18.250850199999935 ], [ -45.191704099999981, -18.250908699999965 ], [ -45.192744, -18.254121599999969 ], [ -45.190676, -18.255018 ], [ -45.192585099999974, -18.256292899999959 ], [ -45.193295099999943, -18.257112899999978 ], [ -45.195336199999986, -18.258264 ], [ -45.19597669999996, -18.258808099999964 ], [ -45.205733699999946, -18.258835599999941 ], [ -45.205679599999939, -18.258727099999934 ], [ -45.205875, -18.258776399999938 ], [ -45.206564, -18.258814799999989 ], [ -45.208882199999948, -18.258944 ], [ -45.209825399999943, -18.258996599999939 ], [ -45.211952, -18.259115099999963 ], [ -45.211804799999982, -18.258801699999925 ], [ -45.211728799999946, -18.258766 ], [ -45.211316499999953, -18.25827129999994 ], [ -45.211084099999937, -18.257979 ], [ -45.210821799999962, -18.257716599999981 ], [ -45.21063439999994, -18.25753669999996 ], [ -45.210387, -18.257364299999935 ], [ -45.210027199999956, -18.257062599999916 ], [ -45.209764899999975, -18.256892099999956 ], [ -45.209577499999973, -18.256674699999969 ], [ -45.209337599999976, -18.256247499999972 ], [ -45.209365199999979, -18.256209 ], [ -45.213043399999947, -18.25444989999994 ], [ -45.21366729999994, -18.254630399999932 ], [ -45.21446949999995, -18.254416 ], [ -45.215591099999983, -18.254669899999957 ], [ -45.217491, -18.253778299999954 ], [ -45.218737299999937, -18.253744499999986 ], [ -45.219789099999957, -18.253073 ], [ -45.219806899999988, -18.252339399999986 ], [ -45.220341699999949, -18.251910499999944 ], [ -45.221328, -18.251713 ], [ -45.222445099999959, -18.251351899999978 ], [ -45.222770599999933, -18.251207399999934 ], [ -45.22660419999994, -18.259649499999973 ], [ -45.227207499999963, -18.259309199999961 ], [ -45.227625199999977, -18.258814199999971 ], [ -45.228414099999959, -18.258597599999966 ], [ -45.229264799999946, -18.258040799999947 ], [ -45.229801, -18.257836699999935 ], [ -45.230623299999934, -18.2575055 ], [ -45.231122, -18.256967299999939 ], [ -45.231882, -18.256552499999948 ], [ -45.232271099999927, -18.256161699999943 ], [ -45.232299799999964, -18.255882499999931 ], [ -45.23237969999996, -18.255354799999978 ], [ -45.231784399999988, -18.255000299999953 ], [ -45.231430799999941, -18.255039899999925 ], [ -45.230211599999961, -18.254816499999951 ], [ -45.22967309999995, -18.255322699999965 ], [ -45.229449899999963, -18.255118799999938 ], [ -45.229339299999936, -18.254482499999934 ], [ -45.229099099999985, -18.254160699999943 ], [ -45.228785699999953, -18.254042699999953 ], [ -45.228363199999933, -18.254137599999979 ], [ -45.228090699999939, -18.254123799999945 ], [ -45.227759299999946, -18.254213799999931 ], [ -45.228315099999975, -18.25386879999996 ], [ -45.228233399999972, -18.253732699999944 ], [ -45.228269599999976, -18.253457299999987 ], [ -45.228118299999949, -18.253232499999974 ], [ -45.227984899999967, -18.252975699999968 ], [ -45.228553399999953, -18.252846899999955 ], [ -45.228816, -18.252867 ], [ -45.229040099999963, -18.25273 ], [ -45.229058899999984, -18.252523099999969 ], [ -45.228885899999973, -18.252164199999971 ], [ -45.228514099999977, -18.251855399999954 ], [ -45.228809199999951, -18.25174689999994 ], [ -45.228998199999978, -18.251072299999976 ], [ -45.228092, -18.250046499999932 ], [ -45.227565699999957, -18.249621299999937 ], [ -45.226415, -18.249672699999966 ], [ -45.225192599999957, -18.249856899999934 ], [ -45.224634399999957, -18.250334899999924 ], [ -45.224288199999933, -18.250550599999951 ], [ -45.223975199999984, -18.250703399999963 ], [ -45.224488, -18.250285599999927 ], [ -45.224914899999931, -18.249710699999969 ], [ -45.224703699999964, -18.249417499999939 ], [ -45.224305099999981, -18.24927269999996 ], [ -45.224072899999953, -18.249236399999965 ], [ -45.223882299999964, -18.24913469999996 ], [ -45.22365469999994, -18.24898369999994 ], [ -45.223533099999948, -18.248889899999948 ], [ -45.223327, -18.248856 ], [ -45.223168699999967, -18.248905799999932 ], [ -45.222990799999934, -18.248972899999956 ], [ -45.223412, -18.248673599999954 ], [ -45.22352, -18.248313399999969 ], [ -45.223499199999935, -18.247974799999941 ], [ -45.223407799999968, -18.247644 ], [ -45.223174499999963, -18.247532499999984 ], [ -45.22296579999994, -18.247309899999934 ], [ -45.222939799999956, -18.246904499999978 ], [ -45.223013499999979, -18.246538899999955 ], [ -45.22310479999993, -18.246394 ], [ -45.223226099999984, -18.246108899999967 ], [ -45.223343499999935, -18.246149099999975 ], [ -45.223225, -18.246472399999956 ], [ -45.22364059999996, -18.246515899999967 ], [ -45.224285799999961, -18.246764099999957 ], [ -45.224962099999971, -18.246887499999971 ], [ -45.225517199999956, -18.245994299999943 ], [ -45.225814, -18.245418299999915 ], [ -45.225749899999975, -18.244634799999972 ], [ -45.225239699999968, -18.243889099999926 ], [ -45.224618599999985, -18.243388099999958 ], [ -45.223970199999933, -18.243017499999947 ], [ -45.223394099999958, -18.242845299999935 ], [ -45.223160099999973, -18.242675899999938 ], [ -45.222800599999978, -18.242695 ], [ -45.222444, -18.2426278 ], [ -45.2222364, -18.242652699999955 ], [ -45.222427, -18.242419 ], [ -45.222436199999954, -18.242172499999977 ], [ -45.222386399999948, -18.24186739999994 ], [ -45.22235749999993, -18.241534599999969 ], [ -45.222167099999979, -18.241359199999973 ], [ -45.221929199999977, -18.241333199999932 ], [ -45.221586499999951, -18.241510499999944 ], [ -45.22140219999995, -18.241524199999965 ], [ -45.22160109999993, -18.241411499999963 ], [ -45.221766, -18.241329699999937 ], [ -45.221991199999941, -18.241204899999968 ], [ -45.221815799999945, -18.241102299999959 ], [ -45.221675, -18.240847399999947 ], [ -45.221953399999961, -18.241076899999946 ], [ -45.222256899999934, -18.241191699999948 ], [ -45.222532499999943, -18.241358 ], [ -45.222724899999946, -18.241629699999969 ], [ -45.222927699999964, -18.242080599999944 ], [ -45.223414, -18.241976099999931 ], [ -45.223682099999955, -18.24132909999998 ], [ -45.223871699999961, -18.24054619999993 ], [ -45.223715699999957, -18.240224899999937 ], [ -45.22391639999995, -18.239717199999962 ], [ -45.223662899999965, -18.239195299999942 ], [ -45.223858299999961, -18.239381599999938 ], [ -45.224072199999966, -18.239514 ], [ -45.224049899999947, -18.239636799999964 ], [ -45.224332899999979, -18.2398492 ], [ -45.224223099999961, -18.239966 ], [ -45.224666599999978, -18.24073479999992 ], [ -45.225138, -18.241049199999974 ], [ -45.225405599999931, -18.241067199999961 ], [ -45.225628399999955, -18.24132939999992 ], [ -45.226400199999944, -18.241661 ], [ -45.226858499999942, -18.241755699999946 ], [ -45.227252799999967, -18.241592699999959 ], [ -45.227457399999935, -18.241205899999951 ], [ -45.227579, -18.240793199999928 ], [ -45.227648, -18.240311899999945 ], [ -45.227896199999968, -18.240068099999966 ], [ -45.228128099999935, -18.23974689999995 ], [ -45.22817, -18.239574199999929 ], [ -45.228044799999957, -18.239324199999942 ], [ -45.228391499999923, -18.239309 ], [ -45.228735099999938, -18.23889239999993 ], [ -45.229288599999968, -18.238204599999957 ], [ -45.229219299999954, -18.238051899999952 ], [ -45.229408799999931, -18.238057699999963 ], [ -45.229515399999968, -18.237863499999936 ], [ -45.229699899999957, -18.237729599999973 ], [ -45.22961829999997, -18.237479499999946 ], [ -45.229685299999971, -18.237407699999952 ], [ -45.229838399999949, -18.237487399999967 ], [ -45.229900899999969, -18.237337899999947 ], [ -45.229802799999959, -18.237199799999924 ], [ -45.229920399999969, -18.237259299999945 ], [ -45.229985799999952, -18.237381 ], [ -45.229917199999932, -18.237562399999959 ], [ -45.229798899999935, -18.23758979999997 ], [ -45.229871099999968, -18.237792699999943 ], [ -45.229707799999979, -18.238162 ], [ -45.229618899999934, -18.238292099999963 ], [ -45.229694199999983, -18.238655299999934 ], [ -45.229427, -18.239055499999949 ], [ -45.229278299999976, -18.23992729999997 ], [ -45.229320099999939, -18.240916599999927 ], [ -45.229506099999973, -18.241722 ], [ -45.229602099999973, -18.24197159999995 ], [ -45.229826, -18.24212 ], [ -45.230087499999961, -18.242175799999931 ], [ -45.230464299999944, -18.242104 ], [ -45.230592, -18.242212299999945 ], [ -45.230688599999958, -18.243098299999918 ], [ -45.231038199999944, -18.243887699999956 ], [ -45.23166249999997, -18.244417 ], [ -45.232513099999949, -18.244776499999958 ], [ -45.233472, -18.244904 ], [ -45.234425899999962, -18.24477069999994 ], [ -45.234933699999942, -18.244383499999959 ], [ -45.235083399999951, -18.24418049999997 ], [ -45.235108199999956, -18.243750199999965 ], [ -45.234448499999985, -18.242621699999962 ], [ -45.234300199999957, -18.24142669999997 ], [ -45.23422469999997, -18.240864599999952 ] ] ], [ [ [ -45.227456, -18.152062 ], [ -45.227089, -18.150981 ], [ -45.226869, -18.150176 ], [ -45.226821099999931, -18.149592499999933 ], [ -45.222402099999954, -18.149943299999968 ], [ -45.215677299999982, -18.155577199999982 ], [ -45.215695899999965, -18.155682399999939 ], [ -45.215988499999987, -18.155855899999953 ], [ -45.2244343, -18.159282099999924 ], [ -45.228974699999981, -18.158679299999967 ], [ -45.228858, -18.158296 ], [ -45.228735, -18.15779 ], [ -45.228366, -18.156064 ], [ -45.228242, -18.155443 ], [ -45.228215, -18.154822 ], [ -45.228092, -18.15427 ], [ -45.227799, -18.153442 ], [ -45.227676, -18.15289 ], [ -45.227456, -18.152062 ] ] ] ] } }
]
}
