{
"type": "FeatureCollection",
"name": "3170404",
"crs": { "type": "name", "properties": { "name": "urn:ogc:def:crs:OGC:1.3:CRS84" } },
"features": [
{ "type": "Feature", "properties": { "CD_MUN": "3170404", "NM_MUN": "Unaí" }, "geometry": { "type": "MultiPolygon", "coordinates": [ [ [ [ -46.575955899999947, -16.605438399999969 ], [ -46.574794699999977, -16.605209399999971 ], [ -46.573978299999965, -16.605112399999928 ], [ -46.573633499999978, -16.605193199999974 ], [ -46.573337099999954, -16.605395299999941 ], [ -46.573194299999955, -16.605581199999961 ], [ -46.572835299999952, -16.606753199999957 ], [ -46.572433, -16.607953399999925 ], [ -46.572285799999968, -16.608215499999957 ], [ -46.571903699999957, -16.608542399999987 ], [ -46.571328499999943, -16.608832699999933 ], [ -46.570302699999964, -16.609326599999967 ], [ -46.569984, -16.609594799999964 ], [ -46.569857099999979, -16.610093199999934 ], [ -46.569819199999984, -16.610761 ], [ -46.569992599999971, -16.610943 ], [ -46.570243699999935, -16.611208 ], [ -46.570574, -16.611627299999959 ], [ -46.571038199999975, -16.611807699999922 ], [ -46.571740099999943, -16.61187369999994 ], [ -46.571915299999944, -16.612015 ], [ -46.572741299999969, -16.613577699999954 ], [ -46.572877799999965, -16.614133199999976 ], [ -46.572788599999967, -16.61464019999995 ], [ -46.572715, -16.615068599999969 ], [ -46.572413899999958, -16.616374599999968 ], [ -46.5722684, -16.617083 ], [ -46.571985399999967, -16.618434499999985 ], [ -46.571675299999981, -16.619785899999965 ], [ -46.571672399999954, -16.620162399999977 ], [ -46.571672399999954, -16.62029369999993 ], [ -46.571706499999948, -16.620608699999934 ], [ -46.571761599999945, -16.621356399999954 ], [ -46.572057499999971, -16.622125099999955 ], [ -46.572405499999945, -16.622923799999956 ], [ -46.572562599999969, -16.623129699999929 ], [ -46.579392799999937, -16.629278 ], [ -46.580043499999938, -16.628800299999966 ], [ -46.593971799999963, -16.616744099999959 ], [ -46.591835699999933, -16.614604399999948 ], [ -46.591692299999977, -16.614460799999957 ], [ -46.58862019999998, -16.611570099999923 ], [ -46.580160399999954, -16.604935499999954 ], [ -46.579988399999941, -16.604917899999982 ], [ -46.579172899999946, -16.605139299999969 ], [ -46.578246, -16.605414099999962 ], [ -46.577354199999945, -16.60549769999994 ], [ -46.576734599999952, -16.60553539999994 ], [ -46.575955899999947, -16.605438399999969 ] ] ], [ [ [ -46.724063899999976, -16.526663299999946 ], [ -46.723739799999976, -16.526510599999956 ], [ -46.723695799999973, -16.526489899999937 ], [ -46.723098499999928, -16.526208599999968 ], [ -46.722897799999942, -16.526165399999968 ], [ -46.722824399999979, -16.526961299999979 ], [ -46.722776099999976, -16.527233299999967 ], [ -46.72258869999996, -16.527493199999981 ], [ -46.722516099999957, -16.527813599999934 ], [ -46.722413399999937, -16.528200499999969 ], [ -46.722558499999934, -16.528436199999923 ], [ -46.72232269999995, -16.528708199999933 ], [ -46.722262299999954, -16.528889599999953 ], [ -46.7221474, -16.529101099999924 ], [ -46.722044699999969, -16.529391299999926 ], [ -46.721585199999936, -16.529994499999926 ], [ -46.721454199999982, -16.530098799999962 ], [ -46.721641599999941, -16.530430799999973 ], [ -46.721847299999979, -16.53104079999996 ], [ -46.722250699999968, -16.531439 ], [ -46.722768, -16.531941899999932 ], [ -46.7230211, -16.53234189999996 ], [ -46.723509299999932, -16.532693499999926 ], [ -46.723974799999951, -16.532965499999939 ], [ -46.724310099999961, -16.533376599999936 ], [ -46.727064399999968, -16.528076599999974 ], [ -46.724063899999976, -16.526663299999946 ] ] ], [ [ [ -46.91066369999993, -16.385729599999934 ], [ -46.910975299999969, -16.385976299999978 ], [ -46.910767599999978, -16.386313899999955 ], [ -46.911589599999957, -16.386856299999973 ], [ -46.911470699999938, -16.38849 ], [ -46.914135, -16.388647799999944 ], [ -46.914145899999944, -16.388582099999958 ], [ -46.91424619999998, -16.386156899999946 ], [ -46.912295599999936, -16.383613899999929 ], [ -46.912606399999966, -16.382231799999953 ], [ -46.913011199999971, -16.380411599999935 ], [ -46.913996099999956, -16.380620299999972 ], [ -46.914713599999978, -16.377576299999944 ], [ -46.913612699999931, -16.377322099999954 ], [ -46.914581799999951, -16.373263299999966 ], [ -46.91396089999995, -16.373132399999971 ], [ -46.914351, -16.371525299999981 ], [ -46.914580599999972, -16.37110019999993 ], [ -46.915035799999941, -16.370754 ], [ -46.914979399999929, -16.370725 ], [ -46.912493799999936, -16.369451799999972 ], [ -46.90977369999996, -16.369433499999964 ], [ -46.909220499999947, -16.369576799999944 ], [ -46.908848099999943, -16.369406599999923 ], [ -46.908215199999972, -16.369190499999945 ], [ -46.907371, -16.368731199999964 ], [ -46.905325299999959, -16.368583399999977 ], [ -46.905188199999941, -16.368077899999943 ], [ -46.905214, -16.366693499999933 ], [ -46.9067778, -16.362703 ], [ -46.908187899999973, -16.361335799999949 ], [ -46.910498299999972, -16.359589699999965 ], [ -46.911100699999963, -16.358978499999985 ], [ -46.912086099999954, -16.357978699999933 ], [ -46.912327, -16.357276399999922 ], [ -46.912408, -16.357081799999939 ], [ -46.912554, -16.35700079999998 ], [ -46.912764699999968, -16.357000799999973 ], [ -46.912975499999952, -16.357081799999953 ], [ -46.913299799999955, -16.357227799999986 ], [ -46.913494299999968, -16.357227799999983 ], [ -46.913769899999977, -16.357081799999936 ], [ -46.913786199999947, -16.356871099999974 ], [ -46.913656499999938, -16.356644099999933 ], [ -46.913445699999954, -16.356530599999921 ], [ -46.913348399999968, -16.356287399999939 ], [ -46.913413299999945, -16.356044199999918 ], [ -46.913559199999952, -16.355849599999949 ], [ -46.913526699999977, -16.355687499999934 ], [ -46.913656499999952, -16.355411899999975 ], [ -46.913656499999938, -16.355071399999947 ], [ -46.913834799999954, -16.354901199999972 ], [ -46.913948299999966, -16.354730899999939 ], [ -46.913899699999945, -16.354277 ], [ -46.91396449999997, -16.354033799999975 ], [ -46.914240099999972, -16.353920299999967 ], [ -46.914321199999954, -16.353709499999972 ], [ -46.914548199999956, -16.353401399999942 ], [ -46.914615799999986, -16.353147899999964 ], [ -46.914691, -16.35296129999994 ], [ -46.914574399999943, -16.352842099999982 ], [ -46.914472099999955, -16.352793799999958 ], [ -46.914431899999954, -16.352774799999963 ], [ -46.914394699999946, -16.352736399999976 ], [ -46.914910099999986, -16.352248399999954 ], [ -46.91526939999995, -16.352026199999958 ], [ -46.915711599999959, -16.351752699999967 ], [ -46.918452399999978, -16.351570599999945 ], [ -46.921222299999954, -16.351379799999961 ], [ -46.923935399999948, -16.351483199999951 ], [ -46.927017099999944, -16.351600599999923 ], [ -46.927408499999956, -16.351572899999951 ], [ -46.927608699999951, -16.351426799999949 ], [ -46.928448099999976, -16.350252899999937 ], [ -46.92979159999993, -16.348384 ], [ -46.929875699999968, -16.348241399999946 ], [ -46.926954, -16.346326 ], [ -46.927737199999974, -16.34466859999997 ], [ -46.926695099999968, -16.343329699999977 ], [ -46.928020099999969, -16.341768099999982 ], [ -46.927189199999937, -16.340794499999962 ], [ -46.92713939999993, -16.340736099999951 ], [ -46.927709499999942, -16.34035649999992 ], [ -46.928069299999947, -16.340030699999936 ], [ -46.9281941, -16.339917799999967 ], [ -46.928564499999936, -16.339553099999918 ], [ -46.929431299999983, -16.33838129999998 ], [ -46.929715, -16.338080399999971 ], [ -46.931154299999946, -16.336758399999947 ], [ -46.9310948, -16.336728299999944 ], [ -46.930734399999949, -16.33654619999993 ], [ -46.93057969999996, -16.336457799999945 ], [ -46.930071399999974, -16.336325199999962 ], [ -46.929894599999955, -16.336082099999949 ], [ -46.929938799999945, -16.335728499999966 ], [ -46.930380799999973, -16.33535269999992 ], [ -46.930714099999932, -16.335350299999956 ], [ -46.930933299999936, -16.335021199999979 ], [ -46.930734399999949, -16.334535 ], [ -46.931043899999963, -16.334291899999986 ], [ -46.931043899999963, -16.333960399999977 ], [ -46.931066, -16.33334149999995 ], [ -46.930955399999959, -16.332855299999956 ], [ -46.930734399999949, -16.332744799999947 ], [ -46.930469199999948, -16.332943699999937 ], [ -46.9300272, -16.333407799999986 ], [ -46.929784099999949, -16.33371719999997 ], [ -46.929452599999941, -16.333805699999971 ], [ -46.929054699999938, -16.333429899999931 ], [ -46.929010499999947, -16.33301 ], [ -46.929209399999934, -16.332811099999958 ], [ -46.929563099999939, -16.332833199999978 ], [ -46.929872499999931, -16.332855299999952 ], [ -46.929894599999955, -16.332612199999961 ], [ -46.930402899999933, -16.332258599999943 ], [ -46.93057969999996, -16.331617599999948 ], [ -46.929916699999978, -16.330799899999931 ], [ -46.929673599999951, -16.330357899999953 ], [ -46.929452599999934, -16.330136799999941 ], [ -46.928855799999951, -16.329937899999944 ], [ -46.928170699999946, -16.329871599999944 ], [ -46.927640299999958, -16.329915799999984 ], [ -46.926513099999966, -16.329982099999953 ], [ -46.925430099999978, -16.330070499999966 ], [ -46.925142799999946, -16.330313699999977 ], [ -46.925098599999963, -16.330799899999938 ], [ -46.925321699999984, -16.331503499999933 ], [ -46.926530399999933, -16.331360899999932 ], [ -46.926953699999949, -16.331374899999943 ], [ -46.927187299999957, -16.331753199999966 ], [ -46.927055899999971, -16.332159499999936 ], [ -46.926603399999976, -16.332916 ], [ -46.926121599999931, -16.333714499999918 ], [ -46.925756699999965, -16.33428889999993 ], [ -46.925391699999977, -16.334667199999945 ], [ -46.924982899999968, -16.334891299999988 ], [ -46.924545, -16.335045399999967 ], [ -46.924063199999978, -16.335031399999938 ], [ -46.923347899999953, -16.334849299999973 ], [ -46.92158139999998, -16.334485 ], [ -46.91984419999995, -16.3339387 ], [ -46.919523, -16.333924699999958 ], [ -46.91890989999996, -16.333910699999933 ], [ -46.918486499999979, -16.334092799999944 ], [ -46.918194499999977, -16.334246899999975 ], [ -46.917960899999969, -16.334457 ], [ -46.917888, -16.334695199999935 ], [ -46.917990099999948, -16.335185499999959 ], [ -46.918165299999941, -16.336302799999931 ], [ -46.918267499999956, -16.337269399999961 ], [ -46.918238299999985, -16.338053899999977 ], [ -46.918077699999969, -16.338796399999971 ], [ -46.917771199999947, -16.33961939999995 ], [ -46.917059499999937, -16.340694599999939 ], [ -46.916344099999947, -16.34171729999996 ], [ -46.915979199999974, -16.342095499999967 ], [ -46.91554119999995, -16.342291699999979 ], [ -46.915117799999955, -16.342277599999921 ], [ -46.914475499999988, -16.342039499999927 ], [ -46.91374559999997, -16.341647199999944 ], [ -46.912599599999965, -16.340946799999937 ], [ -46.912322199999949, -16.340862699999935 ], [ -46.911913399999953, -16.341030899999954 ], [ -46.911908699999977, -16.3410335 ], [ -46.911755399999947, -16.340930199999946 ], [ -46.908744399999932, -16.339392899999957 ], [ -46.908373199999971, -16.338943399999945 ], [ -46.908220699999958, -16.33874829999996 ], [ -46.907856399999957, -16.338282499999934 ], [ -46.907470799999949, -16.337410799999933 ], [ -46.907308599999972, -16.336729699999989 ], [ -46.906984199999954, -16.335654899999938 ], [ -46.906830099999979, -16.335435199999942 ], [ -46.906809699999933, -16.335406199999952 ], [ -46.906585299999968, -16.335086199999989 ], [ -46.905986299999938, -16.334349299999928 ], [ -46.905429399999946, -16.333993899999932 ], [ -46.905128, -16.333801499999918 ], [ -46.905090499999972, -16.333762099999937 ], [ -46.904644899999937, -16.333058499999932 ], [ -46.904796299999937, -16.332520199999966 ], [ -46.904874599999971, -16.332264199999941 ], [ -46.905606499999976, -16.331318099999976 ], [ -46.906043399999923, -16.330717099999969 ], [ -46.906861599999957, -16.329471699999939 ], [ -46.90704889999995, -16.328567799999973 ], [ -46.916555, -16.329396599999946 ], [ -46.916927, -16.329447699999943 ], [ -46.91598579999993, -16.328058 ], [ -46.914902699999978, -16.324734099999951 ], [ -46.914824599999974, -16.323422199999978 ], [ -46.915113399999939, -16.322936499999962 ], [ -46.914958399999932, -16.322810799999946 ], [ -46.914402799999955, -16.322319099999973 ], [ -46.913984299999989, -16.322058 ], [ -46.913487699999962, -16.321748299999971 ], [ -46.913198499999957, -16.321729699999931 ], [ -46.913025499999947, -16.321795699999949 ], [ -46.912602699999979, -16.321957099999963 ], [ -46.911943699999938, -16.322235399999954 ], [ -46.911274099999957, -16.322621099999935 ], [ -46.910604299999932, -16.323048099999934 ], [ -46.909987799999953, -16.323531499999945 ], [ -46.909491499999945, -16.324097599999959 ], [ -46.909125699999954, -16.324618599999948 ], [ -46.908841, -16.324715799999986 ], [ -46.908076899999969, -16.324917699999958 ], [ -46.907490499999938, -16.325015 ], [ -46.906888, -16.325192199999947 ], [ -46.906659099999956, -16.325199499999947 ], [ -46.9062297, -16.325213199999933 ], [ -46.905734299999956, -16.325079899999935 ], [ -46.905167, -16.324828099999927 ], [ -46.904828699999939, -16.324610299999968 ], [ -46.904496399999971, -16.323858799999979 ], [ -46.904217, -16.32346339999998 ], [ -46.903809499999966, -16.322968199999938 ], [ -46.903343299999968, -16.322442199999955 ], [ -46.902467599999966, -16.321558199999973 ], [ -46.902188099999933, -16.321334299999933 ], [ -46.903517799999975, -16.31785889999998 ], [ -46.904086399999983, -16.31651189999997 ], [ -46.905289299999936, -16.313605899999967 ], [ -46.90524419999997, -16.313574199999962 ], [ -46.905209699999943, -16.313547699999948 ], [ -46.903697399999942, -16.312384099999978 ], [ -46.902632599999954, -16.311979499999953 ], [ -46.902206599999943, -16.311681299999982 ], [ -46.901993699999935, -16.311255399999936 ], [ -46.901674199999945, -16.310978499999962 ], [ -46.900843599999973, -16.310935899999944 ], [ -46.900694599999952, -16.31055259999993 ], [ -46.899651, -16.310318299999949 ], [ -46.897883399999955, -16.310360899999989 ], [ -46.896286099999941, -16.31051 ], [ -46.895668499999935, -16.31021179999993 ], [ -46.894901799999957, -16.310808099999974 ], [ -46.894471399999986, -16.311011099999973 ], [ -46.893953499999952, -16.311242099999944 ], [ -46.893373599999961, -16.311500799999983 ], [ -46.892388799999942, -16.311958199999928 ], [ -46.891622099999957, -16.312597099999945 ], [ -46.890663799999977, -16.312149799999929 ], [ -46.889412799999945, -16.312035099999939 ], [ -46.888785899999966, -16.312335 ], [ -46.888566299999987, -16.312349499999982 ], [ -46.888517899999961, -16.312567199999922 ], [ -46.888517899999954, -16.312954199999972 ], [ -46.888396899999975, -16.313075199999957 ], [ -46.888143, -16.313087299999953 ], [ -46.88801, -16.313317 ], [ -46.88801, -16.31351049999995 ], [ -46.88801, -16.313679799999939 ], [ -46.887985799999967, -16.313921699999973 ], [ -46.887889, -16.31401849999996 ], [ -46.887743899999975, -16.314212 ], [ -46.88757459999993, -16.314236099999967 ], [ -46.887453599999965, -16.314332899999947 ], [ -46.887477799999949, -16.314574799999953 ], [ -46.887453599999958, -16.314768299999979 ], [ -46.887236, -16.314816599999972 ], [ -46.88716339999997, -16.315058499999957 ], [ -46.887187599999955, -16.315252 ], [ -46.887308499999961, -16.315566499999935 ], [ -46.8873569, -16.315977599999933 ], [ -46.887405299999955, -16.316122799999956 ], [ -46.887719699999941, -16.316340399999945 ], [ -46.887768099999953, -16.316509799999949 ], [ -46.887550399999945, -16.316751599999979 ], [ -46.887502, -16.316993499999967 ], [ -46.887623, -16.317162799999945 ], [ -46.887743899999975, -16.317235399999959 ], [ -46.887792299999951, -16.317380499999956 ], [ -46.887792299999944, -16.317791699999933 ], [ -46.887695499999943, -16.31825129999994 ], [ -46.88769549999995, -16.318468899999967 ], [ -46.887925299999949, -16.319025199999942 ], [ -46.887961599999983, -16.319315499999959 ], [ -46.887743899999975, -16.319484799999938 ], [ -46.887743899999982, -16.319678299999964 ], [ -46.887937399999934, -16.319871799999937 ], [ -46.887985799999967, -16.3201137 ], [ -46.888082499999932, -16.320258799999969 ], [ -46.8879616, -16.320573199999963 ], [ -46.88801, -16.320766699999986 ], [ -46.8879616, -16.320936 ], [ -46.887816499999985, -16.321032799999951 ], [ -46.887792299999951, -16.321226299999974 ], [ -46.887985799999967, -16.321250499999962 ], [ -46.888082499999939, -16.321444 ], [ -46.888118799999972, -16.321637499999955 ], [ -46.888251799999978, -16.321589099999937 ], [ -46.888360699999971, -16.32145609999997 ], [ -46.888517899999954, -16.321589099999933 ], [ -46.888856499999974, -16.321758399999965 ], [ -46.889025799999963, -16.321831 ], [ -46.889412799999953, -16.321831 ], [ -46.889509599999947, -16.321927699999939 ], [ -46.88950959999994, -16.322266399999947 ], [ -46.889618399999961, -16.322435699999968 ], [ -46.889630499999953, -16.322871 ], [ -46.88950959999994, -16.32313709999994 ], [ -46.889485399999955, -16.323427299999935 ], [ -46.889485399999963, -16.323572499999948 ], [ -46.88992079999997, -16.32347569999996 ], [ -46.889996599999961, -16.323587 ], [ -46.890034299999968, -16.323781499999928 ], [ -46.889959, -16.323976 ], [ -46.889946399999985, -16.324302299999953 ], [ -46.889921299999969, -16.324478 ], [ -46.889902499999955, -16.324653599999976 ], [ -46.889864899999971, -16.324797899999957 ], [ -46.889836599999967, -16.324953899999958 ], [ -46.88981519999993, -16.325071899999955 ], [ -46.88981519999993, -16.325337699999967 ], [ -46.88981519999993, -16.325667 ], [ -46.88981519999993, -16.32567 ], [ -46.889615799999945, -16.32606879999998 ], [ -46.889416399999959, -16.326268199999966 ], [ -46.889383199999941, -16.326600499999937 ], [ -46.889615799999945, -16.326899499999957 ], [ -46.88958249999996, -16.32726509999997 ], [ -46.889349899999964, -16.327497699999974 ], [ -46.889050899999972, -16.327896399999943 ], [ -46.888851499999937, -16.328095799999975 ], [ -46.888851499999937, -16.328361699999956 ], [ -46.888884699999956, -16.328494599999949 ], [ -46.888751799999966, -16.328760399999965 ], [ -46.888486, -16.328993 ], [ -46.888419499999941, -16.329192399999954 ], [ -46.888419499999941, -16.329491499999961 ], [ -46.888353, -16.329757299999933 ], [ -46.888153699999975, -16.329989899999923 ], [ -46.887921099999971, -16.330122799999984 ], [ -46.887754899999955, -16.330421899999983 ], [ -46.887754899999955, -16.330721 ], [ -46.887799399999949, -16.330994799999925 ], [ -46.887746099999966, -16.331287599999932 ], [ -46.887522299999951, -16.331751099999966 ], [ -46.886924199999953, -16.331751099999959 ], [ -46.886691599999956, -16.331917199999964 ], [ -46.886525399999989, -16.332116599999946 ], [ -46.886425699999961, -16.332415699999967 ], [ -46.88645889999998, -16.332781199999939 ], [ -46.886063699999966, -16.332789 ], [ -46.885827599999971, -16.332880899999971 ], [ -46.88579429999993, -16.333479 ], [ -46.885643099999982, -16.333593 ], [ -46.8856282, -16.333877799999986 ], [ -46.885661399999947, -16.334210099999943 ], [ -46.885694699999931, -16.334542399999975 ], [ -46.885877299999947, -16.334673799999951 ], [ -46.886060199999974, -16.334675299999947 ], [ -46.886326, -16.334808199999941 ], [ -46.886492199999964, -16.335007599999926 ], [ -46.886525399999982, -16.335273499999975 ], [ -46.886356699999972, -16.335442099999977 ], [ -46.886226299999976, -16.335572499999952 ], [ -46.885960499999953, -16.335838399999954 ], [ -46.885927299999942, -16.336071 ], [ -46.886069, -16.336196499999982 ], [ -46.886126599999962, -16.33633679999997 ], [ -46.886292799999978, -16.336370099999957 ], [ -46.886492199999964, -16.336403299999972 ], [ -46.886625099999954, -16.336303599999944 ], [ -46.886824499999932, -16.336303599999944 ], [ -46.886819699999933, -16.336601099999928 ], [ -46.886819699999933, -16.336888599999948 ], [ -46.88686759999996, -16.3371016 ], [ -46.887032699999963, -16.337261299999959 ], [ -46.887225799999953, -16.337126599999984 ], [ -46.887455799999948, -16.337184199999967 ], [ -46.887639699999966, -16.33720279999995 ], [ -46.887754899999955, -16.337433399999952 ], [ -46.887721699999986, -16.337666 ], [ -46.887666299999978, -16.337921499999936 ], [ -46.887887799999923, -16.338164499999959 ], [ -46.888150799999949, -16.338145099999977 ], [ -46.888172099999956, -16.338432699999927 ], [ -46.888023, -16.3388 ], [ -46.887687599999936, -16.339108799999966 ], [ -46.88752779999993, -16.339108799999952 ], [ -46.887417099999944, -16.33928319999994 ], [ -46.887501199999981, -16.339465499999971 ], [ -46.887474599999962, -16.339683799999932 ], [ -46.88722969999997, -16.339806299999967 ], [ -46.887262, -16.339992099999961 ], [ -46.887421399999937, -16.340104399999973 ], [ -46.887239799999975, -16.340346599999979 ], [ -46.886841099999977, -16.340346599999961 ], [ -46.886686599999962, -16.34039729999995 ], [ -46.88670819999993, -16.340590199999948 ], [ -46.886803799999939, -16.340711399999982 ], [ -46.886686, -16.340811799999916 ], [ -46.886553099999958, -16.341011199999983 ], [ -46.886521599999988, -16.341238499999982 ], [ -46.886223399999949, -16.341557899999941 ], [ -46.886309399999959, -16.341742199999931 ], [ -46.886486599999948, -16.341897299999971 ], [ -46.886309399999959, -16.341963699999948 ], [ -46.886101, -16.342292699999984 ], [ -46.886329899999971, -16.342633399999951 ], [ -46.886198599999943, -16.342960599999969 ], [ -46.88615429999993, -16.343248599999985 ], [ -46.886265099999946, -16.34338159999994 ], [ -46.886495, -16.343533199999964 ], [ -46.886644899999965, -16.343785499999964 ], [ -46.886583, -16.343990899999941 ], [ -46.887808099999972, -16.344345599999947 ], [ -46.889048, -16.344491499999943 ], [ -46.89032439999994, -16.344418599999912 ], [ -46.892111399999976, -16.344528 ], [ -46.893132499999979, -16.34481969999997 ], [ -46.894463799999983, -16.345710099999962 ], [ -46.894992399999985, -16.346132599999972 ], [ -46.896305299999931, -16.346679599999959 ], [ -46.897180499999934, -16.346825499999969 ], [ -46.898089199999959, -16.346921799999954 ], [ -46.898712199999977, -16.347153699999986 ], [ -46.899284199999954, -16.347243399999957 ], [ -46.899988799999967, -16.347557099999943 ], [ -46.901276799999948, -16.347939899999965 ], [ -46.902157, -16.348718 ], [ -46.902904799999938, -16.349446499999942 ], [ -46.903317099999981, -16.349843499999956 ], [ -46.903129399999955, -16.350202899999942 ], [ -46.903064699999959, -16.350344 ], [ -46.901768599999961, -16.35229 ], [ -46.89767489999997, -16.351070099999948 ], [ -46.895114299999939, -16.350302 ], [ -46.894005199999981, -16.349975099999941 ], [ -46.892996399999959, -16.34983549999993 ], [ -46.892866599999941, -16.349815899999953 ], [ -46.892397899999942, -16.349747199999971 ], [ -46.891785, -16.349766 ], [ -46.89161009999998, -16.349880799999941 ], [ -46.891131899999948, -16.349994699999961 ], [ -46.889697199999937, -16.349711699999947 ], [ -46.887949299999946, -16.348814499999953 ], [ -46.886160499999953, -16.347714199999928 ], [ -46.885690299999972, -16.347875399999975 ], [ -46.8849623, -16.347896599999952 ], [ -46.884214899999961, -16.348059399999947 ], [ -46.882627, -16.348163399999972 ], [ -46.881945399999957, -16.348010699999982 ], [ -46.881298399999928, -16.347788099999931 ], [ -46.881285899999973, -16.347780299999947 ], [ -46.881362, -16.348363799999966 ], [ -46.881256, -16.348867299999945 ], [ -46.880802399999929, -16.349350699999945 ], [ -46.879983, -16.349300399999947 ], [ -46.879089199999946, -16.349172799999959 ], [ -46.878386299999931, -16.349081599999973 ], [ -46.878034299999975, -16.348991199999936 ], [ -46.8767481, -16.348716099999926 ], [ -46.873488, -16.347472299999939 ], [ -46.872267, -16.34691609999992 ], [ -46.870362, -16.345760199999983 ], [ -46.868875299999956, -16.345299199999936 ], [ -46.866993699999966, -16.345475799999967 ], [ -46.864068, -16.34521349999995 ], [ -46.862277799999958, -16.345704 ], [ -46.860732899999959, -16.345952499999964 ], [ -46.860092899999984, -16.346218599999911 ], [ -46.859922, -16.34681839999995 ], [ -46.860396799999933, -16.348673 ], [ -46.860221699999954, -16.349463199999942 ], [ -46.859916799999958, -16.349913499999968 ], [ -46.859411599999937, -16.350307099999956 ], [ -46.860124299999939, -16.35229139999996 ], [ -46.872904299999959, -16.36017019999996 ], [ -46.872954199999988, -16.360197299999975 ], [ -46.872963899999945, -16.360114699999951 ], [ -46.873005099999936, -16.359761099999961 ], [ -46.87310279999997, -16.359062699999974 ], [ -46.873121899999944, -16.358891599999932 ], [ -46.873213199999952, -16.358423899999927 ], [ -46.873289599999964, -16.358016899999935 ], [ -46.873355499999946, -16.357807099999956 ], [ -46.873476499999988, -16.357435199999941 ], [ -46.873765299999945, -16.357037899999973 ], [ -46.873803499999958, -16.356981899999941 ], [ -46.873941499999944, -16.356662 ], [ -46.873960699999941, -16.356338 ], [ -46.873988299999951, -16.355991099999912 ], [ -46.874092299999973, -16.355628399999937 ], [ -46.87425369999994, -16.355255599999964 ], [ -46.8744076, -16.354908099999925 ], [ -46.874518099999932, -16.354494499999927 ], [ -46.874698599999938, -16.353845599999936 ], [ -46.874845099999959, -16.353392699999958 ], [ -46.875089299999956, -16.352812 ], [ -46.875362199999984, -16.352385099999942 ], [ -46.87571249999997, -16.351943 ], [ -46.876222199999972, -16.351353099999933 ], [ -46.876630899999952, -16.350876799999977 ], [ -46.877151699999963, -16.350176299999916 ], [ -46.877412199999981, -16.349932699999961 ], [ -46.877436399999958, -16.349926899999964 ], [ -46.877777899999955, -16.349838299999924 ], [ -46.878179299999942, -16.349907 ], [ -46.878169499999949, -16.349946799999955 ], [ -46.878150899999973, -16.350020199999971 ], [ -46.878009399999932, -16.350438799999964 ], [ -46.878009399999939, -16.350574499999937 ], [ -46.877997599999958, -16.350812099999917 ], [ -46.877761799999973, -16.351637899999968 ], [ -46.877844399999965, -16.352090399999959 ], [ -46.877738299999976, -16.352610799999983 ], [ -46.877785399999944, -16.35374209999997 ], [ -46.877997599999951, -16.355854699999945 ], [ -46.87815089999998, -16.356315699999978 ], [ -46.878139099999935, -16.35687 ], [ -46.878233399999942, -16.357243299999936 ], [ -46.878233399999942, -16.357658899999937 ], [ -46.878233399999942, -16.357956 ], [ -46.878363099999945, -16.358815799999931 ], [ -46.878445599999971, -16.358982599999937 ], [ -46.878456099999937, -16.359364799999973 ], [ -46.878457399999945, -16.359412499999962 ], [ -46.878587099999955, -16.359966799999938 ], [ -46.8785989, -16.361075399999947 ], [ -46.87881109999995, -16.362034099999963 ], [ -46.878822899999939, -16.362452599999923 ], [ -46.878923799999946, -16.362743199999951 ], [ -46.878940799999953, -16.362792 ], [ -46.878893599999969, -16.362973 ], [ -46.87900859999997, -16.363615 ], [ -46.879032199999976, -16.364599099999971 ], [ -46.879209, -16.364949799999973 ], [ -46.879209, -16.365105 ], [ -46.879209, -16.365266499999962 ], [ -46.879338699999948, -16.365806699999954 ], [ -46.879480199999932, -16.367480799999957 ], [ -46.879574499999933, -16.369157799999972 ], [ -46.879701299999965, -16.369482399999981 ], [ -46.879617699999983, -16.372208599999961 ], [ -46.87959179999995, -16.373051899999947 ], [ -46.879574, -16.373550199999947 ], [ -46.879538399999944, -16.373959599999989 ], [ -46.879467199999965, -16.374813899999936 ], [ -46.879894399999962, -16.376095399999933 ], [ -46.879693499999973, -16.377665299999922 ], [ -46.880065599999966, -16.37717879999996 ], [ -46.880409, -16.376620699999929 ], [ -46.880973899999965, -16.376368399999922 ], [ -46.881760099999958, -16.376030299999975 ], [ -46.883170599999971, -16.376219099999954 ], [ -46.883346199999949, -16.37633429999995 ], [ -46.884612, -16.377120599999945 ], [ -46.8848321, -16.377328099999932 ], [ -46.883945299999944, -16.378083799999956 ], [ -46.883844499999945, -16.378176799999942 ], [ -46.88343059999994, -16.378728499999955 ], [ -46.883382599999948, -16.379078799999938 ], [ -46.883378099999959, -16.379241799999939 ], [ -46.883425, -16.379453099999989 ], [ -46.883515599999953, -16.379751799999958 ], [ -46.883725199999958, -16.380118799999931 ], [ -46.882398599999938, -16.38111409999993 ], [ -46.88224619999994, -16.382167899999953 ], [ -46.881684299999961, -16.383648099999952 ], [ -46.8810941, -16.384552899999957 ], [ -46.881663399999979, -16.384858499999964 ], [ -46.881843199999928, -16.38515219999994 ], [ -46.881993, -16.385355899999983 ], [ -46.882999799999936, -16.385859299999932 ], [ -46.883922599999956, -16.385997099999944 ], [ -46.884186299999961, -16.38621889999995 ], [ -46.884307499999984, -16.386372199999979 ], [ -46.884569799999959, -16.386704299999952 ], [ -46.884743599999979, -16.387045899999979 ], [ -46.885091199999977, -16.387135699999916 ], [ -46.885600599999975, -16.387051799999938 ], [ -46.886429, -16.386849099999949 ], [ -46.887058699999955, -16.386422 ], [ -46.887517699999933, -16.386343099999984 ], [ -46.887778899999944, -16.385824399999933 ], [ -46.888295399999954, -16.385297499999982 ], [ -46.888498099999936, -16.384942099999925 ], [ -46.888848399999972, -16.384835599999967 ], [ -46.889240799999982, -16.38448059999995 ], [ -46.889515099999983, -16.384297199999938 ], [ -46.889857399999983, -16.383994699999963 ], [ -46.890044299999943, -16.383957399999922 ], [ -46.890287199999932, -16.384144199999984 ], [ -46.890567499999975, -16.384349799999946 ], [ -46.890866499999966, -16.384349799999939 ], [ -46.890999699999959, -16.384355699999965 ], [ -46.891109399999948, -16.384181599999973 ], [ -46.891240199999977, -16.38392 ], [ -46.891390599999966, -16.383808499999923 ], [ -46.891605499999962, -16.383789 ], [ -46.891761899999949, -16.383456699999964 ], [ -46.891931599999971, -16.38334069999997 ], [ -46.892099799999983, -16.382985699999956 ], [ -46.892137199999986, -16.382742699999934 ], [ -46.89227, -16.382616299999935 ], [ -46.892623, -16.382275599999971 ], [ -46.89282859999998, -16.38186449999996 ], [ -46.892884699999961, -16.381715 ], [ -46.893015499999933, -16.381359899999946 ], [ -46.893364499999961, -16.381170099999963 ], [ -46.893559899999964, -16.381033299999956 ], [ -46.893501299999976, -16.380612499999923 ], [ -46.893501299999976, -16.380134199999922 ], [ -46.893632099999934, -16.379939699999966 ], [ -46.893800299999953, -16.379715499999982 ], [ -46.893968499999978, -16.379528599999972 ], [ -46.894241199999961, -16.379355899999961 ], [ -46.894622499999969, -16.378818499999973 ], [ -46.894865399999965, -16.378650399999959 ], [ -46.8951613, -16.378500899999946 ], [ -46.89561939999993, -16.378150499999947 ], [ -46.895809099999958, -16.377803199999963 ], [ -46.89589749999994, -16.37747219999995 ], [ -46.895891, -16.376759399999987 ], [ -46.896068899999932, -16.376469799999931 ], [ -46.896195299999931, -16.376121399999946 ], [ -46.896420699999965, -16.376000699999967 ], [ -46.896506699999975, -16.37581 ], [ -46.896606399999939, -16.375648099999982 ], [ -46.896811599999978, -16.375570699999965 ], [ -46.89703, -16.375249399999987 ], [ -46.897181499999924, -16.375185699999971 ], [ -46.897290299999952, -16.375066 ], [ -46.89875429999995, -16.376750199999954 ], [ -46.898546299999964, -16.37766559999994 ], [ -46.898532399999965, -16.378594899999943 ], [ -46.897422799999958, -16.383546699999954 ], [ -46.896472599999981, -16.383810199999974 ], [ -46.896611299999961, -16.384330299999917 ], [ -46.896632199999942, -16.384507199999959 ], [ -46.896299299999953, -16.386067599999929 ], [ -46.895296899999948, -16.390573899999936 ], [ -46.897650699999986, -16.392312699999927 ], [ -46.897713599999982, -16.392307 ], [ -46.897762299999961, -16.392302499999978 ], [ -46.897643699999946, -16.393154499999977 ], [ -46.896577599999951, -16.40968329999993 ], [ -46.896384699999949, -16.409689499999949 ], [ -46.896304299999947, -16.410722299999975 ], [ -46.896037, -16.410693099999939 ], [ -46.886342399999933, -16.409379599999966 ], [ -46.88566979999996, -16.414379199999924 ], [ -46.895797899999934, -16.415691499999976 ], [ -46.895905199999959, -16.415744899999943 ], [ -46.896118899999983, -16.415779699999963 ], [ -46.896184599999962, -16.4157762 ], [ -46.895942299999938, -16.41953129999996 ], [ -46.898068599999931, -16.420723199999944 ], [ -46.901107499999974, -16.422486799999945 ], [ -46.901208, -16.422545099999972 ], [ -46.902515499999936, -16.421495399999966 ], [ -46.903238199999976, -16.42052359999996 ], [ -46.906924099999976, -16.413742799999962 ], [ -46.906955599999939, -16.413682599999962 ], [ -46.906994899999972, -16.41361 ], [ -46.910032199999925, -16.408006299999954 ], [ -46.910218499999985, -16.407663799999977 ], [ -46.905991899999954, -16.399773799999931 ], [ -46.908766, -16.391767 ], [ -46.9091792, -16.390633599999951 ], [ -46.907371299999973, -16.388451 ], [ -46.909955399999944, -16.384654799999971 ], [ -46.91094929999997, -16.385275199999981 ], [ -46.91066369999993, -16.385729599999934 ] ] ], [ [ [ -46.954307099999944, -16.318070899999956 ], [ -46.95316749999995, -16.318808499999925 ], [ -46.952335, -16.31934729999994 ], [ -46.952578399999936, -16.319331199999958 ], [ -46.953747199999945, -16.319292099999927 ], [ -46.964159099999961, -16.325873399999974 ], [ -46.964182599999951, -16.325857899999967 ], [ -46.964210299999934, -16.325839599999927 ], [ -46.964226099999962, -16.325813099999941 ], [ -46.965762299999938, -16.323241899999978 ], [ -46.954379199999956, -16.318103499999964 ], [ -46.954307099999944, -16.318070899999956 ] ] ], [ [ [ -46.906566299999952, -16.295995099999978 ], [ -46.90650219999997, -16.294976499999951 ], [ -46.906454699999983, -16.294220699999975 ], [ -46.906333499999967, -16.292645899999957 ], [ -46.906131299999977, -16.291584299999951 ], [ -46.906110199999951, -16.291536699999941 ], [ -46.905779799999941, -16.290790399999928 ], [ -46.904671399999984, -16.288514599999932 ], [ -46.903948, -16.286946199999935 ], [ -46.903679299999965, -16.285538 ], [ -46.903546299999967, -16.284484599999924 ], [ -46.903483899999976, -16.284486799999961 ], [ -46.899748899999963, -16.284618899999931 ], [ -46.899757799999982, -16.285028599999968 ], [ -46.899757799999982, -16.288292399999932 ], [ -46.899230099999961, -16.288859199999933 ], [ -46.899246099999971, -16.289679399999951 ], [ -46.898257299999955, -16.289691199999947 ], [ -46.898297, -16.290911 ], [ -46.899269699999934, -16.290892 ], [ -46.899270499999943, -16.290930599999967 ], [ -46.89932029999995, -16.293475399999977 ], [ -46.899325799999986, -16.293766499999947 ], [ -46.899328, -16.296377499999945 ], [ -46.899328399999945, -16.296870599999973 ], [ -46.898158099999939, -16.303997799999934 ], [ -46.906972799999949, -16.307492299999964 ], [ -46.90601949999995, -16.310678299999942 ], [ -46.906335, -16.310853599999973 ], [ -46.906377099999986, -16.310877 ], [ -46.906423699999948, -16.31090289999997 ], [ -46.906679599999968, -16.311045 ], [ -46.907865299999969, -16.308245799999955 ], [ -46.907854599999943, -16.307208099999979 ], [ -46.907517899999959, -16.307277899999967 ], [ -46.90750369999995, -16.307280899999967 ], [ -46.90744959999995, -16.307292099999916 ], [ -46.906890399999959, -16.30000159999997 ], [ -46.906631399999974, -16.296689399999938 ], [ -46.906566299999952, -16.295995099999978 ] ] ], [ [ [ -46.421548499999965, -16.204705899999961 ], [ -46.422318199999943, -16.20380149999993 ], [ -46.423112099999969, -16.203383599999949 ], [ -46.423683199999971, -16.20209239999997 ], [ -46.423718, -16.202013699999945 ], [ -46.423752799999932, -16.201935 ], [ -46.423181799999952, -16.201099299999946 ], [ -46.422847499999932, -16.200138199999969 ], [ -46.421546799999938, -16.199899599999984 ], [ -46.42142019999995, -16.200580699999918 ], [ -46.421417699999949, -16.200594299999974 ], [ -46.420766799999967, -16.200025 ], [ -46.42053, -16.199899599999981 ], [ -46.420324599999958, -16.199871799999986 ], [ -46.420046, -16.199906599999956 ], [ -46.420031399999978, -16.199931499999931 ], [ -46.419824, -16.200284599999964 ], [ -46.419983199999933, -16.20131589999993 ], [ -46.419758099999967, -16.20180219999996 ], [ -46.419745199999959, -16.202254899999957 ], [ -46.419739099999958, -16.202505099999943 ], [ -46.419964199999981, -16.202896099999975 ], [ -46.419797, -16.203230399999939 ], [ -46.419741299999941, -16.203592599999983 ], [ -46.419741299999949, -16.203968599999939 ], [ -46.420022, -16.204064299999981 ], [ -46.42088659999996, -16.204429 ], [ -46.421548499999965, -16.204705899999961 ] ] ], [ [ [ -46.9573501, -16.159676299999944 ], [ -46.957519799999943, -16.159853399999974 ], [ -46.95774849999998, -16.159964099999964 ], [ -46.957962499999951, -16.159890299999962 ], [ -46.958169099999964, -16.159750099999947 ], [ -46.958305799999948, -16.159628199999929 ], [ -46.95862649999998, -16.159499199999971 ], [ -46.959967499999948, -16.159155899999966 ], [ -46.960649599999954, -16.158969399999933 ], [ -46.96057379999997, -16.158881899999933 ], [ -46.960492199999976, -16.158747799999944 ], [ -46.960387499999968, -16.158538499999953 ], [ -46.96038139999996, -16.15852619999994 ], [ -46.960335399999963, -16.158370499999933 ], [ -46.960294, -16.158243499999966 ], [ -46.960304099999981, -16.157904299999934 ], [ -46.960238, -16.157741099999942 ], [ -46.960210799999977, -16.157523399999938 ], [ -46.960125299999959, -16.157391299999961 ], [ -46.960035899999987, -16.157057 ], [ -46.959822099999947, -16.15675769999995 ], [ -46.959756, -16.156458399999966 ], [ -46.95962, -16.156248499999943 ], [ -46.959534499999968, -16.156166899999967 ], [ -46.959437299999934, -16.156163 ], [ -46.959394499999981, -16.156058099999928 ], [ -46.959309, -16.156073599999957 ], [ -46.959040799999968, -16.155945299999921 ], [ -46.958916399999964, -16.155984199999978 ], [ -46.958846499999943, -16.156003599999966 ], [ -46.958698799999986, -16.156003599999952 ], [ -46.958504399999981, -16.155879299999981 ], [ -46.95823229999997, -16.155824799999944 ], [ -46.958022399999948, -16.155859799999973 ], [ -46.957882499999975, -16.155836499999957 ], [ -46.957777599999986, -16.155754899999973 ], [ -46.957571599999937, -16.155774299999969 ], [ -46.957431299999939, -16.155850099999945 ], [ -46.957299899999953, -16.155824 ], [ -46.957214499999964, -16.155807 ], [ -46.957167499999969, -16.15579769999993 ], [ -46.957087899999976, -16.155781799999954 ], [ -46.955495599999949, -16.155465299999946 ], [ -46.95504909999994, -16.156550099999929 ], [ -46.955010199999947, -16.156644399999955 ], [ -46.95498269999996, -16.156711399999946 ], [ -46.954096299999954, -16.158864699999988 ], [ -46.955105799999956, -16.160090699999962 ], [ -46.955269199999968, -16.159980599999923 ], [ -46.9554548, -16.159855599999947 ], [ -46.955578099999975, -16.159756399999925 ], [ -46.955962, -16.159447399999976 ], [ -46.956154799999979, -16.159580399999978 ], [ -46.956420399999949, -16.159683699999956 ], [ -46.956759799999986, -16.159668899999936 ], [ -46.957195099999979, -16.159528799999968 ], [ -46.9573501, -16.159676299999944 ] ] ], [ [ [ -46.552039599999944, -16.094515 ], [ -46.552247099999931, -16.094926699999959 ], [ -46.552417399999968, -16.09500479999998 ], [ -46.552518499999962, -16.095051099999971 ], [ -46.552652699999953, -16.095112699999966 ], [ -46.552973899999984, -16.095467599999949 ], [ -46.553210499999977, -16.095349299999956 ], [ -46.55344719999993, -16.095619699999929 ], [ -46.553734499999962, -16.09543379999997 ], [ -46.553920399999981, -16.095552099999956 ], [ -46.554157099999941, -16.095738 ], [ -46.55430919999997, -16.095467599999957 ], [ -46.554765599999939, -16.095129599999947 ], [ -46.554850099999953, -16.095247899999954 ], [ -46.55481629999997, -16.095433799999967 ], [ -46.554917699999983, -16.095569 ], [ -46.555745899999977, -16.095349299999949 ], [ -46.555999499999984, -16.095518299999974 ], [ -46.555864199999974, -16.095805699999964 ], [ -46.555796599999951, -16.09610989999992 ], [ -46.556225899999959, -16.096117099999969 ], [ -46.556650399999967, -16.095890699999924 ], [ -46.557273, -16.096286899999935 ], [ -46.557533399999961, -16.095420299999933 ], [ -46.557895599999938, -16.095324699999928 ], [ -46.558178599999962, -16.095126599999954 ], [ -46.557895599999938, -16.094192699999954 ], [ -46.558150299999966, -16.092692799999956 ], [ -46.55826349999996, -16.091843799999932 ], [ -46.558801199999948, -16.091249599999969 ], [ -46.559197399999967, -16.090853399999954 ], [ -46.559593599999971, -16.090598699999916 ], [ -46.560187899999967, -16.090287399999958 ], [ -46.560725499999933, -16.090089299999942 ], [ -46.561327599999963, -16.089834499999949 ], [ -46.561461299999962, -16.089778 ], [ -46.562112199999952, -16.089438399999938 ], [ -46.562763099999984, -16.088900699999957 ], [ -46.563849699999928, -16.08880779999992 ], [ -46.564398799999935, -16.088075599999961 ], [ -46.564787799999984, -16.087801 ], [ -46.565016599999979, -16.087251899999952 ], [ -46.565748799999938, -16.086062099999936 ], [ -46.565917399999933, -16.08595559999997 ], [ -46.566183499999966, -16.085787599999943 ], [ -46.566275, -16.085215499999951 ], [ -46.566549599999973, -16.084826599999936 ], [ -46.566814, -16.084659499999926 ], [ -46.566808599999952, -16.082954399999956 ], [ -46.567039399999942, -16.081470199999952 ], [ -46.567551499999979, -16.080484599999981 ], [ -46.567595199999978, -16.079888699999977 ], [ -46.567344, -16.079505699999963 ], [ -46.567021, -16.078968799999917 ], [ -46.565385799999945, -16.07868279999995 ], [ -46.565236099999929, -16.078711099999964 ], [ -46.562079399999959, -16.07874019999997 ], [ -46.561661, -16.078779099999952 ], [ -46.56065719999998, -16.078667899999971 ], [ -46.55959219999994, -16.078958699999923 ], [ -46.559003599999983, -16.0795 ], [ -46.558764299999943, -16.079596 ], [ -46.557965599999932, -16.080413899999954 ], [ -46.557373899999966, -16.080753699999956 ], [ -46.556247, -16.081495499999949 ], [ -46.555931299999941, -16.08190129999997 ], [ -46.555232299999936, -16.082239499999961 ], [ -46.554781399999968, -16.083502199999955 ], [ -46.554375499999935, -16.083614899999926 ], [ -46.55415, -16.083795299999949 ], [ -46.554037299999948, -16.084426599999965 ], [ -46.553856899999978, -16.085080499999947 ], [ -46.553631499999938, -16.085125599999969 ], [ -46.553428499999946, -16.085328499999957 ], [ -46.552314699999954, -16.084937299999975 ], [ -46.551503399999945, -16.085562699999976 ], [ -46.550776499999984, -16.086576799999929 ], [ -46.550455399999976, -16.087607899999966 ], [ -46.549982099999973, -16.0885206 ], [ -46.549796199999946, -16.089095299999943 ], [ -46.549677899999949, -16.089703799999942 ], [ -46.549458099999988, -16.090244699999971 ], [ -46.549137, -16.09051509999993 ], [ -46.548883399999973, -16.090971499999956 ], [ -46.548460899999952, -16.091630699999953 ], [ -46.548342599999962, -16.091951899999962 ], [ -46.548241099999984, -16.092205399999941 ], [ -46.548291899999981, -16.092763199999986 ], [ -46.548359499999954, -16.093016699999957 ], [ -46.548494699999935, -16.09335479999994 ], [ -46.549086299999949, -16.093557599999944 ], [ -46.549846899999984, -16.093642099999958 ], [ -46.550354, -16.093337899999934 ], [ -46.55097939999996, -16.093456199999938 ], [ -46.550945599999977, -16.093811099999986 ], [ -46.551232899999945, -16.093912599999957 ], [ -46.551013199999936, -16.09426749999994 ], [ -46.551030099999934, -16.094368899999953 ], [ -46.551317399999959, -16.094571799999933 ], [ -46.551587899999952, -16.094402699999936 ], [ -46.552039599999944, -16.094515 ] ] ], [ [ [ -46.842823, -16.036718 ], [ -46.842382099999952, -16.036472499999938 ], [ -46.842154799999939, -16.036272499999946 ], [ -46.841941099999985, -16.036267899999931 ], [ -46.841732, -16.036177 ], [ -46.84153189999995, -16.036172499999967 ], [ -46.841345499999932, -16.036127 ], [ -46.84120919999998, -16.036067899999967 ], [ -46.841040899999939, -16.035895099999959 ], [ -46.84095, -16.035726899999919 ], [ -46.840868199999939, -16.035631499999962 ], [ -46.840781799999945, -16.035599599999951 ], [ -46.84055, -16.035613299999959 ], [ -46.840440799999953, -16.03566329999995 ], [ -46.840327199999933, -16.035686 ], [ -46.8400726, -16.03563149999998 ], [ -46.839922599999959, -16.035495099999938 ], [ -46.839936199999947, -16.035199599999935 ], [ -46.839904099999956, -16.034769899999969 ], [ -46.839818199999975, -16.0346906 ], [ -46.839741099999976, -16.034549599999941 ], [ -46.839492199999938, -16.03440639999997 ], [ -46.839445899999937, -16.034283 ], [ -46.839410699999974, -16.034133199999928 ], [ -46.839287299999967, -16.034053899999954 ], [ -46.839110599999977, -16.033979299999938 ], [ -46.839067599999971, -16.033529899999959 ], [ -46.838529, -16.033487 ], [ -46.838069699999956, -16.033496899999939 ], [ -46.837494799999945, -16.033599299999931 ], [ -46.837081699999942, -16.03369189999994 ], [ -46.836863599999965, -16.033744699999954 ], [ -46.836572899999965, -16.034171 ], [ -46.836318399999975, -16.034432 ], [ -46.836037599999941, -16.034703 ], [ -46.83544959999994, -16.034861599999946 ], [ -46.835060899999974, -16.035422699999977 ], [ -46.83473239999995, -16.035860699999944 ], [ -46.834547099999952, -16.036029099999958 ], [ -46.83462289999995, -16.036273399999978 ], [ -46.835010299999965, -16.036475499999931 ], [ -46.835103, -16.03666079999994 ], [ -46.834959799999986, -16.036829299999958 ], [ -46.834050099999956, -16.036938799999977 ], [ -46.83354479999997, -16.036947199999926 ], [ -46.8330984, -16.036997799999931 ], [ -46.832862499999969, -16.037199899999962 ], [ -46.833123699999931, -16.03752 ], [ -46.832955199999958, -16.037781099999965 ], [ -46.832685699999963, -16.037915799999954 ], [ -46.831989299999975, -16.037763299999948 ], [ -46.832201199999986, -16.038238499999967 ], [ -46.832270199999982, -16.039457399999943 ], [ -46.832331299999971, -16.04011219999996 ], [ -46.83241419999996, -16.040794699999942 ], [ -46.835053199999948, -16.041828199999941 ], [ -46.835817799999973, -16.041028799999943 ], [ -46.836682099999969, -16.040153199999967 ], [ -46.836702, -16.040154299999923 ], [ -46.836723399999983, -16.040155499999965 ], [ -46.839187299999935, -16.04201779999994 ], [ -46.841016, -16.039371499999962 ], [ -46.842823, -16.036718 ] ] ] ] } }
]
}
