{
"type": "FeatureCollection",
"name": "3171204",
"crs": { "type": "name", "properties": { "name": "urn:ogc:def:crs:OGC:1.3:CRS84" } },
"features": [
{ "type": "Feature", "properties": { "CD_MUN": "3171204", "NM_MUN": "Vespasiano" }, "geometry": { "type": "MultiPolygon", "coordinates": [ [ [ [ -43.96672319999994, -19.791338299999953 ], [ -43.967038199999941, -19.790845399999967 ], [ -43.967635599999937, -19.789912899999923 ], [ -43.967848599999968, -19.789580399999981 ], [ -43.968298699999934, -19.788877899999946 ], [ -43.968544099999974, -19.788494899999936 ], [ -43.968575499999986, -19.788443099999935 ], [ -43.968606499999972, -19.788391799999932 ], [ -43.968626199999967, -19.788376299999968 ], [ -43.968651799999968, -19.788356199999956 ], [ -43.96867819999995, -19.788335499999956 ], [ -43.96873259999996, -19.788289199999944 ], [ -43.968827899999958, -19.788264099999928 ], [ -43.969103499999967, -19.78822469999993 ], [ -43.96944979999995, -19.788209799999954 ], [ -43.96952959999993, -19.788192599999935 ], [ -43.969963899999982, -19.787526499999952 ], [ -43.970266699999968, -19.787057 ], [ -43.97033719999996, -19.786947699999935 ], [ -43.970388499999956, -19.786862099999947 ], [ -43.970626699999968, -19.786528 ], [ -43.970635099999981, -19.78651619999993 ], [ -43.970746699999957, -19.786369799999928 ], [ -43.970940799999937, -19.786115199999934 ], [ -43.971175, -19.785861299999961 ], [ -43.97118009999997, -19.785855799999975 ], [ -43.971347099999953, -19.785741 ], [ -43.971424899999938, -19.785712399999966 ], [ -43.971538399999986, -19.785670599999943 ], [ -43.971691399999941, -19.785651899999941 ], [ -43.971885, -19.785547299999955 ], [ -43.971899299999968, -19.785539599999939 ], [ -43.97224109999997, -19.785355 ], [ -43.97234339999995, -19.785268699999943 ], [ -43.972464099999968, -19.785159799999974 ], [ -43.972468599999964, -19.78515579999992 ], [ -43.972724399999947, -19.784826399999929 ], [ -43.972770799999985, -19.784766599999951 ], [ -43.972822899999983, -19.784699499999927 ], [ -43.973070799999959, -19.78438019999993 ], [ -43.973144699999985, -19.784285099999984 ], [ -43.973290799999972, -19.784107699999936 ], [ -43.973376499999979, -19.784003599999942 ], [ -43.973434199999986, -19.783933599999955 ], [ -43.973489099999931, -19.783894799999928 ], [ -43.973541599999976, -19.783857599999983 ], [ -43.973568, -19.783839 ], [ -43.973637399999973, -19.78379 ], [ -43.973717799999974, -19.783727899999977 ], [ -43.974184, -19.783501099999963 ], [ -43.974288, -19.783439199999982 ], [ -43.974944599999958, -19.78304879999996 ], [ -43.975239399999971, -19.783144799999942 ], [ -43.975271099999929, -19.782925199999969 ], [ -43.975404299999987, -19.782867599999975 ], [ -43.975188, -19.782429799999932 ], [ -43.975287799999933, -19.782226599999937 ], [ -43.975330699999965, -19.782228599999932 ], [ -43.975386299999968, -19.782284099999956 ], [ -43.975330099999951, -19.78219 ], [ -43.975314, -19.782163099999931 ], [ -43.975314199999964, -19.782156399999973 ], [ -43.975316, -19.782066099999952 ], [ -43.975358799999981, -19.781870299999987 ], [ -43.975386199999946, -19.781726799999934 ], [ -43.975392399999976, -19.78169459999997 ], [ -43.975398699999978, -19.781661399999965 ], [ -43.975566, -19.781448699999952 ], [ -43.975585, -19.7814246 ], [ -43.975594699999931, -19.781395299999932 ], [ -43.975645899999961, -19.781241199999958 ], [ -43.975629399999946, -19.781043399999923 ], [ -43.975612899999931, -19.780862199999934 ], [ -43.9756278, -19.780753199999936 ], [ -43.975662399999976, -19.780499599999917 ], [ -43.975712599999945, -19.780277599999959 ], [ -43.975761199999958, -19.780063 ], [ -43.975824199999984, -19.779738199999937 ], [ -43.975831399999947, -19.779700599999952 ], [ -43.975882699999943, -19.779444299999962 ], [ -43.975885499999947, -19.779430499999943 ], [ -43.976020099999971, -19.779130399999925 ], [ -43.976106699999946, -19.778956399999959 ], [ -43.976100799999983, -19.778860599999977 ], [ -43.975942499999974, -19.778555199999978 ], [ -43.975770699999941, -19.77836139999993 ], [ -43.975651899999946, -19.778187299999956 ], [ -43.975649799999985, -19.778176899999952 ], [ -43.975634099999979, -19.778098099999976 ], [ -43.975569599999979, -19.777775899999934 ], [ -43.975445, -19.777524299999971 ], [ -43.975348899999972, -19.777305399999932 ], [ -43.975308199999972, -19.777165499999953 ], [ -43.975325899999973, -19.776946299999974 ], [ -43.975307699999973, -19.776729499999931 ], [ -43.975331899999965, -19.776547899999962 ], [ -43.975341399999934, -19.776477399999973 ], [ -43.975450499999972, -19.776214699999976 ], [ -43.97575089999998, -19.776052899999975 ], [ -43.975887399999976, -19.775959499999946 ], [ -43.976015499999967, -19.775870199999915 ], [ -43.97616979999998, -19.775762499999921 ], [ -43.976360899999975, -19.775629199999962 ], [ -43.976433099999959, -19.775578799999952 ], [ -43.976979, -19.775198 ], [ -43.976983299999972, -19.775196899999965 ], [ -43.97732, -19.775107 ], [ -43.977528, -19.77498 ], [ -43.977748, -19.774808 ], [ -43.978004, -19.77459 ], [ -43.978187, -19.774429 ], [ -43.978383, -19.774234 ], [ -43.978578, -19.774062 ], [ -43.978581299999981, -19.77405819999996 ], [ -43.97859729999994, -19.7740449 ], [ -43.97948, -19.773471199999967 ], [ -43.980390299999954, -19.772912599999916 ], [ -43.980428899999929, -19.772888899999945 ], [ -43.980504499999945, -19.772842599999919 ], [ -43.980605, -19.772823 ], [ -43.980837, -19.772732 ], [ -43.980865399999978, -19.772703599999947 ], [ -43.980914599999949, -19.772654399999976 ], [ -43.981042, -19.772527 ], [ -43.981044, -19.772525 ], [ -43.981068299999954, -19.772496599999954 ], [ -43.981286099999984, -19.772362899999962 ], [ -43.981421699999942, -19.772279699999956 ], [ -43.982283799999948, -19.771404799999978 ], [ -43.982305199999985, -19.771383099999973 ], [ -43.982306299999948, -19.771382 ], [ -43.983084899999938, -19.771064599999931 ], [ -43.983200299999972, -19.771017499999974 ], [ -43.983250799999958, -19.770992299999939 ], [ -43.983226099999968, -19.7707205 ], [ -43.983226099999968, -19.770563899999946 ], [ -43.983129199999951, -19.770241699999929 ], [ -43.98311689999997, -19.770010599999981 ], [ -43.98311659999996, -19.770004399999952 ], [ -43.983120699999979, -19.76970429999994 ], [ -43.983122, -19.769603199999956 ], [ -43.983041, -19.769281099999944 ], [ -43.983013399999955, -19.769150499999974 ], [ -43.982994699999956, -19.769062199999961 ], [ -43.982999599999971, -19.768740499999986 ], [ -43.983009199999969, -19.768652099999922 ], [ -43.983032799999933, -19.768436699999931 ], [ -43.983001299999955, -19.768310299999943 ], [ -43.982956199999933, -19.768184699999946 ], [ -43.982928, -19.768054699999936 ], [ -43.983076, -19.767758799999967 ], [ -43.983279499999981, -19.767518299999942 ], [ -43.983563099999976, -19.767191499999964 ], [ -43.983693699999947, -19.767045699999979 ], [ -43.984128699999985, -19.766559799999975 ], [ -43.984351099999962, -19.766402 ], [ -43.984378899999975, -19.766397699999978 ], [ -43.984621499999953, -19.766360199999941 ], [ -43.984806399999975, -19.766260099999958 ], [ -43.985175899999945, -19.766081399999965 ], [ -43.985824599999937, -19.766137499999957 ], [ -43.986069599999958, -19.766186799999954 ], [ -43.98630959999997, -19.766170499999927 ], [ -43.986497699999973, -19.766187499999944 ], [ -43.986571599999934, -19.766194199999973 ], [ -43.986797499999966, -19.765785199999986 ], [ -43.987035499999941, -19.765421499999942 ], [ -43.98732959999996, -19.765403299999946 ], [ -43.987635699999949, -19.765452899999946 ], [ -43.988001599999961, -19.765550799999957 ], [ -43.988299099999949, -19.765679099999947 ], [ -43.988415599999939, -19.765729299999975 ], [ -43.988653699999929, -19.765848899999988 ], [ -43.988744799999949, -19.765894699999922 ], [ -43.988922599999974, -19.766309599999932 ], [ -43.989055299999961, -19.766449499999965 ], [ -43.98931609999994, -19.766603499999963 ], [ -43.989334899999967, -19.766614599999969 ], [ -43.98952079999998, -19.766611899999926 ], [ -43.98973959999995, -19.766608699999956 ], [ -43.990046599999971, -19.766510199999978 ], [ -43.990244899999936, -19.766398299999945 ], [ -43.990386099999967, -19.765881 ], [ -43.99040709999997, -19.765804199999934 ], [ -43.990653699999946, -19.765569899999949 ], [ -43.990706199999977, -19.765314499999935 ], [ -43.990746199999933, -19.765119799999987 ], [ -43.990912699999974, -19.764811599999977 ], [ -43.990875699999947, -19.764466299999981 ], [ -43.990888, -19.764040799999979 ], [ -43.99111, -19.763615399999935 ], [ -43.991483399999936, -19.763545399999941 ], [ -43.991603199999986, -19.763522899999938 ], [ -43.991738499999933, -19.763525399999942 ], [ -43.991910799999971, -19.763569599999968 ], [ -43.991948, -19.763579099999966 ], [ -43.991976299999976, -19.763586299999925 ], [ -43.991987299999948, -19.763589199999945 ], [ -43.992065699999955, -19.763609199999973 ], [ -43.992318899999937, -19.763590699999952 ], [ -43.992492899999945, -19.763585599999935 ], [ -43.992528099999966, -19.763584599999952 ], [ -43.992787099999937, -19.763356399999971 ], [ -43.993009, -19.763054299999975 ], [ -43.993070699999983, -19.762709 ], [ -43.993027499999982, -19.76241309999995 ], [ -43.99320629999994, -19.762326799999986 ], [ -43.993483799999979, -19.762369899999953 ], [ -43.993816699999968, -19.762456199999978 ], [ -43.994205199999953, -19.762345199999956 ], [ -43.994538099999943, -19.762203399999972 ], [ -43.994741599999941, -19.762024599999975 ], [ -43.994821799999961, -19.761728699999935 ], [ -43.994994399999939, -19.76145119999995 ], [ -43.995081599999935, -19.761276 ], [ -43.995149699999963, -19.761163299999957 ], [ -43.995252799999946, -19.761014299999946 ], [ -43.995370499999979, -19.760853099999963 ], [ -43.995602399999946, -19.76067919999997 ], [ -43.995621, -19.760665299999975 ], [ -43.99563969999997, -19.760651199999938 ], [ -43.995666499999977, -19.760631199999978 ], [ -43.995968599999969, -19.760520199999974 ], [ -43.996232199999952, -19.7605301 ], [ -43.996295399999951, -19.760532499999954 ], [ -43.996339599999942, -19.760515599999962 ], [ -43.99658519999997, -19.760421499999957 ], [ -43.996912, -19.760366 ], [ -43.996924099999951, -19.760113 ], [ -43.996968299999935, -19.759960299999936 ], [ -43.996984099999963, -19.759792199999932 ], [ -43.997022399999935, -19.759630799999965 ], [ -43.997100599999953, -19.759506699999982 ], [ -43.997139899999986, -19.759444199999965 ], [ -43.9972547, -19.759322199999925 ], [ -43.997372299999938, -19.759179 ], [ -43.997419299999933, -19.759097799999942 ], [ -43.997441099999939, -19.759060199999968 ], [ -43.997346799999946, -19.758925399999967 ], [ -43.997252199999934, -19.758839799999983 ], [ -43.997114499999952, -19.75875619999994 ], [ -43.99699279999993, -19.7587091 ], [ -43.996858199999963, -19.758711199999933 ], [ -43.996661699999947, -19.758700599999937 ], [ -43.996520699999969, -19.758679299999987 ], [ -43.996353499999941, -19.758636899999932 ], [ -43.996230299999986, -19.75857329999997 ], [ -43.996158899999955, -19.758384199999977 ], [ -43.9961158, -19.758312299999947 ], [ -43.996054599999979, -19.758210099999932 ], [ -43.996034299999963, -19.758032799999967 ], [ -43.996019899999972, -19.757852899999939 ], [ -43.995988, -19.75771089999995 ], [ -43.99598, -19.757538199999921 ], [ -43.995991199999935, -19.757383499999943 ], [ -43.996077699999944, -19.757215099999939 ], [ -43.996190899999931, -19.757144399999952 ], [ -43.996302499999956, -19.757025499999937 ], [ -43.996313299999947, -19.757014 ], [ -43.996352399999985, -19.75681 ], [ -43.996271699999966, -19.756637 ], [ -43.99612459999998, -19.75656959999997 ], [ -43.995948, -19.756521699999954 ], [ -43.995734, -19.756420699999982 ], [ -43.995658599999956, -19.756258799999955 ], [ -43.995620099999933, -19.756034699999923 ], [ -43.995609599999959, -19.755796399999955 ], [ -43.995573799999931, -19.755596099999945 ], [ -43.995524399999965, -19.755470099999968 ], [ -43.99552139999998, -19.755462299999973 ], [ -43.995459299999936, -19.755316799999946 ], [ -43.995422499999961, -19.755137299999944 ], [ -43.995377599999983, -19.755001599999957 ], [ -43.99528179999993, -19.754810499999945 ], [ -43.995190599999951, -19.754607399999951 ], [ -43.995178599999974, -19.754452099999963 ], [ -43.99518809999995, -19.754292399999944 ], [ -43.995189599999946, -19.754266599999944 ], [ -43.995118499999933, -19.7541419 ], [ -43.995029299999942, -19.754037199999967 ], [ -43.995088499999959, -19.753870099999972 ], [ -43.995100599999944, -19.75383579999993 ], [ -43.994977399999989, -19.753643799999963 ], [ -43.994851899999958, -19.753438499999955 ], [ -43.994726799999974, -19.753265499999941 ], [ -43.994636299999975, -19.753071199999972 ], [ -43.994587199999955, -19.752859 ], [ -43.994583899999959, -19.752783199999946 ], [ -43.994575499999939, -19.752591 ], [ -43.994563899999953, -19.752395599999957 ], [ -43.994575299999951, -19.752081399999948 ], [ -43.994507499999941, -19.751846099999963 ], [ -43.994431199999951, -19.751637499999962 ], [ -43.994383699999965, -19.751454599999928 ], [ -43.9943464, -19.751310799999931 ], [ -43.994366, -19.7510291 ], [ -43.994315399999948, -19.750765199999929 ], [ -43.994303299999956, -19.750658699999988 ], [ -43.994279799999966, -19.75045249999993 ], [ -43.994075699999939, -19.750235699999973 ], [ -43.993761299999967, -19.750063 ], [ -43.993735699999945, -19.749992599999935 ], [ -43.993672, -19.749816899999932 ], [ -43.993651299999954, -19.749611599999987 ], [ -43.99363569999997, -19.749420899999969 ], [ -43.993663899999945, -19.749264799999938 ], [ -43.99368439999995, -19.749150799999949 ], [ -43.993847599999981, -19.74902719999994 ], [ -43.993810099999962, -19.748722299999944 ], [ -43.993804399999931, -19.748675799999944 ], [ -43.99357009999995, -19.748694199999942 ], [ -43.993274199999973, -19.748607899999968 ], [ -43.99311419999998, -19.748530499999955 ], [ -43.992990799999966, -19.748446699999935 ], [ -43.992929599999968, -19.748414299999983 ], [ -43.992771599999969, -19.748330599999978 ], [ -43.992642599999961, -19.748277799999986 ], [ -43.992590199999945, -19.748256299999973 ], [ -43.992517699999951, -19.748149899999937 ], [ -43.992466399999955, -19.748074499999984 ], [ -43.992443799999933, -19.747852899999938 ], [ -43.992419699999971, -19.747593699999975 ], [ -43.992409499999951, -19.747569699999922 ], [ -43.992360399999939, -19.747453799999956 ], [ -43.992291899999934, -19.747326399999974 ], [ -43.992181499999958, -19.747172599999946 ], [ -43.992028699999935, -19.746955499999945 ], [ -43.99200019999995, -19.746689399999976 ], [ -43.991971099999944, -19.746550199999948 ], [ -43.992019399999947, -19.74638 ], [ -43.992094499999951, -19.746231299999984 ], [ -43.992263099999953, -19.745999499999972 ], [ -43.99239259999996, -19.745811699999937 ], [ -43.992421699999973, -19.74566249999998 ], [ -43.992418799999939, -19.745435699999977 ], [ -43.992491, -19.745234199999977 ], [ -43.99260089999995, -19.745092499999927 ], [ -43.992785899999944, -19.744930099999969 ], [ -43.992979499999933, -19.744822899999964 ], [ -43.993281499999966, -19.744874399999944 ], [ -43.993496099999966, -19.744970099999936 ], [ -43.993652599999955, -19.744900299999937 ], [ -43.993806799999959, -19.744726099999983 ], [ -43.993936399999939, -19.744625599999946 ], [ -43.994087299999933, -19.744509799999935 ], [ -43.994350499999939, -19.744366499999959 ], [ -43.994687799999951, -19.744014599999957 ], [ -43.994812399999944, -19.743851799999963 ], [ -43.99506, -19.743574899999931 ], [ -43.995125599999938, -19.743398899999931 ], [ -43.995299199999977, -19.743214499999954 ], [ -43.995549299999944, -19.743231399999953 ], [ -43.995717799999966, -19.74338639999997 ], [ -43.995738799999977, -19.743558499999949 ], [ -43.995819199999971, -19.743685799999984 ], [ -43.995911099999944, -19.743829699999932 ], [ -43.996031499999965, -19.744004199999953 ], [ -43.996207099999936, -19.744027099999983 ], [ -43.996227599999948, -19.743854099999957 ], [ -43.99630529999996, -19.74364729999996 ], [ -43.996274599999936, -19.743496899999968 ], [ -43.996231, -19.743278799999931 ], [ -43.996221399999975, -19.743077199999963 ], [ -43.9961062, -19.742818699999944 ], [ -43.99607959999998, -19.742627099999932 ], [ -43.995890899999949, -19.742445099999941 ], [ -43.995654, -19.742265799999917 ], [ -43.9953412, -19.742214599999947 ], [ -43.995172699999962, -19.742141799999956 ], [ -43.995216399999947, -19.741918099999967 ], [ -43.995376699999952, -19.741813299999937 ], [ -43.995499299999956, -19.741864199999956 ], [ -43.995632499999942, -19.741904499999979 ], [ -43.995758699999953, -19.741875899999961 ], [ -43.995905899999968, -19.741813599999944 ], [ -43.996031199999948, -19.741682099999924 ], [ -43.996182199999971, -19.741563 ], [ -43.996295799999984, -19.741504199999952 ], [ -43.99636309999994, -19.741478699999966 ], [ -43.996418, -19.741457899999947 ], [ -43.996569699999952, -19.741434699999949 ], [ -43.996781899999974, -19.741416699999952 ], [ -43.996963, -19.741394099999987 ], [ -43.99720449999996, -19.741324899999938 ], [ -43.997205399999984, -19.741181299999923 ], [ -43.997082599999935, -19.74105609999998 ], [ -43.997004399999987, -19.74095 ], [ -43.996944199999973, -19.740618599999948 ], [ -43.996855499999988, -19.740441 ], [ -43.996638799999971, -19.74023 ], [ -43.996696199999981, -19.740037499999968 ], [ -43.996846299999959, -19.74000829999995 ], [ -43.997015, -19.739995599999926 ], [ -43.997226399999938, -19.740006699999974 ], [ -43.99737429999994, -19.740183 ], [ -43.997608699999937, -19.74035809999998 ], [ -43.997780599999942, -19.740339299999953 ], [ -43.997884799999945, -19.740236499999988 ], [ -43.998021799999954, -19.740111499999948 ], [ -43.998214699999942, -19.740192 ], [ -43.9983582, -19.740264899999936 ], [ -43.998555099999983, -19.740362299999958 ], [ -43.99865449999993, -19.740440399999958 ], [ -43.998761699999939, -19.740524599999969 ], [ -43.999037299999941, -19.740641 ], [ -43.999039599999939, -19.74064119999997 ], [ -43.999273399999943, -19.740660299999949 ], [ -43.999415299999953, -19.740697299999962 ], [ -43.999692699999962, -19.740506099999955 ], [ -43.99983449999997, -19.740284099999936 ], [ -44.000045299999954, -19.740329299999928 ], [ -44.000284599999929, -19.740364299999946 ], [ -44.000491799999963, -19.740298099999972 ], [ -44.000620399999946, -19.740164099999962 ], [ -44.000710099999942, -19.73995739999997 ], [ -44.000568299999941, -19.739901899999953 ], [ -44.000389599999956, -19.739715699999969 ], [ -44.000285399999939, -19.739518499999974 ], [ -44.000112, -19.739396299999953 ], [ -44.000039399999942, -19.739277499999954 ], [ -43.999911599999962, -19.739232899999937 ], [ -44.000022799999954, -19.739002299999981 ], [ -44.000120499999987, -19.738890599999941 ], [ -44.0001999, -19.73881949999997 ], [ -44.000255799999941, -19.738769399999953 ], [ -44.000442799999973, -19.738726599999943 ], [ -44.000839299999932, -19.738574399999951 ], [ -44.001081499999948, -19.738538 ], [ -44.001267799999937, -19.738630099999948 ], [ -44.001419099999964, -19.738773499999983 ], [ -44.00151, -19.738972699999977 ], [ -44.001616399999932, -19.739149 ], [ -44.001801399999977, -19.739457899999937 ], [ -44.001943199999978, -19.739476399999937 ], [ -44.002073099999961, -19.739375699999989 ], [ -44.002189799999947, -19.739285299999956 ], [ -44.002630899999986, -19.738944099999969 ], [ -44.002743199999934, -19.738760799999973 ], [ -44.002690499999979, -19.73856 ], [ -44.002856799999961, -19.738325 ], [ -44.002928899999972, -19.738156099999969 ], [ -44.003047599999952, -19.738099099999943 ], [ -44.003094499999982, -19.738076599999928 ], [ -44.003326199999947, -19.738072199999966 ], [ -44.003716899999979, -19.738096499999926 ], [ -44.003822899999932, -19.738168699999964 ], [ -44.004028499999947, -19.738320299999934 ], [ -44.00406739999994, -19.738474699999934 ], [ -44.004061199999967, -19.738666 ], [ -44.004167199999983, -19.738771899999957 ], [ -44.004332699999964, -19.738745399999967 ], [ -44.004438699999987, -19.73856 ], [ -44.004670399999959, -19.738487199999952 ], [ -44.004952899999978, -19.738270799999956 ], [ -44.005027799999937, -19.738184799999949 ], [ -44.005059199999948, -19.738148899999945 ], [ -44.005106799999965, -19.738020399999989 ], [ -44.005184499999984, -19.737882499999952 ], [ -44.005190799999973, -19.737780799999939 ], [ -44.005197199999941, -19.737679199999956 ], [ -44.005255699999964, -19.737484 ], [ -44.00528809999998, -19.73743769999993 ], [ -44.005394499999966, -19.737286 ], [ -44.005554299999979, -19.737140699999948 ], [ -44.005552499999965, -19.737121199999933 ], [ -44.005550699999958, -19.737101799999941 ], [ -44.005628699999932, -19.737002199999949 ], [ -44.005773399999946, -19.736817699999975 ], [ -44.00576929999994, -19.736731499999962 ], [ -44.005766299999955, -19.73666749999996 ], [ -44.005542199999979, -19.736521199999974 ], [ -44.005447899999979, -19.736421099999966 ], [ -44.005378299999961, -19.736198699999932 ], [ -44.005288699999944, -19.735935299999934 ], [ -44.005245499999944, -19.735840099999962 ], [ -44.005202199999985, -19.735745 ], [ -44.005279399999957, -19.735574 ], [ -44.00531159999997, -19.735325399999979 ], [ -44.005395199999953, -19.735224299999974 ], [ -44.005474699999979, -19.735128099999951 ], [ -44.005478699999976, -19.735123199999972 ], [ -44.005688, -19.734992499999979 ], [ -44.005841, -19.73487739999997 ], [ -44.006164499999961, -19.73478759999994 ], [ -44.006376599999953, -19.734729699999939 ], [ -44.006379899999956, -19.734724099999926 ], [ -44.00651449999998, -19.734494599999941 ], [ -44.00650909999996, -19.734392599999975 ], [ -44.006503799999962, -19.734290599999948 ], [ -44.006549699999937, -19.734185 ], [ -44.006621299999949, -19.734020299999944 ], [ -44.006831099999943, -19.733770699999987 ], [ -44.007276799999936, -19.733571599999944 ], [ -44.007421, -19.733344899999967 ], [ -44.00762659999998, -19.7330603 ], [ -44.007688899999948, -19.732974 ], [ -44.007692, -19.732925099999932 ], [ -44.007709499999976, -19.732644299999944 ], [ -44.007606499999952, -19.732417599999966 ], [ -44.007432, -19.732354099999952 ], [ -44.007364699999982, -19.732251899999934 ], [ -44.007331, -19.732200799999934 ], [ -44.007297399999963, -19.732149699999976 ], [ -44.007379799999974, -19.731737599999978 ], [ -44.007425499999961, -19.731320599999936 ], [ -44.007443299999984, -19.731157199999927 ], [ -44.007202399999983, -19.730577699999976 ], [ -44.007195399999951, -19.730527399999975 ], [ -44.007157199999945, -19.730250899999923 ], [ -44.007111899999984, -19.729924199999978 ], [ -44.006926499999963, -19.729202899999947 ], [ -44.006946499999977, -19.729057599999969 ], [ -44.00700889999996, -19.728605299999977 ], [ -44.007020299999965, -19.728536599999927 ], [ -44.007050099999965, -19.72835809999998 ], [ -44.006920799999932, -19.727933299999947 ], [ -44.006905899999936, -19.7278841 ], [ -44.006782299999941, -19.727729599999972 ], [ -44.006658599999987, -19.727575 ], [ -44.006431899999939, -19.727162899999939 ], [ -44.006431899999939, -19.726853799999962 ], [ -44.006431899999939, -19.726682699999984 ], [ -44.006431899999939, -19.726544699999987 ], [ -44.006473099999944, -19.726266399999933 ], [ -44.006482099999964, -19.726206 ], [ -44.006514299999935, -19.72598829999993 ], [ -44.006590399999943, -19.725790499999967 ], [ -44.006617399999982, -19.725720399999943 ], [ -44.006905899999936, -19.725699799999987 ], [ -44.007091299999956, -19.725390699999924 ], [ -44.007688899999948, -19.725122799999951 ], [ -44.007853799999964, -19.724772499999965 ], [ -44.008028799999977, -19.724668799999961 ], [ -44.00820379999994, -19.724565 ], [ -44.008326599999975, -19.724492299999948 ], [ -44.008410099999935, -19.724442799999967 ], [ -44.008636799999969, -19.724442799999949 ], [ -44.0090077, -19.724236699999945 ], [ -44.00929619999993, -19.724113099999968 ], [ -44.009852599999931, -19.723845199999971 ], [ -44.010161699999969, -19.723742099999981 ], [ -44.010341399999959, -19.72369719999995 ], [ -44.01046359999998, -19.723666699999978 ], [ -44.010498799999937, -19.723657899999981 ], [ -44.007200199999943, -19.724090499999917 ], [ -44.007238499999964, -19.723912299999945 ], [ -44.007541799999956, -19.722503 ], [ -44.007614599999954, -19.722164699999965 ], [ -44.00695, -19.722061 ], [ -44.00685139999996, -19.722091399999954 ], [ -44.006760699999973, -19.722119299999971 ], [ -44.006619, -19.722163 ], [ -44.006326, -19.722219 ], [ -44.006082, -19.722274 ], [ -44.005827, -19.722273 ], [ -44.00571489999993, -19.72220509999995 ], [ -44.005596, -19.722133 ], [ -44.005378, -19.72197 ], [ -44.005173, -19.721818 ], [ -44.005098299999929, -19.721758299999969 ], [ -44.004955, -19.721644 ], [ -44.004786, -19.72147 ], [ -44.004592, -19.72133 ], [ -44.004349, -19.721201 ], [ -44.004106, -19.72113 ], [ -44.003889, -19.720898 ], [ -44.003683, -19.720747 ], [ -44.003452, -19.720687 ], [ -44.003185, -19.720593 ], [ -44.002893, -19.720545 ], [ -44.002638, -19.720532 ], [ -44.002381, -19.72061 ], [ -44.002161, -19.720701 ], [ -44.001866, -19.721045 ], [ -44.001791, -19.72131 ], [ -44.001777, -19.721529 ], [ -44.001727, -19.721759 ], [ -44.001725, -19.722001 ], [ -44.001808, -19.722221 ], [ -44.001804, -19.722752099999983 ], [ -44.001802, -19.723016 ], [ -44.001751, -19.723304 ], [ -44.0017, -19.723535 ], [ -44.001637, -19.723869 ], [ -44.001501, -19.724064 ], [ -44.00141, -19.724170399999945 ], [ -44.001354, -19.724236 ], [ -44.001133, -19.724442 ], [ -44.000925, -19.724602 ], [ -44.000765, -19.724785 ], [ -44.00047, -19.725175 ], [ -44.00031, -19.72537 ], [ -44.000138, -19.725565 ], [ -43.999846, -19.725699 ], [ -43.999602, -19.725745 ], [ -43.999345, -19.725791 ], [ -43.999089, -19.725745 ], [ -43.998845, -19.725744 ], [ -43.998601, -19.725721 ], [ -43.998027, -19.72572 ], [ -43.997758, -19.725743 ], [ -43.997527, -19.725777 ], [ -43.997282, -19.725835 ], [ -43.99705, -19.725904 ], [ -43.99683, -19.726019 ], [ -43.996586, -19.726192 ], [ -43.996317, -19.726261 ], [ -43.996037, -19.726353 ], [ -43.99578, -19.726434 ], [ -43.995487, -19.726549 ], [ -43.995243, -19.726653 ], [ -43.995047, -19.726803 ], [ -43.994815, -19.726976 ], [ -43.994607, -19.727103 ], [ -43.994412, -19.727253 ], [ -43.994168, -19.727379 ], [ -43.993935, -19.727529 ], [ -43.993715, -19.727702 ], [ -43.993508, -19.727887 ], [ -43.993276, -19.728037 ], [ -43.993141, -19.728268 ], [ -43.993095699999969, -19.728430699999933 ], [ -43.993067, -19.728534 ], [ -43.993006, -19.728765 ], [ -43.99292, -19.728973 ], [ -43.992834, -19.729192 ], [ -43.992712, -19.729435 ], [ -43.992651, -19.729666 ], [ -43.992589, -19.729943 ], [ -43.992516, -19.730174 ], [ -43.992466, -19.73044 ], [ -43.992405, -19.730683 ], [ -43.992319, -19.731018 ], [ -43.992233, -19.731283 ], [ -43.992184, -19.731526 ], [ -43.99211, -19.731769 ], [ -43.992, -19.731965 ], [ -43.991804, -19.732196 ], [ -43.991646, -19.732381 ], [ -43.991474, -19.732611 ], [ -43.991266, -19.732865 ], [ -43.991083, -19.733096 ], [ -43.990851, -19.733269 ], [ -43.990643, -19.733466 ], [ -43.990496, -19.733673 ], [ -43.990349, -19.73387 ], [ -43.990264, -19.734078 ], [ -43.990141, -19.734332 ], [ -43.990043, -19.734574 ], [ -43.98997, -19.734828 ], [ -43.989859, -19.735059 ], [ -43.989749, -19.735314 ], [ -43.989566, -19.735464 ], [ -43.989407, -19.735637 ], [ -43.989211, -19.735798 ], [ -43.98904, -19.73596 ], [ -43.988961099999983, -19.73603079999998 ], [ -43.988796, -19.736179 ], [ -43.988588, -19.736283 ], [ -43.988075, -19.73649 ], [ -43.987806, -19.736501 ], [ -43.987562, -19.736513 ], [ -43.986854, -19.736512 ], [ -43.986537, -19.736534 ], [ -43.986183, -19.736557 ], [ -43.986025199999979, -19.736568 ], [ -43.985853, -19.73658 ], [ -43.985585, -19.736579 ], [ -43.985304, -19.736556 ], [ -43.98495, -19.736416 ], [ -43.984694, -19.736301 ], [ -43.984401, -19.736173 ], [ -43.98406, -19.736068 ], [ -43.983767, -19.735987 ], [ -43.983523, -19.735894 ], [ -43.983291, -19.735836 ], [ -43.983071, -19.735755 ], [ -43.982742, -19.735593 ], [ -43.982498, -19.735442 ], [ -43.982242, -19.735292 ], [ -43.982047, -19.735164 ], [ -43.981815, -19.735002 ], [ -43.981645, -19.734817 ], [ -43.981438, -19.73462 ], [ -43.981255, -19.734412 ], [ -43.981035, -19.734261 ], [ -43.980966599999931, -19.7342 ], [ -43.98084, -19.734087 ], [ -43.980645, -19.733868 ], [ -43.980487, -19.733682 ], [ -43.980466199999967, -19.733631199999923 ], [ -43.980378, -19.733416 ], [ -43.980329, -19.733139 ], [ -43.98022, -19.732873 ], [ -43.980098, -19.732676 ], [ -43.979959899999983, -19.73257749999993 ], [ -43.979903, -19.732537 ], [ -43.979696, -19.732398 ], [ -43.979464, -19.732363 ], [ -43.979183, -19.732294 ], [ -43.978976, -19.732178 ], [ -43.978732, -19.732108 ], [ -43.978488, -19.73205 ], [ -43.978256, -19.731934 ], [ -43.978024, -19.731783 ], [ -43.977829, -19.731656 ], [ -43.977598, -19.731528 ], [ -43.977183, -19.73132 ], [ -43.977, -19.731181 ], [ -43.976887499999975, -19.731124799999964 ], [ -43.976759, -19.730811 ], [ -43.976518099999971, -19.730223099999936 ], [ -43.976392299999929, -19.729921699999981 ], [ -43.976132499999949, -19.729274299999922 ], [ -43.976085799999964, -19.729157799999946 ], [ -43.976058199999954, -19.729088199999982 ], [ -43.975800499999934, -19.728439099999939 ], [ -43.975721699999959, -19.728127799999985 ], [ -43.975655899999936, -19.727868299999965 ], [ -43.975604699999963, -19.727749799999977 ], [ -43.975424399999952, -19.727332699999984 ], [ -43.974823, -19.72594219999996 ], [ -43.974140099999943, -19.724363 ], [ -43.974100299999975, -19.72427639999994 ], [ -43.974013299999974, -19.72408739999997 ], [ -43.974006699999968, -19.72407319999995 ], [ -43.973858, -19.723707799999932 ], [ -43.973681, -19.723344599999962 ], [ -43.973815, -19.723266199999937 ], [ -43.973780399999953, -19.723166099999961 ], [ -43.973450699999944, -19.722211599999973 ], [ -43.973438299999941, -19.722175499999945 ], [ -43.973454299999965, -19.722017799999946 ], [ -43.973308, -19.721617499999979 ], [ -43.97321629999994, -19.721366599999953 ], [ -43.972073, -19.718239399999948 ], [ -43.971945199999936, -19.71788979999997 ], [ -43.970950899999934, -19.715170299999947 ], [ -43.970928, -19.71511 ], [ -43.970596499999949, -19.714188299999925 ], [ -43.970454899999936, -19.713746399999931 ], [ -43.970437299999965, -19.713691599999951 ], [ -43.970417, -19.713644399999968 ], [ -43.970262699999971, -19.71331339999994 ], [ -43.97012059999998, -19.712972299999915 ], [ -43.969981299999979, -19.713064299999925 ], [ -43.969505599999941, -19.713378599999942 ], [ -43.96938959999995, -19.713461299999942 ], [ -43.96863629999995, -19.713998199999939 ], [ -43.967827, -19.714572 ], [ -43.967143799999981, -19.715076299999971 ], [ -43.96656669999993, -19.715502299999965 ], [ -43.966350499999983, -19.715642299999953 ], [ -43.96392259999994, -19.717320399999949 ], [ -43.963919899999951, -19.717322299999974 ], [ -43.963924299999974, -19.717323099999938 ], [ -43.965152499999931, -19.717568499999981 ], [ -43.965110399999958, -19.717607499999922 ], [ -43.9647538, -19.717937299999956 ], [ -43.964343099999944, -19.718458299999963 ], [ -43.964045, -19.719226699999975 ], [ -43.963983399999961, -19.71942249999994 ], [ -43.96397, -19.719465199999934 ], [ -43.963830899999948, -19.719904499999924 ], [ -43.963512899999948, -19.720807599999937 ], [ -43.963380699999966, -19.721093499999945 ], [ -43.963340599999974, -19.721180199999942 ], [ -43.963248599999986, -19.721308 ], [ -43.963186199999939, -19.721394899999947 ], [ -43.963058099999962, -19.721571499999989 ], [ -43.962802, -19.721851899999947 ], [ -43.962415199999953, -19.722284399999971 ], [ -43.96134, -19.723394599999938 ], [ -43.961213699999973, -19.723605899999932 ], [ -43.961207399999985, -19.72359989999995 ], [ -43.960889699999939, -19.723293799999968 ], [ -43.960651, -19.723063799999981 ], [ -43.96048779999996, -19.722909499999965 ], [ -43.96014109999993, -19.72268639999993 ], [ -43.959855699999942, -19.722502599999917 ], [ -43.959825499999965, -19.722483199999953 ], [ -43.959794, -19.722473299999926 ], [ -43.959658799999943, -19.722430799999938 ], [ -43.959562, -19.722400299999943 ], [ -43.959375899999941, -19.722341799999974 ], [ -43.959359, -19.722336399999961 ], [ -43.958996499999948, -19.72247189999997 ], [ -43.959016899999938, -19.722805599999955 ], [ -43.958937, -19.723837899999985 ], [ -43.959033699999971, -19.724234 ], [ -43.959367599999958, -19.724671799999939 ], [ -43.959850799999963, -19.724896499999943 ], [ -43.960161399999947, -19.725099899999968 ], [ -43.960629399999959, -19.725236099999954 ], [ -43.961576, -19.726098399999959 ], [ -43.962042499999939, -19.727482899999917 ], [ -43.962523899999951, -19.727949599999931 ], [ -43.962938899999983, -19.728279199999978 ], [ -43.963010299999958, -19.728737799999976 ], [ -43.962896799999953, -19.729541499999979 ], [ -43.962501899999957, -19.730652599999924 ], [ -43.960996199999954, -19.730889599999959 ], [ -43.9595255, -19.730501899999979 ], [ -43.957886799999983, -19.731379 ], [ -43.956717099999942, -19.731563099999956 ], [ -43.954958599999941, -19.730756799999945 ], [ -43.952595, -19.73077589999998 ], [ -43.950391499999974, -19.731112799999948 ], [ -43.9505516, -19.729565699999952 ], [ -43.950702499999977, -19.728752099999944 ], [ -43.949824, -19.728821 ], [ -43.948624899999977, -19.729274799999931 ], [ -43.947207899999967, -19.729822199999948 ], [ -43.94702609999996, -19.729904699999967 ], [ -43.946208099999986, -19.73051159999995 ], [ -43.945540899999976, -19.731040699999927 ], [ -43.945321899999954, -19.73112669999993 ], [ -43.945011, -19.73112 ], [ -43.944608899999935, -19.731079499999954 ], [ -43.944045899999935, -19.730811299999971 ], [ -43.94358219999998, -19.730551399999971 ], [ -43.943180899999966, -19.730184 ], [ -43.943013599999972, -19.729795399999951 ], [ -43.942916299999979, -19.729405699999958 ], [ -43.942700399999978, -19.728659 ], [ -43.942436, -19.728468699999951 ], [ -43.941734499999939, -19.728341599999968 ], [ -43.941740499999987, -19.727667599999968 ], [ -43.941453699999954, -19.727435299999975 ], [ -43.941502899999939, -19.727186299999964 ], [ -43.941332699999975, -19.726919499999951 ], [ -43.941111899999946, -19.72679779999994 ], [ -43.941040899999962, -19.726560399999986 ], [ -43.941310599999952, -19.726396499999964 ], [ -43.941096399999935, -19.725720899999949 ], [ -43.941074299999968, -19.725423 ], [ -43.940980799999977, -19.7253401 ], [ -43.940838499999984, -19.72519949999997 ], [ -43.940825899999936, -19.725188499999938 ], [ -43.940745699999979, -19.725167399999957 ], [ -43.940720499999941, -19.725160799999973 ], [ -43.940694799999967, -19.725154 ], [ -43.940704899999965, -19.725274299999967 ], [ -43.940714799999974, -19.725392199999924 ], [ -43.940632699999981, -19.725484499999929 ], [ -43.9405819, -19.725541599999929 ], [ -43.940572299999985, -19.725552299999947 ], [ -43.940512299999966, -19.725538699999955 ], [ -43.940447299999967, -19.725524 ], [ -43.940154799999959, -19.725270299999966 ], [ -43.939802199999967, -19.724963 ], [ -43.939637499999947, -19.724902299999926 ], [ -43.939563499999963, -19.724875 ], [ -43.939534799999933, -19.724869899999927 ], [ -43.939331399999958, -19.724834 ], [ -43.939217199999973, -19.724651899999976 ], [ -43.939139199999943, -19.724589499999983 ], [ -43.939042599999929, -19.724516 ], [ -43.938913699999951, -19.724316599999966 ], [ -43.938944, -19.724176799999956 ], [ -43.938948099999948, -19.724158099999968 ], [ -43.938962099999976, -19.724102499999962 ], [ -43.939032899999972, -19.723822299999934 ], [ -43.939045799999974, -19.723601899999945 ], [ -43.938950699999971, -19.723263599999935 ], [ -43.938778899999932, -19.722335 ], [ -43.938579899999986, -19.722268299999936 ], [ -43.938290199999983, -19.722060099999958 ], [ -43.937915799999985, -19.721876199999933 ], [ -43.937731799999938, -19.721852199999933 ], [ -43.937203699999934, -19.722020299999929 ], [ -43.936779699999938, -19.72203629999996 ], [ -43.936275599999931, -19.721916299999972 ], [ -43.935215099999937, -19.721414499999973 ], [ -43.934695099999942, -19.721327799999916 ], [ -43.933592499999975, -19.7208687 ], [ -43.933036799999968, -19.720478399999926 ], [ -43.932470499999972, -19.719814 ], [ -43.931962099999971, -19.719600199999935 ], [ -43.931445299999943, -19.719032199999955 ], [ -43.931152299999958, -19.718327 ], [ -43.931021499999979, -19.717522899999938 ], [ -43.931134199999974, -19.71694279999997 ], [ -43.931288, -19.716449699999945 ], [ -43.9312609, -19.716196399999941 ], [ -43.931043699999975, -19.716087799999976 ], [ -43.930867299999925, -19.71633659999997 ], [ -43.930772299999944, -19.71657189999997 ], [ -43.930641099999946, -19.716743799999964 ], [ -43.930482799999943, -19.71659 ], [ -43.930230199999983, -19.71600519999993 ], [ -43.930050299999948, -19.714419799999973 ], [ -43.929691, -19.713831 ], [ -43.929401599999942, -19.712663299999981 ], [ -43.9277848, -19.712106899999984 ], [ -43.926549299999984, -19.711738599999936 ], [ -43.926021299999952, -19.711824099999937 ], [ -43.92838629999995, -19.715499599999919 ], [ -43.928692599999977, -19.715910599999976 ], [ -43.929270299999985, -19.716852799999977 ], [ -43.929820899999982, -19.717670899999966 ], [ -43.930526499999985, -19.718737199999953 ], [ -43.930770799999948, -19.719218 ], [ -43.930933699999969, -19.719547599999938 ], [ -43.931112, -19.719819 ], [ -43.931294299999934, -19.720086499999972 ], [ -43.931542399999962, -19.720423799999935 ], [ -43.931744, -19.720687499999936 ], [ -43.931957299999965, -19.720951199999927 ], [ -43.932205399999937, -19.721203199999938 ], [ -43.932476799999954, -19.721505599999936 ], [ -43.932553599999942, -19.721523799999932 ], [ -43.93258259999994, -19.721550699999966 ], [ -43.932559, -19.721571299999944 ], [ -43.932460599999956, -19.72163979999992 ], [ -43.93236939999997, -19.721703199999983 ], [ -43.932278799999949, -19.72178079999998 ], [ -43.932237599999958, -19.721757499999953 ], [ -43.932114899999938, -19.721764699999937 ], [ -43.932105699999966, -19.721765299999952 ], [ -43.932102, -19.721767499999938 ], [ -43.932060399999955, -19.721792399999973 ], [ -43.932022099999983, -19.721815399999961 ], [ -43.932015099999937, -19.72181959999995 ], [ -43.932003899999984, -19.721847799999985 ], [ -43.931965699999978, -19.721943699999937 ], [ -43.931876399999965, -19.721952099999946 ], [ -43.931800899999978, -19.721959199999958 ], [ -43.931777799999963, -19.721944299999951 ], [ -43.931669, -19.72187389999992 ], [ -43.931619599999976, -19.721726499999924 ], [ -43.931561899999963, -19.721579099999918 ], [ -43.931518799999942, -19.721474799999946 ], [ -43.931504199999956, -19.72143949999997 ], [ -43.931421799999953, -19.721346399999966 ], [ -43.931401399999977, -19.721322899999958 ], [ -43.931347699999947, -19.721261099999928 ], [ -43.931230499999977, -19.721197199999935 ], [ -43.931191099999978, -19.721175699999961 ], [ -43.931100499999964, -19.721152499999956 ], [ -43.930952099999949, -19.721183499999935 ], [ -43.930813699999931, -19.721230899999966 ], [ -43.930680199999983, -19.721276599999946 ], [ -43.930587399999986, -19.721330399999935 ], [ -43.930573099999954, -19.721338599999971 ], [ -43.930515699999937, -19.72137849999994 ], [ -43.930383599999978, -19.721470499999956 ], [ -43.930177599999986, -19.721625599999975 ], [ -43.930101799999932, -19.721675199999936 ], [ -43.929988, -19.72174979999993 ], [ -43.929956299999951, -19.7217932 ], [ -43.929897399999959, -19.721873899999924 ], [ -43.929764099999943, -19.722037 ], [ -43.929650199999962, -19.722176399999967 ], [ -43.929592499999956, -19.722277199999951 ], [ -43.92954309999994, -19.722401299999941 ], [ -43.929419499999945, -19.722727099999922 ], [ -43.929304099999975, -19.723010199999976 ], [ -43.92920579999997, -19.723302199999974 ], [ -43.929040399999963, -19.723793699999916 ], [ -43.928959899999946, -19.723998199999983 ], [ -43.928546, -19.725050199999931 ], [ -43.928379499999949, -19.725463299999937 ], [ -43.928364699999975, -19.725500099999973 ], [ -43.928304499999967, -19.72553409999994 ], [ -43.928282299999978, -19.725546699999938 ], [ -43.927647799999932, -19.726136199999935 ], [ -43.927483, -19.726322299999936 ], [ -43.92747739999993, -19.726343399999962 ], [ -43.92743569999994, -19.726500599999948 ], [ -43.927425299999982, -19.726539499999937 ], [ -43.927260499999932, -19.727309299999956 ], [ -43.927246, -19.727398499999925 ], [ -43.927021599999932, -19.728775299999935 ], [ -43.927005099999974, -19.728852899999925 ], [ -43.926996299999985, -19.728862799999948 ], [ -43.926978799999972, -19.72888259999997 ], [ -43.926963899999976, -19.728899399999928 ], [ -43.926922699999977, -19.72890719999997 ], [ -43.926823799999958, -19.728946 ], [ -43.926744299999939, -19.728940899999923 ], [ -43.926634099999951, -19.728933799999936 ], [ -43.926461199999942, -19.728922699999945 ], [ -43.926193099999978, -19.72883859999995 ], [ -43.92611519999997, -19.728814099999962 ], [ -43.925929699999983, -19.728781699999953 ], [ -43.925538399999937, -19.728713299999974 ], [ -43.925027499999942, -19.728612399999985 ], [ -43.924909599999985, -19.728583799999956 ], [ -43.924554, -19.728497399999977 ], [ -43.92400569999996, -19.728364199999938 ], [ -43.923094199999987, -19.728174399999936 ], [ -43.922349799999949, -19.728019699999948 ], [ -43.92174609999995, -19.72797549999995 ], [ -43.921317399999971, -19.728118 ], [ -43.920411199999933, -19.728484399999953 ], [ -43.919810499999983, -19.728727899999949 ], [ -43.919219099999964, -19.728967699999934 ], [ -43.918734699999959, -19.729062599999963 ], [ -43.918726099999958, -19.729066099999958 ], [ -43.918714699999953, -19.729067699999984 ], [ -43.917362099999934, -19.729259599999967 ], [ -43.917272699999955, -19.729240699999938 ], [ -43.917221799999943, -19.729229599999933 ], [ -43.916638399999954, -19.729095899999958 ], [ -43.916268, -19.729034299999945 ], [ -43.916169, -19.729017799999951 ], [ -43.915925699999946, -19.728979399999957 ], [ -43.915668299999936, -19.728959599999936 ], [ -43.915510799999943, -19.728997899999964 ], [ -43.915310699999964, -19.729046599999929 ], [ -43.9151811, -19.729075 ], [ -43.915183599999978, -19.729105899999979 ], [ -43.915194599999957, -19.729243899999968 ], [ -43.916203499999938, -19.730305899999962 ], [ -43.916451399999978, -19.730566899999925 ], [ -43.917238399999974, -19.731304499999965 ], [ -43.918343499999942, -19.732360699999948 ], [ -43.919065699999976, -19.731676399999944 ], [ -43.919178499999937, -19.731568499999984 ], [ -43.920391699999982, -19.732985599999946 ], [ -43.920443499999976, -19.733046099999971 ], [ -43.921212299999979, -19.733944099999981 ], [ -43.921786599999962, -19.733687 ], [ -43.921968599999964, -19.733641699999964 ], [ -43.922148199999974, -19.733596899999959 ], [ -43.922717099999943, -19.733534199999959 ], [ -43.922778299999948, -19.733529599999951 ], [ -43.923070099999968, -19.733507499999973 ], [ -43.923159599999963, -19.7335007 ], [ -43.923827299999964, -19.733491699999941 ], [ -43.924150599999962, -19.733487299999965 ], [ -43.924331099999961, -19.733484799999928 ], [ -43.924381099999955, -19.733488799999968 ], [ -43.924643399999987, -19.733490299999971 ], [ -43.924904099999942, -19.733553 ], [ -43.9250287, -19.733582299999956 ], [ -43.925292699999943, -19.733647899999927 ], [ -43.925888699999973, -19.73361029999996 ], [ -43.926076599999931, -19.73357169999996 ], [ -43.926281699999947, -19.73342649999995 ], [ -43.926482699999951, -19.733289899999928 ], [ -43.926777899999934, -19.73300119999994 ], [ -43.927059299999939, -19.732693899999965 ], [ -43.927516099999927, -19.732325699999929 ], [ -43.927567199999949, -19.732284599999947 ], [ -43.927568899999983, -19.732296299999966 ], [ -43.927602199999967, -19.732523599999972 ], [ -43.927673699999957, -19.732725099999985 ], [ -43.927877299999984, -19.732978799999959 ], [ -43.927993599999979, -19.733209899999952 ], [ -43.928131499999949, -19.733528899999957 ], [ -43.928312599999977, -19.733694899999936 ], [ -43.928389799999934, -19.733966299999967 ], [ -43.928563799999949, -19.734293 ], [ -43.928582099999979, -19.734324599999976 ], [ -43.928638299999932, -19.73436369999995 ], [ -43.928751, -19.734424499999935 ], [ -43.929136199999959, -19.734847299999963 ], [ -43.929312299999935, -19.735152199999959 ], [ -43.929451699999959, -19.735411099999961 ], [ -43.929480399999939, -19.735464499999978 ], [ -43.92949409999995, -19.735478 ], [ -43.929576699999984, -19.735540399999927 ], [ -43.929659699999945, -19.735562199999936 ], [ -43.929911699999934, -19.735593 ], [ -43.929965099999947, -19.735597499999979 ], [ -43.930018399999938, -19.735602 ], [ -43.930247199999947, -19.735691699999968 ], [ -43.930482499999982, -19.735756 ], [ -43.930837299999951, -19.735816499999931 ], [ -43.930992299999957, -19.735837399999987 ], [ -43.931021199999975, -19.735848399999934 ], [ -43.931156299999948, -19.735899799999974 ], [ -43.931193099999973, -19.735913799999935 ], [ -43.931253099999942, -19.735936599999945 ], [ -43.931728199999959, -19.736236099999925 ], [ -43.931940399999974, -19.736385599999956 ], [ -43.932063599999942, -19.736543599999933 ], [ -43.932102099999959, -19.736593 ], [ -43.932146599999953, -19.736650099999963 ], [ -43.932210299999944, -19.7368 ], [ -43.93234689999997, -19.737063499999969 ], [ -43.93261659999996, -19.737481899999974 ], [ -43.932734799999935, -19.737594799999947 ], [ -43.932305499999984, -19.738366599999949 ], [ -43.931812599999951, -19.739327399999972 ], [ -43.932396599999947, -19.739616199999944 ], [ -43.932084699999962, -19.740253099999951 ], [ -43.931941799999947, -19.740438899999965 ], [ -43.931765699999978, -19.740656699999924 ], [ -43.931811399999958, -19.740861 ], [ -43.931764399999963, -19.741217699999929 ], [ -43.931455699999958, -19.741469699999978 ], [ -43.930546399999969, -19.742043 ], [ -43.929737699999976, -19.741165799999987 ], [ -43.929551199999935, -19.741310599999967 ], [ -43.929538899999962, -19.741365899999956 ], [ -43.929019199999978, -19.741707 ], [ -43.929055399999989, -19.741734599999972 ], [ -43.928897899999981, -19.742163499999947 ], [ -43.928776499999977, -19.742494399999945 ], [ -43.929953399999924, -19.742863899999982 ], [ -43.9301, -19.743056299999981 ], [ -43.930124499999977, -19.74318819999996 ], [ -43.930135599999971, -19.743247799999963 ], [ -43.930132, -19.743482299999975 ], [ -43.929948399999951, -19.743649199999933 ], [ -43.929772799999967, -19.743711299999958 ], [ -43.929087799999941, -19.743845899999933 ], [ -43.928193799999981, -19.744057199999926 ], [ -43.928189499999981, -19.744064099999949 ], [ -43.928115599999948, -19.744184099999917 ], [ -43.928095699999972, -19.744354199999972 ], [ -43.928164299999935, -19.744490299999935 ], [ -43.928340499999926, -19.744564499999967 ], [ -43.929338399999956, -19.744396299999938 ], [ -43.92967729999998, -19.74432359999998 ], [ -43.930161499999954, -19.744212399999977 ], [ -43.930439, -19.744019399999949 ], [ -43.93067439999993, -19.743703899999957 ], [ -43.931201, -19.744371399999977 ], [ -43.931257499999958, -19.744441899999966 ], [ -43.931583499999938, -19.744887799999965 ], [ -43.93140249999994, -19.745477199999975 ], [ -43.93138179999994, -19.745544599999949 ], [ -43.931945, -19.746295299999932 ], [ -43.931642, -19.746457799999963 ], [ -43.931360499999982, -19.746516699999972 ], [ -43.931193, -19.746601199999937 ], [ -43.93111619999997, -19.746663599999977 ], [ -43.931102799999969, -19.746754399999929 ], [ -43.931361699999968, -19.748287199999936 ], [ -43.931523499999969, -19.748341599999936 ], [ -43.931458199999959, -19.748479099999951 ], [ -43.931404399999963, -19.748602099999982 ], [ -43.931314599999943, -19.748876699999979 ], [ -43.931224099999952, -19.74916839999997 ], [ -43.931131499999935, -19.749524 ], [ -43.931050899999953, -19.749650099999933 ], [ -43.93099419999993, -19.749743 ], [ -43.930956099999939, -19.749809399999954 ], [ -43.93067149999996, -19.749899 ], [ -43.929871599999963, -19.750130399999929 ], [ -43.929746799999968, -19.750167499999975 ], [ -43.929721499999971, -19.750175 ], [ -43.929242, -19.750189299999921 ], [ -43.929053199999942, -19.750188199999968 ], [ -43.928835699999979, -19.750205899999969 ], [ -43.928508899999933, -19.750268799999962 ], [ -43.928255, -19.750359299999971 ], [ -43.928024299999954, -19.750456399999965 ], [ -43.927934899999968, -19.750494 ], [ -43.927669899999955, -19.750582299999966 ], [ -43.92758, -19.750594599999946 ], [ -43.927443599999947, -19.750613199999965 ], [ -43.927372599999956, -19.750601 ], [ -43.927216199999975, -19.750574 ], [ -43.926978599999984, -19.750395199999961 ], [ -43.926954299999984, -19.750376899999932 ], [ -43.926694, -19.750181 ], [ -43.926417599999986, -19.749899 ], [ -43.925404499999949, -19.749670699999967 ], [ -43.925119099999961, -19.749513699999966 ], [ -43.924887, -19.749396399999966 ], [ -43.924758, -19.749256499999937 ], [ -43.924748399999942, -19.74925 ], [ -43.924868899999971, -19.749407499999961 ], [ -43.92550909999995, -19.750403299999974 ], [ -43.925697699999944, -19.750696599999969 ], [ -43.926846599999983, -19.752483599999938 ], [ -43.927132299999982, -19.752928 ], [ -43.927592199999943, -19.753643299999965 ], [ -43.927638699999939, -19.753715599999953 ], [ -43.927644499999985, -19.753941 ], [ -43.92764539999996, -19.753975099999931 ], [ -43.927752799999951, -19.754191 ], [ -43.927953199999941, -19.754427199999949 ], [ -43.927957799999945, -19.754432599999976 ], [ -43.928241, -19.754725499999935 ], [ -43.928382399999983, -19.754794 ], [ -43.928543699999977, -19.754872 ], [ -43.928736099999981, -19.754866399999969 ], [ -43.929034, -19.754946199999946 ], [ -43.929206099999931, -19.754985199999947 ], [ -43.929368099999969, -19.755008099999937 ], [ -43.929484, -19.755072599999934 ], [ -43.929552399999977, -19.755110599999956 ], [ -43.929650799999926, -19.755242399999926 ], [ -43.929680699999956, -19.755282499999957 ], [ -43.929713399999976, -19.755407 ], [ -43.929709099999968, -19.755425499999934 ], [ -43.929704499999964, -19.755445399999921 ], [ -43.929701099999932, -19.75546 ], [ -43.929695499999987, -19.755484099999919 ], [ -43.92968209999998, -19.755541899999969 ], [ -43.929640599999971, -19.755696899999982 ], [ -43.9295901, -19.755842599999927 ], [ -43.929555599999958, -19.755932 ], [ -43.929511899999966, -19.756044399999947 ], [ -43.92949439999996, -19.756102299999945 ], [ -43.929459799999968, -19.756225499999967 ], [ -43.929495199999963, -19.756335799999924 ], [ -43.929520699999955, -19.756402499999982 ], [ -43.929557599999953, -19.756484 ], [ -43.92958619999996, -19.756549099999976 ], [ -43.929647599999953, -19.75670579999997 ], [ -43.929663499999954, -19.756729 ], [ -43.929770299999973, -19.756860799999956 ], [ -43.929977299999962, -19.757154199999942 ], [ -43.9301076, -19.757285899999925 ], [ -43.930185199999983, -19.757363699999921 ], [ -43.930322499999924, -19.757440299999935 ], [ -43.930485399999945, -19.75753229999998 ], [ -43.930596099999946, -19.757594899999965 ], [ -43.930654599999968, -19.757634299999943 ], [ -43.930769099999964, -19.75771149999996 ], [ -43.930871199999956, -19.757837799999933 ], [ -43.931148299999954, -19.758226899999954 ], [ -43.9313557, -19.758501799999969 ], [ -43.931393799999967, -19.75855259999997 ], [ -43.931581799999954, -19.758803799999953 ], [ -43.931597, -19.758824199999932 ], [ -43.9316123, -19.758844599999975 ], [ -43.931662499999966, -19.758911599999976 ], [ -43.931800799999962, -19.759102899999959 ], [ -43.931939099999965, -19.759294199999946 ], [ -43.931968299999944, -19.759334699999943 ], [ -43.931986199999976, -19.759356299999983 ], [ -43.932076499999937, -19.759465799999923 ], [ -43.93210769999996, -19.759503599999956 ], [ -43.932206899999983, -19.75962369999997 ], [ -43.932221499999969, -19.759641499999919 ], [ -43.932245, -19.759669899999942 ], [ -43.932246899999932, -19.759672199999955 ], [ -43.932419099999947, -19.759525099999962 ], [ -43.932458299999958, -19.759486699999961 ], [ -43.932592199999931, -19.759355499999966 ], [ -43.932742299999973, -19.75955219999997 ], [ -43.932920099999933, -19.759794799999948 ], [ -43.933361, -19.760396399999934 ], [ -43.93345, -19.760517899999972 ], [ -43.933549799999987, -19.760654099999943 ], [ -43.933675899999976, -19.760815799999929 ], [ -43.933696399999981, -19.76083269999998 ], [ -43.933717, -19.760849599999975 ], [ -43.933773899999949, -19.760896299999967 ], [ -43.933998, -19.760954 ], [ -43.934092299999975, -19.760978399999946 ], [ -43.934190899999969, -19.761003799999969 ], [ -43.934405699999957, -19.761038 ], [ -43.934575399999972, -19.761058699999975 ], [ -43.934784099999945, -19.761061199999968 ], [ -43.934994, -19.761053799999956 ], [ -43.935063399999933, -19.761044 ], [ -43.935143199999978, -19.76103279999996 ], [ -43.935247699999934, -19.761018 ], [ -43.935493199999932, -19.760985099999981 ], [ -43.935642, -19.760975199999965 ], [ -43.935855, -19.760953799999985 ], [ -43.936082799999951, -19.760930899999956 ], [ -43.936337199999969, -19.760895899999976 ], [ -43.936532, -19.760866299999989 ], [ -43.93653629999995, -19.760865599999946 ], [ -43.936603499999933, -19.760847399999935 ], [ -43.936717399999964, -19.760816499999976 ], [ -43.93693559999997, -19.760789799999941 ], [ -43.937062799999985, -19.760787499999932 ], [ -43.937197399999938, -19.760791599999944 ], [ -43.937346199999986, -19.760795099999953 ], [ -43.937474, -19.760792299999917 ], [ -43.937545199999931, -19.760792799999933 ], [ -43.937658099999965, -19.760793599999943 ], [ -43.937717299999974, -19.760789499999927 ], [ -43.937791, -19.760784399999977 ], [ -43.937934399999953, -19.760817299999939 ], [ -43.938089899999973, -19.760875399999978 ], [ -43.938197199999934, -19.760980299999968 ], [ -43.938254399999941, -19.761160699999952 ], [ -43.938305, -19.76136179999996 ], [ -43.938386599999944, -19.761525799999962 ], [ -43.9385377, -19.76169219999996 ], [ -43.93855479999997, -19.76170829999996 ], [ -43.938694299999952, -19.761840199999941 ], [ -43.938774399999943, -19.761963899999969 ], [ -43.938847299999964, -19.762139899999969 ], [ -43.938874199999937, -19.76237249999998 ], [ -43.938816599999939, -19.762574 ], [ -43.938797099999931, -19.76274 ], [ -43.938870299999962, -19.762925499999941 ], [ -43.939061799999934, -19.76297489999995 ], [ -43.939291099999942, -19.762939199999956 ], [ -43.939441399999964, -19.762908499999977 ], [ -43.93964189999997, -19.762872799999961 ], [ -43.939744399999945, -19.762843099999952 ], [ -43.939802499999985, -19.762826399999938 ], [ -43.939856899999938, -19.76281059999997 ], [ -43.940084799999973, -19.762760799999967 ], [ -43.940261199999959, -19.762734399999946 ], [ -43.94046539999993, -19.762728399999968 ], [ -43.940547399999957, -19.762730299999923 ], [ -43.940614699999969, -19.762731899999949 ], [ -43.940767499999936, -19.762733 ], [ -43.940835, -19.762759499999966 ], [ -43.940871099999981, -19.762787699999915 ], [ -43.9409017, -19.76281159999996 ], [ -43.94093219999997, -19.762835499999934 ], [ -43.941023899999941, -19.762817199999976 ], [ -43.941115499999967, -19.762798899999947 ], [ -43.9412713, -19.762753299999915 ], [ -43.941490199999969, -19.762682699999981 ], [ -43.941611499999965, -19.762643199999957 ], [ -43.941622199999983, -19.76264029999993 ], [ -43.941738499999978, -19.762608599999961 ], [ -43.941924, -19.762572899999949 ], [ -43.942035199999971, -19.762559199999934 ], [ -43.942071, -19.762554699999956 ], [ -43.942083599999933, -19.762553199999946 ], [ -43.942323599999952, -19.762555799999966 ], [ -43.942548899999956, -19.762552499999963 ], [ -43.942804699999954, -19.76274479999995 ], [ -43.942814099999964, -19.762751899999952 ], [ -43.942913, -19.762849199999941 ], [ -43.943015099999975, -19.762945199999933 ], [ -43.943163599999934, -19.763078599999961 ], [ -43.94325919999995, -19.76317489999996 ], [ -43.943274, -19.763189799999957 ], [ -43.943384599999945, -19.763367199999941 ], [ -43.943531199999946, -19.763524 ], [ -43.94373029999997, -19.763685199999937 ], [ -43.943874899999969, -19.763749699999945 ], [ -43.943925899999954, -19.763865199999945 ], [ -43.943930199999954, -19.763874799999936 ], [ -43.944043399999941, -19.764100599999953 ], [ -43.944123199999986, -19.764262 ], [ -43.944219299999929, -19.764487199999955 ], [ -43.944276, -19.76463729999994 ], [ -43.944346699999983, -19.764821599999941 ], [ -43.944428699999939, -19.765073499999971 ], [ -43.944476699999939, -19.765262099999962 ], [ -43.944567899999981, -19.765388499999965 ], [ -43.944688099999951, -19.765510099999965 ], [ -43.944898499999972, -19.765663299999972 ], [ -43.944935499999985, -19.765690599999964 ], [ -43.945243, -19.765916499999943 ], [ -43.945327299999981, -19.765978299999979 ], [ -43.945298599999944, -19.766363499999958 ], [ -43.945261799999969, -19.766666199999971 ], [ -43.945262699999951, -19.766857199999954 ], [ -43.945265199999938, -19.766939399999949 ], [ -43.945269399999972, -19.767079499999966 ], [ -43.945283499999967, -19.76729639999995 ], [ -43.945294599999954, -19.767439399999944 ], [ -43.945296499999976, -19.767459599999945 ], [ -43.945311699999941, -19.76761989999995 ], [ -43.945347799999986, -19.767983199999943 ], [ -43.94542979999995, -19.768207 ], [ -43.945437, -19.768305699999917 ], [ -43.945452, -19.768512 ], [ -43.945457899999951, -19.768593099999968 ], [ -43.945475699999974, -19.768864799999957 ], [ -43.945490599999971, -19.769009 ], [ -43.945505799999978, -19.769207799999943 ], [ -43.945523399999949, -19.769421 ], [ -43.945629699999984, -19.769563699999939 ], [ -43.945755, -19.769694 ], [ -43.945872699999946, -19.769808499999947 ], [ -43.94595319999997, -19.769969299999953 ], [ -43.946026499999967, -19.770131299999939 ], [ -43.9460749, -19.770260299999965 ], [ -43.946107899999966, -19.770385099999928 ], [ -43.94615169999998, -19.770592899999929 ], [ -43.946198199999969, -19.770840899999936 ], [ -43.946207799999968, -19.770921699999978 ], [ -43.946227799999974, -19.771089599999989 ], [ -43.946223499999974, -19.771249599999976 ], [ -43.9462104, -19.771463 ], [ -43.946199099999944, -19.77163269999993 ], [ -43.946216399999976, -19.771792299999955 ], [ -43.946244499999978, -19.771920299999973 ], [ -43.946277399999978, -19.772067599999946 ], [ -43.946320399999934, -19.77233259999996 ], [ -43.946355099999948, -19.77264839999998 ], [ -43.946357399999954, -19.77266909999998 ], [ -43.946427, -19.772943399999981 ], [ -43.946528699999931, -19.773276 ], [ -43.946639499999947, -19.773621599999942 ], [ -43.946974599999976, -19.773658099999974 ], [ -43.946957199999986, -19.773842799999965 ], [ -43.946887699999934, -19.774165699999955 ], [ -43.946835399999941, -19.774305799999976 ], [ -43.946819399999988, -19.774472099999969 ], [ -43.946803299999949, -19.774638399999962 ], [ -43.946701799999978, -19.77484609999992 ], [ -43.946554099999965, -19.775367499999966 ], [ -43.946374199999987, -19.775865799999956 ], [ -43.946245, -19.776193499999973 ], [ -43.946134599999937, -19.776343499999925 ], [ -43.945949699999964, -19.77659489999996 ], [ -43.945795799999985, -19.776717299999977 ], [ -43.945787099999968, -19.776776499999979 ], [ -43.945784899999978, -19.776791899999981 ], [ -43.945950399999958, -19.776907899999962 ], [ -43.945959899999941, -19.776926299999957 ], [ -43.946039499999983, -19.777080599999969 ], [ -43.946042399999953, -19.777086199999918 ], [ -43.946024799999975, -19.777227899999954 ], [ -43.946076199999936, -19.777241099999969 ], [ -43.946110099999949, -19.777238899999926 ], [ -43.947297, -19.777161 ], [ -43.947647, -19.776943 ], [ -43.948414, -19.776709 ], [ -43.948738, -19.776719299999968 ], [ -43.949144, -19.776729 ], [ -43.94913, -19.77718 ], [ -43.94920029999998, -19.777136199999976 ], [ -43.949376, -19.777083 ], [ -43.949436, -19.777018 ], [ -43.949457, -19.776895 ], [ -43.949482699999976, -19.776426399999924 ], [ -43.949616, -19.776562099999989 ], [ -43.950007299999982, -19.77668459999995 ], [ -43.950759299999966, -19.776543699999927 ], [ -43.951278299999963, -19.776669799999979 ], [ -43.95175839999996, -19.776834199999943 ], [ -43.952106199999939, -19.776953399999972 ], [ -43.952046899999978, -19.777102899999925 ], [ -43.951979499999936, -19.777224899999968 ], [ -43.951788, -19.777619 ], [ -43.952598599999931, -19.777658399999957 ], [ -43.952718699999934, -19.777629799999943 ], [ -43.952873, -19.777593 ], [ -43.953042899999964, -19.777508899999926 ], [ -43.953042599999947, -19.777444799999955 ], [ -43.953236599999968, -19.777405199999983 ], [ -43.953383499999973, -19.777403699999972 ], [ -43.953530399999984, -19.777374599999977 ], [ -43.953659399999928, -19.777320799999924 ], [ -43.953769899999934, -19.777310499999931 ], [ -43.954094899999973, -19.777344 ], [ -43.954260499999982, -19.777277 ], [ -43.954314099999976, -19.777284599999959 ], [ -43.954508499999974, -19.777376499999953 ], [ -43.954657299999958, -19.777401099999974 ], [ -43.955102399999937, -19.777616199999958 ], [ -43.95524979999994, -19.777639499999971 ], [ -43.955388899999946, -19.777669099999976 ], [ -43.955516299999942, -19.77773389999993 ], [ -43.9555716, -19.777784799999957 ], [ -43.955651899999964, -19.777837199999965 ], [ -43.955716799999948, -19.777848 ], [ -43.955992199999969, -19.777860699999962 ], [ -43.956110599999931, -19.777882699999967 ], [ -43.956355599999938, -19.777947899999958 ], [ -43.956792499999949, -19.777951099999939 ], [ -43.957208199999961, -19.77779959999997 ], [ -43.95732239999996, -19.777777699999955 ], [ -43.957895, -19.777778799999954 ], [ -43.958239, -19.777880499999966 ], [ -43.958485499999938, -19.77807109999998 ], [ -43.958675199999959, -19.778265699999967 ], [ -43.958751, -19.778385 ], [ -43.958810199999967, -19.77847 ], [ -43.958906699999943, -19.778618299999948 ], [ -43.959003099999961, -19.778766499999964 ], [ -43.959170899999947, -19.779016 ], [ -43.959308, -19.77934 ], [ -43.959369699999975, -19.779700099999964 ], [ -43.959360699999934, -19.780286099999952 ], [ -43.959380499999959, -19.780343399999936 ], [ -43.959418099999944, -19.780411599999979 ], [ -43.959469299999967, -19.780481799999961 ], [ -43.959510099999939, -19.780519499999969 ], [ -43.959550899999954, -19.780557099999953 ], [ -43.959729699999968, -19.780613399999933 ], [ -43.959954299999936, -19.780636299999976 ], [ -43.960018899999966, -19.780598199999925 ], [ -43.960137199999963, -19.780579599999946 ], [ -43.960185, -19.780573599999958 ], [ -43.960221099999956, -19.780575499999934 ], [ -43.960301199999947, -19.7806088 ], [ -43.960372799999959, -19.780667899999983 ], [ -43.960446799999943, -19.780741899999946 ], [ -43.960484, -19.780750299999962 ], [ -43.96055609999997, -19.780694599999954 ], [ -43.960619399999985, -19.780671599999938 ], [ -43.960685599999977, -19.780649499999981 ], [ -43.960791899999954, -19.780619199999926 ], [ -43.960927399999953, -19.780631399999944 ], [ -43.961123499999978, -19.780635399999937 ], [ -43.961204499999958, -19.780647899999963 ], [ -43.961318199999944, -19.78068 ], [ -43.961359699999953, -19.780700899999943 ], [ -43.961421499999972, -19.780734499999941 ], [ -43.961710499999981, -19.780995 ], [ -43.961743099999971, -19.781021699999936 ], [ -43.961863, -19.781116599999965 ], [ -43.96191529999993, -19.781149499999955 ], [ -43.961959699999973, -19.781184699999972 ], [ -43.961983699999955, -19.781248699999932 ], [ -43.961984799999982, -19.781405399999983 ], [ -43.961984, -19.781420199999957 ], [ -43.961998499999936, -19.781477299999949 ], [ -43.961999699999986, -19.781512499999963 ], [ -43.962001799999932, -19.781571 ], [ -43.96201, -19.781625499999958 ], [ -43.962035499999956, -19.781678799999959 ], [ -43.962049899999947, -19.781694599999984 ], [ -43.962108399999977, -19.781734399999955 ], [ -43.962154099999964, -19.781755199999957 ], [ -43.96221369999995, -19.781774399999961 ], [ -43.962283199999952, -19.781813099999955 ], [ -43.962311399999983, -19.781837499999934 ], [ -43.962315099999955, -19.781835199999929 ], [ -43.962323899999944, -19.781851099999976 ], [ -43.962341399999964, -19.781889 ], [ -43.962345699999958, -19.78190329999995 ], [ -43.962356, -19.781944599999964 ], [ -43.962358, -19.781959 ], [ -43.962370799999974, -19.781990499999953 ], [ -43.962407699999964, -19.782041799999945 ], [ -43.962421399999982, -19.782055299999971 ], [ -43.96242749999994, -19.782059899999979 ], [ -43.962467699999934, -19.782088299999945 ], [ -43.962507499999958, -19.782115499999978 ], [ -43.962538499999937, -19.782150899999976 ], [ -43.962600499999951, -19.782240399999974 ], [ -43.962614499999972, -19.782268299999952 ], [ -43.9626545, -19.782329899999976 ], [ -43.962681499999974, -19.782361699999971 ], [ -43.962702699999973, -19.782382499999979 ], [ -43.962752599999931, -19.782444099999964 ], [ -43.962777399999936, -19.782494 ], [ -43.962834799999946, -19.782592399999949 ], [ -43.962869799999964, -19.782680899999935 ], [ -43.962894, -19.782719699999976 ], [ -43.962917799999964, -19.782754199999953 ], [ -43.962944099999959, -19.782809699999959 ], [ -43.962952399999949, -19.782844799999967 ], [ -43.962957199999956, -19.782989 ], [ -43.962959599999969, -19.783008099999968 ], [ -43.962965699999977, -19.783044199999942 ], [ -43.963008099999975, -19.783128599999948 ], [ -43.963031899999983, -19.783159599999973 ], [ -43.96306709999994, -19.783200499999964 ], [ -43.963133599999935, -19.783234799999942 ], [ -43.96322639999994, -19.783274799999962 ], [ -43.963255499999953, -19.783291099999925 ], [ -43.963271799999973, -19.783306899999964 ], [ -43.963309699999961, -19.783355399999959 ], [ -43.963388499999944, -19.783407699999945 ], [ -43.963452699999948, -19.783431899999986 ], [ -43.96345969999993, -19.783434599999957 ], [ -43.963495099999925, -19.783442499999978 ], [ -43.963515499999978, -19.783447099999918 ], [ -43.963526099999974, -19.78345139999994 ], [ -43.963537399999957, -19.783458599999964 ], [ -43.96355079999995, -19.783476599999972 ], [ -43.963564599999984, -19.783498499999947 ], [ -43.963566499999956, -19.783503399999976 ], [ -43.963568299999963, -19.783508 ], [ -43.963572799999952, -19.783518699999956 ], [ -43.963583399999948, -19.78353849999997 ], [ -43.96361109999998, -19.78357409999996 ], [ -43.963637499999948, -19.783589899999971 ], [ -43.963687499999935, -19.78360919999994 ], [ -43.963693, -19.783611299999958 ], [ -43.96371209999996, -19.783621599999936 ], [ -43.963722299999972, -19.783628199999949 ], [ -43.963732199999981, -19.783637499999937 ], [ -43.963749, -19.783653299999976 ], [ -43.963763199999967, -19.783675199999944 ], [ -43.963764799999979, -19.783677599999969 ], [ -43.963778, -19.783698 ], [ -43.963790299999971, -19.783712699999978 ], [ -43.963800599999963, -19.783720099999982 ], [ -43.963817299999967, -19.783731299999943 ], [ -43.96383259999994, -19.78374069999996 ], [ -43.963851799999922, -19.783750799999947 ], [ -43.963857099999984, -19.783753099999963 ], [ -43.963883, -19.783767399999931 ], [ -43.963938699999972, -19.783798599999951 ], [ -43.963982199999982, -19.783815099999956 ], [ -43.964052799999941, -19.783836199999939 ], [ -43.964090899999974, -19.783844099999946 ], [ -43.964133799999964, -19.783855799999959 ], [ -43.96413959999996, -19.783857699999935 ], [ -43.964192899999944, -19.783876799999977 ], [ -43.964229699999976, -19.783888099999956 ], [ -43.964269399999978, -19.783899799999968 ], [ -43.964287099999979, -19.78390689999998 ], [ -43.964303899999955, -19.783914699999972 ], [ -43.964331799999975, -19.783924299999974 ], [ -43.964346599999935, -19.783929499999939 ], [ -43.964353199999941, -19.783932599999957 ], [ -43.964368, -19.783939199999953 ], [ -43.96439659999993, -19.783953299999958 ], [ -43.964446, -19.783980399999958 ], [ -43.964504499999975, -19.784005399999955 ], [ -43.964536, -19.78401869999994 ], [ -43.964559099999974, -19.784029 ], [ -43.964600399999938, -19.784042199999938 ], [ -43.96463829999994, -19.784048299999945 ], [ -43.96465859999995, -19.784052399999958 ], [ -43.964728399999963, -19.784059599999974 ], [ -43.964774399999961, -19.784063199999927 ], [ -43.964817099999948, -19.784069699999968 ], [ -43.964908699999967, -19.784075499999972 ], [ -43.964928599999958, -19.784080699999944 ], [ -43.964939699999945, -19.78408479999996 ], [ -43.964956599999937, -19.784093699999978 ], [ -43.964969, -19.784103099999985 ], [ -43.964981499999972, -19.784119299999919 ], [ -43.964999299999931, -19.784164599999936 ], [ -43.965009699999939, -19.784213799999971 ], [ -43.965012199999933, -19.784227399999967 ], [ -43.965014499999938, -19.784240399999938 ], [ -43.965027199999952, -19.784270299999939 ], [ -43.965062399999965, -19.784320799999925 ], [ -43.965073599999982, -19.784333499999946 ], [ -43.965145099999972, -19.784423099999973 ], [ -43.965201699999973, -19.784479599999926 ], [ -43.965232899999933, -19.784499699999966 ], [ -43.965271499999979, -19.784517299999948 ], [ -43.965366199999949, -19.784575499999967 ], [ -43.965394599999968, -19.784586299999933 ], [ -43.965403699999975, -19.784587899999959 ], [ -43.965431799999983, -19.784598599999971 ], [ -43.965497199999966, -19.784623599999968 ], [ -43.965549599999981, -19.784660699999964 ], [ -43.965605799999935, -19.784754199999945 ], [ -43.96561219999996, -19.784817499999971 ], [ -43.965608199999963, -19.784865799999981 ], [ -43.965617299999963, -19.784877199999976 ], [ -43.96562229999995, -19.784883499999989 ], [ -43.965633, -19.784895499999962 ], [ -43.965637199999946, -19.78490039999997 ], [ -43.965643599999957, -19.78490759999994 ], [ -43.965693, -19.784968199999987 ], [ -43.965704299999977, -19.785008 ], [ -43.965704599999988, -19.785017399999948 ], [ -43.965705, -19.785026699999946 ], [ -43.965704699999939, -19.7850347 ], [ -43.965704, -19.785054 ], [ -43.965699, -19.785078199999933 ], [ -43.965699, -19.785082099999961 ], [ -43.965701599999932, -19.785118199999946 ], [ -43.965706699999934, -19.785138199999949 ], [ -43.965685199999946, -19.785145399999973 ], [ -43.965744499999971, -19.785607599999931 ], [ -43.965759599999956, -19.785737499999986 ], [ -43.965764899999954, -19.785783299999942 ], [ -43.965766199999962, -19.785795 ], [ -43.965868299999954, -19.786063099999968 ], [ -43.965874899999967, -19.786080199999958 ], [ -43.965899299999933, -19.78615079999997 ], [ -43.965892799999949, -19.786201299999959 ], [ -43.965885699999951, -19.786256699999964 ], [ -43.965834699999967, -19.786438499999981 ], [ -43.965774399999937, -19.786596199999966 ], [ -43.965679299999969, -19.786740099999975 ], [ -43.96561139999995, -19.786813399999961 ], [ -43.965427499999976, -19.787003199999955 ], [ -43.965379899999959, -19.787052299999978 ], [ -43.965306899999973, -19.787127599999959 ], [ -43.964685899999949, -19.787768299999978 ], [ -43.964560499999948, -19.787897699999977 ], [ -43.964384699999989, -19.788052299999944 ], [ -43.964279799999986, -19.788189199999973 ], [ -43.964211499999976, -19.788278499999922 ], [ -43.964096099999949, -19.788442799999935 ], [ -43.964051599999948, -19.788552099999951 ], [ -43.964048899999973, -19.788577699999948 ], [ -43.964044899999976, -19.788616799999946 ], [ -43.964031699999957, -19.78874309999998 ], [ -43.964026799999942, -19.788790499999955 ], [ -43.964039, -19.788901799999966 ], [ -43.964056, -19.788990699999939 ], [ -43.96408109999993, -19.789121799999986 ], [ -43.964120499999986, -19.789248099999956 ], [ -43.964211399999961, -19.789409699999961 ], [ -43.964151899999933, -19.790320599999976 ], [ -43.9641271, -19.79070089999993 ], [ -43.964117299999941, -19.790768799999952 ], [ -43.964026799999949, -19.791398899999933 ], [ -43.964038899999935, -19.791546699999959 ], [ -43.964039, -19.791548299999942 ], [ -43.964539699999932, -19.791592099999939 ], [ -43.96475189999996, -19.791610699999985 ], [ -43.964889599999943, -19.791613599999945 ], [ -43.964938, -19.791614599999946 ], [ -43.965035299999954, -19.791616599999951 ], [ -43.96552029999998, -19.791626699999945 ], [ -43.966375599999928, -19.791644499999975 ], [ -43.966488499999969, -19.791622399999937 ], [ -43.966554499999965, -19.791581499999943 ], [ -43.966621099999941, -19.791508 ], [ -43.96672319999994, -19.791338299999953 ] ] ], [ [ [ -43.939705599999961, -19.697840899999971 ], [ -43.940085699999933, -19.697362299999952 ], [ -43.940465899999943, -19.696883599999968 ], [ -43.94092459999996, -19.696306 ], [ -43.942659799999944, -19.694038399999954 ], [ -43.942819099999952, -19.693849899999979 ], [ -43.943296399999959, -19.693285399999983 ], [ -43.943326699999943, -19.693249499999968 ], [ -43.943382699999972, -19.693183299999934 ], [ -43.945073199999968, -19.691183499999983 ], [ -43.947074599999958, -19.688858399999948 ], [ -43.948811099999944, -19.6867099 ], [ -43.950041499999934, -19.685399199999953 ], [ -43.950164899999947, -19.68526769999994 ], [ -43.951783699999964, -19.680852899999937 ], [ -43.954138799999953, -19.675196699999965 ], [ -43.954267699999946, -19.674800199999929 ], [ -43.954284499999972, -19.674748699999974 ], [ -43.954299899999967, -19.674701399999947 ], [ -43.954347, -19.674556399999972 ], [ -43.954598299999937, -19.672307 ], [ -43.954657, -19.672236 ], [ -43.954889, -19.672086 ], [ -43.955157, -19.671948 ], [ -43.955426, -19.671868 ], [ -43.955658, -19.671752 ], [ -43.955939, -19.671626 ], [ -43.956159, -19.671522 ], [ -43.956379, -19.671407 ], [ -43.956611, -19.67128 ], [ -43.956794, -19.671142 ], [ -43.956989, -19.671003 ], [ -43.957148, -19.670842 ], [ -43.957177, -19.670515 ], [ -43.957149, -19.670263 ], [ -43.957142099999942, -19.669902299999936 ], [ -43.956910199999982, -19.669914699999936 ], [ -43.956620799999946, -19.669920899999962 ], [ -43.956511199999966, -19.669923199999978 ], [ -43.956032899999975, -19.66996 ], [ -43.955902699999967, -19.669988299999954 ], [ -43.955622499999947, -19.670047699999941 ], [ -43.955237699999941, -19.670129799999923 ], [ -43.955019799999945, -19.670197699999953 ], [ -43.954666, -19.670291099999925 ], [ -43.954208599999959, -19.67037129999995 ], [ -43.954019199999948, -19.670442299999937 ], [ -43.953479399999942, -19.670611399999927 ], [ -43.953198699999973, -19.670665399999962 ], [ -43.953115899999943, -19.670687 ], [ -43.952885599999945, -19.670715799999982 ], [ -43.952626499999951, -19.670791399999928 ], [ -43.9523746, -19.670751799999938 ], [ -43.952041699999938, -19.670651399999937 ], [ -43.951942599999938, -19.670598 ], [ -43.951591099999966, -19.67040859999997 ], [ -43.951096699999937, -19.670076299999945 ], [ -43.950888, -19.670051299999944 ], [ -43.9507675, -19.67007539999997 ], [ -43.950637499999964, -19.670101399999965 ], [ -43.950470599999953, -19.670310099999938 ], [ -43.950387099999951, -19.670468699999947 ], [ -43.950362, -19.670627299999982 ], [ -43.950261799999964, -19.670777599999951 ], [ -43.950053099999941, -19.670886199999924 ], [ -43.949944599999988, -19.670919599999941 ], [ -43.949568899999974, -19.670944599999931 ], [ -43.949364299999964, -19.670931399999965 ], [ -43.949310099999934, -19.670927899999988 ], [ -43.949213399999969, -19.670939099999948 ], [ -43.949093, -19.670952899999982 ], [ -43.948725599999932, -19.671069799999941 ], [ -43.948291499999982, -19.671253499999981 ], [ -43.947907399999963, -19.671387099999947 ], [ -43.947711, -19.671489899999933 ], [ -43.947280399999947, -19.671715099999968 ], [ -43.946931399999983, -19.671924499999932 ], [ -43.946691199999982, -19.672044599999928 ], [ -43.946675499999976, -19.67205239999992 ], [ -43.94664529999995, -19.672048199999942 ], [ -43.946175299999936, -19.671982599999975 ], [ -43.945884499999977, -19.6718198 ], [ -43.945628599999964, -19.671622 ], [ -43.945511299999964, -19.671593899999941 ], [ -43.945412099999942, -19.67157009999994 ], [ -43.945337699999989, -19.671552199999944 ], [ -43.945204, -19.671546399999954 ], [ -43.945070199999975, -19.671540599999947 ], [ -43.944952299999962, -19.671594299999978 ], [ -43.944881099999975, -19.671626699999926 ], [ -43.944307499999987, -19.672050699999939 ], [ -43.94415319999996, -19.672164499999948 ], [ -43.94369549999994, -19.672299399999929 ], [ -43.943586299999936, -19.672331599999932 ], [ -43.94329179999994, -19.672334699999965 ], [ -43.943262199999936, -19.672328899999965 ], [ -43.942938399999946, -19.672298299999948 ], [ -43.94267659999997, -19.672351399999965 ], [ -43.942491, -19.67249749999997 ], [ -43.942326399999956, -19.67280339999995 ], [ -43.942208099999966, -19.673193899999944 ], [ -43.942207499999945, -19.673461499999963 ], [ -43.942103699999961, -19.673772399999969 ], [ -43.941981099999964, -19.674001299999926 ], [ -43.941937799999955, -19.674206 ], [ -43.941990299999929, -19.67449669999997 ], [ -43.942048099999973, -19.67482 ], [ -43.942116099999964, -19.675335799999974 ], [ -43.942125799999985, -19.675494299999976 ], [ -43.942104, -19.675696 ], [ -43.941973899999937, -19.675988799999971 ], [ -43.941865099999973, -19.676182199999975 ], [ -43.941789199999953, -19.676474599999953 ], [ -43.941643899999974, -19.676774099999928 ], [ -43.941313199999968, -19.677100599999964 ], [ -43.940985299999973, -19.677314499999959 ], [ -43.94049549999994, -19.677644599999955 ], [ -43.940264, -19.677795299999953 ], [ -43.939982899999968, -19.67787 ], [ -43.939797899999974, -19.677963499999976 ], [ -43.939523599999973, -19.678186 ], [ -43.939219399999956, -19.678417899999957 ], [ -43.938921, -19.678569299999928 ], [ -43.938592899999954, -19.678825199999945 ], [ -43.938525299999981, -19.67902549999997 ], [ -43.938518099999953, -19.679260599999967 ], [ -43.938492399999987, -19.679463199999933 ], [ -43.938359499999926, -19.679730799999966 ], [ -43.938152699999932, -19.680008799999943 ], [ -43.937873499999966, -19.68034729999993 ], [ -43.937612399999985, -19.6806276 ], [ -43.937426199999948, -19.680810099999967 ], [ -43.937265299999986, -19.680919 ], [ -43.937032299999949, -19.680983499999968 ], [ -43.936731699999946, -19.680977 ], [ -43.936710099999978, -19.680972499999942 ], [ -43.936466499999938, -19.680943299999967 ], [ -43.936133599999955, -19.680868899999943 ], [ -43.935715099999982, -19.680677199999927 ], [ -43.935424699999949, -19.680524599999966 ], [ -43.935002499999939, -19.680390199999973 ], [ -43.933481499999971, -19.679882899999939 ], [ -43.932621, -19.679685699999947 ], [ -43.932176399999946, -19.679651699999951 ], [ -43.932147899999968, -19.679645799999953 ], [ -43.931757499999954, -19.679698699999953 ], [ -43.931298399999946, -19.679790299999965 ], [ -43.930983199999964, -19.679999499999951 ], [ -43.930850799999973, -19.680215499999967 ], [ -43.930803899999944, -19.680446899999925 ], [ -43.930695099999973, -19.68068859999995 ], [ -43.929897, -19.681381599999963 ], [ -43.929362399999953, -19.6818153 ], [ -43.928903299999945, -19.682399099999941 ], [ -43.928827599999977, -19.682607399999931 ], [ -43.928751899999959, -19.682815599999966 ], [ -43.928103799999981, -19.683455299999935 ], [ -43.92796, -19.683568899999962 ], [ -43.927864299999946, -19.683644499999964 ], [ -43.926983499999956, -19.68434069999995 ], [ -43.926929499999979, -19.684383399999948 ], [ -43.926484599999981, -19.684759399999951 ], [ -43.926134399999974, -19.684993199999962 ], [ -43.925887099999954, -19.685058399999946 ], [ -43.925590499999949, -19.685100299999931 ], [ -43.925234899999971, -19.685030299999937 ], [ -43.925213199999973, -19.685025899999975 ], [ -43.924546799999973, -19.684883799999977 ], [ -43.924539599999946, -19.684882299999966 ], [ -43.924212699999948, -19.684799299999952 ], [ -43.923986199999938, -19.684901299999968 ], [ -43.92358239999993, -19.685074799999942 ], [ -43.923253499999937, -19.685203899999969 ], [ -43.923170199999959, -19.685217099999932 ], [ -43.92303289999996, -19.685234699999963 ], [ -43.922956399999975, -19.685248399999967 ], [ -43.922788499999974, -19.685278399999959 ], [ -43.922464599999955, -19.684902399999945 ], [ -43.920360799999969, -19.682460399999975 ], [ -43.917109899999957, -19.682668599999932 ], [ -43.915994099999985, -19.683442699999933 ], [ -43.915878, -19.683369299999981 ], [ -43.915850699999964, -19.6833521 ], [ -43.915204599999981, -19.682943599999934 ], [ -43.915133099999942, -19.682898499999958 ], [ -43.914844099999982, -19.682712099999954 ], [ -43.914801799999964, -19.682635799999961 ], [ -43.914745399999958, -19.682389599999958 ], [ -43.914650799999947, -19.682086599999938 ], [ -43.914576399999923, -19.681967199999971 ], [ -43.914522199999972, -19.68190439999994 ], [ -43.914454599999942, -19.681826299999951 ], [ -43.91458149999994, -19.681731 ], [ -43.914611499999978, -19.68170849999996 ], [ -43.914620699999944, -19.681701499999967 ], [ -43.914622699999946, -19.681697299999936 ], [ -43.914825099999973, -19.681261099999976 ], [ -43.914804599999968, -19.681256299999962 ], [ -43.914255099999934, -19.681128699999938 ], [ -43.913829599999985, -19.681029799999976 ], [ -43.913180399999931, -19.680851399999931 ], [ -43.91316559999995, -19.680847199999956 ], [ -43.912493899999959, -19.680657499999931 ], [ -43.910384, -19.680097599999947 ], [ -43.91038, -19.680120199999976 ], [ -43.910286699999972, -19.680638399999967 ], [ -43.9102817, -19.680666 ], [ -43.910252299999975, -19.681085 ], [ -43.910249299999975, -19.681128699999935 ], [ -43.910284299999944, -19.681674099999949 ], [ -43.910298, -19.68224349999997 ], [ -43.910190699999937, -19.682603199999949 ], [ -43.908129, -19.682090799999965 ], [ -43.905523599999988, -19.681433099999929 ], [ -43.904083, -19.683139399999959 ], [ -43.904029199999975, -19.683196 ], [ -43.903930799999955, -19.683299799999933 ], [ -43.903923499999962, -19.683307499999945 ], [ -43.903912199999979, -19.683319399999959 ], [ -43.903859099999977, -19.683375399999928 ], [ -43.903856799999971, -19.683377799999963 ], [ -43.903848199999977, -19.68338619999998 ], [ -43.902663299999972, -19.684546599999972 ], [ -43.90417089999994, -19.690887099999944 ], [ -43.904798699999958, -19.692100899999947 ], [ -43.90598319999998, -19.692943 ], [ -43.906164399999966, -19.693050899999957 ], [ -43.90628559999994, -19.693123099999969 ], [ -43.906419399999955, -19.693202799999934 ], [ -43.907241699999986, -19.693692499999933 ], [ -43.908231899999976, -19.694173699999961 ], [ -43.909305299999971, -19.694516099999909 ], [ -43.911101799999983, -19.694634199999943 ], [ -43.913501699999983, -19.694817899999983 ], [ -43.913604899999939, -19.694825799999943 ], [ -43.914176, -19.694869499999978 ], [ -43.914134499999932, -19.695033 ], [ -43.914154099999969, -19.695226299999941 ], [ -43.914178099999958, -19.695458 ], [ -43.914262599999979, -19.695743599999961 ], [ -43.914294599999948, -19.696049399999929 ], [ -43.914316499999984, -19.696425599999948 ], [ -43.914361399999962, -19.696598799999943 ], [ -43.914368299999985, -19.696625399999963 ], [ -43.914469, -19.696756399999977 ], [ -43.914744599999956, -19.696900099999947 ], [ -43.914762099999962, -19.696909899999977 ], [ -43.91497819999995, -19.697004599999964 ], [ -43.914983199999938, -19.697011799999931 ], [ -43.915052899999978, -19.697112899999983 ], [ -43.915063299999986, -19.697387 ], [ -43.915023, -19.697650799999955 ], [ -43.914900099999961, -19.697952099999952 ], [ -43.914685799999972, -19.698102799999944 ], [ -43.914441399999937, -19.69816929999995 ], [ -43.914090699999981, -19.698125099999977 ], [ -43.914084399999986, -19.698123699999936 ], [ -43.913634699999932, -19.69815 ], [ -43.913299599999966, -19.698241199999927 ], [ -43.913034199999977, -19.698276799999977 ], [ -43.912606699999962, -19.698479299999981 ], [ -43.912095399999941, -19.698809 ], [ -43.912072699999953, -19.698823699999931 ], [ -43.911830099999975, -19.698935699999925 ], [ -43.9114704, -19.699101699999975 ], [ -43.910899299999983, -19.699264699999947 ], [ -43.910570799999967, -19.699288299999985 ], [ -43.910546099999976, -19.699283199999954 ], [ -43.910238499999934, -19.699219499999977 ], [ -43.908638499999938, -19.698603699999968 ], [ -43.90829529999997, -19.698575099999964 ], [ -43.908122499999934, -19.698624399999964 ], [ -43.907937399999987, -19.698756899999985 ], [ -43.907908799999973, -19.698947399999966 ], [ -43.907898799999948, -19.699249 ], [ -43.907834, -19.699347 ], [ -43.907719399999962, -19.699464899999942 ], [ -43.907591699999955, -19.699481499999926 ], [ -43.907441899999988, -19.699420299999922 ], [ -43.907230899999945, -19.699444799999981 ], [ -43.906832699999939, -19.699619399999953 ], [ -43.906519299999964, -19.699737899999946 ], [ -43.905439599999973, -19.699897299999975 ], [ -43.905203899999947, -19.700032899999936 ], [ -43.905033699999933, -19.700194 ], [ -43.904664199999957, -19.700435699999961 ], [ -43.904490599999974, -19.700504499999958 ], [ -43.903673799999979, -19.70075 ], [ -43.902714099999969, -19.701100899999975 ], [ -43.901892299999979, -19.701336399999953 ], [ -43.901674, -19.701316199999951 ], [ -43.9014471, -19.701220199999948 ], [ -43.901089499999955, -19.700974199999955 ], [ -43.900792599999924, -19.70074319999998 ], [ -43.900621899999976, -19.700531499999951 ], [ -43.900477399999943, -19.70037089999995 ], [ -43.900194299999953, -19.700225799999949 ], [ -43.899681, -19.700019299999944 ], [ -43.899128499999954, -19.699712599999952 ], [ -43.898519799999981, -19.699435 ], [ -43.898109699999964, -19.699195499999973 ], [ -43.897952799999985, -19.699103899999951 ], [ -43.897729399999946, -19.698973499999965 ], [ -43.897717399999976, -19.698971 ], [ -43.897602599999978, -19.698929299999978 ], [ -43.897487699999942, -19.698887699999947 ], [ -43.8974717, -19.698929599999925 ], [ -43.897415499999966, -19.69907609999996 ], [ -43.897388, -19.699148 ], [ -43.897340199999974, -19.699196699999948 ], [ -43.897229, -19.69931 ], [ -43.896862, -19.699656 ], [ -43.896727, -19.699863 ], [ -43.896581, -19.700106 ], [ -43.896527699999979, -19.700210599999931 ], [ -43.896446, -19.700371 ], [ -43.896311, -19.70066 ], [ -43.896274, -19.700926 ], [ -43.896115, -19.701134 ], [ -43.896098299999949, -19.70117869999995 ], [ -43.896029, -19.701365 ], [ -43.895894, -19.701584 ], [ -43.895747, -19.701803 ], [ -43.895625, -19.702023 ], [ -43.895514, -19.702265 ], [ -43.895367, -19.702438 ], [ -43.89532, -19.702508799999979 ], [ -43.895225899999957, -19.702650599999966 ], [ -43.895221, -19.702658 ], [ -43.895161, -19.702733099999939 ], [ -43.895159099999944, -19.702735499999964 ], [ -43.895074, -19.702842 ], [ -43.895012799999954, -19.702945599999964 ], [ -43.894951, -19.70305 ], [ -43.894768, -19.703223 ], [ -43.894653799999958, -19.703375299999955 ], [ -43.894621, -19.703419 ], [ -43.894425, -19.70365 ], [ -43.89423, -19.703858 ], [ -43.894046, -19.704077 ], [ -43.893911, -19.704262 ], [ -43.893752, -19.704481 ], [ -43.89372289999995, -19.704517599999964 ], [ -43.893605, -19.704666 ], [ -43.893602899999969, -19.70467 ], [ -43.89355519999998, -19.704760399999941 ], [ -43.893471, -19.70492 ], [ -43.893312, -19.705139 ], [ -43.893116, -19.705289 ], [ -43.892896, -19.705381 ], [ -43.892867, -19.705396099999966 ], [ -43.892676, -19.705496 ], [ -43.892559899999981, -19.705528799999975 ], [ -43.892432, -19.705565 ], [ -43.892212, -19.705703 ], [ -43.892037299999977, -19.705840399999932 ], [ -43.891860099999981, -19.705979699999943 ], [ -43.891772, -19.706049 ], [ -43.891637, -19.706245 ], [ -43.891578599999946, -19.706374 ], [ -43.891527, -19.706488 ], [ -43.891417, -19.706707 ], [ -43.891282, -19.706903 ], [ -43.891147, -19.707088 ], [ -43.890964, -19.707238 ], [ -43.890756, -19.707434 ], [ -43.890749699999965, -19.707463699999948 ], [ -43.890707, -19.707665 ], [ -43.891512699999971, -19.708386299999972 ], [ -43.892780299999977, -19.709631499999944 ], [ -43.89458419999994, -19.711363799999958 ], [ -43.895943, -19.712669599999977 ], [ -43.897078299999976, -19.713756399999948 ], [ -43.898289299999931, -19.713651399999947 ], [ -43.897770199999975, -19.710068899999943 ], [ -43.902277699999964, -19.708646199999976 ], [ -43.9046393, -19.708184799999966 ], [ -43.906923899999974, -19.708346799999955 ], [ -43.907804699999986, -19.70817379999994 ], [ -43.908705099999963, -19.707996899999955 ], [ -43.90947459999996, -19.707884699999969 ], [ -43.909778599999981, -19.707840399999956 ], [ -43.909783599999976, -19.707853199999917 ], [ -43.910012299999956, -19.708433 ], [ -43.910095099999978, -19.708696299999914 ], [ -43.909998599999945, -19.708857899999927 ], [ -43.910017299999943, -19.709023 ], [ -43.91017039999997, -19.709417299999931 ], [ -43.910274099999988, -19.709624799999972 ], [ -43.910521, -19.70986229999993 ], [ -43.910639799999963, -19.709969799999946 ], [ -43.910802199999978, -19.710018 ], [ -43.911241799999971, -19.710028899999941 ], [ -43.91137649999996, -19.710200599999954 ], [ -43.911783499999956, -19.710701299999965 ], [ -43.912144899999937, -19.710405699999967 ], [ -43.912473399999961, -19.710359 ], [ -43.913462299999935, -19.710746099999938 ], [ -43.91347959999996, -19.710752799999966 ], [ -43.913634599999966, -19.710519499999972 ], [ -43.913823699999966, -19.710234899999932 ], [ -43.913976599999963, -19.709464599999944 ], [ -43.913293499999945, -19.706058 ], [ -43.912824, -19.70371659999994 ], [ -43.912751799999967, -19.703356599999946 ], [ -43.912762899999962, -19.703354299999933 ], [ -43.913039499999975, -19.70329619999994 ], [ -43.91326719999995, -19.703248399999946 ], [ -43.915407499999958, -19.702809599999959 ], [ -43.915985699999965, -19.702696199999938 ], [ -43.91619739999993, -19.702649 ], [ -43.916259099999941, -19.702638099999948 ], [ -43.916358099999968, -19.702624299999972 ], [ -43.91675349999997, -19.702986699999936 ], [ -43.917191799999962, -19.703393099999975 ], [ -43.917331, -19.703512399999966 ], [ -43.918167499999988, -19.704100699999969 ], [ -43.918590199999983, -19.704335899999936 ], [ -43.9190225, -19.704479 ], [ -43.91992689999995, -19.704782099999932 ], [ -43.920747199999937, -19.705057 ], [ -43.921306499999957, -19.705357199999984 ], [ -43.921834299999944, -19.705735099999956 ], [ -43.922070199999951, -19.705907 ], [ -43.92238069999997, -19.706302899999955 ], [ -43.922885299999969, -19.706981499999916 ], [ -43.923215199999952, -19.707469899999982 ], [ -43.923875299999956, -19.708426299999935 ], [ -43.924114, -19.708780299999948 ], [ -43.924344199999943, -19.709200499999948 ], [ -43.924647499999942, -19.709670499999962 ], [ -43.925759199999966, -19.711433199999934 ], [ -43.926021299999952, -19.711824099999937 ], [ -43.926051599999937, -19.711792 ], [ -43.926321899999955, -19.711506399999948 ], [ -43.92611, -19.711431499999936 ], [ -43.92597139999998, -19.711192199999978 ], [ -43.925627299999967, -19.710805099999956 ], [ -43.925465799999984, -19.710389299999964 ], [ -43.925421899999947, -19.709945099999967 ], [ -43.925434399999972, -19.709393299999931 ], [ -43.925325099999945, -19.708954 ], [ -43.925367199999982, -19.70870809999996 ], [ -43.925468099999932, -19.708609899999942 ], [ -43.92564519999997, -19.708448799999932 ], [ -43.925694299999982, -19.708162899999941 ], [ -43.925997699999989, -19.707296599999946 ], [ -43.926106799999964, -19.706838099999963 ], [ -43.9262265, -19.706517199999936 ], [ -43.926398099999979, -19.706210799999955 ], [ -43.926444399999987, -19.706032 ], [ -43.926485099999979, -19.705880899999947 ], [ -43.926492699999983, -19.705852799999946 ], [ -43.926411099999946, -19.705503799999978 ], [ -43.92640589999997, -19.705499199999945 ], [ -43.926242899999984, -19.705355 ], [ -43.926116399999955, -19.705243 ], [ -43.92610609999997, -19.705240299999954 ], [ -43.926059599999974, -19.705228099999943 ], [ -43.925466, -19.705072099999935 ], [ -43.924939499999944, -19.704892799999985 ], [ -43.924855499999978, -19.704849299999971 ], [ -43.924832199999969, -19.704837299999948 ], [ -43.924695399999969, -19.704807099999989 ], [ -43.924449, -19.704422299999983 ], [ -43.924364299999986, -19.70378769999996 ], [ -43.924363, -19.703759599999952 ], [ -43.92433989999995, -19.703260699999923 ], [ -43.924139099999941, -19.702911799999971 ], [ -43.923817799999938, -19.702514 ], [ -43.923433799999948, -19.702352899999941 ], [ -43.9237859, -19.702010399999939 ], [ -43.924391799999974, -19.701208 ], [ -43.924686499999957, -19.700989699999987 ], [ -43.92557139999996, -19.70028869999993 ], [ -43.925761799999968, -19.698566199999963 ], [ -43.926275399999959, -19.69860129999995 ], [ -43.926569699999959, -19.698467899999962 ], [ -43.927389399999981, -19.698464099999963 ], [ -43.927793699999945, -19.698451599999935 ], [ -43.928691499999964, -19.698422399999952 ], [ -43.929429599999935, -19.698386399999944 ], [ -43.930172, -19.696494199999961 ], [ -43.931083899999976, -19.69440979999996 ], [ -43.931750299999983, -19.694661199999921 ], [ -43.932610199999949, -19.694885499999952 ], [ -43.93340539999997, -19.695618099999933 ], [ -43.933924599999955, -19.696023399999952 ], [ -43.934056899999973, -19.696095699999937 ], [ -43.934379099999944, -19.696271899999953 ], [ -43.934545, -19.696377399999957 ], [ -43.934593799999959, -19.696408499999961 ], [ -43.93464639999997, -19.69645079999998 ], [ -43.934733799999947, -19.696521199999939 ], [ -43.934748599999985, -19.696532 ], [ -43.93489859999994, -19.696641899999968 ], [ -43.935039799999963, -19.696787299999972 ], [ -43.935130199999946, -19.696856099999938 ], [ -43.935215, -19.696920599999942 ], [ -43.935429399999975, -19.697023499999947 ], [ -43.935719, -19.697162299999942 ], [ -43.936387099999934, -19.69734409999996 ], [ -43.936554899999976, -19.697345199999969 ], [ -43.936817399999946, -19.697349699999958 ], [ -43.937061899999946, -19.697309 ], [ -43.937243, -19.697281799999917 ], [ -43.937514599999986, -19.697236599999936 ], [ -43.93782669999996, -19.697249199999927 ], [ -43.937895599999933, -19.69721689999994 ], [ -43.938015699999944, -19.697160699999927 ], [ -43.938058199999951, -19.697108599999975 ], [ -43.938077, -19.697085399999946 ], [ -43.938085399999977, -19.697075099999939 ], [ -43.938731499999967, -19.697406199999932 ], [ -43.938738399999977, -19.697409699999969 ], [ -43.938877, -19.697274 ], [ -43.938891799999965, -19.697282899999948 ], [ -43.939263399999959, -19.697515099999976 ], [ -43.939705599999961, -19.697840899999971 ] ] ] ] } }
]
}
