{
"type": "FeatureCollection",
"name": "3172004",
"crs": { "type": "name", "properties": { "name": "urn:ogc:def:crs:OGC:1.3:CRS84" } },
"features": [
{ "type": "Feature", "properties": { "CD_MUN": "3172004", "NM_MUN": "Visconde do Rio Branco" }, "geometry": { "type": "MultiPolygon", "coordinates": [ [ [ [ -42.833279, -21.041527099999929 ], [ -42.837057399999942, -21.041104599999983 ], [ -42.837593799999979, -21.040954399999968 ], [ -42.838421099999941, -21.040608499999951 ], [ -42.838474399999939, -21.041198399999924 ], [ -42.83836539999993, -21.041735799999952 ], [ -42.838339899999937, -21.042208199999937 ], [ -42.83831269999996, -21.04271429999994 ], [ -42.838371599999967, -21.04329 ], [ -42.838126, -21.043697799999954 ], [ -42.838168, -21.044098699999942 ], [ -42.838925599999989, -21.045188799999949 ], [ -42.837315799999942, -21.045589199999938 ], [ -42.83685429999997, -21.045336199999937 ], [ -42.836223899999936, -21.045119799999952 ], [ -42.835903799999983, -21.045355199999953 ], [ -42.835651, -21.046163899999947 ], [ -42.835254099999922, -21.046110699999925 ], [ -42.835198799999944, -21.045417199999982 ], [ -42.834679599999966, -21.045809799999965 ], [ -42.834722099999972, -21.046427299999952 ], [ -42.834714299999973, -21.046687299999963 ], [ -42.83482539999995, -21.046958399999934 ], [ -42.835226099999943, -21.047477599999979 ], [ -42.83556539999995, -21.047917299999938 ], [ -42.835752099999986, -21.048377299999967 ], [ -42.835874299999944, -21.049086199999969 ], [ -42.835505399999931, -21.04960089999997 ], [ -42.835801, -21.04986619999994 ], [ -42.836202099999987, -21.049857299999925 ], [ -42.836534299999983, -21.049906199999956 ], [ -42.83664779999998, -21.049960399999964 ], [ -42.837303299999974, -21.050320799999955 ], [ -42.837483199999951, -21.050498499999932 ], [ -42.837572799999982, -21.050630099999974 ], [ -42.837696299999948, -21.050887699999969 ], [ -42.83779519999996, -21.05120589999996 ], [ -42.837900799999943, -21.05166569999993 ], [ -42.8379877, -21.052120399999975 ], [ -42.838052099999977, -21.052457399999984 ], [ -42.8381821, -21.052876199999947 ], [ -42.838279299999961, -21.053080899999944 ], [ -42.838601, -21.053816199999961 ], [ -42.840050399999939, -21.052932 ], [ -42.84061329999998, -21.05220329999997 ], [ -42.8409238, -21.052236 ], [ -42.841344599999964, -21.051995299999916 ], [ -42.84142879999996, -21.051246199999973 ], [ -42.841366099999959, -21.050882399999974 ], [ -42.841789799999958, -21.050563 ], [ -42.84212169999995, -21.050475 ], [ -42.843283399999962, -21.050337899999921 ], [ -42.844597499999971, -21.050144799999938 ], [ -42.844726599999952, -21.049922299999931 ], [ -42.844655399999965, -21.049661299999968 ], [ -42.844605299999955, -21.04941939999998 ], [ -42.844576899999936, -21.049258799999965 ], [ -42.844555, -21.049111099999948 ], [ -42.844749199999967, -21.049047599999948 ], [ -42.844994, -21.049029899999933 ], [ -42.845231699999943, -21.048929899999948 ], [ -42.845401299999935, -21.04888949999998 ], [ -42.845413, -21.04875759999992 ], [ -42.845241799999947, -21.04871189999994 ], [ -42.845035199999984, -21.048650799999962 ], [ -42.845030399999985, -21.048435299999934 ], [ -42.844793899999956, -21.04836 ], [ -42.844710299999974, -21.048256499999987 ], [ -42.844729199999961, -21.048076299999934 ], [ -42.844643, -21.048087899999935 ], [ -42.84450719999996, -21.048102799999974 ], [ -42.844416, -21.048008799999934 ], [ -42.844499799999944, -21.047851199999965 ], [ -42.844581, -21.047796099999978 ], [ -42.84454919999996, -21.047682099999967 ], [ -42.844671099999971, -21.047609499999957 ], [ -42.844797, -21.047635599999971 ], [ -42.845056799999959, -21.047703299999959 ], [ -42.845377599999949, -21.047759499999934 ], [ -42.845541899999951, -21.047781499999918 ], [ -42.845722799999976, -21.04799909999997 ], [ -42.84595649999995, -21.048164599999954 ], [ -42.846159099999966, -21.048351199999946 ], [ -42.846258599999942, -21.048436099999954 ], [ -42.846705399999962, -21.048079499999979 ], [ -42.847512399999971, -21.047545299999971 ], [ -42.847739299999937, -21.047274 ], [ -42.848031399999968, -21.047330799999934 ], [ -42.848478899999975, -21.047143899999977 ], [ -42.849179699999986, -21.046631499999933 ], [ -42.849589499999986, -21.046509599999965 ], [ -42.850032199999937, -21.046510099999974 ], [ -42.851056399999948, -21.047198799999933 ], [ -42.851699799999949, -21.047749099999987 ], [ -42.864579, -21.048230899999965 ], [ -42.86593709999994, -21.048384699999936 ], [ -42.866602299999947, -21.048921199999942 ], [ -42.867782399999953, -21.050938199999958 ], [ -42.86904839999994, -21.053384399999967 ], [ -42.869198599999947, -21.054221199999976 ], [ -42.869485899999972, -21.054462599999965 ], [ -42.869665, -21.054425 ], [ -42.869741399999953, -21.054407399999953 ], [ -42.869921, -21.054366 ], [ -42.870215, -21.054284 ], [ -42.870434, -21.054146 ], [ -42.870617, -21.054007 ], [ -42.870873, -21.053856 ], [ -42.871153, -21.053671 ], [ -42.871434, -21.053509 ], [ -42.871616, -21.053359 ], [ -42.871824, -21.053243 ], [ -42.872104, -21.053046 ], [ -42.872299, -21.05285 ], [ -42.872481, -21.052677 ], [ -42.872602, -21.052469 ], [ -42.872699, -21.052251 ], [ -42.872845, -21.052055 ], [ -42.873003, -21.051859 ], [ -42.87321, -21.051708 ], [ -42.873466, -21.051592 ], [ -42.873711, -21.051579 ], [ -42.873991, -21.051406 ], [ -42.874174, -21.051244 ], [ -42.874271, -21.051209699999962 ], [ -42.874406, -21.051162 ], [ -42.874613, -21.051035 ], [ -42.87451839999995, -21.050988599999979 ], [ -42.874408899999935, -21.050717499999955 ], [ -42.874399699999977, -21.050591699999917 ], [ -42.874421799999929, -21.050266399999945 ], [ -42.874493899999948, -21.049633199999956 ], [ -42.87454809999997, -21.049219 ], [ -42.874537599999947, -21.048949099999962 ], [ -42.874489499999989, -21.04869119999994 ], [ -42.874405499999966, -21.04851149999995 ], [ -42.874099899999976, -21.048071 ], [ -42.873830099999957, -21.047765699999943 ], [ -42.87363239999997, -21.047408699999949 ], [ -42.873566399999966, -21.047253599999976 ], [ -42.873527299999985, -21.047161699999936 ], [ -42.873460299999984, -21.046891399999915 ], [ -42.873434299999985, -21.046625699999932 ], [ -42.873443699999939, -21.046417299999977 ], [ -42.873459899999951, -21.046150399999931 ], [ -42.873522699999967, -21.045739699999945 ], [ -42.87353539999998, -21.045406299999968 ], [ -42.873498099999956, -21.045045899999941 ], [ -42.873423399999979, -21.044529499999953 ], [ -42.873330199999948, -21.044189699999936 ], [ -42.872907199999929, -21.043411499999934 ], [ -42.872057799999936, -21.041697799999948 ], [ -42.871419699999933, -21.040449899999938 ], [ -42.871280099999979, -21.040208899999971 ], [ -42.871035599999978, -21.039923699999974 ], [ -42.870492, -21.039444 ], [ -42.869768699999952, -21.038999 ], [ -42.869082799999951, -21.038809099999977 ], [ -42.857130499999975, -21.036595499999976 ], [ -42.856092199999978, -21.036372699999948 ], [ -42.85509019999995, -21.036168299999918 ], [ -42.854633699999972, -21.036024699999917 ], [ -42.85411959999994, -21.03578119999997 ], [ -42.853741599999978, -21.035563 ], [ -42.853363399999985, -21.035279199999916 ], [ -42.85307169999993, -21.034993199999967 ], [ -42.852677799999981, -21.034501 ], [ -42.852483899999982, -21.034193 ], [ -42.852290799999935, -21.03382379999994 ], [ -42.851913099999933, -21.033126799999941 ], [ -42.85176279999996, -21.032777399999922 ], [ -42.85157269999997, -21.032528599999981 ], [ -42.851413699999974, -21.032323799999961 ], [ -42.851285899999937, -21.032217899999974 ], [ -42.85091829999994, -21.031955899999957 ], [ -42.85024459999994, -21.031754899999953 ], [ -42.848462799999936, -21.031493699999938 ], [ -42.848764699999954, -21.03017709999995 ], [ -42.84875379999994, -21.029864899999943 ], [ -42.848664099999951, -21.029340599999955 ], [ -42.848650499999962, -21.029200399999979 ], [ -42.848646499999973, -21.029107599999971 ], [ -42.848642799999936, -21.029024399999965 ], [ -42.848603599999933, -21.028730099999947 ], [ -42.848585, -21.02855 ], [ -42.84847689999998, -21.028368099999952 ], [ -42.848459399999967, -21.028346599999949 ], [ -42.848404399999936, -21.028279 ], [ -42.84828669999996, -21.028182699999945 ], [ -42.848232099999962, -21.028088699999959 ], [ -42.847932, -21.027966 ], [ -42.847804599999961, -21.027914699999936 ], [ -42.847564699999964, -21.027903199999972 ], [ -42.847220299999947, -21.027917299999949 ], [ -42.84648679999998, -21.027963299999946 ], [ -42.845979, -21.027996299999927 ], [ -42.845415899999978, -21.02804029999993 ], [ -42.844692299999963, -21.028091299999971 ], [ -42.844423699999929, -21.028110199999951 ], [ -42.844415499999968, -21.027975499999972 ], [ -42.8442333, -21.026237199999972 ], [ -42.84535759999995, -21.024517 ], [ -42.845129399999962, -21.023966299999941 ], [ -42.845549, -21.022307799999968 ], [ -42.845560899999953, -21.022293599999948 ], [ -42.849296, -21.022608899999945 ], [ -42.84933129999996, -21.021956 ], [ -42.849825399999929, -21.021391199999972 ], [ -42.850504899999969, -21.021117699999934 ], [ -42.850963699999973, -21.021267699999946 ], [ -42.851510799999971, -21.021426499999961 ], [ -42.852384299999983, -21.020985299999943 ], [ -42.852869599999963, -21.019679399999973 ], [ -42.853540199999948, -21.017517599999962 ], [ -42.85333269999996, -21.016341499999953 ], [ -42.853232399999982, -21.016326299999932 ], [ -42.853305, -21.016218299999942 ], [ -42.855257299999948, -21.015841099999932 ], [ -42.85561249999995, -21.015613899999938 ], [ -42.856081, -21.015945099999946 ], [ -42.856436099999939, -21.01616609999996 ], [ -42.856467799999962, -21.016100099999949 ], [ -42.858356799999974, -21.012156699999949 ], [ -42.860776199999982, -21.011834499999953 ], [ -42.861680299999939, -21.011570399999982 ], [ -42.86285619999996, -21.010896299999953 ], [ -42.864000399999945, -21.009373099999962 ], [ -42.864806, -21.00735259999994 ], [ -42.865219099999933, -21.0066667 ], [ -42.865928899999965, -21.006253699999949 ], [ -42.869559299999935, -21.004671599999941 ], [ -42.87056339999998, -21.003960599999974 ], [ -42.871218199999937, -21.003033699999932 ], [ -42.873207799999932, -20.999481699999926 ], [ -42.873873, -20.998607199999963 ], [ -42.873947, -20.998546799999925 ], [ -42.873971099999956, -20.998527099999926 ], [ -42.873535499999939, -20.99850029999994 ], [ -42.873207799999932, -20.998452699999973 ], [ -42.872203599999978, -20.998131699999938 ], [ -42.871457299999982, -20.99784359999995 ], [ -42.871008199999949, -20.997631599999973 ], [ -42.870555899999943, -20.997519599999979 ], [ -42.870138499999939, -20.997461099999949 ], [ -42.869989299999929, -20.997414599999953 ], [ -42.869738499999983, -20.997289 ], [ -42.869482599999976, -20.99707779999995 ], [ -42.869124099999965, -20.99677 ], [ -42.868475499999931, -20.996319799999981 ], [ -42.86791809999994, -20.995827 ], [ -42.867554099999957, -20.995611499999935 ], [ -42.867414599999961, -20.995580399999938 ], [ -42.867177099999935, -20.995590499999928 ], [ -42.866771399999948, -20.995706899999956 ], [ -42.866032899999944, -20.996027699999946 ], [ -42.86589349999997, -20.996158699999956 ], [ -42.865798199999979, -20.996280499999955 ], [ -42.86553129999993, -20.996723399999951 ], [ -42.865319399999976, -20.996772799999974 ], [ -42.864987299999939, -20.996902799999919 ], [ -42.865300099999949, -20.995867399999952 ], [ -42.865333299999982, -20.99558229999997 ], [ -42.865355499999971, -20.995295899999974 ], [ -42.865213199999978, -20.994243899999955 ], [ -42.864983, -20.993757499999962 ], [ -42.864674599999951, -20.993351699999945 ], [ -42.864332399999967, -20.993215699999947 ], [ -42.863348499999972, -20.993130899999983 ], [ -42.862807099999934, -20.993164499999974 ], [ -42.862514199999971, -20.99314929999997 ], [ -42.861896899999977, -20.993060499999956 ], [ -42.86169079999997, -20.992976799999955 ], [ -42.861311099999966, -20.992643399999967 ], [ -42.861143599999934, -20.992566099999983 ], [ -42.860929499999941, -20.992503699999926 ], [ -42.860780099999943, -20.992476899999936 ], [ -42.860625199999959, -20.992489399999958 ], [ -42.860514599999938, -20.992518299999961 ], [ -42.860400899999945, -20.992564899999934 ], [ -42.860182699999939, -20.992666799999927 ], [ -42.859960799999953, -20.99273 ], [ -42.85929109999995, -20.992774 ], [ -42.858408, -20.992625799999932 ], [ -42.857890699999977, -20.99251779999998 ], [ -42.857734, -20.992507099999944 ], [ -42.857563699999957, -20.992505799999947 ], [ -42.857311099999947, -20.992524099999969 ], [ -42.857248699999964, -20.992515299999976 ], [ -42.857148499999937, -20.992482899999963 ], [ -42.856835299999943, -20.992275199999934 ], [ -42.856617599999936, -20.992144399999979 ], [ -42.85651089999994, -20.992093299999951 ], [ -42.856406199999988, -20.99202589999992 ], [ -42.856210899999951, -20.991842 ], [ -42.856069199999979, -20.991744399999956 ], [ -42.855933499999935, -20.991704499999972 ], [ -42.855802499999982, -20.991705299999978 ], [ -42.855734, -20.991725899999963 ], [ -42.855504299999943, -20.991767 ], [ -42.855389099999968, -20.991741099999956 ], [ -42.855315399999945, -20.991699799999921 ], [ -42.855284799999936, -20.991658699999959 ], [ -42.855225699999956, -20.991604399999961 ], [ -42.854978799999977, -20.991341699999964 ], [ -42.854905399999957, -20.99128829999994 ], [ -42.854749799999986, -20.991196299999949 ], [ -42.854624499999943, -20.991132699999977 ], [ -42.854466799999948, -20.991115099999949 ], [ -42.854284699999937, -20.99114649999996 ], [ -42.853421699999949, -20.990857299999966 ], [ -42.85235839999995, -20.990332299999981 ], [ -42.851690499999961, -20.990667499999983 ], [ -42.851575399999938, -20.990725499999936 ], [ -42.851401199999948, -20.990855699999937 ], [ -42.85112619999996, -20.991105599999972 ], [ -42.850898399999949, -20.991231299999981 ], [ -42.850455099999976, -20.991314799999934 ], [ -42.850247599999925, -20.99148839999997 ], [ -42.850125399999968, -20.991696 ], [ -42.850040399999962, -20.992058299999933 ], [ -42.849916199999946, -20.992262199999971 ], [ -42.849606, -20.992555299999925 ], [ -42.849046199999975, -20.993184799999941 ], [ -42.848850599999935, -20.993476499999918 ], [ -42.848813899999989, -20.993531499999953 ], [ -42.84864239999996, -20.993779299999964 ], [ -42.848381899999936, -20.993977499999961 ], [ -42.847773, -20.994657699999948 ], [ -42.847749, -20.994730799999957 ], [ -42.84739159999998, -20.994518899999953 ], [ -42.847332899999977, -20.995131499999946 ], [ -42.847264199999984, -20.995513099999982 ], [ -42.847099499999956, -20.995778699999953 ], [ -42.846900699999942, -20.996060299999957 ], [ -42.846808599999981, -20.996330499999953 ], [ -42.846679199999976, -20.996780299999951 ], [ -42.846531199999959, -20.99698409999997 ], [ -42.846237199999962, -20.997065899999946 ], [ -42.846100799999931, -20.997085499999972 ], [ -42.84595319999994, -20.997070699999927 ], [ -42.845731299999962, -20.996958199999938 ], [ -42.845517399999949, -20.996888 ], [ -42.845244, -20.996793 ], [ -42.844970899999964, -20.996666799999943 ], [ -42.844600599999978, -20.996626399999975 ], [ -42.84428759999998, -20.996727199999956 ], [ -42.844047, -20.996862799999988 ], [ -42.84377359999997, -20.996894599999962 ], [ -42.843556199999966, -20.996936399999974 ], [ -42.843324099999961, -20.996938099999973 ], [ -42.843082699999968, -20.996978099999975 ], [ -42.842775, -20.997018499999953 ], [ -42.842492399999976, -20.996994299999983 ], [ -42.842104899999988, -20.997023899999927 ], [ -42.841912699999966, -20.997055499999931 ], [ -42.841724499999941, -20.997096 ], [ -42.841447399999936, -20.997243799999989 ], [ -42.841191899999963, -20.997291199999939 ], [ -42.840993, -20.997315799999971 ], [ -42.840095, -20.99725709999996 ], [ -42.839692499999963, -20.99734779999994 ], [ -42.839449099999975, -20.997205599999976 ], [ -42.839368599999943, -20.99717719999995 ], [ -42.839104499999962, -20.997022299999966 ], [ -42.839074399999959, -20.996976899999929 ], [ -42.839087199999938, -20.996893699999941 ], [ -42.839151199999939, -20.996738499999935 ], [ -42.839154899999983, -20.996691899999981 ], [ -42.839131199999947, -20.996615399999939 ], [ -42.839060899999936, -20.996551299999958 ], [ -42.838985599999951, -20.996499799999988 ], [ -42.838899199999958, -20.99635139999998 ], [ -42.838767299999972, -20.996226699999958 ], [ -42.838680899999986, -20.996210499999957 ], [ -42.838571899999977, -20.996094499999973 ], [ -42.838571099999967, -20.996056899999918 ], [ -42.83860169999997, -20.995960699999952 ], [ -42.838666099999962, -20.995914299999974 ], [ -42.838752399999976, -20.995901299999961 ], [ -42.838870799999938, -20.995787799999956 ], [ -42.838969299999974, -20.995748599999949 ], [ -42.839004199999984, -20.995694 ], [ -42.838964699999963, -20.995609299999956 ], [ -42.838959399999965, -20.995491899999934 ], [ -42.838928899999985, -20.995374499999961 ], [ -42.838831399999947, -20.995260299999931 ], [ -42.83866009999997, -20.995313899999925 ], [ -42.83853129999995, -20.995354799999973 ], [ -42.838427399999944, -20.995349 ], [ -42.838410299999971, -20.995297799999939 ], [ -42.838425899999947, -20.995187599999955 ], [ -42.838413099999968, -20.995136399999986 ], [ -42.838387899999937, -20.995093699999927 ], [ -42.838366699999945, -20.995034099999927 ], [ -42.838318199999947, -20.994951099999966 ], [ -42.8382534, -20.994867199999927 ], [ -42.838231099999966, -20.994689599999969 ], [ -42.838215599999955, -20.994640499999946 ], [ -42.838228099999988, -20.994613099999981 ], [ -42.838275, -20.994492 ], [ -42.838399599999946, -20.994402099999949 ], [ -42.838575499999934, -20.99428509999996 ], [ -42.838707599999964, -20.994197299999939 ], [ -42.838819, -20.994100599999953 ], [ -42.838863299999957, -20.994037299999938 ], [ -42.838883099999983, -20.993879199999974 ], [ -42.838919499999982, -20.99376679999995 ], [ -42.838980799999952, -20.99371889999998 ], [ -42.839050799999939, -20.993628599999965 ], [ -42.839094199999977, -20.993484599999928 ], [ -42.839128799999969, -20.993303699999949 ], [ -42.839122499999974, -20.993225699999986 ], [ -42.839060799999963, -20.993123099999927 ], [ -42.839057199999957, -20.993076499999969 ], [ -42.83900419999997, -20.992999399999977 ], [ -42.838937399999971, -20.992932 ], [ -42.838902399999931, -20.992883299999953 ], [ -42.838903599999981, -20.992805299999922 ], [ -42.838962899999956, -20.992655899999939 ], [ -42.838977, -20.992573799999946 ], [ -42.839022299999961, -20.99250859999994 ], [ -42.839038599999981, -20.992424299999985 ], [ -42.839021099999975, -20.99234829999995 ], [ -42.839011699999965, -20.992291399999935 ], [ -42.839023799999957, -20.992213399999962 ], [ -42.839067, -20.992137499999949 ], [ -42.839153199999942, -20.992072399999934 ], [ -42.8392214, -20.992036299999921 ], [ -42.839330699999948, -20.991994299999931 ], [ -42.839382, -20.991948499999978 ], [ -42.839396799999967, -20.991887799999976 ], [ -42.839387799999933, -20.991838599999927 ], [ -42.839350299999978, -20.99177289999994 ], [ -42.839302099999941, -20.99173519999993 ], [ -42.839210399999956, -20.991679499999975 ], [ -42.8392, -20.991667699999944 ], [ -42.839159599999967, -20.991621699999936 ], [ -42.839119, -20.991575599999976 ], [ -42.839009199999964, -20.991435499999959 ], [ -42.838964099999949, -20.991261599999977 ], [ -42.83894719999995, -20.991159799999934 ], [ -42.838949699999944, -20.991054699999957 ], [ -42.838951499999958, -20.990982 ], [ -42.838975499999954, -20.99084159999995 ], [ -42.83905679999998, -20.990743599999977 ], [ -42.839187699999968, -20.990633299999963 ], [ -42.839496599999961, -20.990485699999958 ], [ -42.839566299999944, -20.990358599999979 ], [ -42.839612099999954, -20.990248599999958 ], [ -42.8397, -20.990092299999947 ], [ -42.83978349999996, -20.989999699999949 ], [ -42.83985469999994, -20.98988589999993 ], [ -42.839877099999967, -20.989615299999976 ], [ -42.839857399999971, -20.989454399999929 ], [ -42.839829099999974, -20.989331599999961 ], [ -42.8398256, -20.989183599999937 ], [ -42.83984259999994, -20.989048599999936 ], [ -42.839839799999936, -20.988957699999958 ], [ -42.83975769999995, -20.988855599999962 ], [ -42.839398499999959, -20.988731499999968 ], [ -42.839191399999947, -20.988761 ], [ -42.839127699999949, -20.988817399999959 ], [ -42.839058099999939, -20.988842 ], [ -42.839000899999981, -20.988828699999949 ], [ -42.838981199999985, -20.988812699999976 ], [ -42.838921399999954, -20.988764299999961 ], [ -42.838868399999967, -20.988708599999946 ], [ -42.838773799999956, -20.988534 ], [ -42.838757599999951, -20.988411099999947 ], [ -42.838749399999976, -20.988267199999935 ], [ -42.838708499999939, -20.988194799999974 ], [ -42.838806399999953, -20.988107299999964 ], [ -42.838843099999963, -20.988048699999986 ], [ -42.83883869999994, -20.987909199999933 ], [ -42.838904, -20.987889 ], [ -42.838944699999956, -20.987830499999969 ], [ -42.838944499999968, -20.987775599999964 ], [ -42.838956499999945, -20.987708299999944 ], [ -42.838989, -20.987670799999925 ], [ -42.839009199999964, -20.987624699999969 ], [ -42.839008899999953, -20.987553099999953 ], [ -42.839029, -20.987490099999945 ], [ -42.839069499999944, -20.987423299999932 ], [ -42.839075499999986, -20.987378199999956 ], [ -42.8390773, -20.987364399999926 ], [ -42.839056399999954, -20.987288299999932 ], [ -42.839034199999965, -20.987255199999943 ], [ -42.839020799999957, -20.98723039999993 ], [ -42.838901299999982, -20.987166699999925 ], [ -42.838803, -20.987120599999962 ], [ -42.838491099999942, -20.986981 ], [ -42.838453099999981, -20.986943499999938 ], [ -42.838326599999959, -20.98693309999992 ], [ -42.838110599999929, -20.986735899999925 ], [ -42.837945699999977, -20.986560599999965 ], [ -42.83786, -20.986519199999975 ], [ -42.837751199999957, -20.986509099999981 ], [ -42.837515599999968, -20.98638 ], [ -42.837290199999977, -20.986418499999939 ], [ -42.8372902, -20.986421499999938 ], [ -42.837070199999971, -20.986400499999945 ], [ -42.8369034, -20.986327699999944 ], [ -42.836727199999984, -20.986327199999945 ], [ -42.836626899999942, -20.986334599999957 ], [ -42.836541599999968, -20.986311699999931 ], [ -42.836510499999974, -20.986244699999922 ], [ -42.83643219999994, -20.986204099999942 ], [ -42.836287599999942, -20.98602679999993 ], [ -42.8362188, -20.985882299999961 ], [ -42.836144199999985, -20.985557099999937 ], [ -42.836035799999934, -20.98521879999992 ], [ -42.835923399999956, -20.984808699999963 ], [ -42.835785599999959, -20.984633699999957 ], [ -42.835721699999965, -20.984507399999913 ], [ -42.835721099999944, -20.984402499999927 ], [ -42.835796499999958, -20.984323599999986 ], [ -42.835877899999964, -20.984316699999965 ], [ -42.835920299999948, -20.984340599999928 ], [ -42.835987699999976, -20.984394799999965 ], [ -42.836029599999961, -20.98434519999994 ], [ -42.836029099999962, -20.984273799999983 ], [ -42.835986599999956, -20.984235299999959 ], [ -42.835965299999934, -20.984192899999989 ], [ -42.835964799999935, -20.98412989999996 ], [ -42.835989299999937, -20.984008599999978 ], [ -42.835968499999986, -20.983959 ], [ -42.835919799999935, -20.983872399999939 ], [ -42.835837799999979, -20.983683899999949 ], [ -42.835730599999977, -20.983347899999941 ], [ -42.835633599999944, -20.983154799999969 ], [ -42.83562029999996, -20.983053799999933 ], [ -42.835684, -20.982948399999938 ], [ -42.83578719999997, -20.982825399999953 ], [ -42.835790099999947, -20.982649099999943 ], [ -42.835669, -20.982473199999962 ], [ -42.8355, -20.982437399999981 ], [ -42.835321499999971, -20.982310399999953 ], [ -42.835180599999944, -20.98229739999994 ], [ -42.834910599999944, -20.982289799999936 ], [ -42.834725099999964, -20.982204899999939 ], [ -42.83472729999994, -20.982042699999962 ], [ -42.834579899999937, -20.981919199999947 ], [ -42.834258399999953, -20.981852899999971 ], [ -42.834219899999944, -20.981740399999971 ], [ -42.834108499999957, -20.981632199999979 ], [ -42.834054799999933, -20.981462599999926 ], [ -42.83404029999997, -20.98113 ], [ -42.834110799999962, -20.980953 ], [ -42.83406929999996, -20.980790499999962 ], [ -42.834076099999947, -20.980697899999939 ], [ -42.834144, -20.980638799999952 ], [ -42.834328499999977, -20.980796799999951 ], [ -42.834546899999971, -20.980792799999964 ], [ -42.834693799999975, -20.980776399999964 ], [ -42.834910799999932, -20.980617799999944 ], [ -42.835077399999932, -20.980403899999931 ], [ -42.835236299999963, -20.980267899999944 ], [ -42.835333499999926, -20.980134899999925 ], [ -42.835473599999943, -20.980049599999962 ], [ -42.835515599999951, -20.979765599999951 ], [ -42.835588199999954, -20.979654199999967 ], [ -42.83562459999996, -20.97965959999993 ], [ -42.835822599999972, -20.97968919999995 ], [ -42.83591579999996, -20.979633 ], [ -42.835950499999974, -20.979512499999935 ], [ -42.83584529999996, -20.979281099999984 ], [ -42.835518799999925, -20.979220199999915 ], [ -42.83517269999993, -20.979130299999955 ], [ -42.835048699999959, -20.978876199999934 ], [ -42.834930499999984, -20.978903199999923 ], [ -42.834756699999957, -20.978865 ], [ -42.834730099999945, -20.978744899999974 ], [ -42.8347285, -20.97873769999995 ], [ -42.834869299999987, -20.978588 ], [ -42.834897199999943, -20.978558299999957 ], [ -42.834981899999946, -20.978532299999923 ], [ -42.835165199999956, -20.978525899999969 ], [ -42.835326099999968, -20.978454599999971 ], [ -42.835609699999964, -20.978142099999946 ], [ -42.835628299999939, -20.977915 ], [ -42.835489299999949, -20.977747699999949 ], [ -42.835394399999984, -20.977770799999966 ], [ -42.835324, -20.97780389999998 ], [ -42.835264399999971, -20.977818099999972 ], [ -42.835253099999939, -20.977820799999961 ], [ -42.835154899999964, -20.977792899999947 ], [ -42.83509689999994, -20.977732699999923 ], [ -42.835041399999973, -20.977699799999986 ], [ -42.83499519999998, -20.977612699999952 ], [ -42.834959, -20.977498699999952 ], [ -42.834972799999946, -20.977388399999935 ], [ -42.834939699999957, -20.97729089999995 ], [ -42.834913899999947, -20.977240599999952 ], [ -42.83490089999998, -20.977137 ], [ -42.834919899999932, -20.977045499999971 ], [ -42.834943299999964, -20.976985499999962 ], [ -42.835069399999952, -20.977016599999946 ], [ -42.835117199999956, -20.977087 ], [ -42.835123, -20.977200099999944 ], [ -42.835160099999946, -20.977226299999931 ], [ -42.835235099999977, -20.977228499999971 ], [ -42.835290899999968, -20.977182099999922 ], [ -42.835307899999975, -20.977113699999965 ], [ -42.835511599999954, -20.97685569999993 ], [ -42.835482299999967, -20.976555 ], [ -42.835443199999936, -20.976476299999934 ], [ -42.835427299999935, -20.976434399999953 ], [ -42.835386399999948, -20.97640819999998 ], [ -42.835327099999972, -20.97623259999995 ], [ -42.835293099999951, -20.976047 ], [ -42.8352839, -20.975945699999944 ], [ -42.835386099999944, -20.975786499999959 ], [ -42.835364099999936, -20.975598099999964 ], [ -42.835167, -20.975585599999928 ], [ -42.835115499999972, -20.97550829999993 ], [ -42.835114, -20.975450099999929 ], [ -42.835136899999959, -20.975400699999973 ], [ -42.835191, -20.975344899999982 ], [ -42.835386899999946, -20.975335399999942 ], [ -42.835455399999937, -20.975318299999973 ], [ -42.835517199999977, -20.975363599999969 ], [ -42.835549, -20.97551739999993 ], [ -42.835564, -20.975541799999959 ], [ -42.835601599999968, -20.975545899999929 ], [ -42.835652899999957, -20.975480399999981 ], [ -42.835650699999981, -20.975384399999932 ], [ -42.835624099999968, -20.975287899999952 ], [ -42.835597199999931, -20.975204899999945 ], [ -42.835499899999952, -20.975146499999937 ], [ -42.835323499999966, -20.975101699999978 ], [ -42.835281, -20.975021499999968 ], [ -42.835279699999944, -20.974971599999954 ], [ -42.835361599999935, -20.974880899999953 ], [ -42.835640599999977, -20.974797699999939 ], [ -42.835664199999947, -20.974704899999942 ], [ -42.835745099999947, -20.974613299999927 ], [ -42.835702599999934, -20.974539699999976 ], [ -42.835642699999937, -20.974511499999938 ], [ -42.835592099999985, -20.974443799999957 ], [ -42.835547499999969, -20.974473499999927 ], [ -42.835519899999959, -20.974507099999979 ], [ -42.835467299999955, -20.974526899999937 ], [ -42.835373499999946, -20.974519099999942 ], [ -42.83530159999998, -20.974498499999978 ], [ -42.835222499999929, -20.974462399999933 ], [ -42.835188599999988, -20.974407499999923 ], [ -42.835190599999969, -20.974320099999947 ], [ -42.83531, -20.974248699999968 ], [ -42.83535459999996, -20.974194399999934 ], [ -42.835365199999956, -20.974119499999976 ], [ -42.8354126, -20.974041099999965 ], [ -42.835411499999971, -20.973991099999964 ], [ -42.835358199999973, -20.973936899999941 ], [ -42.835097299999973, -20.973848399999945 ], [ -42.834966299999962, -20.973765599999979 ], [ -42.834838699999985, -20.973638199999968 ], [ -42.834777, -20.973357499999967 ], [ -42.834707499999979, -20.97328079999993 ], [ -42.834640799999931, -20.973083299999921 ], [ -42.834707699999967, -20.9730044 ], [ -42.834827099999984, -20.972946399999955 ], [ -42.834937399999937, -20.972943499999914 ], [ -42.835015099999964, -20.972958199999944 ], [ -42.83505219999995, -20.973024799999955 ], [ -42.835099899999932, -20.972971199999961 ], [ -42.83515239999997, -20.972789 ], [ -42.8351512, -20.972692399999961 ], [ -42.835165299999971, -20.972375099999972 ], [ -42.83520029999994, -20.97227109999994 ], [ -42.835174099999968, -20.972195399999972 ], [ -42.835177199999976, -20.97214109999992 ], [ -42.835269099999948, -20.971975 ], [ -42.835314699999977, -20.971849799999976 ], [ -42.835314899999958, -20.971749299999928 ], [ -42.835292799999941, -20.971623399999938 ], [ -42.83511569999996, -20.971420499999969 ], [ -42.835018699999978, -20.971235799999917 ], [ -42.834964599999978, -20.9710353 ], [ -42.834923699999933, -20.970927899999936 ], [ -42.833816299999967, -20.970972099999983 ], [ -42.8340161, -20.970427399999945 ], [ -42.834842099999953, -20.967844 ], [ -42.8348951, -20.967649099999964 ], [ -42.834917799999971, -20.967457599999925 ], [ -42.834862299999941, -20.967174899999979 ], [ -42.834765899999979, -20.96694129999997 ], [ -42.834543399999973, -20.966588799999961 ], [ -42.834077699999966, -20.966094299999952 ], [ -42.833399, -20.965680699999954 ], [ -42.833609899999949, -20.966249899999983 ], [ -42.833880599999929, -20.966980299999932 ], [ -42.833932499999953, -20.967259299999952 ], [ -42.83396659999994, -20.967567799999937 ], [ -42.833892599999963, -20.968069699999944 ], [ -42.833370599999974, -20.970037 ], [ -42.832745, -20.972262499999939 ], [ -42.832270899999976, -20.973970399999931 ], [ -42.831424, -20.977021399999956 ], [ -42.831325699999987, -20.97737549999994 ], [ -42.831208599999968, -20.977809799999942 ], [ -42.830925499999978, -20.97876279999997 ], [ -42.830732499999954, -20.979145899999946 ], [ -42.830681499999969, -20.979261799999954 ], [ -42.830433499999977, -20.979633499999963 ], [ -42.82800619999994, -20.982478399999934 ], [ -42.827433099999958, -20.983151599999928 ], [ -42.82742849999994, -20.983156799999961 ], [ -42.825823599999978, -20.98502109999998 ], [ -42.82582529999997, -20.98502169999994 ], [ -42.825869699999942, -20.985037 ], [ -42.828944899999954, -20.986099 ], [ -42.830525299999977, -20.987073 ], [ -42.835158699999965, -20.991287399999958 ], [ -42.835238199999942, -20.991522 ], [ -42.835913299999959, -20.993515599999974 ], [ -42.835874, -20.993508499999962 ], [ -42.834966, -20.993557299999967 ], [ -42.83073209999997, -20.994253699999945 ], [ -42.827207699999981, -20.996481499999948 ], [ -42.826128299999937, -20.998574099999928 ], [ -42.825577, -20.999369899999966 ], [ -42.825003699999968, -21.000197399999934 ], [ -42.824556299999983, -21.000843199999967 ], [ -42.823650299999947, -21.002151 ], [ -42.822916599999985, -21.002513799999981 ], [ -42.822886899999958, -21.002528499999968 ], [ -42.822861799999941, -21.002540499999956 ], [ -42.822853299999963, -21.002544199999942 ], [ -42.82284489999995, -21.002547799999942 ], [ -42.821135599999941, -21.00202349999995 ], [ -42.821063199999969, -21.002001299999968 ], [ -42.819582, -21.001546899999923 ], [ -42.819516, -21.001526699999935 ], [ -42.819450699999948, -21.00150669999994 ], [ -42.819510099999953, -21.003061699999932 ], [ -42.819538399999949, -21.004553899999962 ], [ -42.8195851, -21.004882299999963 ], [ -42.819580399999957, -21.005026499999932 ], [ -42.819572699999981, -21.005539 ], [ -42.81957539999997, -21.00578449999994 ], [ -42.819577499999987, -21.006161099999922 ], [ -42.819583, -21.006646499999931 ], [ -42.819593099999963, -21.00687859999994 ], [ -42.819603799999982, -21.00712569999996 ], [ -42.819618399999975, -21.007401599999984 ], [ -42.819632599999977, -21.007691099999942 ], [ -42.819641599999954, -21.007931799999938 ], [ -42.819646199999973, -21.008054799999972 ], [ -42.819728, -21.008812399999954 ], [ -42.819802, -21.008931299999958 ], [ -42.819816699999933, -21.009075499999938 ], [ -42.819811399999942, -21.009187599999972 ], [ -42.819766399999935, -21.009348699999968 ], [ -42.819709499999938, -21.00978269999996 ], [ -42.819682, -21.009857099999966 ], [ -42.819695699999954, -21.010201399999964 ], [ -42.819789299999961, -21.011652199999961 ], [ -42.819797899999969, -21.011779599999944 ], [ -42.819809699999951, -21.011954599999967 ], [ -42.819843799999944, -21.012566199999966 ], [ -42.819935799999946, -21.013061099999948 ], [ -42.820113299999946, -21.013553899999987 ], [ -42.820298599999944, -21.013921 ], [ -42.82134149999996, -21.015344799999987 ], [ -42.821680399999934, -21.015832599999939 ], [ -42.821979, -21.016265499999967 ], [ -42.822213, -21.016779199999974 ], [ -42.822358799999961, -21.017243199999943 ], [ -42.822425099999982, -21.017764599999957 ], [ -42.822428199999926, -21.018122799999947 ], [ -42.822428699999932, -21.018556199999985 ], [ -42.822339499999948, -21.019976299999929 ], [ -42.822287499999966, -21.020806 ], [ -42.822246499999949, -21.021458799999944 ], [ -42.822216899999944, -21.021928299999942 ], [ -42.822180499999952, -21.022509499999945 ], [ -42.822139199999988, -21.023167099999956 ], [ -42.822101299999986, -21.023771799999956 ], [ -42.82207429999994, -21.024202499999944 ], [ -42.822037699999953, -21.02478449999996 ], [ -42.822009399999963, -21.025235499999933 ], [ -42.82197739999998, -21.025744799999927 ], [ -42.821931, -21.026484199999967 ], [ -42.822002, -21.027254599999928 ], [ -42.82226859999998, -21.027777399999934 ], [ -42.82254329999995, -21.028123499999936 ], [ -42.823041399999966, -21.028537 ], [ -42.823280399999931, -21.028659099999963 ], [ -42.823813499999972, -21.028859399999927 ], [ -42.824941599999939, -21.028982899999949 ], [ -42.825854399999969, -21.029082799999959 ], [ -42.826312, -21.029134099999961 ], [ -42.826868299999944, -21.029294799999949 ], [ -42.827340199999981, -21.029459099999944 ], [ -42.828323299999973, -21.029930399999955 ], [ -42.829975399999967, -21.030722299999979 ], [ -42.830155499999933, -21.030827199999983 ], [ -42.829831, -21.030997299999974 ], [ -42.829548799999941, -21.031184499999942 ], [ -42.829453, -21.031371299999936 ], [ -42.829360799999968, -21.031815199999972 ], [ -42.82934, -21.031993499999938 ], [ -42.829252299999943, -21.032355 ], [ -42.828902699999958, -21.032791399999944 ], [ -42.82875359999997, -21.033035299999934 ], [ -42.828723499999967, -21.033246099999925 ], [ -42.828728499999954, -21.033319299999953 ], [ -42.828741899999962, -21.033439599999937 ], [ -42.829020899999932, -21.034164099999931 ], [ -42.829042899999941, -21.034261399999927 ], [ -42.82903969999996, -21.034417299999969 ], [ -42.828919599999942, -21.034677199999969 ], [ -42.828757899999971, -21.034964899999981 ], [ -42.828479299999977, -21.035252299999957 ], [ -42.828043699999967, -21.035632099999933 ], [ -42.827982499999962, -21.035691199999974 ], [ -42.827886799999931, -21.035793799999968 ], [ -42.827817499999988, -21.035885 ], [ -42.827757899999938, -21.036132 ], [ -42.827642, -21.036803099999929 ], [ -42.827536, -21.037021 ], [ -42.827393099999938, -21.037191 ], [ -42.827154899999982, -21.037404299999931 ], [ -42.826790199999955, -21.03770779999995 ], [ -42.826671199999964, -21.038283599999929 ], [ -42.827358499999946, -21.039001699999968 ], [ -42.830362599999944, -21.04106169999994 ], [ -42.830899, -21.041340599999959 ], [ -42.831285199999968, -21.041490799999963 ], [ -42.831907499999943, -21.041598099999934 ], [ -42.832551199999962, -21.041598099999931 ], [ -42.833279, -21.041527099999929 ] ] ], [ [ [ -42.790404499999966, -21.000109099999964 ], [ -42.790841299999954, -21.000192799999983 ], [ -42.791478899999959, -21.000225099999966 ], [ -42.792627, -21.000128 ], [ -42.793006899999966, -21.000131399999937 ], [ -42.79365619999993, -21.000261899999934 ], [ -42.794290499999931, -21.000784099999958 ], [ -42.794884599999932, -21.001214699999931 ], [ -42.795476399999984, -21.001426699999964 ], [ -42.796477199999963, -21.001268299999939 ], [ -42.79818609999996, -21.000862699999985 ], [ -42.798188399999951, -20.999804499999971 ], [ -42.798080399999947, -20.999812899999931 ], [ -42.797829399999955, -20.999848 ], [ -42.797590099999972, -20.999846299999938 ], [ -42.797501399999931, -20.999772699999941 ], [ -42.797493, -20.999592 ], [ -42.797780899999971, -20.999332599999949 ], [ -42.797841099999971, -20.998969399999961 ], [ -42.79785789999994, -20.998728399999944 ], [ -42.797933199999932, -20.998574499999958 ], [ -42.797986699999967, -20.998353599999977 ], [ -42.797986699999967, -20.998243099999964 ], [ -42.79768629999996, -20.998075799999967 ], [ -42.797651199999962, -20.997920099999931 ], [ -42.79769129999994, -20.997781199999956 ], [ -42.79775659999995, -20.997630599999987 ], [ -42.797995899999933, -20.997326 ], [ -42.798151599999983, -20.997152 ], [ -42.798057799999981, -20.996989599999932 ], [ -42.797872099999957, -20.996788799999916 ], [ -42.797760099999955, -20.996709899999924 ], [ -42.797349099999963, -20.996778799999973 ], [ -42.796931099999938, -20.996811399999952 ], [ -42.796351299999976, -20.99637209999997 ], [ -42.796303599999938, -20.996020699999967 ], [ -42.796243299999958, -20.995455899999964 ], [ -42.796133299999951, -20.995184699999982 ], [ -42.7960839, -20.995167199999983 ], [ -42.794946799999941, -20.995167199999965 ], [ -42.793327599999941, -20.995234899999957 ], [ -42.791682099999953, -20.995460899999944 ], [ -42.789016199999942, -20.996214 ], [ -42.787570299999963, -20.996153699999979 ], [ -42.786478299999942, -20.996673299999934 ], [ -42.786078699999969, -20.998000599999951 ], [ -42.786695499999944, -20.998274899999945 ], [ -42.787061399999978, -20.998472399999962 ], [ -42.787654399999951, -20.99869439999998 ], [ -42.78835609999993, -20.999014599999946 ], [ -42.789136, -20.999499899999925 ], [ -42.79003639999997, -20.999993099999916 ], [ -42.790404499999966, -21.000109099999964 ] ] ] ] } }
]
}
