{
"type": "FeatureCollection",
"name": "3200508",
"crs": { "type": "name", "properties": { "name": "urn:ogc:def:crs:OGC:1.3:CRS84" } },
"features": [
{ "type": "Feature", "properties": { "CD_MUN": "3200508", "NM_MUN": "Apiacá" }, "geometry": { "type": "MultiPolygon", "coordinates": [ [ [ [ -41.570528, -21.164704 ], [ -41.570672299999949, -21.163938299999923 ], [ -41.570806599999976, -21.163225699999938 ], [ -41.570938099999985, -21.162527799999957 ], [ -41.57075, -21.162475199999964 ], [ -41.5705933, -21.162211699999929 ], [ -41.570411399999955, -21.161952499999924 ], [ -41.570312599999959, -21.161820699999971 ], [ -41.570174399999978, -21.161554099999936 ], [ -41.569954099999968, -21.161193499999968 ], [ -41.569778899999953, -21.16087339999995 ], [ -41.56957029999996, -21.160521199999952 ], [ -41.569365099999978, -21.160222399999956 ], [ -41.569168399999967, -21.159930299999935 ], [ -41.56899459999994, -21.15959469999995 ], [ -41.568743899999966, -21.158892499999983 ], [ -41.568648099999969, -21.158607199999949 ], [ -41.568707199999956, -21.1583922 ], [ -41.569296099999974, -21.156473699999939 ], [ -41.570775799999979, -21.157291 ], [ -41.57239949999996, -21.157173699999927 ], [ -41.572344699999974, -21.156733 ], [ -41.571422799999944, -21.156810699999948 ], [ -41.57125359999997, -21.156804699999945 ], [ -41.569751899999979, -21.156038499999951 ], [ -41.569323599999962, -21.156112199999932 ], [ -41.568607, -21.155048299999979 ], [ -41.569240599999944, -21.154417299999984 ], [ -41.569087299999978, -21.15383189999994 ], [ -41.569913899999968, -21.151938499999964 ], [ -41.571420599999961, -21.15004319999996 ], [ -41.571014299999945, -21.149946299999957 ], [ -41.571181499999959, -21.149879699999918 ], [ -41.571358799999985, -21.149833799999943 ], [ -41.57166969999998, -21.149793599999956 ], [ -41.571827799999937, -21.149779799999965 ], [ -41.57206, -21.149784799999971 ], [ -41.572379, -21.149784499999946 ], [ -41.572937399999951, -21.149785299999962 ], [ -41.573737199999989, -21.149707299999932 ], [ -41.573957, -21.14964689999994 ], [ -41.574712499999983, -21.149369399999951 ], [ -41.575237299999976, -21.149165 ], [ -41.576616199999933, -21.148614 ], [ -41.577964099999981, -21.148083099999937 ], [ -41.578417599999966, -21.147913899999928 ], [ -41.579882399999981, -21.147336099999958 ], [ -41.579932699999972, -21.147452499999932 ], [ -41.580064799999946, -21.14766719999994 ], [ -41.581173299999932, -21.148393799999958 ], [ -41.581478899999972, -21.148245199999966 ], [ -41.581846299999938, -21.146585499999954 ], [ -41.581873099999939, -21.146306799999945 ], [ -41.581887599999959, -21.146133399999943 ], [ -41.581897899999952, -21.146069399999938 ], [ -41.580659299999979, -21.144413799999924 ], [ -41.580589199999963, -21.144207399999971 ], [ -41.579680899999971, -21.143323899999924 ], [ -41.579301, -21.143612899999933 ], [ -41.57779, -21.143769799999983 ], [ -41.57585779999993, -21.144479899999958 ], [ -41.574445799999971, -21.144777199999965 ], [ -41.57061, -21.144564199999941 ], [ -41.570208199999975, -21.144100099999946 ], [ -41.569741499999964, -21.144234099999942 ], [ -41.568457099999925, -21.144540199999927 ], [ -41.566610899999944, -21.145179099999954 ], [ -41.56626209999996, -21.145236199999946 ], [ -41.566563, -21.146008399999975 ], [ -41.568153199999983, -21.148455499999947 ], [ -41.567169899999953, -21.148723099999938 ], [ -41.56616559999997, -21.150500799999975 ], [ -41.565987799999959, -21.150437299999965 ], [ -41.565978399999949, -21.150461499999945 ], [ -41.56596749999995, -21.150483199999943 ], [ -41.56594, -21.150530499999949 ], [ -41.565510499999966, -21.150101799999959 ], [ -41.56528719999995, -21.150466899999969 ], [ -41.565758699999947, -21.150862199999946 ], [ -41.566329399999972, -21.152731799999966 ], [ -41.565374099999985, -21.154434 ], [ -41.564985799999931, -21.154594799999927 ], [ -41.564512899999954, -21.154597599999924 ], [ -41.564386099999986, -21.154782199999936 ], [ -41.564293899999939, -21.154988799999952 ], [ -41.563789399999969, -21.155516199999958 ], [ -41.563194899999978, -21.155805199999978 ], [ -41.562707699999976, -21.156011599999943 ], [ -41.562649899999947, -21.156098299999947 ], [ -41.5626003, -21.156234499999982 ], [ -41.562629199999947, -21.156403799999961 ], [ -41.562711799999924, -21.156857899999977 ], [ -41.562720099999972, -21.157076799999977 ], [ -41.562645699999962, -21.157419399999981 ], [ -41.56227, -21.157799299999962 ], [ -41.561861299999983, -21.157980899999931 ], [ -41.561931499999957, -21.158637399999975 ], [ -41.562022299999974, -21.159388399999948 ], [ -41.561008799999975, -21.15979 ], [ -41.561005399999942, -21.159800099999924 ], [ -41.560995099999957, -21.159830799999952 ], [ -41.560989799999952, -21.159846499999961 ], [ -41.560969899999975, -21.159905599999949 ], [ -41.560872499999959, -21.16019509999995 ], [ -41.561101099999981, -21.16057619999998 ], [ -41.561112099999953, -21.160594499999945 ], [ -41.561135299999933, -21.160602799999932 ], [ -41.56118169999997, -21.16061939999997 ], [ -41.561206099999943, -21.160628099999933 ], [ -41.561234799999973, -21.160638399999975 ], [ -41.561294499999974, -21.160659799999976 ], [ -41.561742599999945, -21.160820099999963 ], [ -41.562347699999975, -21.164425099999953 ], [ -41.562678, -21.164510599999975 ], [ -41.562924499999951, -21.164555199999928 ], [ -41.565503099999951, -21.165028499999941 ], [ -41.569916699999972, -21.166619899999947 ], [ -41.570005099999946, -21.166651799999954 ], [ -41.570083699999941, -21.166680099999951 ], [ -41.570151, -21.166704399999954 ], [ -41.570154799999955, -21.166684099999941 ], [ -41.570199699999932, -21.166445699999944 ], [ -41.570528, -21.164704 ] ] ], [ [ [ -41.612136199999952, -21.149964399999924 ], [ -41.611320099999944, -21.149618499999967 ], [ -41.61128609999998, -21.150293 ], [ -41.61098869999995, -21.150333399999958 ], [ -41.61118589999996, -21.151118899999975 ], [ -41.611756499999956, -21.152315399999964 ], [ -41.609609299999931, -21.152449199999985 ], [ -41.610284699999966, -21.153979899999968 ], [ -41.609980899999982, -21.15430629999998 ], [ -41.610405399999934, -21.155418099999956 ], [ -41.610260599999947, -21.155534699999976 ], [ -41.610108399999952, -21.155659199999945 ], [ -41.610066899999936, -21.155733 ], [ -41.610004599999975, -21.15581369999996 ], [ -41.609979299999964, -21.155929099999977 ], [ -41.609965399999965, -21.156067399999934 ], [ -41.609967199999971, -21.156309699999941 ], [ -41.610052399999979, -21.156323599999951 ], [ -41.611821899999939, -21.157069899999943 ], [ -41.612146899999964, -21.15700969999995 ], [ -41.612589499999956, -21.157000899999954 ], [ -41.613245599999971, -21.15617089999995 ], [ -41.613495099999973, -21.155855299999928 ], [ -41.613519599999968, -21.155561299999928 ], [ -41.613533899999936, -21.155389699999947 ], [ -41.613824799999982, -21.154613899999969 ], [ -41.614009499999952, -21.154152199999938 ], [ -41.614174, -21.153741 ], [ -41.614578499999936, -21.152832699999969 ], [ -41.614759, -21.152327199999956 ], [ -41.614975699999945, -21.151942 ], [ -41.615288699999958, -21.15172529999996 ], [ -41.615818299999951, -21.151472499999951 ], [ -41.616143299999983, -21.151231799999959 ], [ -41.616360499999985, -21.150929299999977 ], [ -41.616853499999941, -21.150569699999956 ], [ -41.61711279999998, -21.150435299999966 ], [ -41.617694699999959, -21.150142399999929 ], [ -41.617876799999976, -21.1500564 ], [ -41.618066, -21.149967 ], [ -41.618370299999981, -21.149823399999942 ], [ -41.618899899999974, -21.149654799999958 ], [ -41.620103599999943, -21.149462199999945 ], [ -41.620367, -21.149427099999976 ], [ -41.620741599999974, -21.149209499999923 ], [ -41.621211099999989, -21.149269699999923 ], [ -41.621524099999931, -21.149149299999976 ], [ -41.62170459999993, -21.148896499999982 ], [ -41.621752799999967, -21.148559399999957 ], [ -41.621692599999967, -21.148053899999972 ], [ -41.621607599999948, -21.147586399999962 ], [ -41.621596299999965, -21.14752419999996 ], [ -41.621668499999942, -21.14721129999997 ], [ -41.621981499999947, -21.146958499999965 ], [ -41.62286719999998, -21.146620099999943 ], [ -41.623559399999984, -21.146485199999979 ], [ -41.623825899999936, -21.146395899999956 ], [ -41.623835299999939, -21.146392799999951 ], [ -41.624027799999965, -21.146139899999977 ], [ -41.624231399999985, -21.146058499999985 ], [ -41.624268599999944, -21.146043599999917 ], [ -41.624686899999972, -21.146001799999972 ], [ -41.625074799999936, -21.145904899999952 ], [ -41.62574289999997, -21.145711499999948 ], [ -41.625163, -21.1449201 ], [ -41.625010299999985, -21.14498819999994 ], [ -41.623988499999939, -21.145371299999983 ], [ -41.621914, -21.145604199999976 ], [ -41.621113, -21.146093099999959 ], [ -41.620256, -21.146616199999983 ], [ -41.618789, -21.146353099999942 ], [ -41.61604269999998, -21.14801169999993 ], [ -41.616037699999936, -21.148014699999969 ], [ -41.615729199999983, -21.148201 ], [ -41.616033099999981, -21.14902509999996 ], [ -41.614961, -21.150427899999954 ], [ -41.612910399999976, -21.151631299999966 ], [ -41.612372799999939, -21.150813899999932 ], [ -41.613012499999975, -21.150689299999954 ], [ -41.612136199999952, -21.149964399999924 ] ] ], [ [ [ -41.645021099999951, -21.144851899999932 ], [ -41.645340199999971, -21.14461 ], [ -41.645319899999947, -21.144279 ], [ -41.64531, -21.144117599999959 ], [ -41.645346099999976, -21.143870899999964 ], [ -41.645382299999937, -21.143624099999954 ], [ -41.645493199999976, -21.143448299999939 ], [ -41.645391, -21.143240299999949 ], [ -41.645196099999964, -21.14310939999995 ], [ -41.645000799999934, -21.142965199999939 ], [ -41.644671199999948, -21.14289 ], [ -41.6444135, -21.142840499999988 ], [ -41.644220899999937, -21.142843499999984 ], [ -41.644111799999969, -21.142731399999949 ], [ -41.644109699999944, -21.142610899999955 ], [ -41.644107, -21.142457 ], [ -41.644111599999974, -21.142316299999951 ], [ -41.644151899999947, -21.142175099999974 ], [ -41.644113299999958, -21.142008399999945 ], [ -41.643989799999929, -21.141889799999948 ], [ -41.643817899999931, -21.141852299999982 ], [ -41.643610799999976, -21.141842099999952 ], [ -41.643445899999961, -21.141797899999972 ], [ -41.643309399999971, -21.141746399999931 ], [ -41.643179099999941, -21.141641399999969 ], [ -41.643027099999983, -21.141523199999927 ], [ -41.642845699999953, -21.141352 ], [ -41.64274329999995, -21.141213 ], [ -41.642661199999971, -21.14100679999995 ], [ -41.642664, -21.140765699999978 ], [ -41.642669599999984, -21.140678599999944 ], [ -41.642667599999989, -21.140564799999929 ], [ -41.642665799999982, -21.140464399999924 ], [ -41.642663799999987, -21.140350699999949 ], [ -41.6426982, -21.140276499999974 ], [ -41.642696399999977, -21.140176099999962 ], [ -41.642680599999949, -21.14008929999995 ], [ -41.642586499999943, -21.140017199999928 ], [ -41.642393599999942, -21.140000099999941 ], [ -41.642258, -21.140002199999966 ], [ -41.642065399999979, -21.140005199999958 ], [ -41.641979699999979, -21.139999899999975 ], [ -41.641936199999975, -21.139960399999943 ], [ -41.6419413, -21.139846499999969 ], [ -41.642110299999956, -21.139716599999925 ], [ -41.64230919999995, -21.139666699999967 ], [ -41.642473199999984, -21.139664099999951 ], [ -41.64272219999998, -21.139620099999956 ], [ -41.642928499999982, -21.139583399999939 ], [ -41.643141, -21.139493 ], [ -41.643246699999963, -21.139417699999971 ], [ -41.643287699999973, -21.139316699999934 ], [ -41.643357599999945, -21.139235199999966 ], [ -41.643440799999951, -21.1391 ], [ -41.643474799999986, -21.139005799999939 ], [ -41.643502099999978, -21.13893169999994 ], [ -41.643450899999948, -21.138865599999971 ], [ -41.643371599999966, -21.13882 ], [ -41.643384099999935, -21.138719299999927 ], [ -41.643425299999933, -21.138625 ], [ -41.643437699999943, -21.138524399999941 ], [ -41.643399599999952, -21.138384399999939 ], [ -41.643225399999949, -21.138219699999976 ], [ -41.643051199999945, -21.138055099999971 ], [ -41.642884899999956, -21.137930499999985 ], [ -41.642754, -21.137792 ], [ -41.642681, -21.13769939999997 ], [ -41.642607299999952, -21.137566599999957 ], [ -41.642504599999938, -21.137407599999953 ], [ -41.642416499999968, -21.137268399999986 ], [ -41.642336099999973, -21.137162499999921 ], [ -41.6422702, -21.137069799999953 ], [ -41.642189499999972, -21.136943899999942 ], [ -41.642073499999988, -21.136838599999983 ], [ -41.641963899999951, -21.136693 ], [ -41.641847299999938, -21.13656089999996 ], [ -41.641759699999973, -21.136448499999968 ], [ -41.641622899999959, -21.136377 ], [ -41.641515599999934, -21.136365299999962 ], [ -41.641422, -21.13631319999995 ], [ -41.641392199999984, -21.136246699999944 ], [ -41.641348, -21.136167 ], [ -41.641381899999942, -21.13606609999993 ], [ -41.64150189999998, -21.135990599999953 ], [ -41.641563699999956, -21.135855699999972 ], [ -41.641511899999962, -21.135749399999959 ], [ -41.641460399999971, -21.13566319999995 ], [ -41.639635399999982, -21.136976599999969 ], [ -41.639661299999943, -21.137009499999984 ], [ -41.639722199999937, -21.137086599999972 ], [ -41.641245899999944, -21.139014799999927 ], [ -41.641417, -21.139100299999935 ], [ -41.641274399999929, -21.14014069999995 ], [ -41.641402699999965, -21.140354499999948 ], [ -41.641744799999977, -21.140554 ], [ -41.642101099999941, -21.140796299999977 ], [ -41.642200799999948, -21.141152599999938 ], [ -41.642314899999974, -21.141737 ], [ -41.641260199999977, -21.142406899999969 ], [ -41.64190149999996, -21.144060199999952 ], [ -41.642216099999978, -21.144765199999938 ], [ -41.642973599999941, -21.14472619999998 ], [ -41.6430314, -21.14472319999993 ], [ -41.643146299999955, -21.144741099999976 ], [ -41.643781299999937, -21.144839899999965 ], [ -41.644443299999971, -21.144912099999956 ], [ -41.645021099999951, -21.144851899999932 ] ] ], [ [ [ -41.558984899999984, -20.982894099999953 ], [ -41.559379899999961, -20.982909799999959 ], [ -41.560224799999965, -20.982508799999948 ], [ -41.560830199999941, -20.982545799999968 ], [ -41.560856399999977, -20.982119499999946 ], [ -41.561415399999923, -20.981820199999959 ], [ -41.561499199999957, -20.980060199999961 ], [ -41.560507699999953, -20.979942899999969 ], [ -41.560133899999983, -20.979835499999982 ], [ -41.559494299999983, -20.979899199999988 ], [ -41.559139799999976, -20.980033199999987 ], [ -41.558818099999939, -20.980154799999969 ], [ -41.557072, -20.979895499999937 ], [ -41.555931499999986, -20.979401599999964 ], [ -41.555767599999967, -20.979635799999972 ], [ -41.555620199999964, -20.979880599999952 ], [ -41.556392899999935, -20.980652 ], [ -41.556790099999951, -20.980623499999982 ], [ -41.557932199999982, -20.981056799999976 ], [ -41.55831349999994, -20.982287899999953 ], [ -41.558984899999984, -20.982894099999953 ] ] ] ] } }
]
}
