{
"type": "FeatureCollection",
"name": "3201506",
"crs": { "type": "name", "properties": { "name": "urn:ogc:def:crs:OGC:1.3:CRS84" } },
"features": [
{ "type": "Feature", "properties": { "CD_MUN": "3201506", "NM_MUN": "Colatina" }, "geometry": { "type": "MultiPolygon", "coordinates": [ [ [ [ -40.617886299999952, -19.634195199999958 ], [ -40.617805799999985, -19.634322199999922 ], [ -40.617810099999929, -19.63477939999995 ], [ -40.617683099999965, -19.635152 ], [ -40.6172385, -19.635236599999931 ], [ -40.617285099999947, -19.635723499999919 ], [ -40.617183499999946, -19.636159599999932 ], [ -40.616938, -19.636295099999924 ], [ -40.616628899999967, -19.636650699999972 ], [ -40.615995699999985, -19.63767949999994 ], [ -40.616065, -19.637730599999941 ], [ -40.616272399999957, -19.637820399999963 ], [ -40.619551899999976, -19.639048099999957 ], [ -40.620578899999941, -19.636667599999946 ], [ -40.622594099999965, -19.637175599999985 ], [ -40.623668399999985, -19.634813 ], [ -40.622407799999969, -19.63460159999995 ], [ -40.620291, -19.633365399999946 ], [ -40.619249499999974, -19.632624499999956 ], [ -40.618300699999963, -19.632880599999964 ], [ -40.617886299999952, -19.634195199999958 ] ] ], [ [ [ -40.50405869999998, -19.57240819999992 ], [ -40.50457259999996, -19.572675599999961 ], [ -40.505049699999972, -19.572954399999951 ], [ -40.505121599999939, -19.572887699999974 ], [ -40.506232299999965, -19.573035099999959 ], [ -40.507002, -19.571951399999929 ], [ -40.506924, -19.571576899999968 ], [ -40.506658699999953, -19.571296 ], [ -40.506572899999988, -19.570781 ], [ -40.506377799999946, -19.570297299999947 ], [ -40.505828099999974, -19.570244399999979 ], [ -40.505670199999933, -19.570229299999944 ], [ -40.505566399999971, -19.570219299999962 ], [ -40.505285499999957, -19.570102199999944 ], [ -40.504973399999983, -19.569883799999943 ], [ -40.504700299999968, -19.569517099999921 ], [ -40.504563, -19.569304199999983 ], [ -40.504544199999941, -19.569275199999936 ], [ -40.505888699999957, -19.568837199999962 ], [ -40.506383199999952, -19.56798669999996 ], [ -40.505554599999982, -19.567053 ], [ -40.504247499999963, -19.565827599999977 ], [ -40.50326709999996, -19.564928899999934 ], [ -40.502123399999959, -19.563855199999981 ], [ -40.501026399999937, -19.563726799999916 ], [ -40.500693699999935, -19.564141199999931 ], [ -40.500435699999969, -19.564779 ], [ -40.500994, -19.565372399999944 ], [ -40.501930199999954, -19.56636529999998 ], [ -40.502724499999943, -19.567131199999949 ], [ -40.503141599999935, -19.567993599999959 ], [ -40.503350499999954, -19.569610699999942 ], [ -40.503263599999968, -19.569642699999967 ], [ -40.502931799999942, -19.570205099999946 ], [ -40.5030101, -19.570753599999925 ], [ -40.502959399999952, -19.571216799999956 ], [ -40.503634699999964, -19.572097099999947 ], [ -40.503457199999957, -19.572376 ], [ -40.503171499999958, -19.572694 ], [ -40.503404199999984, -19.572650199999945 ], [ -40.503835199999969, -19.572442799999983 ], [ -40.50405869999998, -19.57240819999992 ] ] ], [ [ [ -40.814237499999933, -19.535332099999948 ], [ -40.818726799999979, -19.535244499999983 ], [ -40.818934199999944, -19.535244499999973 ], [ -40.821140899999925, -19.535166099999966 ], [ -40.821172399999973, -19.535037199999959 ], [ -40.821333899999964, -19.534337199999982 ], [ -40.821495599999935, -19.533636299999948 ], [ -40.81760729999997, -19.531421399999946 ], [ -40.817099, -19.531093099999961 ], [ -40.816689199999985, -19.530840799999972 ], [ -40.816104799999955, -19.530453 ], [ -40.814692299999933, -19.530153 ], [ -40.813573499999961, -19.530243099999954 ], [ -40.811614899999945, -19.531186499999933 ], [ -40.809341199999956, -19.531721499999932 ], [ -40.808141599999949, -19.531968599999967 ], [ -40.804792499999962, -19.532278499999958 ], [ -40.804924199999959, -19.533990299999971 ], [ -40.804986499999984, -19.534800199999946 ], [ -40.808365599999945, -19.53532829999995 ], [ -40.808380399999983, -19.535364299999976 ], [ -40.809136299999984, -19.535004799999967 ], [ -40.809339099999931, -19.535087799999918 ], [ -40.809371399999975, -19.534951799999927 ], [ -40.809463499999943, -19.534942599999958 ], [ -40.809484299999959, -19.534864199999959 ], [ -40.809974, -19.534565199999978 ], [ -40.812403, -19.535193799999952 ], [ -40.814237499999933, -19.535332099999948 ] ] ], [ [ [ -40.639240099999945, -19.555221499999959 ], [ -40.639403699999946, -19.55545659999996 ], [ -40.639553499999977, -19.555583299999959 ], [ -40.639873899999948, -19.555977399999954 ], [ -40.639956799999943, -19.556111099999956 ], [ -40.640171199999948, -19.556357699999971 ], [ -40.640440799999965, -19.556592699999957 ], [ -40.640620499999955, -19.556841599999927 ], [ -40.640800299999967, -19.557023699999949 ], [ -40.641139099999975, -19.557436199999934 ], [ -40.64144559999994, -19.557586 ], [ -40.641767, -19.557818899999983 ], [ -40.641924899999935, -19.55793629999993 ], [ -40.642157699999984, -19.558152899999968 ], [ -40.642279799999983, -19.558284299999958 ], [ -40.642521799999948, -19.558348799999983 ], [ -40.642736199999945, -19.558362699999975 ], [ -40.642959699999949, -19.558291199999928 ], [ -40.643204, -19.55830739999994 ], [ -40.64343439999994, -19.558351099999989 ], [ -40.643651099999936, -19.558275099999946 ], [ -40.644128099999932, -19.558321199999963 ], [ -40.644665099999948, -19.558358099999957 ], [ -40.644948599999964, -19.558355699999929 ], [ -40.645271199999968, -19.558270499999939 ], [ -40.646029399999982, -19.558146 ], [ -40.647110299999952, -19.557904 ], [ -40.647520499999978, -19.557957099999957 ], [ -40.647774, -19.55799159999998 ], [ -40.648168099999964, -19.558530899999948 ], [ -40.648446899999946, -19.558800499999965 ], [ -40.648811, -19.558908799999923 ], [ -40.649064499999959, -19.559286799999946 ], [ -40.649244299999971, -19.559565699999954 ], [ -40.649354899999935, -19.560116499999925 ], [ -40.651032699999973, -19.559918299999943 ], [ -40.651710199999968, -19.560162499999933 ], [ -40.652765699999975, -19.560757099999936 ], [ -40.653157499999971, -19.558305 ], [ -40.653212799999942, -19.557650499999962 ], [ -40.653452499999965, -19.557586 ], [ -40.653429399999943, -19.556936099999973 ], [ -40.653452499999965, -19.55664569999993 ], [ -40.653289199999961, -19.556383899999958 ], [ -40.654399799999965, -19.55608559999996 ], [ -40.655692199999976, -19.555528799999937 ], [ -40.656585899999982, -19.555446299999964 ], [ -40.656977699999977, -19.555288199999957 ], [ -40.657056799999964, -19.555391299999947 ], [ -40.657476099999933, -19.555381 ], [ -40.657610199999958, -19.555549399999965 ], [ -40.658163499999944, -19.555824399999953 ], [ -40.658329199999962, -19.555865199999971 ], [ -40.658840199999929, -19.555994099999953 ], [ -40.658898699999959, -19.556107599999958 ], [ -40.658771499999943, -19.5563 ], [ -40.658757699999974, -19.556585299999931 ], [ -40.659029299999922, -19.556691899999983 ], [ -40.659252699999968, -19.556599099999978 ], [ -40.659400499999947, -19.556135099999942 ], [ -40.659551699999952, -19.555846299999928 ], [ -40.659526199999959, -19.555742 ], [ -40.661709, -19.555517299999977 ], [ -40.661755399999947, -19.555243499999964 ], [ -40.66279, -19.555284799999978 ], [ -40.663384599999979, -19.555277899999957 ], [ -40.664051499999978, -19.555276299999932 ], [ -40.664384799999944, -19.55528309999994 ], [ -40.66569439999995, -19.555259 ], [ -40.666213399999954, -19.555265899999938 ], [ -40.66734079999997, -19.555315699999941 ], [ -40.667846899999972, -19.555358799999969 ], [ -40.668170899999957, -19.555351799999979 ], [ -40.669126399999982, -19.55565079999996 ], [ -40.66985509999995, -19.555822699999961 ], [ -40.670479399999984, -19.556171299999949 ], [ -40.670702399999982, -19.556311599999962 ], [ -40.670870799999932, -19.556318499999968 ], [ -40.671063299999958, -19.556259799999964 ], [ -40.671767899999963, -19.555215199999964 ], [ -40.672111599999937, -19.555283899999939 ], [ -40.672207899999933, -19.55518769999998 ], [ -40.672001599999938, -19.554706499999941 ], [ -40.673263499999962, -19.553953199999956 ], [ -40.673864599999952, -19.55369589999998 ], [ -40.674689499999943, -19.553713099999964 ], [ -40.675368399999968, -19.553367699999963 ], [ -40.676215599999978, -19.553042899999983 ], [ -40.676472599999954, -19.553078099999926 ], [ -40.6768747, -19.552911399999957 ], [ -40.677754599999957, -19.552746399999929 ], [ -40.67772709999997, -19.554066299999928 ], [ -40.678552099999933, -19.554176299999941 ], [ -40.679019499999988, -19.552828899999945 ], [ -40.679480099999978, -19.55242329999993 ], [ -40.680518099999979, -19.551729 ], [ -40.680906499999935, -19.551857899999955 ], [ -40.681126499999962, -19.551806299999949 ], [ -40.681346499999968, -19.551861299999921 ], [ -40.681502899999941, -19.552134599999924 ], [ -40.68169359999996, -19.552335699999958 ], [ -40.68192559999995, -19.552426799999971 ], [ -40.682068299999969, -19.552361499999943 ], [ -40.682174799999977, -19.552151799999933 ], [ -40.682262499999972, -19.551871699999936 ], [ -40.682300299999952, -19.551558899999964 ], [ -40.68245839999998, -19.55121169999995 ], [ -40.682711, -19.550756299999925 ], [ -40.682771199999934, -19.550555199999948 ], [ -40.682937899999956, -19.550378199999951 ], [ -40.683061599999967, -19.549976 ], [ -40.68305989999994, -19.549821399999914 ], [ -40.683056499999964, -19.549646099999954 ], [ -40.683013499999966, -19.549457 ], [ -40.68301009999994, -19.549092699999949 ], [ -40.683097699999955, -19.548977499999975 ], [ -40.68334519999997, -19.548704299999933 ], [ -40.683633899999961, -19.548465399999944 ], [ -40.683876199999929, -19.548231699999977 ], [ -40.684118599999984, -19.547900899999945 ], [ -40.684118599999984, -19.547791699999941 ], [ -40.684066199999968, -19.547702399999942 ], [ -40.683866799999976, -19.547651699999953 ], [ -40.683694899999985, -19.54754249999996 ], [ -40.683580599999964, -19.547315699999945 ], [ -40.683496399999967, -19.547304499999932 ], [ -40.683285, -19.547185899999924 ], [ -40.683149599999979, -19.547078299999956 ], [ -40.683090799999952, -19.547033 ], [ -40.683049599999947, -19.546890299999976 ], [ -40.682836499999951, -19.546074 ], [ -40.682850199999962, -19.545826499999972 ], [ -40.68301519999995, -19.545520599999982 ], [ -40.6830255, -19.545331599999948 ], [ -40.68297739999997, -19.545173399999953 ], [ -40.682650899999942, -19.544788499999971 ], [ -40.682389699999931, -19.544427599999963 ], [ -40.682200599999938, -19.544169799999963 ], [ -40.682204099999986, -19.543860399999978 ], [ -40.682472399999931, -19.542618499999939 ], [ -40.68219959999994, -19.542376099999963 ], [ -40.682057899999961, -19.542177799999941 ], [ -40.681760499999939, -19.542092799999978 ], [ -40.68110889999997, -19.54182359999994 ], [ -40.680953099999954, -19.541696199999944 ], [ -40.680811399999982, -19.541795299999936 ], [ -40.680287299999982, -19.541795299999929 ], [ -40.679295699999955, -19.541795299999936 ], [ -40.677624199999975, -19.541738699999947 ], [ -40.676533499999948, -19.5417811 ], [ -40.676037699999945, -19.541809499999943 ], [ -40.674569199999951, -19.541632399999958 ], [ -40.674040399999974, -19.541568699999964 ], [ -40.673261299999979, -19.541568699999981 ], [ -40.67192979999993, -19.541696199999922 ], [ -40.67151819999998, -19.541699399999974 ], [ -40.67089569999996, -19.541731599999935 ], [ -40.66969169999993, -19.541589899999956 ], [ -40.668218499999966, -19.541009099999947 ], [ -40.666391199999964, -19.540442499999916 ], [ -40.664578, -19.540725799999954 ], [ -40.663572299999942, -19.540825 ], [ -40.662382399999963, -19.540725799999951 ], [ -40.660923399999945, -19.540130899999944 ], [ -40.660201, -19.53969179999995 ], [ -40.658940299999983, -19.539351799999963 ], [ -40.657622899999986, -19.539564299999938 ], [ -40.655625599999951, -19.540060099999955 ], [ -40.65401079999998, -19.54045669999994 ], [ -40.652693399999976, -19.540853299999977 ], [ -40.651319399999977, -19.54108 ], [ -40.65031369999997, -19.541150799999965 ], [ -40.6487413, -19.540867499999933 ], [ -40.647874, -19.54064289999997 ], [ -40.648038699999965, -19.540362 ], [ -40.650957499999947, -19.540564 ], [ -40.652442099999973, -19.539978199999958 ], [ -40.652613799999976, -19.538463299999933 ], [ -40.653087599999942, -19.535420399999968 ], [ -40.655930199999943, -19.536017599999973 ], [ -40.660445, -19.536074199999966 ], [ -40.660939299999939, -19.533487099999942 ], [ -40.661815799999943, -19.533844199999979 ], [ -40.662538299999945, -19.534063799999963 ], [ -40.663324399999972, -19.534134599999952 ], [ -40.66454259999994, -19.534255 ], [ -40.665619199999981, -19.534439099999936 ], [ -40.66625659999994, -19.534658699999962 ], [ -40.666858599999955, -19.534750799999916 ], [ -40.667701499999964, -19.534906599999939 ], [ -40.667899799999937, -19.534899499999945 ], [ -40.668480599999953, -19.53487119999993 ], [ -40.670322099999964, -19.534857 ], [ -40.670959499999981, -19.534786199999921 ], [ -40.671384399999965, -19.534672899999983 ], [ -40.671696099999963, -19.53457369999995 ], [ -40.671866099999932, -19.534517 ], [ -40.672092699999951, -19.534545399999971 ], [ -40.675648199999955, -19.535409499999957 ], [ -40.67667519999997, -19.535621899999978 ], [ -40.67724879999998, -19.535607799999983 ], [ -40.677359399999943, -19.535556599999957 ], [ -40.677296899999931, -19.537109899999969 ], [ -40.674695099999951, -19.53776949999996 ], [ -40.674628799999944, -19.538603299999973 ], [ -40.67955319999993, -19.538994599999974 ], [ -40.691119199999946, -19.536618099999949 ], [ -40.702024199999983, -19.533669 ], [ -40.709818499999983, -19.530366399999945 ], [ -40.71238349999993, -19.529050699999967 ], [ -40.719735299999968, -19.525279599999976 ], [ -40.721621699999957, -19.524165 ], [ -40.722819599999987, -19.523286599999953 ], [ -40.730774099999962, -19.518318899999933 ], [ -40.734675599999953, -19.514764899999943 ], [ -40.737510599999958, -19.512511099999927 ], [ -40.736224899999968, -19.509154699999947 ], [ -40.732381099999948, -19.506078499999951 ], [ -40.732044599999945, -19.505550499999966 ], [ -40.731531099999984, -19.505839899999966 ], [ -40.730546699999934, -19.506318499999956 ], [ -40.729381599999954, -19.506946899999942 ], [ -40.727100299999961, -19.507907 ], [ -40.724024699999973, -19.510084499999941 ], [ -40.71961739999994, -19.511929 ], [ -40.717463799999962, -19.512665499999969 ], [ -40.715645599999952, -19.513102499999949 ], [ -40.713565699999947, -19.513418599999959 ], [ -40.711904699999927, -19.51395279999997 ], [ -40.710709799999954, -19.51446529999993 ], [ -40.709208799999942, -19.514832499999955 ], [ -40.708568199999945, -19.514989099999976 ], [ -40.70854159999994, -19.515039699999921 ], [ -40.708450099999943, -19.515161599999939 ], [ -40.708100699999932, -19.515328499999953 ], [ -40.707849099999969, -19.515552 ], [ -40.707200899999982, -19.515608099999948 ], [ -40.706770799999958, -19.515645199999938 ], [ -40.705501699999957, -19.515703599999927 ], [ -40.7040722, -19.516009899999961 ], [ -40.703401199999973, -19.515786299999935 ], [ -40.70236709999994, -19.515796 ], [ -40.70210579999997, -19.515900199999979 ], [ -40.702101299999981, -19.515902 ], [ -40.701923399999941, -19.515973 ], [ -40.701921299999981, -19.515973799999927 ], [ -40.700085, -19.516706399999968 ], [ -40.69881989999994, -19.517755299999983 ], [ -40.697135599999967, -19.518561299999934 ], [ -40.696435099999974, -19.518814799999962 ], [ -40.696119299999964, -19.518911799999959 ], [ -40.69608779999993, -19.518975 ], [ -40.696112299999982, -19.51920959999995 ], [ -40.696191799999951, -19.519417799999925 ], [ -40.696281599999963, -19.519693299999968 ], [ -40.696331599999958, -19.520381 ], [ -40.696283699999981, -19.520572899999927 ], [ -40.696168399999976, -19.520982 ], [ -40.696112299999982, -19.521482 ], [ -40.696120399999977, -19.521946299999975 ], [ -40.696077099999968, -19.522108599999974 ], [ -40.695993499999929, -19.522092199999971 ], [ -40.686846799999955, -19.520297799999973 ], [ -40.682747499999948, -19.519467599999928 ], [ -40.675994699999933, -19.515401099999963 ], [ -40.673293099999967, -19.513774199999947 ], [ -40.673247099999969, -19.513746499999968 ], [ -40.67318, -19.513706099999968 ], [ -40.673577299999977, -19.513864 ], [ -40.674467, -19.514084899999936 ], [ -40.675479899999978, -19.514178799999961 ], [ -40.675732199999977, -19.514233499999925 ], [ -40.675921799999969, -19.514241299999973 ], [ -40.676156499999941, -19.514221799999969 ], [ -40.676508499999962, -19.514057499999979 ], [ -40.676723499999987, -19.513907 ], [ -40.677407899999935, -19.513635199999964 ], [ -40.677871399999958, -19.513414199999946 ], [ -40.678088399999979, -19.513193299999958 ], [ -40.67837, -19.512968399999988 ], [ -40.67863, -19.51285889999998 ], [ -40.678798199999967, -19.512765 ], [ -40.679144299999962, -19.512444399999936 ], [ -40.679382899999958, -19.51198869999995 ], [ -40.679418099999971, -19.511742399999942 ], [ -40.679406299999982, -19.511505799999952 ], [ -40.679441499999946, -19.511294599999932 ], [ -40.679511899999973, -19.511122499999949 ], [ -40.679627299999936, -19.510999299999977 ], [ -40.679840399999932, -19.510872199999934 ], [ -40.680311699999947, -19.51075289999994 ], [ -40.680589299999959, -19.510786199999927 ], [ -40.6806754, -19.510754899999935 ], [ -40.680346899999961, -19.51055939999997 ], [ -40.680346899999961, -19.510387299999937 ], [ -40.680784899999935, -19.510246499999933 ], [ -40.681504499999974, -19.508854299999928 ], [ -40.681050799999973, -19.507728 ], [ -40.681249299999934, -19.506875599999937 ], [ -40.681496799999934, -19.506318699999944 ], [ -40.68193, -19.50176029999994 ], [ -40.680939899999942, -19.501822199999935 ], [ -40.682074399999976, -19.500821899999945 ], [ -40.68235279999994, -19.500471199999939 ], [ -40.682301199999976, -19.499800899999965 ], [ -40.682208399999972, -19.499378099999944 ], [ -40.681826899999976, -19.498914 ], [ -40.681264799999951, -19.498272 ], [ -40.681188099999929, -19.498139799999922 ], [ -40.681155199999985, -19.498104399999928 ], [ -40.680999899999961, -19.497811099999968 ], [ -40.680976699999967, -19.497766599999977 ], [ -40.680857399999987, -19.497615799999942 ], [ -40.680668599999933, -19.497048599999971 ], [ -40.680554499999971, -19.496745 ], [ -40.68046749999997, -19.496287399999979 ], [ -40.680356599999982, -19.495872299999967 ], [ -40.68022249999995, -19.495635099999966 ], [ -40.680147799999929, -19.495533199999951 ], [ -40.680016299999984, -19.495435299999937 ], [ -40.679755899999982, -19.495158099999973 ], [ -40.679659199999946, -19.495038199999961 ], [ -40.679531599999962, -19.494865499999943 ], [ -40.679471, -19.494822899999978 ], [ -40.679329399999979, -19.494800099999971 ], [ -40.679206, -19.494802199999977 ], [ -40.679022599999946, -19.494761399999959 ], [ -40.678571199999972, -19.494596 ], [ -40.67836559999995, -19.494509599999962 ], [ -40.67788139999994, -19.494079 ], [ -40.677529899999968, -19.493774799999986 ], [ -40.677509499999985, -19.493756199999961 ], [ -40.677806699999962, -19.493753199999958 ], [ -40.678495399999974, -19.493836199999976 ], [ -40.67873479999998, -19.493841099999944 ], [ -40.679013199999929, -19.493821599999926 ], [ -40.67929479999998, -19.49371379999997 ], [ -40.680046699999934, -19.493404299999948 ], [ -40.680027199999984, -19.493109099999973 ], [ -40.680023299999959, -19.492995599999976 ], [ -40.679993899999943, -19.492872499999965 ], [ -40.680113199999937, -19.492794199999931 ], [ -40.680881699999937, -19.492686699999972 ], [ -40.681132, -19.492612399999924 ], [ -40.681374399999982, -19.492471599999934 ], [ -40.681491699999988, -19.492354299999917 ], [ -40.681611, -19.491818499999955 ], [ -40.681560199999986, -19.491603399999974 ], [ -40.681429199999968, -19.49141759999997 ], [ -40.680815199999984, -19.490909199999976 ], [ -40.680541399999981, -19.49048689999994 ], [ -40.680502299999937, -19.489313699999972 ], [ -40.680502299999944, -19.487999599999966 ], [ -40.6797165, -19.486414199999967 ], [ -40.677999399999983, -19.484996199999955 ], [ -40.677972499999953, -19.484656699999967 ], [ -40.678475899999974, -19.483985499999953 ], [ -40.680351799999983, -19.483301599999951 ], [ -40.681508799999968, -19.483189899999957 ], [ -40.681460799999968, -19.481274599999949 ], [ -40.680647799999974, -19.479140399999945 ], [ -40.682092399999931, -19.478118299999959 ], [ -40.682743299999977, -19.475390099999959 ], [ -40.683837299999936, -19.471415499999974 ], [ -40.683532599999971, -19.470806099999955 ], [ -40.683262599999978, -19.470307499999926 ], [ -40.682560299999977, -19.470264 ], [ -40.682004299999953, -19.462339599999943 ], [ -40.681828, -19.459771299999939 ], [ -40.681681799999986, -19.457641199999944 ], [ -40.683079899999946, -19.457977799999988 ], [ -40.684470599999941, -19.458149899999952 ], [ -40.684593, -19.457689899999938 ], [ -40.685056, -19.455949799999924 ], [ -40.686182299999984, -19.456253599999954 ], [ -40.685889, -19.457711499999963 ], [ -40.685697799999957, -19.458662199999939 ], [ -40.687424899999939, -19.459034799999923 ], [ -40.687997499999931, -19.459099499999986 ], [ -40.688875499999931, -19.459137099999971 ], [ -40.688947499999983, -19.458775799999959 ], [ -40.689158499999962, -19.458635299999969 ], [ -40.689820699999977, -19.459218299999986 ], [ -40.690027499999985, -19.458492299999936 ], [ -40.690973, -19.458320299999968 ], [ -40.691196299999945, -19.457826799999971 ], [ -40.691152399999964, -19.45779959999993 ], [ -40.691185699999949, -19.457800099999922 ], [ -40.690967499999942, -19.45725119999997 ], [ -40.69065779999994, -19.457246 ], [ -40.690646399999942, -19.456896 ], [ -40.690707699999962, -19.45620659999997 ], [ -40.69097069999998, -19.455428399999963 ], [ -40.691672599999954, -19.45558739999996 ], [ -40.692993399999985, -19.455898599999948 ], [ -40.693324299999965, -19.456054599999959 ], [ -40.693846199999932, -19.456277 ], [ -40.694264, -19.456708199999966 ], [ -40.694379699999963, -19.45701089999995 ], [ -40.69444359999995, -19.457687499999967 ], [ -40.694443, -19.457854599999962 ], [ -40.694439799999948, -19.458743599999941 ], [ -40.694356699999958, -19.459094099999962 ], [ -40.697303799999929, -19.460099699999954 ], [ -40.697338599999973, -19.45880649999998 ], [ -40.697383699999932, -19.457127799999974 ], [ -40.69739849999997, -19.456574099999965 ], [ -40.696548199999938, -19.456075699999921 ], [ -40.696197599999948, -19.455853899999966 ], [ -40.695692199999939, -19.455028899999935 ], [ -40.69529, -19.454683399999972 ], [ -40.694202, -19.454232199999986 ], [ -40.69334089999996, -19.454283799999924 ], [ -40.692925799999948, -19.454314699999948 ], [ -40.692405, -19.45416519999997 ], [ -40.692113599999971, -19.454056899999948 ], [ -40.691714, -19.453729499999941 ], [ -40.69149479999993, -19.453654699999959 ], [ -40.691157099999934, -19.453420099999963 ], [ -40.690806399999985, -19.452899299999956 ], [ -40.6907394, -19.452641399999958 ], [ -40.690899299999955, -19.452386199999971 ], [ -40.691590199999951, -19.451813799999965 ], [ -40.69230959999993, -19.451607599999925 ], [ -40.692562199999941, -19.451654 ], [ -40.692693699999957, -19.451633299999962 ], [ -40.692799399999956, -19.45139609999995 ], [ -40.693085599999961, -19.451171799999948 ], [ -40.693245499999932, -19.450896 ], [ -40.69341819999994, -19.450800599999983 ], [ -40.694031799999941, -19.450181799999942 ], [ -40.694289699999956, -19.449924 ], [ -40.694449499999962, -19.449911099999948 ], [ -40.694916199999973, -19.450156 ], [ -40.695336399999974, -19.450550499999967 ], [ -40.695447299999955, -19.45059689999993 ], [ -40.695542699999976, -19.450529899999939 ], [ -40.69544209999998, -19.450091599999947 ], [ -40.695305499999968, -19.449823399999953 ], [ -40.695310599999978, -19.449441799999928 ], [ -40.695170699999949, -19.449063799999987 ], [ -40.694898299999984, -19.449158899999933 ], [ -40.694509099999955, -19.449273699999939 ], [ -40.693964399999977, -19.449464 ], [ -40.693555799999956, -19.449597399999952 ], [ -40.693167899999935, -19.449841799999934 ], [ -40.69238949999994, -19.45008979999994 ], [ -40.6920186, -19.450093299999939 ], [ -40.691396099999963, -19.450302799999974 ], [ -40.690693299999964, -19.450309299999962 ], [ -40.690399699999951, -19.450238 ], [ -40.690142699999974, -19.449925599999961 ], [ -40.689409, -19.449114399999925 ], [ -40.68874129999994, -19.448908099999979 ], [ -40.688584, -19.448812699999969 ], [ -40.688254, -19.448686399999939 ], [ -40.6877899, -19.448707 ], [ -40.687691899999948, -19.448665799999965 ], [ -40.687575899999963, -19.448717299999945 ], [ -40.687104099999949, -19.44810109999997 ], [ -40.686856599999942, -19.447670599999981 ], [ -40.686652899999963, -19.448054699999943 ], [ -40.686575499999947, -19.448116599999938 ], [ -40.686575499999947, -19.448237799999962 ], [ -40.68664, -19.448389899999935 ], [ -40.686578099999963, -19.448601299999947 ], [ -40.686436299999976, -19.44887459999995 ], [ -40.686438899999985, -19.44900349999995 ], [ -40.686495599999944, -19.449356799999975 ], [ -40.686274399999952, -19.449665299999932 ], [ -40.685685399999961, -19.449337399999916 ], [ -40.685059899999935, -19.449269099999988 ], [ -40.684316, -19.449072299999962 ], [ -40.683749899999945, -19.449077599999953 ], [ -40.683280399999944, -19.448989299999937 ], [ -40.682653899999934, -19.44881 ], [ -40.682027699999935, -19.448667599999975 ], [ -40.680971399999976, -19.448473699999973 ], [ -40.679800499999949, -19.448521599999939 ], [ -40.678841899999952, -19.448326799999958 ], [ -40.677980299999938, -19.44807549999997 ], [ -40.677666299999949, -19.447911699999956 ], [ -40.676941299999953, -19.447659099999949 ], [ -40.676495299999942, -19.447423199999943 ], [ -40.676011899999928, -19.447464799999974 ], [ -40.676007099999936, -19.44746519999995 ], [ -40.676078799999971, -19.447530799999978 ], [ -40.676436699999961, -19.44800559999992 ], [ -40.67671189999993, -19.448734899999984 ], [ -40.677019499999972, -19.449475899999975 ], [ -40.677315399999948, -19.450187399999955 ], [ -40.677538699999957, -19.450717 ], [ -40.67758889999994, -19.450833799999938 ], [ -40.67800839999996, -19.451810199999954 ], [ -40.678070899999966, -19.451990099999929 ], [ -40.678146699999964, -19.452169599999934 ], [ -40.678223199999934, -19.452385799999952 ], [ -40.678326499999969, -19.45267779999995 ], [ -40.678334599999978, -19.452700599999961 ], [ -40.678376199999953, -19.452864599999938 ], [ -40.678380399999988, -19.452881099999964 ], [ -40.678381899999977, -19.45289 ], [ -40.678457299999934, -19.453355899999963 ], [ -40.678441899999939, -19.45361 ], [ -40.678441, -19.453624599999944 ], [ -40.678434499999973, -19.453732699999932 ], [ -40.678430899999967, -19.453791099999933 ], [ -40.678425799999957, -19.453875399999951 ], [ -40.678424599999971, -19.453896 ], [ -40.67842409999998, -19.453902499999973 ], [ -40.678423699999946, -19.453910799999953 ], [ -40.6783966, -19.454272299999968 ], [ -40.678393499999977, -19.454313299999967 ], [ -40.678392299999985, -19.454328399999966 ], [ -40.678391699999963, -19.454337499999951 ], [ -40.678390299999933, -19.454355599999932 ], [ -40.67838949999998, -19.454366599999954 ], [ -40.678388199999972, -19.454383399999912 ], [ -40.678387099999959, -19.454398099999938 ], [ -40.678386, -19.454413299999949 ], [ -40.678385899999974, -19.45441459999995 ], [ -40.678385399999968, -19.45442069999995 ], [ -40.678360599999969, -19.454741499999955 ], [ -40.678346, -19.454919199999953 ], [ -40.678339, -19.454994099999968 ], [ -40.678336499999951, -19.455019599999957 ], [ -40.678333, -19.455054 ], [ -40.678330699999947, -19.4550771 ], [ -40.678329199999943, -19.455091099999954 ], [ -40.678326899999952, -19.455114299999924 ], [ -40.67829629999995, -19.455417199999943 ], [ -40.678238, -19.455930599999924 ], [ -40.678201099999967, -19.456258 ], [ -40.678153, -19.456763499999973 ], [ -40.678140299999939, -19.456894299999931 ], [ -40.678120199999974, -19.457099799999977 ], [ -40.678110199999942, -19.457202399999971 ], [ -40.678101099999935, -19.457292799999948 ], [ -40.6780768, -19.457533099999985 ], [ -40.678062, -19.457682799999922 ], [ -40.67805449999998, -19.457757899999933 ], [ -40.678050299999946, -19.457805699999938 ], [ -40.678025, -19.45809 ], [ -40.678006099999948, -19.458303599999951 ], [ -40.677979599999965, -19.45856369999996 ], [ -40.677952299999959, -19.458832 ], [ -40.677936699999975, -19.458985299999931 ], [ -40.677870699999978, -19.459447799999975 ], [ -40.67783339999994, -19.45988269999998 ], [ -40.677778099999955, -19.460150799999955 ], [ -40.677763199999966, -19.460203399999951 ], [ -40.677698, -19.460432699999942 ], [ -40.677508, -19.460898399999952 ], [ -40.677507, -19.460902499999978 ], [ -40.677439099999958, -19.461161499999942 ], [ -40.677427199999961, -19.461312699999947 ], [ -40.677456399999983, -19.461492299999957 ], [ -40.677527099999971, -19.461753799999933 ], [ -40.677632899999942, -19.462037399999929 ], [ -40.677671099999941, -19.462302 ], [ -40.677673599999935, -19.462451199999972 ], [ -40.677609399999938, -19.462820399999938 ], [ -40.677574799999945, -19.463014099999949 ], [ -40.677435199999934, -19.463774399999984 ], [ -40.677333499999975, -19.464402199999931 ], [ -40.677058299999949, -19.466067099999968 ], [ -40.676953799999986, -19.466789099999975 ], [ -40.676912699999946, -19.467017099999961 ], [ -40.676890499999963, -19.467257799999967 ], [ -40.676907499999977, -19.467511299999966 ], [ -40.67691339999994, -19.467563099999957 ], [ -40.67698229999997, -19.468173 ], [ -40.677077299999958, -19.468714499999983 ], [ -40.677188199999932, -19.469164199999959 ], [ -40.677259799999945, -19.469354599999978 ], [ -40.677394, -19.469759499999952 ], [ -40.6775904, -19.470060399999952 ], [ -40.677710699999977, -19.470225 ], [ -40.678169899999943, -19.470712699999989 ], [ -40.679168599999969, -19.471693599999973 ], [ -40.679475899999943, -19.47211549999998 ], [ -40.679647099999961, -19.472384 ], [ -40.679783099999959, -19.472664399999925 ], [ -40.680028899999968, -19.473266499999962 ], [ -40.680151699999954, -19.473696699999952 ], [ -40.680192699999971, -19.47399159999998 ], [ -40.6801354, -19.474327499999962 ], [ -40.680020699999943, -19.474638799999987 ], [ -40.679639699999946, -19.475277799999965 ], [ -40.679111299999931, -19.47608479999996 ], [ -40.678566499999931, -19.476895799999969 ], [ -40.678156899999976, -19.477526699999935 ], [ -40.677990799999982, -19.477837499999968 ], [ -40.677943599999935, -19.477828399999957 ], [ -40.674561, -19.477175 ], [ -40.674347699999942, -19.478404099999981 ], [ -40.672412399999985, -19.479623299999961 ], [ -40.669018399999963, -19.482144499999951 ], [ -40.668850499999962, -19.482267799999935 ], [ -40.667604799999935, -19.483183299999943 ], [ -40.667307, -19.482818399999921 ], [ -40.666633199999971, -19.482210199999944 ], [ -40.666335, -19.481918 ], [ -40.666054699999968, -19.481458899999943 ], [ -40.665881799999958, -19.481202499999949 ], [ -40.665744699999948, -19.481089199999921 ], [ -40.66550019999994, -19.480975899999965 ], [ -40.665315299999975, -19.481059299999977 ], [ -40.66498729999995, -19.48128 ], [ -40.66485019999994, -19.481423099999983 ], [ -40.664381699999986, -19.481355399999924 ], [ -40.664990199999977, -19.480678899999933 ], [ -40.665593799999961, -19.480181599999973 ], [ -40.666007, -19.479612399999954 ], [ -40.666107699999934, -19.479103299999977 ], [ -40.667227899999943, -19.478944099999975 ], [ -40.666428699999983, -19.477749499999966 ], [ -40.665332199999966, -19.477089699999958 ], [ -40.663619599999954, -19.476189499999972 ], [ -40.663611399999979, -19.475831399999947 ], [ -40.665062599999942, -19.47466589999993 ], [ -40.665916, -19.473779099999945 ], [ -40.665725499999958, -19.472960799999949 ], [ -40.666280799999988, -19.47202139999996 ], [ -40.666743499999939, -19.471064399999928 ], [ -40.666684199999963, -19.471078499999976 ], [ -40.664655299999943, -19.468269299999974 ], [ -40.662863799999968, -19.468716799999982 ], [ -40.66170649999998, -19.46779059999994 ], [ -40.659637299999936, -19.46899389999993 ], [ -40.658934699999975, -19.4694684 ], [ -40.657667199999935, -19.471566199999923 ], [ -40.656030899999962, -19.471724699999985 ], [ -40.654810199999936, -19.471684899999953 ], [ -40.654059199999956, -19.471877399999975 ], [ -40.654051399999958, -19.47187 ], [ -40.653559499999972, -19.471407599999971 ], [ -40.653416399999976, -19.471427899999973 ], [ -40.65285959999995, -19.471396399999939 ], [ -40.652384499999982, -19.471327099999947 ], [ -40.651924099999974, -19.471259899999954 ], [ -40.651064099999985, -19.471181599999973 ], [ -40.650704799999971, -19.471152299999972 ], [ -40.65022589999996, -19.471036799999975 ], [ -40.650121799999965, -19.470994 ], [ -40.649791599999958, -19.470858299999978 ], [ -40.649424099999976, -19.47064829999994 ], [ -40.649148799999978, -19.470439699999933 ], [ -40.649016499999966, -19.47029 ], [ -40.648865, -19.470113599999934 ], [ -40.648533199999981, -19.469713899999931 ], [ -40.64800159999993, -19.469048499999932 ], [ -40.647875699999922, -19.468898299999974 ], [ -40.647444399999976, -19.46837139999997 ], [ -40.647252599999945, -19.468149499999974 ], [ -40.646963099999937, -19.467918499999943 ], [ -40.646640099999956, -19.467729499999965 ], [ -40.646395099999957, -19.467624499999935 ], [ -40.645882899999947, -19.46753 ], [ -40.64542629999994, -19.467561499999938 ], [ -40.64527319999997, -19.467595299999974 ], [ -40.644958599999939, -19.467664699999951 ], [ -40.644184899999978, -19.467825699999928 ], [ -40.643480699999948, -19.46797749999995 ], [ -40.643168499999952, -19.468055 ], [ -40.64281219999998, -19.468202 ], [ -40.642544899999962, -19.46837 ], [ -40.642266499999948, -19.468632499999966 ], [ -40.642029, -19.468989499999964 ], [ -40.641880499999957, -19.46921279999998 ], [ -40.641414599999962, -19.469851799999965 ], [ -40.64123079999996, -19.47010239999997 ], [ -40.640956699999947, -19.470390399999925 ], [ -40.64057379999997, -19.470792699999951 ], [ -40.640339, -19.471066899999983 ], [ -40.639855799999971, -19.471631099999964 ], [ -40.63936, -19.47221 ], [ -40.638974499999968, -19.472593399999941 ], [ -40.638432, -19.473132799999977 ], [ -40.638338699999963, -19.473225499999948 ], [ -40.638226199999963, -19.473337399999938 ], [ -40.638397699999985, -19.473225599999989 ], [ -40.638672199999981, -19.472960099999973 ], [ -40.638898499999989, -19.47291029999996 ], [ -40.639365, -19.473262099999943 ], [ -40.639923499999959, -19.473331299999916 ], [ -40.640592699999956, -19.47346859999994 ], [ -40.641255, -19.473732599999941 ], [ -40.641794699999934, -19.473947799999973 ], [ -40.641824399999962, -19.474059 ], [ -40.641912499999933, -19.474388899999951 ], [ -40.641879199999948, -19.474831399999971 ], [ -40.64167039999996, -19.475371099999961 ], [ -40.64167429999997, -19.475753499999946 ], [ -40.641879, -19.476062399999932 ], [ -40.641820799999948, -19.476541 ], [ -40.641754899999967, -19.476666099999928 ], [ -40.641561099999926, -19.477033399999989 ], [ -40.641483499999929, -19.477348299999946 ], [ -40.641440099999954, -19.477524499999959 ], [ -40.641227699999952, -19.477902 ], [ -40.641246499999973, -19.478011799999926 ], [ -40.641466099999946, -19.478173099999932 ], [ -40.641641499999928, -19.478192299999936 ], [ -40.641773099999966, -19.478250799999948 ], [ -40.641769399999937, -19.478382299999971 ], [ -40.641705599999966, -19.478550199999962 ], [ -40.64170809999996, -19.478662699999973 ], [ -40.641727499999945, -19.47897069999993 ], [ -40.641829699999967, -19.479361799999928 ], [ -40.641979799999945, -19.479757299999964 ], [ -40.642039, -19.479873799999947 ], [ -40.642204299999946, -19.480098399999974 ], [ -40.642404399999982, -19.480370099999952 ], [ -40.6425407, -19.480639 ], [ -40.642528499999962, -19.480787 ], [ -40.642511499999948, -19.480992599999976 ], [ -40.642434799999933, -19.481320399999959 ], [ -40.642660499999984, -19.481619799999979 ], [ -40.642987199999929, -19.481951899999952 ], [ -40.643079099999966, -19.482108699999969 ], [ -40.643181299999981, -19.482283199999927 ], [ -40.643391599999973, -19.482808 ], [ -40.643496199999959, -19.483069099999963 ], [ -40.643667699999988, -19.483624299999978 ], [ -40.643734399999978, -19.483840199999975 ], [ -40.643866899999978, -19.484264899999967 ], [ -40.643957199999932, -19.484493899999954 ], [ -40.644091, -19.484661299999967 ], [ -40.644154, -19.484822 ], [ -40.644158699999934, -19.485018799999974 ], [ -40.644086799999961, -19.485248499999951 ], [ -40.643959299999949, -19.485733 ], [ -40.643954299999969, -19.485805499999969 ], [ -40.643933, -19.486115699999971 ], [ -40.643980899999981, -19.486504199999963 ], [ -40.6440487, -19.48678 ], [ -40.644406099999962, -19.487043699999962 ], [ -40.644605499999955, -19.487044799999971 ], [ -40.64504629999994, -19.487047399999927 ], [ -40.645294499999984, -19.487164699999941 ], [ -40.645757799999963, -19.487566699999942 ], [ -40.645976, -19.487756099999956 ], [ -40.646296299999968, -19.488216199999961 ], [ -40.6463596, -19.488307099999929 ], [ -40.646385699999946, -19.488385899999958 ], [ -40.646583199999952, -19.488978499999963 ], [ -40.646811199999945, -19.489598599999965 ], [ -40.6467732, -19.490292599999968 ], [ -40.64675589999996, -19.490607799999971 ], [ -40.646792899999987, -19.490815299999944 ], [ -40.646797399999969, -19.490824799999938 ], [ -40.646900299999977, -19.491002199999958 ], [ -40.647121699999957, -19.491383699999972 ], [ -40.647169199999958, -19.491593599999934 ], [ -40.647165799999982, -19.491718099999954 ], [ -40.647159599999952, -19.492007599999962 ], [ -40.647210299999983, -19.492271199999948 ], [ -40.647307199999943, -19.492414 ], [ -40.647523399999955, -19.492723399999932 ], [ -40.64767709999996, -19.4929658 ], [ -40.647718699999984, -19.493065599999966 ], [ -40.64747, -19.493258099999952 ], [ -40.644461799999931, -19.494531399999982 ], [ -40.641107199999965, -19.495074699999972 ], [ -40.636105, -19.496186399999946 ], [ -40.630599299999972, -19.496843799999962 ], [ -40.624761399999954, -19.500794299999932 ], [ -40.624542899999938, -19.493745099999952 ], [ -40.619706699999938, -19.493717699999944 ], [ -40.620020899999922, -19.49405929999995 ], [ -40.62029419999994, -19.494318799999974 ], [ -40.620143899999952, -19.494646699999983 ], [ -40.619870699999986, -19.495152199999957 ], [ -40.619775, -19.495548399999951 ], [ -40.61999359999993, -19.496122099999976 ], [ -40.62003459999994, -19.496491 ], [ -40.619870699999979, -19.496818899999941 ], [ -40.619583799999937, -19.497187699999934 ], [ -40.619277499999946, -19.497415399999973 ], [ -40.617320799999959, -19.49687 ], [ -40.617320099999965, -19.496871199999919 ], [ -40.617317499999963, -19.496875299999935 ], [ -40.617314499999971, -19.496879299999939 ], [ -40.6173113, -19.496883 ], [ -40.617307899999957, -19.496886599999986 ], [ -40.617304199999985, -19.496889899999932 ], [ -40.616736799999963, -19.497369699999979 ], [ -40.616517, -19.497560399999937 ], [ -40.61629749999998, -19.497750799999956 ], [ -40.616296, -19.4977522 ], [ -40.616294699999969, -19.497753499999938 ], [ -40.616293699999979, -19.497754599999951 ], [ -40.616292799999947, -19.497755899999966 ], [ -40.616292, -19.49775719999997 ], [ -40.616291299999943, -19.497758499999986 ], [ -40.616290599999957, -19.497759899999956 ], [ -40.616290099999958, -19.497761299999983 ], [ -40.616289299999949, -19.497763599999928 ], [ -40.611529599999983, -19.49853839999998 ], [ -40.610090499999963, -19.498736899999976 ], [ -40.606075199999957, -19.497236699999984 ], [ -40.601274799999942, -19.493793699999973 ], [ -40.60158789999997, -19.488069 ], [ -40.599613099999942, -19.485131699999958 ], [ -40.595441199999982, -19.481808299999962 ], [ -40.593231699999933, -19.48158549999993 ], [ -40.593166, -19.481578799999966 ], [ -40.578342799999973, -19.480083899999968 ], [ -40.578413099999985, -19.480244099999929 ], [ -40.578677399999947, -19.480502299999952 ], [ -40.578879799999989, -19.481052599999938 ], [ -40.579051399999976, -19.481590499999978 ], [ -40.579033, -19.481820399999943 ], [ -40.579238399999952, -19.48244579999993 ], [ -40.579308899999951, -19.482764599999943 ], [ -40.5794193, -19.483448099999983 ], [ -40.579968, -19.484186899999937 ], [ -40.580084399999976, -19.484548599999982 ], [ -40.580127299999958, -19.484944 ], [ -40.580263799999948, -19.485344 ], [ -40.580300499999971, -19.485466599999931 ], [ -40.580332699999985, -19.4857057 ], [ -40.580348099999981, -19.486079699999944 ], [ -40.580185599999936, -19.486233 ], [ -40.579655299999963, -19.486217599999971 ], [ -40.578855199999964, -19.485914199999968 ], [ -40.577104899999931, -19.485472799999972 ], [ -40.576136299999973, -19.485117199999934 ], [ -40.575251899999962, -19.485051299999945 ], [ -40.57388629999997, -19.485094199999939 ], [ -40.572635699999978, -19.485224499999958 ], [ -40.572499299999947, -19.485235199999984 ], [ -40.571624099999951, -19.485055899999971 ], [ -40.570799499999964, -19.484639 ], [ -40.571157, -19.492338199999946 ], [ -40.586602399999947, -19.492697699999951 ], [ -40.588688399999974, -19.494889699999931 ], [ -40.5909511, -19.50036979999992 ], [ -40.59317429999993, -19.503151799999944 ], [ -40.592821099999988, -19.503688599999972 ], [ -40.59226179999996, -19.505116099999963 ], [ -40.592414399999946, -19.505299899999955 ], [ -40.592633399999961, -19.505389799999929 ], [ -40.592809299999942, -19.505507099999946 ], [ -40.592871899999984, -19.505683099999938 ], [ -40.593028299999958, -19.506574799999942 ], [ -40.593155399999951, -19.507073399999957 ], [ -40.591835, -19.507299399999965 ], [ -40.585674299999944, -19.506514 ], [ -40.57857939999996, -19.504659499999939 ], [ -40.57087039999994, -19.50264449999997 ], [ -40.568592699999961, -19.503362099999944 ], [ -40.567261199999962, -19.503781699999941 ], [ -40.566971499999966, -19.50754389999998 ], [ -40.566539, -19.513160199999966 ], [ -40.566535499999937, -19.51519859999997 ], [ -40.566528199999937, -19.519450099999979 ], [ -40.566520199999957, -19.524117899999965 ], [ -40.568826499999936, -19.525059899999977 ], [ -40.570028299999933, -19.525936899999969 ], [ -40.570970299999942, -19.52697639999997 ], [ -40.571555, -19.528178199999953 ], [ -40.572060299999983, -19.532557599999954 ], [ -40.572063699999944, -19.532587799999934 ], [ -40.572568399999966, -19.532396499999958 ], [ -40.572835199999929, -19.532336499999932 ], [ -40.573212099999978, -19.532304499999945 ], [ -40.575591399999951, -19.532267 ], [ -40.57697689999997, -19.532276799999984 ], [ -40.577333199999941, -19.532266799999949 ], [ -40.57741, -19.532346299999972 ], [ -40.577984899999933, -19.532347699999946 ], [ -40.578625599999953, -19.532349199999931 ], [ -40.579269199999942, -19.532360899999968 ], [ -40.579529599999944, -19.532366699999944 ], [ -40.57973579999998, -19.532287799999942 ], [ -40.579923, -19.53218059999995 ], [ -40.580263899999977, -19.531966699999945 ], [ -40.580571, -19.531776499999978 ], [ -40.58091189999994, -19.531526399999965 ], [ -40.58110929999998, -19.531372399999956 ], [ -40.581409199999932, -19.531105799999974 ], [ -40.581589099999981, -19.530883499999952 ], [ -40.581805599999939, -19.530593499999963 ], [ -40.581981199999966, -19.530385799999976 ], [ -40.582235699999949, -19.530104899999973 ], [ -40.582382, -19.529932299999921 ], [ -40.582424399999979, -19.529846599999935 ], [ -40.582434599999942, -19.529837199999971 ], [ -40.582437499999976, -19.529834499999936 ], [ -40.582772, -19.529614099999943 ], [ -40.583059299999945, -19.5295 ], [ -40.583315199999966, -19.529460699999959 ], [ -40.583618199999933, -19.529437 ], [ -40.583937, -19.529484299999972 ], [ -40.584299, -19.529590499999919 ], [ -40.585113699999965, -19.529995899999957 ], [ -40.585582, -19.530228099999931 ], [ -40.585932299999968, -19.530302899999977 ], [ -40.586337699999945, -19.530295 ], [ -40.58675489999996, -19.530157199999952 ], [ -40.587046099999952, -19.52995649999998 ], [ -40.587219299999958, -19.529803 ], [ -40.587416, -19.529574799999981 ], [ -40.588636099999967, -19.528205199999942 ], [ -40.588769899999932, -19.52802419999994 ], [ -40.588970599999982, -19.527591299999937 ], [ -40.589065, -19.52706389999998 ], [ -40.589092599999965, -19.52673719999996 ], [ -40.589171299999975, -19.525989499999984 ], [ -40.589277599999946, -19.525658899999932 ], [ -40.589486099999931, -19.525359799999926 ], [ -40.589769499999932, -19.525123599999979 ], [ -40.590052899999925, -19.524997699999972 ], [ -40.590375599999959, -19.524895399999934 ], [ -40.590615699999944, -19.524891399999941 ], [ -40.591123299999936, -19.52493079999994 ], [ -40.591721599999971, -19.524942599999974 ], [ -40.5921269, -19.524907199999966 ], [ -40.59243, -19.524808799999967 ], [ -40.592756599999973, -19.524647399999932 ], [ -40.593051799999955, -19.524399499999944 ], [ -40.59328, -19.52412789999995 ], [ -40.5934099, -19.52390749999994 ], [ -40.593508299999939, -19.523647799999935 ], [ -40.593567299999961, -19.523333 ], [ -40.593673599999939, -19.521896499999961 ], [ -40.593850699999969, -19.520963699999982 ], [ -40.593929399999986, -19.520727599999937 ], [ -40.594165599999947, -19.520306499999943 ], [ -40.594476499999985, -19.519936499999972 ], [ -40.594763799999953, -19.519720099999969 ], [ -40.595184899999936, -19.519503599999965 ], [ -40.595606, -19.5193738 ], [ -40.596109699999943, -19.519314699999946 ], [ -40.597011, -19.519283199999961 ], [ -40.598199499999971, -19.519287199999944 ], [ -40.599112599999955, -19.519157299999971 ], [ -40.599714699999936, -19.518980199999927 ], [ -40.600328699999977, -19.518736199999982 ], [ -40.600819099999974, -19.518557099999953 ], [ -40.602256099999984, -19.518142099999977 ], [ -40.603069199999936, -19.518005299999967 ], [ -40.603069399999981, -19.518053099999971 ], [ -40.603078199999977, -19.520264 ], [ -40.607906799999974, -19.519971699999928 ], [ -40.612124, -19.519883199999978 ], [ -40.612743299999984, -19.521888599999958 ], [ -40.612477899999931, -19.524749199999963 ], [ -40.613781299999971, -19.524907299999949 ], [ -40.613833399999976, -19.524913699999964 ], [ -40.613837499999931, -19.525364599999929 ], [ -40.613812899999971, -19.525811499999982 ], [ -40.613853899999988, -19.526750299999939 ], [ -40.613829299999971, -19.527102899999942 ], [ -40.613860699999975, -19.527982199999933 ], [ -40.613851899999936, -19.528330899999947 ], [ -40.613887199999958, -19.529107699999948 ], [ -40.613876, -19.529176399999987 ], [ -40.613926899999967, -19.529858099999956 ], [ -40.614112299999938, -19.530387799999971 ], [ -40.614642, -19.531005799999949 ], [ -40.615325399999968, -19.533173199999958 ], [ -40.615505099999943, -19.533902199999943 ], [ -40.616450699999973, -19.534650799999948 ], [ -40.617593299999946, -19.535143299999962 ], [ -40.619237799999958, -19.536632 ], [ -40.619487099999958, -19.536710099999947 ], [ -40.619924499999975, -19.536943799999964 ], [ -40.620293, -19.536894399999944 ], [ -40.620076199999971, -19.537391 ], [ -40.620038399999942, -19.537543 ], [ -40.620297099999959, -19.537591 ], [ -40.62125819999995, -19.537917899999968 ], [ -40.621055799999972, -19.539008899999935 ], [ -40.620488599999938, -19.54251939999995 ], [ -40.62167, -19.542683 ], [ -40.621717599999961, -19.542689599999957 ], [ -40.62187849999998, -19.543946 ], [ -40.621944499999984, -19.544460599999983 ], [ -40.621099899999926, -19.544788399999955 ], [ -40.621295299999936, -19.545538399999938 ], [ -40.621257499999956, -19.545935399999966 ], [ -40.621106199999929, -19.546332499999945 ], [ -40.620651, -19.547503 ], [ -40.620501299999937, -19.547912799999956 ], [ -40.620260599999938, -19.548277199999969 ], [ -40.619649099999947, -19.548771599999942 ], [ -40.619597, -19.54888869999996 ], [ -40.619532, -19.550996599999966 ], [ -40.619560499999977, -19.551077699999951 ], [ -40.619538499999976, -19.551556 ], [ -40.620943699999941, -19.551582099999962 ], [ -40.62084219999997, -19.551090899999952 ], [ -40.62069, -19.550651699999957 ], [ -40.620657499999936, -19.550189799999949 ], [ -40.620713199999955, -19.550196299999975 ], [ -40.622746899999989, -19.550430799999962 ], [ -40.622832799999976, -19.550440699999974 ], [ -40.623068499999924, -19.550496799999969 ], [ -40.624236, -19.550478099999957 ], [ -40.624696199999967, -19.550436899999966 ], [ -40.624807099999941, -19.550406199999944 ], [ -40.625208899999969, -19.550294699999931 ], [ -40.625459599999949, -19.55029849999994 ], [ -40.625841199999968, -19.550403299999978 ], [ -40.626140599999985, -19.550414499999935 ], [ -40.626492299999938, -19.550440699999967 ], [ -40.626690599999968, -19.550534199999955 ], [ -40.627118099999954, -19.550934499999972 ], [ -40.627338, -19.551140399999948 ], [ -40.62743149999995, -19.551286299999955 ], [ -40.627439, -19.55142849999994 ], [ -40.627390399999967, -19.551653 ], [ -40.627390399999967, -19.551787699999984 ], [ -40.627513899999947, -19.552165699999939 ], [ -40.627546799999955, -19.552219799999932 ], [ -40.627955399999962, -19.552891599999953 ], [ -40.628022699999981, -19.553041299999954 ], [ -40.62800029999994, -19.553243299999959 ], [ -40.627955399999962, -19.553445399999919 ], [ -40.628168699999947, -19.55385329999995 ], [ -40.628378199999936, -19.554036599999957 ], [ -40.628666299999956, -19.554107699999971 ], [ -40.629051799999964, -19.554111399999957 ], [ -40.629474599999973, -19.553965499999936 ], [ -40.629699099999975, -19.553980499999955 ], [ -40.62882719999994, -19.555219 ], [ -40.62873, -19.555443499999971 ], [ -40.628715, -19.555649299999981 ], [ -40.628748699999967, -19.55586639999995 ], [ -40.628759899999977, -19.55601229999996 ], [ -40.62872619999996, -19.556154499999938 ], [ -40.628539099999962, -19.556453799999929 ], [ -40.628389499999969, -19.556618499999956 ], [ -40.628221099999969, -19.556742 ], [ -40.628015299999966, -19.556828 ], [ -40.627783299999969, -19.556809299999941 ], [ -40.627456799999948, -19.556658099999936 ], [ -40.627445199999961, -19.55659339999994 ], [ -40.627345399999975, -19.55603849999995 ], [ -40.627218199999966, -19.555751 ], [ -40.626918199999984, -19.555553 ], [ -40.62683659999994, -19.555369399999961 ], [ -40.626842699999941, -19.554826499999923 ], [ -40.626855, -19.554757099999968 ], [ -40.62628349999995, -19.55426529999994 ], [ -40.626289699999973, -19.55487549999998 ], [ -40.626175399999966, -19.55524279999997 ], [ -40.625904, -19.55571829999997 ], [ -40.62558359999997, -19.55586319999998 ], [ -40.625371299999983, -19.555969299999955 ], [ -40.625085599999977, -19.556132599999952 ], [ -40.624877499999968, -19.55619379999996 ], [ -40.624746899999927, -19.556177499999936 ], [ -40.624648899999961, -19.556132599999966 ], [ -40.624481599999974, -19.556161199999963 ], [ -40.624351, -19.556116299999925 ], [ -40.624163199999934, -19.556120299999968 ], [ -40.624012199999989, -19.555916299999975 ], [ -40.623820399999943, -19.555830599999965 ], [ -40.623665299999971, -19.555773399999978 ], [ -40.623432599999951, -19.555816299999943 ], [ -40.623420399999937, -19.556087699999971 ], [ -40.623324499999974, -19.556165199999949 ], [ -40.622955099999956, -19.556073399999939 ], [ -40.622565299999962, -19.556104 ], [ -40.622249, -19.556051 ], [ -40.622087799999974, -19.55609789999993 ], [ -40.62190209999995, -19.556334599999964 ], [ -40.621834799999931, -19.556324399999941 ], [ -40.621277599999978, -19.556722399999959 ], [ -40.621073599999932, -19.557204 ], [ -40.619914399999971, -19.556820299999963 ], [ -40.619269599999939, -19.556648899999974 ], [ -40.618983899999932, -19.556526499999958 ], [ -40.61829819999997, -19.556885599999923 ], [ -40.618004299999946, -19.557408 ], [ -40.618347099999944, -19.557742699999949 ], [ -40.618477799999937, -19.557934599999935 ], [ -40.618583899999983, -19.558261099999978 ], [ -40.618588, -19.558493699999921 ], [ -40.618485899999946, -19.558652899999963 ], [ -40.618400199999947, -19.558726399999955 ], [ -40.618236899999943, -19.558775299999979 ], [ -40.618224699999985, -19.558926399999958 ], [ -40.618424699999942, -19.55919979999992 ], [ -40.618955299999982, -19.559603899999956 ], [ -40.618734899999929, -19.559918099999944 ], [ -40.618396099999984, -19.560183399999968 ], [ -40.618183899999963, -19.560261 ], [ -40.617739799999981, -19.561148 ], [ -40.618167599999936, -19.561199699999982 ], [ -40.619624599999952, -19.561232399999927 ], [ -40.620816399999967, -19.561236499999943 ], [ -40.621755199999939, -19.561220099999968 ], [ -40.623285699999947, -19.561003799999984 ], [ -40.624215599999957, -19.560706099999955 ], [ -40.624811099999931, -19.56046909999997 ], [ -40.625977199999966, -19.56006339999993 ], [ -40.626744599999938, -19.559784599999947 ], [ -40.627147, -19.559639699999931 ], [ -40.628240299999959, -19.55925219999995 ], [ -40.629747499999951, -19.558713 ], [ -40.631729499999956, -19.558017 ], [ -40.634117, -19.55714119999994 ], [ -40.63598369999994, -19.55645909999993 ], [ -40.63686869999998, -19.556094899999948 ], [ -40.637878099999966, -19.555435799999934 ], [ -40.638491099999953, -19.554601599999952 ], [ -40.638970499999978, -19.554668399999976 ], [ -40.639014199999963, -19.554834299999978 ], [ -40.639122599999958, -19.554986399999965 ], [ -40.639240099999945, -19.555221499999959 ] ] ], [ [ [ -40.597240899999981, -19.321254499999945 ], [ -40.597256099999989, -19.321253899999931 ], [ -40.598176, -19.32204489999998 ], [ -40.598347199999978, -19.322231099999961 ], [ -40.598955899999964, -19.322051399999964 ], [ -40.599733599999979, -19.321343099999979 ], [ -40.599616099999935, -19.321143699999926 ], [ -40.599545, -19.320972899999958 ], [ -40.599520699999964, -19.320868899999933 ], [ -40.59952, -19.320866099999932 ], [ -40.599569899999949, -19.320645399999936 ], [ -40.599719399999977, -19.320471 ], [ -40.599893799999961, -19.320406899999959 ], [ -40.600033599999961, -19.32042029999997 ], [ -40.600192799999952, -19.320435399999955 ], [ -40.600876199999959, -19.31974849999995 ], [ -40.600839699999931, -19.319715199999965 ], [ -40.59794339999997, -19.316482899999976 ], [ -40.596617899999956, -19.314383799999966 ], [ -40.595294299999971, -19.314467799999928 ], [ -40.595105199999978, -19.314502699999924 ], [ -40.595049599999982, -19.314512899999965 ], [ -40.593534, -19.314792399999938 ], [ -40.593706299999951, -19.318395199999941 ], [ -40.595305899999971, -19.321857099999935 ], [ -40.597240899999981, -19.321254499999945 ] ] ], [ [ [ -40.686303799999962, -19.309092899999943 ], [ -40.686093099999937, -19.308897599999959 ], [ -40.68612909999996, -19.308722899999957 ], [ -40.68612909999996, -19.308522599999957 ], [ -40.686106199999983, -19.308496699999989 ], [ -40.686057899999987, -19.308442 ], [ -40.686010899999985, -19.308389 ], [ -40.68559479999994, -19.308152699999926 ], [ -40.68506559999998, -19.307921499999971 ], [ -40.68486009999998, -19.307793 ], [ -40.684680299999961, -19.307700599999979 ], [ -40.684171699999979, -19.307556699999957 ], [ -40.683955899999944, -19.307294699999943 ], [ -40.683616799999982, -19.307094299999964 ], [ -40.683390699999954, -19.307078899999961 ], [ -40.683195499999954, -19.307197099999936 ], [ -40.682877, -19.30711489999992 ], [ -40.682596799999949, -19.307159399999929 ], [ -40.682519099999979, -19.306596499999952 ], [ -40.682169299999948, -19.306324699999948 ], [ -40.681106799999959, -19.307186599999973 ], [ -40.681082, -19.308237099999925 ], [ -40.681326299999959, -19.30837529999997 ], [ -40.681423099999961, -19.308684199999956 ], [ -40.681920899999966, -19.309329399999974 ], [ -40.6820441, -19.309075099999966 ], [ -40.686836299999982, -19.311916 ], [ -40.687139299999963, -19.311318899999947 ], [ -40.687732, -19.31015119999995 ], [ -40.687346699999978, -19.309997099999972 ], [ -40.686601799999956, -19.309252099999981 ], [ -40.686303799999962, -19.309092899999943 ] ] ] ] } }
]
}
