{
"type": "FeatureCollection",
"name": "3201407",
"crs": { "type": "name", "properties": { "name": "urn:ogc:def:crs:OGC:1.3:CRS84" } },
"features": [
{ "type": "Feature", "properties": { "CD_MUN": "3201407", "NM_MUN": "Castelo" }, "geometry": { "type": "MultiPolygon", "coordinates": [ [ [ [ -41.212325099999923, -20.641349399999974 ], [ -41.212695599999975, -20.641449099999932 ], [ -41.213125899999966, -20.641483599999955 ], [ -41.213454, -20.641519399999929 ], [ -41.213685099999971, -20.641553799999933 ], [ -41.214332199999944, -20.641691899999952 ], [ -41.215270699999962, -20.64095019999996 ], [ -41.216111299999966, -20.640539499999932 ], [ -41.216677599999969, -20.640406599999942 ], [ -41.217129299999961, -20.640347 ], [ -41.217835499999971, -20.640357099999964 ], [ -41.218315899999936, -20.640262699999926 ], [ -41.2187704, -20.640066899999965 ], [ -41.219115299999949, -20.639945699999931 ], [ -41.219313399999976, -20.639910699999977 ], [ -41.219820299999981, -20.639911399999963 ], [ -41.220951099999972, -20.639925699999935 ], [ -41.220311799999934, -20.639421599999935 ], [ -41.219977299999982, -20.639079599999938 ], [ -41.21976589999997, -20.638772099999979 ], [ -41.219600499999956, -20.638464 ], [ -41.219488599999977, -20.638148 ], [ -41.219429399999974, -20.637766399999965 ], [ -41.219862199999966, -20.636829299999917 ], [ -41.21987519999994, -20.636801099999943 ], [ -41.219967299999958, -20.636595799999959 ], [ -41.220669599999951, -20.63503059999994 ], [ -41.221048199999984, -20.634188799999944 ], [ -41.222938699999936, -20.630853 ], [ -41.220502299999964, -20.629311599999944 ], [ -41.220794599999977, -20.626746699999956 ], [ -41.220951, -20.625381199999929 ], [ -41.221556199999952, -20.624312899999957 ], [ -41.222566399999948, -20.62316 ], [ -41.226444, -20.621580599999948 ], [ -41.227185899999938, -20.620957799999935 ], [ -41.228288899999939, -20.620395299999931 ], [ -41.228478299999956, -20.620248499999949 ], [ -41.228720099999975, -20.620014499999957 ], [ -41.229277899999943, -20.619379699999961 ], [ -41.229655399999956, -20.616359199999987 ], [ -41.229781399999986, -20.615015699999962 ], [ -41.229806399999966, -20.614625699999984 ], [ -41.229561599999961, -20.613597199999962 ], [ -41.229434299999987, -20.613274199999982 ], [ -41.229268899999965, -20.612966099999944 ], [ -41.228426699999943, -20.612493599999929 ], [ -41.228269499999953, -20.612405399999929 ], [ -41.227497099999944, -20.611972299999934 ], [ -41.223011199999974, -20.609461199999952 ], [ -41.220412899999985, -20.607575899999976 ], [ -41.218473199999949, -20.606164799999931 ], [ -41.217795899999942, -20.604896499999938 ], [ -41.218414899999978, -20.603193099999938 ], [ -41.217564199999977, -20.602484 ], [ -41.215865799999968, -20.599076499999974 ], [ -41.215647199999978, -20.598803399999959 ], [ -41.21562, -20.598769399999988 ], [ -41.215543099999941, -20.598756299999941 ], [ -41.214767399999978, -20.598621799999933 ], [ -41.214782899999939, -20.598577499999976 ], [ -41.214819799999937, -20.598085299999983 ], [ -41.214823299999985, -20.598046199999928 ], [ -41.214847699999957, -20.597768099999929 ], [ -41.214865, -20.597676099999944 ], [ -41.21489859999997, -20.59759479999996 ], [ -41.214923499999941, -20.597552499999956 ], [ -41.215061699999978, -20.597317299999915 ], [ -41.215145299999961, -20.597154499999927 ], [ -41.215178599999945, -20.597055699999945 ], [ -41.215177499999982, -20.596974899999964 ], [ -41.21516, -20.596889899999951 ], [ -41.215137899999945, -20.596809299999954 ], [ -41.215048699999954, -20.596576599999931 ], [ -41.214995099999953, -20.596419299999972 ], [ -41.2149654, -20.596329 ], [ -41.21493339999995, -20.596276299999932 ], [ -41.214901399999967, -20.59622359999997 ], [ -41.214782899999932, -20.59607879999994 ], [ -41.214679499999932, -20.595956499999943 ], [ -41.214485699999955, -20.595732699999925 ], [ -41.214412099999947, -20.595563199999951 ], [ -41.214404799999961, -20.595546399999929 ], [ -41.214401, -20.595390299999959 ], [ -41.214641799999981, -20.59489369999994 ], [ -41.214453599999956, -20.594865599999935 ], [ -41.213968599999937, -20.594707499999966 ], [ -41.213610199999948, -20.594549299999972 ], [ -41.213357199999962, -20.594380699999938 ], [ -41.213019899999949, -20.594106599999979 ], [ -41.212851199999939, -20.593937899999954 ], [ -41.212745799999944, -20.593885199999921 ], [ -41.212545499999976, -20.593906299999954 ], [ -41.212450599999947, -20.59398009999995 ], [ -41.212419, -20.594074899999942 ], [ -41.21244, -20.594159299999941 ], [ -41.212408399999966, -20.594243599999967 ], [ -41.212313499999944, -20.594349 ], [ -41.212239699999948, -20.594422799999954 ], [ -41.212218599999972, -20.594570399999945 ], [ -41.212239699999941, -20.594686399999947 ], [ -41.212239699999941, -20.594865599999945 ], [ -41.212250299999944, -20.595055399999978 ], [ -41.212324099999925, -20.595203 ], [ -41.212419, -20.595424299999927 ], [ -41.212598199999952, -20.595593 ], [ -41.212766799999933, -20.59571949999998 ], [ -41.21303039999998, -20.59588819999993 ], [ -41.21319909999994, -20.595962 ], [ -41.21349419999995, -20.596025199999943 ], [ -41.213694599999933, -20.596120099999951 ], [ -41.214211099999936, -20.596288799999968 ], [ -41.21446409999993, -20.59637309999993 ], [ -41.214611699999978, -20.596499599999955 ], [ -41.214727699999969, -20.596584 ], [ -41.214790899999969, -20.596742099999965 ], [ -41.214864699999964, -20.596900199999929 ], [ -41.214854199999934, -20.596963499999962 ], [ -41.214854199999934, -20.59706889999995 ], [ -41.214822599999934, -20.597206 ], [ -41.214790899999969, -20.59732189999994 ], [ -41.214717099999966, -20.597427299999939 ], [ -41.214611699999978, -20.597532799999957 ], [ -41.214559, -20.597596 ], [ -41.214348199999961, -20.597954499999947 ], [ -41.214295499999935, -20.59807039999993 ], [ -41.214095199999974, -20.598302299999947 ], [ -41.213947599999983, -20.598439399999954 ], [ -41.213852699999968, -20.598565899999979 ], [ -41.213757799999939, -20.598629199999944 ], [ -41.213641799999955, -20.598671299999975 ], [ -41.213504799999953, -20.598629199999952 ], [ -41.213293899999947, -20.5985659 ], [ -41.213167399999975, -20.59850259999995 ], [ -41.212243, -20.598017899999938 ], [ -41.210574099999981, -20.597142699999946 ], [ -41.210194599999966, -20.596963499999951 ], [ -41.209562, -20.596742099999965 ], [ -41.209356499999956, -20.596657799999953 ], [ -41.209172, -20.596584 ], [ -41.20894, -20.596515499999956 ], [ -41.208592099999976, -20.596478599999955 ], [ -41.208133699999962, -20.596864699999976 ], [ -41.207941499999947, -20.596544399999971 ], [ -41.208053899999989, -20.596295399999963 ], [ -41.208076, -20.596081299999973 ], [ -41.207991499999942, -20.595936099999957 ], [ -41.207793199999962, -20.595826799999937 ], [ -41.207700199999977, -20.595572899999986 ], [ -41.207117799999942, -20.595327399999963 ], [ -41.206677699999943, -20.595016299999934 ], [ -41.206434099999967, -20.594826 ], [ -41.206376499999976, -20.594453199999968 ], [ -41.20620659999998, -20.594249899999966 ], [ -41.205673899999965, -20.593681799999967 ], [ -41.205756699999938, -20.593358099999925 ], [ -41.205342499999972, -20.592886599999925 ], [ -41.204874599999989, -20.593317699999943 ], [ -41.204185199999976, -20.5924 ], [ -41.202966, -20.590780299999956 ], [ -41.201694199999963, -20.589127099999914 ], [ -41.201164199999937, -20.58844269999998 ], [ -41.200155299999956, -20.587047299999934 ], [ -41.199821099999951, -20.586471699999937 ], [ -41.199573, -20.585864199999953 ], [ -41.199219, -20.584902799999945 ], [ -41.198515199999967, -20.583127499999936 ], [ -41.198377, -20.582778099999931 ], [ -41.19810149999995, -20.582364599999945 ], [ -41.197837799999952, -20.582058799999967 ], [ -41.196277099999975, -20.581128399999965 ], [ -41.195491, -20.580645099999963 ], [ -41.19496769999995, -20.580307599999969 ], [ -41.194888799999944, -20.579903499999951 ], [ -41.194819399999965, -20.579118599999962 ], [ -41.19475239999997, -20.578605699999976 ], [ -41.194666899999952, -20.577677399999963 ], [ -41.194381799999974, -20.574942399999941 ], [ -41.194101099999955, -20.572683 ], [ -41.194066699999951, -20.572685599999943 ], [ -41.193154799999945, -20.572754 ], [ -41.192704899999974, -20.573093599999932 ], [ -41.192098699999981, -20.573563 ], [ -41.191467, -20.574148199999961 ], [ -41.191266199999973, -20.574394399999957 ], [ -41.19104039999997, -20.574794899999976 ], [ -41.19100519999995, -20.575192899999927 ], [ -41.190997599999953, -20.575616299999968 ], [ -41.191154899999958, -20.576140099999986 ], [ -41.19135179999995, -20.5765737 ], [ -41.1914642, -20.576816 ], [ -41.191552899999984, -20.577302299999921 ], [ -41.191655899999944, -20.577839699999977 ], [ -41.191619199999934, -20.578135099999937 ], [ -41.191584599999942, -20.578571599999982 ], [ -41.1915767, -20.578969299999976 ], [ -41.191633299999985, -20.579122499999976 ], [ -41.191716899999967, -20.579249699999924 ], [ -41.191816799999977, -20.579569099999954 ], [ -41.191919099999957, -20.580055199999951 ], [ -41.192066599999983, -20.580848599999978 ], [ -41.19251579999996, -20.58083 ], [ -41.192815899999971, -20.580864699999946 ], [ -41.193157599999957, -20.580950199999958 ], [ -41.193417799999963, -20.581049499999942 ], [ -41.193665, -20.58118739999998 ], [ -41.193872, -20.581377199999967 ], [ -41.1939996, -20.581550699999976 ], [ -41.194141099999968, -20.581801399999964 ], [ -41.194316899999933, -20.582020799999945 ], [ -41.194389799999954, -20.582294 ], [ -41.194422599999939, -20.582584 ], [ -41.194492399999945, -20.58286469999997 ], [ -41.194555899999962, -20.583190599999963 ], [ -41.19451, -20.583492199999959 ], [ -41.194600399999956, -20.583916699999964 ], [ -41.194681199999941, -20.5842115 ], [ -41.194799899999964, -20.584476899999974 ], [ -41.194908899999973, -20.584598199999945 ], [ -41.195026, -20.584748199999989 ], [ -41.195250699999981, -20.584925699999939 ], [ -41.196435099999981, -20.585242599999951 ], [ -41.197447799999964, -20.588014499999936 ], [ -41.198050399999943, -20.588894299999936 ], [ -41.199073299999952, -20.59023759999997 ], [ -41.195958599999983, -20.592095299999983 ], [ -41.195031599999936, -20.592633699999965 ], [ -41.193749299999986, -20.593508499999935 ], [ -41.193386099999941, -20.593830599999929 ], [ -41.192290699999937, -20.594919399999984 ], [ -41.192087299999969, -20.59516009999993 ], [ -41.191226699999959, -20.596599499999961 ], [ -41.190860099999945, -20.597217399999984 ], [ -41.190543, -20.598079899999963 ], [ -41.190343699999978, -20.598609099999976 ], [ -41.190271199999984, -20.599432499999981 ], [ -41.190191399999946, -20.600284899999952 ], [ -41.190547599999945, -20.601081199999946 ], [ -41.190796599999949, -20.601352199999933 ], [ -41.191106499999933, -20.601586299999941 ], [ -41.191531599999962, -20.601847899999935 ], [ -41.192195899999952, -20.602221799999928 ], [ -41.192950199999984, -20.602991399999951 ], [ -41.193038299999955, -20.60379109999996 ], [ -41.19301049999995, -20.603993499999948 ], [ -41.19295969999996, -20.60418889999994 ], [ -41.192909099999959, -20.604406 ], [ -41.192896499999968, -20.604593699999956 ], [ -41.192907799999944, -20.604846099999978 ], [ -41.193033699999944, -20.605616499999936 ], [ -41.1929, -20.605906799999957 ], [ -41.192254799999944, -20.606333399999976 ], [ -41.19188319999995, -20.606605 ], [ -41.191709299999957, -20.606766 ], [ -41.191498399999951, -20.607021199999963 ], [ -41.191287899999963, -20.607305199999931 ], [ -41.191123, -20.607567 ], [ -41.191026199999953, -20.607763 ], [ -41.190923399999981, -20.608074599999942 ], [ -41.190843099999945, -20.60834969999997 ], [ -41.190823699999953, -20.608602499999961 ], [ -41.190858399999968, -20.608883399999964 ], [ -41.190906299999938, -20.609019899999964 ], [ -41.191195499999935, -20.609420299999964 ], [ -41.191251299999976, -20.609571099999979 ], [ -41.191344, -20.610154299999973 ], [ -41.191362599999934, -20.610384899999922 ], [ -41.191345099999978, -20.610767499999945 ], [ -41.190793799999945, -20.612405 ], [ -41.190720699999936, -20.612651199999959 ], [ -41.190707699999962, -20.61281729999995 ], [ -41.190737599999977, -20.613300299999946 ], [ -41.190751699999964, -20.613747399999969 ], [ -41.190786599999967, -20.61404279999994 ], [ -41.191043, -20.614825899999971 ], [ -41.191155899999956, -20.61522129999997 ], [ -41.191337399999952, -20.615586899999975 ], [ -41.191556899999966, -20.61593049999993 ], [ -41.19176779999998, -20.616209099999939 ], [ -41.192016499999973, -20.616458499999954 ], [ -41.192241399999943, -20.616643199999938 ], [ -41.192582099999974, -20.61689139999994 ], [ -41.192898699999951, -20.617053299999945 ], [ -41.193422599999963, -20.617255899999972 ], [ -41.193907099999933, -20.617372399999969 ], [ -41.194414, -20.617452499999953 ], [ -41.194889699999983, -20.617497 ], [ -41.19517349999996, -20.617515 ], [ -41.195358099999964, -20.617563199999953 ], [ -41.195443399999938, -20.617634299999953 ], [ -41.195407199999984, -20.617779 ], [ -41.195021099999963, -20.618108599999967 ], [ -41.19427, -20.618637599999936 ], [ -41.193420199999942, -20.619225499999978 ], [ -41.192645899999953, -20.619740399999955 ], [ -41.192411, -20.619923699999958 ], [ -41.191666, -20.622435399999976 ], [ -41.192663899999957, -20.622986 ], [ -41.192220399999933, -20.624319499999949 ], [ -41.191738, -20.625076299999936 ], [ -41.191791799999983, -20.625560399999916 ], [ -41.191899399999961, -20.625990699999928 ], [ -41.192383499999949, -20.626044499999974 ], [ -41.19276, -20.626017599999948 ], [ -41.193002, -20.626178899999957 ], [ -41.193190299999962, -20.626421 ], [ -41.1935668, -20.626663 ], [ -41.193620499999945, -20.626931899999928 ], [ -41.193513, -20.627362199999922 ], [ -41.193270899999959, -20.627792499999952 ], [ -41.193330599999967, -20.6279532 ], [ -41.193620499999952, -20.628733799999964 ], [ -41.19429289999993, -20.62959439999997 ], [ -41.195945799999947, -20.631621399999982 ], [ -41.19726559999998, -20.631647699999967 ], [ -41.198973699999954, -20.630825099999981 ], [ -41.199940499999975, -20.630804599999983 ], [ -41.200612799999931, -20.630885299999925 ], [ -41.201072899999986, -20.630900499999928 ], [ -41.20113079999993, -20.630902399999968 ], [ -41.201704799999959, -20.630921399999981 ], [ -41.201786699999957, -20.631179499999977 ], [ -41.20195049999996, -20.631851199999979 ], [ -41.201966899999945, -20.63249009999992 ], [ -41.20208979999996, -20.632752299999929 ], [ -41.202253599999956, -20.633186499999962 ], [ -41.202474799999948, -20.633833599999939 ], [ -41.202556699999946, -20.633989199999974 ], [ -41.202966299999964, -20.634267799999975 ], [ -41.203023599999938, -20.634374299999937 ], [ -41.203056399999987, -20.634562699999936 ], [ -41.203023599999931, -20.634775699999988 ], [ -41.202949899999972, -20.634980499999923 ], [ -41.202966299999964, -20.635242599999973 ], [ -41.203064599999955, -20.63525489999995 ], [ -41.203162899999938, -20.635267199999927 ], [ -41.20338409999993, -20.63522619999998 ], [ -41.203572499999957, -20.635168899999943 ], [ -41.203893799999946, -20.634805599999943 ], [ -41.20504, -20.633978399999926 ], [ -41.205471699999968, -20.634081499999986 ], [ -41.206052299999946, -20.633724499999975 ], [ -41.206079199999976, -20.633742599999938 ], [ -41.206458399999974, -20.634144299999939 ], [ -41.208513899999964, -20.636155199999969 ], [ -41.208811199999957, -20.636442899999967 ], [ -41.209158499999944, -20.636944499999977 ], [ -41.209371099999935, -20.637353899999948 ], [ -41.20949619999994, -20.637859699999971 ], [ -41.209548699999971, -20.638215099999965 ], [ -41.20885229999994, -20.638864699999942 ], [ -41.208522199999948, -20.639681299999953 ], [ -41.208461099999965, -20.64000069999997 ], [ -41.208253299999974, -20.640214799999963 ], [ -41.208234199999943, -20.641526 ], [ -41.208283599999959, -20.642612299999943 ], [ -41.208026699999948, -20.643724899999931 ], [ -41.207829299999958, -20.64401 ], [ -41.207650199999932, -20.644095599999954 ], [ -41.207185899999956, -20.644190199999969 ], [ -41.207194499999957, -20.643429499999961 ], [ -41.206700599999984, -20.643072899999932 ], [ -41.206199599999941, -20.643645 ], [ -41.205917699999929, -20.645166899999932 ], [ -41.205523899999953, -20.646149299999927 ], [ -41.205363899999952, -20.64736389999997 ], [ -41.205765399999962, -20.647858499999934 ], [ -41.205545599999937, -20.648487599999942 ], [ -41.205869699999937, -20.648530399999981 ], [ -41.205979099999986, -20.648572499999936 ], [ -41.20844359999996, -20.649522099999945 ], [ -41.208511299999941, -20.64954809999994 ], [ -41.208547799999963, -20.649562199999931 ], [ -41.209694399999933, -20.650004 ], [ -41.209682899999962, -20.644890499999985 ], [ -41.210180899999955, -20.64408 ], [ -41.210601299999958, -20.642312499999953 ], [ -41.210619299999969, -20.64198609999994 ], [ -41.212325099999923, -20.641349399999974 ] ] ], [ [ [ -41.136788399999944, -20.603791 ], [ -41.137160899999969, -20.604300099999929 ], [ -41.137608099999966, -20.604505599999978 ], [ -41.138659299999972, -20.604388099999937 ], [ -41.139611899999977, -20.604290699999986 ], [ -41.141281299999946, -20.604434799999972 ], [ -41.142314, -20.604235899999939 ], [ -41.142850599999974, -20.603630399999929 ], [ -41.14238869999997, -20.603080099999943 ], [ -41.141863399999977, -20.602872799999947 ], [ -41.141562799999974, -20.602491499999918 ], [ -41.14133209999995, -20.602237799999955 ], [ -41.141349699999985, -20.601874 ], [ -41.141891699999967, -20.601653399999968 ], [ -41.14198279999993, -20.601235799999927 ], [ -41.141993599999978, -20.600843799999939 ], [ -41.142058499999955, -20.600582 ], [ -41.141736099999953, -20.600265299999933 ], [ -41.141280399999985, -20.600164 ], [ -41.14102639999993, -20.599867699999944 ], [ -41.140393, -20.600046599999938 ], [ -41.139891299999931, -20.599903199999972 ], [ -41.139251299999955, -20.599611699999976 ], [ -41.138750199999954, -20.599510899999924 ], [ -41.138313899999957, -20.599174199999926 ], [ -41.138295099999937, -20.599165599999935 ], [ -41.13771939999998, -20.598882099999972 ], [ -41.137348899999957, -20.598373399999961 ], [ -41.137050399999971, -20.598141899999973 ], [ -41.136949399999942, -20.597416 ], [ -41.136739399999954, -20.597012299999971 ], [ -41.136261599999962, -20.596616499999982 ], [ -41.136256799999963, -20.596611899999967 ], [ -41.135473699999977, -20.595830299999932 ], [ -41.135173799999968, -20.59549179999993 ], [ -41.134445899999939, -20.595415299999964 ], [ -41.133862, -20.595893 ], [ -41.133435899999945, -20.596283199999949 ], [ -41.133614499999965, -20.599317799999934 ], [ -41.134142399999973, -20.599717599999952 ], [ -41.134700799999969, -20.600193499999936 ], [ -41.135082399999931, -20.60034759999996 ], [ -41.1357, -20.600660699999935 ], [ -41.135887299999979, -20.601064699999942 ], [ -41.136077399999984, -20.601661199999974 ], [ -41.136291, -20.602321499999952 ], [ -41.136658199999935, -20.602595 ], [ -41.136788399999944, -20.603791 ] ] ], [ [ [ -41.077963, -20.570323899999948 ], [ -41.081376, -20.572473799999944 ], [ -41.083413699999944, -20.572452499999951 ], [ -41.083515299999931, -20.572450899999971 ], [ -41.084281599999947, -20.572116699999977 ], [ -41.084100699999965, -20.570648399999975 ], [ -41.082807599999974, -20.568871399999985 ], [ -41.079630399999985, -20.568511199999936 ], [ -41.078524699999953, -20.567324699999975 ], [ -41.077494199999933, -20.566943499999972 ], [ -41.076963899999953, -20.566784 ], [ -41.07688109999998, -20.566759099999953 ], [ -41.074946, -20.566177299999943 ], [ -41.073479299999974, -20.567190799999942 ], [ -41.073426599999955, -20.567335499999952 ], [ -41.073415699999941, -20.567365499999937 ], [ -41.07309319999996, -20.56804 ], [ -41.07245969999996, -20.569991499999961 ], [ -41.073551899999984, -20.572567699999965 ], [ -41.0735615, -20.572558499999946 ], [ -41.074568599999964, -20.57144849999997 ], [ -41.074804599999936, -20.571357599999946 ], [ -41.076057199999973, -20.570147599999924 ], [ -41.077963, -20.570323899999948 ] ] ], [ [ [ -41.314159799999977, -20.579582699999932 ], [ -41.311607599999945, -20.578621099999964 ], [ -41.310743799999955, -20.577437699999962 ], [ -41.309052299999962, -20.577460299999917 ], [ -41.309290799999985, -20.579249499999936 ], [ -41.310166499999987, -20.581229299999954 ], [ -41.312289899999946, -20.581798399999951 ], [ -41.313591599999945, -20.583971699999942 ], [ -41.314053499999943, -20.586554499999977 ], [ -41.315506599999928, -20.584742699999936 ], [ -41.317400599999985, -20.584119899999955 ], [ -41.318228599999941, -20.584108299999968 ], [ -41.319726399999986, -20.584088699999942 ], [ -41.319810299999972, -20.583959 ], [ -41.320759599999981, -20.58248159999993 ], [ -41.320738499999948, -20.581087799999981 ], [ -41.319991599999987, -20.580898 ], [ -41.319252399999989, -20.580709399999936 ], [ -41.317512699999945, -20.577546299999945 ], [ -41.315627899999981, -20.578766499999972 ], [ -41.314159799999977, -20.579582699999932 ] ] ], [ [ [ -41.17301759999998, -20.484855099999947 ], [ -41.174266, -20.483445299999982 ], [ -41.175725599999971, -20.482032799999946 ], [ -41.175066299999969, -20.480248599999982 ], [ -41.172541699999954, -20.481076799999983 ], [ -41.171299, -20.482884899999931 ], [ -41.166649799999959, -20.482943 ], [ -41.164976, -20.484158899999962 ], [ -41.16161429999994, -20.485595 ], [ -41.16037979999993, -20.488000399999972 ], [ -41.163980799999933, -20.488553099999919 ], [ -41.166508399999934, -20.487924 ], [ -41.168179499999958, -20.486509 ], [ -41.169658799999986, -20.486490499999945 ], [ -41.170826799999936, -20.487410599999965 ], [ -41.17156829999994, -20.487751599999971 ], [ -41.173259799999983, -20.487043 ], [ -41.17301759999998, -20.484855099999947 ] ] ] ] } }
]
}
