{
"type": "FeatureCollection",
"name": "3202256",
"crs": { "type": "name", "properties": { "name": "urn:ogc:def:crs:OGC:1.3:CRS84" } },
"features": [
{ "type": "Feature", "properties": { "CD_MUN": "3202256", "NM_MUN": "Governador Lindenberg" }, "geometry": { "type": "MultiPolygon", "coordinates": [ [ [ [ -40.45322089999997, -19.250151 ], [ -40.450682599999936, -19.259382099999989 ], [ -40.460092099999947, -19.26210029999994 ], [ -40.461075099999967, -19.258765199999964 ], [ -40.462704599999945, -19.259592599999962 ], [ -40.46402889999996, -19.259313899999942 ], [ -40.464548899999954, -19.258149799999948 ], [ -40.464679499999932, -19.257631599999975 ], [ -40.465899399999962, -19.252789399999934 ], [ -40.474329499999961, -19.249333399999959 ], [ -40.474793599999948, -19.247674599999986 ], [ -40.475393299999958, -19.24573569999994 ], [ -40.474407699999972, -19.245929199999985 ], [ -40.473224499999965, -19.247023 ], [ -40.471015299999976, -19.247245899999932 ], [ -40.470253299999968, -19.247711099999936 ], [ -40.468949799999962, -19.249172199999979 ], [ -40.468153, -19.249774399999978 ], [ -40.466560699999953, -19.249555799999932 ], [ -40.464823399999943, -19.249317599999927 ], [ -40.46340459999994, -19.249122899999968 ], [ -40.4579563, -19.24837529999996 ], [ -40.456996599999968, -19.248243599999959 ], [ -40.454932799999938, -19.247466399999947 ], [ -40.451257599999956, -19.245267199999951 ], [ -40.450145799999973, -19.24655469999994 ], [ -40.448616899999941, -19.248325399999938 ], [ -40.448878899999961, -19.248888 ], [ -40.449379499999971, -19.249158799999964 ], [ -40.45322089999997, -19.250151 ] ] ], [ [ [ -40.508749099999932, -19.240539899999924 ], [ -40.50904039999994, -19.240028299999945 ], [ -40.511721099999939, -19.240586199999935 ], [ -40.514921899999941, -19.240724299999957 ], [ -40.514979599999954, -19.240724899999968 ], [ -40.515900499999937, -19.239667699999909 ], [ -40.516266299999984, -19.238338699999925 ], [ -40.520739699999986, -19.239351299999949 ], [ -40.523614, -19.238830199999938 ], [ -40.523731599999969, -19.236544 ], [ -40.523734899999972, -19.236544199999972 ], [ -40.523731699999978, -19.236541899999949 ], [ -40.523715599999946, -19.235013 ], [ -40.517952499999978, -19.235892399999958 ], [ -40.516009499999939, -19.233147899999956 ], [ -40.514518199999948, -19.234184199999969 ], [ -40.512879199999936, -19.231974499999975 ], [ -40.511683499999947, -19.228352499999971 ], [ -40.509322599999962, -19.227693099999946 ], [ -40.5090259, -19.228583199999957 ], [ -40.508596399999938, -19.228571399999961 ], [ -40.508643699999929, -19.228942499999967 ], [ -40.508827599999968, -19.229178099999949 ], [ -40.508191099999969, -19.231087399999975 ], [ -40.505116899999962, -19.240309099999941 ], [ -40.506404399999958, -19.241584299999953 ], [ -40.50655839999996, -19.241452299999949 ], [ -40.507968299999959, -19.240405299999964 ], [ -40.507985699999956, -19.24043289999997 ], [ -40.508380599999953, -19.240092499999943 ], [ -40.508614099999939, -19.240180899999931 ], [ -40.508741499999985, -19.24046559999994 ], [ -40.508749099999932, -19.240539899999924 ] ] ], [ [ [ -40.598872899999947, -19.226396799999971 ], [ -40.600186199999939, -19.226229899999954 ], [ -40.59947509999995, -19.221243399999931 ], [ -40.598787299999969, -19.220149299999942 ], [ -40.595585299999982, -19.218615899999968 ], [ -40.595810399999948, -19.214729 ], [ -40.594864499999971, -19.21435849999995 ], [ -40.589130799999957, -19.212791399999951 ], [ -40.588886299999963, -19.214161 ], [ -40.590085199999983, -19.227583799999948 ], [ -40.592752299999965, -19.231228399999956 ], [ -40.593247399999939, -19.231141 ], [ -40.593478599999969, -19.227882199999957 ], [ -40.594717299999957, -19.228250099999965 ], [ -40.598872899999947, -19.226396799999971 ] ] ], [ [ [ -40.473042699999951, -19.141169299999941 ], [ -40.473246699999947, -19.140298399999946 ], [ -40.470744299999978, -19.139005699999924 ], [ -40.466441699999955, -19.139519 ], [ -40.462657199999967, -19.139848499999975 ], [ -40.46181329999996, -19.142740099999969 ], [ -40.460790899999957, -19.142875499999942 ], [ -40.460198399999967, -19.143561199999958 ], [ -40.460965699999974, -19.144647599999924 ], [ -40.461131399999942, -19.144882099999961 ], [ -40.462337699999985, -19.144169099999942 ], [ -40.464305199999963, -19.14378629999992 ], [ -40.471926899999971, -19.142090399999976 ], [ -40.472857299999923, -19.141888699999988 ], [ -40.473042699999951, -19.141169299999941 ] ] ] ] } }
]
}
