{
"type": "FeatureCollection",
"name": "3202207",
"crs": { "type": "name", "properties": { "name": "urn:ogc:def:crs:OGC:1.3:CRS84" } },
"features": [
{ "type": "Feature", "properties": { "CD_MUN": "3202207", "NM_MUN": "Fundão" }, "geometry": { "type": "MultiPolygon", "coordinates": [ [ [ [ -40.191807799999935, -20.0545 ], [ -40.1918113, -20.054504099999967 ], [ -40.191938, -20.054729 ], [ -40.192099499999983, -20.055039799999985 ], [ -40.192282899999952, -20.055242799999977 ], [ -40.192500099999954, -20.055402699999952 ], [ -40.192614099999957, -20.055439499999981 ], [ -40.192728, -20.055476399999979 ], [ -40.193239899999988, -20.055516 ], [ -40.193569499999967, -20.055513699999953 ], [ -40.193966499999931, -20.055392799999932 ], [ -40.194339799999966, -20.055142899999971 ], [ -40.194473299999963, -20.054765699999976 ], [ -40.194526399999965, -20.054270699999964 ], [ -40.194546099999968, -20.053872699999939 ], [ -40.194621599999948, -20.053323799999941 ], [ -40.194673899999941, -20.052732 ], [ -40.19484929999993, -20.051870599999976 ], [ -40.194991799999968, -20.051170699999947 ], [ -40.195044699999983, -20.05065419999994 ], [ -40.195033, -20.05029659999996 ], [ -40.195029899999959, -20.050202699999932 ], [ -40.195024099999962, -20.050171699999975 ], [ -40.194947, -20.049762399999956 ], [ -40.194895, -20.049600699999928 ], [ -40.194760699999968, -20.049183 ], [ -40.194426599999929, -20.048593799999935 ], [ -40.194059099999947, -20.048090899999977 ], [ -40.193761199999976, -20.047781099999945 ], [ -40.193270099999943, -20.047483299999957 ], [ -40.192665699999964, -20.04721859999994 ], [ -40.19213, -20.04703939999996 ], [ -40.191537399999959, -20.046839099999943 ], [ -40.191138599999938, -20.046712799999973 ], [ -40.190694099999973, -20.046554499999964 ], [ -40.190328199999961, -20.046266599999964 ], [ -40.190109099999972, -20.045848699999961 ], [ -40.190058, -20.045571 ], [ -40.190026099999955, -20.045397599999951 ], [ -40.190112699999929, -20.044827199999919 ], [ -40.190137, -20.044737599999955 ], [ -40.190322899999963, -20.044051499999966 ], [ -40.190569, -20.043523 ], [ -40.190916, -20.042821699999926 ], [ -40.191106, -20.042390299999965 ], [ -40.191499499999964, -20.041807 ], [ -40.191871, -20.04133139999993 ], [ -40.192252099999962, -20.040619099999958 ], [ -40.192610599999973, -20.03992849999997 ], [ -40.192992299999958, -20.039291499999933 ], [ -40.193075699999945, -20.039049 ], [ -40.193159099999939, -20.038806499999971 ], [ -40.193303499999949, -20.038364699999931 ], [ -40.193425599999962, -20.037966 ], [ -40.193547299999985, -20.037535 ], [ -40.193725799999982, -20.037082199999936 ], [ -40.193849, -20.036844799999987 ], [ -40.194085399999956, -20.036531399999948 ], [ -40.194288099999937, -20.036282699999962 ], [ -40.194739899999952, -20.035914099999946 ], [ -40.195056499999964, -20.035686099999968 ], [ -40.194340899999929, -20.035544499999954 ], [ -40.194134099999985, -20.035705299999954 ], [ -40.193996299999988, -20.035717199999969 ], [ -40.194031, -20.035681799999956 ], [ -40.194048299999963, -20.035664299999947 ], [ -40.194247099999984, -20.035477499999953 ], [ -40.194523799999949, -20.035239799999943 ], [ -40.194862, -20.035067199999968 ], [ -40.19515279999996, -20.034898499999944 ], [ -40.195255, -20.034596699999948 ], [ -40.195239899999926, -20.034262299999977 ], [ -40.19529179999995, -20.034011199999949 ], [ -40.195299399999961, -20.03397429999994 ], [ -40.195302699999949, -20.033958499999986 ], [ -40.195663599999932, -20.03384929999994 ], [ -40.196076499999947, -20.033820899999967 ], [ -40.196579799999945, -20.033649 ], [ -40.196834599999931, -20.033627099999936 ], [ -40.197206599999966, -20.033472399999937 ], [ -40.197609899999982, -20.033406699999947 ], [ -40.197917899999936, -20.033403599999932 ], [ -40.198199299999942, -20.033337899999946 ], [ -40.1987769, -20.033413 ], [ -40.199321599999962, -20.033425499999975 ], [ -40.199317, -20.033399599999942 ], [ -40.199316099999969, -20.033394599999959 ], [ -40.198885199999957, -20.031008699999962 ], [ -40.198734099999967, -20.030183699999952 ], [ -40.1949494, -20.028542199999951 ], [ -40.194536299999989, -20.02829579999996 ], [ -40.194513899999954, -20.02828239999997 ], [ -40.194471299999975, -20.028279299999959 ], [ -40.194429599999978, -20.028276299999966 ], [ -40.19333429999994, -20.028195899999961 ], [ -40.190449799999953, -20.027941599999952 ], [ -40.187585599999977, -20.026514199999951 ], [ -40.185029899999961, -20.02524039999998 ], [ -40.183034799999973, -20.024246099999971 ], [ -40.182417, -20.023932699999939 ], [ -40.182294299999967, -20.02387049999993 ], [ -40.182225199999948, -20.023835499999969 ], [ -40.182143499999945, -20.023794 ], [ -40.182088499999956, -20.023766099999936 ], [ -40.182033499999939, -20.023738199999979 ], [ -40.181716599999959, -20.023577499999938 ], [ -40.181689199999937, -20.023563499999977 ], [ -40.18152809999998, -20.023157399999945 ], [ -40.181444099999972, -20.022993099999958 ], [ -40.18136, -20.022828799999967 ], [ -40.181339399999956, -20.022799399999943 ], [ -40.181283599999979, -20.022719899999974 ], [ -40.181140199999959, -20.02251559999997 ], [ -40.180898599999985, -20.022244199999943 ], [ -40.180630299999962, -20.022154299999947 ], [ -40.180273799999959, -20.022245099999964 ], [ -40.180135199999938, -20.022530199999956 ], [ -40.179824099999962, -20.022734799999974 ], [ -40.179379799999936, -20.022619299999985 ], [ -40.179118199999948, -20.022327799999974 ], [ -40.17887, -20.022054899999947 ], [ -40.178577399999938, -20.021875099999946 ], [ -40.178303299999989, -20.021824599999945 ], [ -40.178035399999956, -20.021653499999942 ], [ -40.177826499999988, -20.021382499999962 ], [ -40.177648199999958, -20.020900899999969 ], [ -40.177465799999943, -20.020468299999951 ], [ -40.177278599999966, -20.020454899999947 ], [ -40.177091299999972, -20.020441499999951 ], [ -40.176765099999955, -20.020506 ], [ -40.176512799999962, -20.020686 ], [ -40.176266399999967, -20.020808499999941 ], [ -40.176256499999965, -20.020813399999945 ], [ -40.175919299999975, -20.020644299999965 ], [ -40.175829399999948, -20.02054239999995 ], [ -40.175527, -20.020199299999934 ], [ -40.175426899999934, -20.020085899999952 ], [ -40.17542049999998, -20.020078599999973 ], [ -40.175302599999952, -20.019740099999982 ], [ -40.174952499999954, -20.019431599999965 ], [ -40.174467699999973, -20.018775 ], [ -40.174118899999939, -20.018546599999972 ], [ -40.173831599999971, -20.01838059999994 ], [ -40.173418699999957, -20.018144 ], [ -40.166942099999972, -20.014284799999924 ], [ -40.166138599999961, -20.013807599999957 ], [ -40.165952699999927, -20.013697199999971 ], [ -40.165242699999958, -20.013275599999925 ], [ -40.164265299999961, -20.01110569999997 ], [ -40.16415759999996, -20.01086659999994 ], [ -40.163488, -20.009380199999946 ], [ -40.163221299999975, -20.008788 ], [ -40.163148099999951, -20.008625399999968 ], [ -40.16307309999997, -20.008458899999937 ], [ -40.162998099999974, -20.008292399999952 ], [ -40.162761199999977, -20.008160599999933 ], [ -40.162487, -20.008121099999983 ], [ -40.162283599999967, -20.008193499999951 ], [ -40.162233899999933, -20.008211199999955 ], [ -40.1621325, -20.008241399999974 ], [ -40.16212459999997, -20.008317699999953 ], [ -40.161995899999965, -20.008503 ], [ -40.161870199999953, -20.00864009999998 ], [ -40.161793299999943, -20.008724 ], [ -40.161599799999976, -20.008927299999986 ], [ -40.161489599999989, -20.009094899999969 ], [ -40.161389199999967, -20.009324 ], [ -40.161306899999943, -20.009500199999945 ], [ -40.161280799999929, -20.009746399999926 ], [ -40.161198199999944, -20.009878699999948 ], [ -40.160939199999973, -20.010003399999956 ], [ -40.160144299999949, -20.010491799999947 ], [ -40.159848399999937, -20.010660699999967 ], [ -40.159598399999936, -20.010759 ], [ -40.15939439999994, -20.010795399999964 ], [ -40.157659799999976, -20.011026399999942 ], [ -40.156778499999973, -20.011137599999934 ], [ -40.156473399999982, -20.011324099999975 ], [ -40.156196, -20.011475199999964 ], [ -40.1561162, -20.011498 ], [ -40.156038499999966, -20.011520199999957 ], [ -40.1556308, -20.01163709999998 ], [ -40.155232599999977, -20.011780199999972 ], [ -40.154944899999975, -20.01179969999993 ], [ -40.154713499999964, -20.011897799999925 ], [ -40.154455299999945, -20.012145499999974 ], [ -40.155816499999965, -20.012817299999934 ], [ -40.156415399999958, -20.013361299999932 ], [ -40.156816399999968, -20.013949899999943 ], [ -40.15714179999997, -20.014639899999956 ], [ -40.157527699999946, -20.015257399999939 ], [ -40.157851799999953, -20.015774299999975 ], [ -40.158345699999984, -20.016549799999957 ], [ -40.158689399999957, -20.017657799999949 ], [ -40.159129, -20.019356399999946 ], [ -40.159270699999979, -20.019961099999936 ], [ -40.15944369999994, -20.020666499999937 ], [ -40.15945, -20.021517199999938 ], [ -40.159302699999955, -20.022239099999968 ], [ -40.159025599999957, -20.023985599999946 ], [ -40.158558599999935, -20.024796199999958 ], [ -40.157877699999972, -20.025564799999927 ], [ -40.157869399999981, -20.026516599999976 ], [ -40.158167299999945, -20.027610499999977 ], [ -40.158467499999965, -20.029021599999957 ], [ -40.158548799999949, -20.029698799999942 ], [ -40.15855439999995, -20.030463 ], [ -40.158421799999985, -20.031112699999941 ], [ -40.158928599999967, -20.031556399999953 ], [ -40.159284299999968, -20.032217299999953 ], [ -40.159412, -20.032980699999928 ], [ -40.159383799999944, -20.033290899999944 ], [ -40.159355499999954, -20.033601099999945 ], [ -40.159266799999962, -20.033991 ], [ -40.158816799999954, -20.035046599999937 ], [ -40.158849499999981, -20.035334699999972 ], [ -40.158914499999987, -20.03588219999995 ], [ -40.159205599999957, -20.036046199999923 ], [ -40.159496699999977, -20.036210099999938 ], [ -40.15997109999995, -20.036408799999958 ], [ -40.160459799999956, -20.036463299999973 ], [ -40.160676, -20.036822399999945 ], [ -40.16083059999994, -20.037095299999979 ], [ -40.160938399999964, -20.037224399999957 ], [ -40.16109159999997, -20.037309899999983 ], [ -40.161320599999954, -20.037337199999964 ], [ -40.161671799999965, -20.037378199999988 ], [ -40.161931599999946, -20.037434199999954 ], [ -40.16219289999998, -20.037692 ], [ -40.162392399999931, -20.037849299999952 ], [ -40.162506899999975, -20.037863 ], [ -40.162621499999943, -20.037876599999937 ], [ -40.162957499999955, -20.037917699999984 ], [ -40.163218399999948, -20.038132199999946 ], [ -40.163465699999961, -20.038563199999945 ], [ -40.163727599999952, -20.038907499999937 ], [ -40.163911399999961, -20.03900729999998 ], [ -40.16407779999998, -20.038804299999978 ], [ -40.164336699999978, -20.038558599999927 ], [ -40.164750799999979, -20.038521899999985 ], [ -40.164922, -20.038529199999967 ], [ -40.165093599999977, -20.038596199999965 ], [ -40.165210699999932, -20.038595499999925 ], [ -40.165254199999943, -20.038390899999953 ], [ -40.1653611, -20.038219899999952 ], [ -40.165513099999949, -20.038074199999983 ], [ -40.16566489999996, -20.037885899999942 ], [ -40.166042499999953, -20.037789799999931 ], [ -40.16616879999998, -20.037823 ], [ -40.166502299999934, -20.037846299999963 ], [ -40.166816399999966, -20.037691 ], [ -40.166995899999961, -20.037596199999939 ], [ -40.167107, -20.0375428 ], [ -40.167175399999962, -20.037509899999971 ], [ -40.167318099999939, -20.037313199999964 ], [ -40.16746, -20.037014299999946 ], [ -40.167557199999976, -20.036766799999967 ], [ -40.167727199999952, -20.036603899999928 ], [ -40.168133099999977, -20.036686299999921 ], [ -40.168593599999951, -20.036828 ], [ -40.168846599999945, -20.036945499999941 ], [ -40.168993199999932, -20.037268 ], [ -40.168905699999989, -20.037617599999987 ], [ -40.168799799999931, -20.037924799999928 ], [ -40.168783, -20.038086699999958 ], [ -40.168937, -20.0381963 ], [ -40.169144199999955, -20.038203399999922 ], [ -40.169315, -20.038151199999966 ], [ -40.169422599999962, -20.038086699999944 ], [ -40.169530199999933, -20.038022099999985 ], [ -40.169745199999966, -20.037867499999948 ], [ -40.169902599999944, -20.037816699999937 ], [ -40.170014799999933, -20.037780599999955 ], [ -40.170249099999978, -20.037796 ], [ -40.170529399999964, -20.037930399999937 ], [ -40.170753399999974, -20.037775699999941 ], [ -40.1709317, -20.037519099999937 ], [ -40.171075599999938, -20.037406699999956 ], [ -40.171173499999952, -20.037330199999936 ], [ -40.171370899999935, -20.037235299999967 ], [ -40.171487799999966, -20.037209 ], [ -40.171546299999932, -20.037195799999946 ], [ -40.171604799999962, -20.037182699999956 ], [ -40.17191059999994, -20.037129599999957 ], [ -40.172081199999973, -20.037051799999968 ], [ -40.172279, -20.036999399999956 ], [ -40.172522, -20.036972299999952 ], [ -40.172684499999939, -20.037030799999975 ], [ -40.172747099999988, -20.036962299999963 ], [ -40.172764499999971, -20.036877 ], [ -40.172881099999984, -20.036808199999943 ], [ -40.17342089999994, -20.036719499999947 ], [ -40.173736199999958, -20.036725899999958 ], [ -40.173916799999965, -20.036784299999976 ], [ -40.174097399999937, -20.036842599999954 ], [ -40.174440299999958, -20.036925499999949 ], [ -40.174630399999963, -20.037060399999966 ], [ -40.174811299999938, -20.03715289999996 ], [ -40.174973899999948, -20.03721569999993 ], [ -40.175136499999944, -20.037278399999945 ], [ -40.175362499999949, -20.03739609999996 ], [ -40.175479899999971, -20.037425099999954 ], [ -40.17559719999997, -20.037454099999923 ], [ -40.175872599999941, -20.03748759999997 ], [ -40.176327499999964, -20.037542899999956 ], [ -40.176913799999966, -20.037658199999957 ], [ -40.177198, -20.037724399999945 ], [ -40.177482299999951, -20.037790599999948 ], [ -40.177870699999964, -20.03794129999994 ], [ -40.178187399999949, -20.038126399999953 ], [ -40.178432399999963, -20.038363199999939 ], [ -40.178568799999937, -20.038541 ], [ -40.178749499999988, -20.03861639999996 ], [ -40.179127899999969, -20.038622399999952 ], [ -40.179803299999953, -20.038592399999978 ], [ -40.180091899999979, -20.03865 ], [ -40.180461699999967, -20.038715699999962 ], [ -40.180781899999943, -20.038764599999968 ], [ -40.181102, -20.038813599999962 ], [ -40.181769699999961, -20.038962299999987 ], [ -40.181814, -20.038975899999965 ], [ -40.181858199999972, -20.038989599999972 ], [ -40.182284299999935, -20.039120599999936 ], [ -40.182811699999945, -20.039350499999941 ], [ -40.183630899999976, -20.039707499999952 ], [ -40.184228899999944, -20.04017169999997 ], [ -40.184387199999939, -20.040331899999952 ], [ -40.184864199999943, -20.040814399999931 ], [ -40.18490479999997, -20.040857499999952 ], [ -40.185675199999942, -20.041674499999935 ], [ -40.185717799999964, -20.041719599999965 ], [ -40.185972599999957, -20.042066899999952 ], [ -40.186479299999974, -20.042777699999927 ], [ -40.186582599999952, -20.042922599999926 ], [ -40.187732399999959, -20.044889799999961 ], [ -40.187853699999948, -20.045139199999937 ], [ -40.188153199999938, -20.045755299999939 ], [ -40.188683599999941, -20.046807299999948 ], [ -40.189004299999972, -20.047524499999945 ], [ -40.189325, -20.048241699999949 ], [ -40.189419299999948, -20.048476199999982 ], [ -40.189476399999933, -20.048618199999975 ], [ -40.189591199999938, -20.048903899999964 ], [ -40.189692799999939, -20.049235199999938 ], [ -40.1897944, -20.049566499999962 ], [ -40.190053299999931, -20.050450099999974 ], [ -40.190192599999932, -20.051006699999945 ], [ -40.190331899999933, -20.051563399999967 ], [ -40.190502599999952, -20.051976699999944 ], [ -40.190717299999967, -20.052497199999937 ], [ -40.190874699999938, -20.053057899999938 ], [ -40.191165799999965, -20.053430499999937 ], [ -40.191456799999969, -20.053786099999975 ], [ -40.191747499999963, -20.054116199999946 ], [ -40.191911399999981, -20.054344899999926 ], [ -40.191807799999935, -20.0545 ] ] ], [ [ [ -40.404082599999974, -20.016353299999938 ], [ -40.404605699999934, -20.016433899999988 ], [ -40.40483949999998, -20.016432 ], [ -40.405148, -20.016429599999981 ], [ -40.405331599999954, -20.016381099999943 ], [ -40.405614899999932, -20.016350599999949 ], [ -40.405818499999953, -20.016311299999931 ], [ -40.406062199999958, -20.016299899999975 ], [ -40.406326, -20.016312 ], [ -40.406689599999943, -20.016356099999935 ], [ -40.40678429999997, -20.01637889999996 ], [ -40.406938799999978, -20.016415399999961 ], [ -40.407098399999938, -20.016451699999951 ], [ -40.407203199999977, -20.016498 ], [ -40.407368199999951, -20.016586099999916 ], [ -40.407497899999946, -20.016627399999951 ], [ -40.407643099999973, -20.016725099999974 ], [ -40.407798199999945, -20.01682749999997 ], [ -40.407918299999949, -20.016906499999941 ], [ -40.407998099999922, -20.016924699999951 ], [ -40.408107299999983, -20.016905 ], [ -40.40822639999994, -20.016871099999957 ], [ -40.408390599999962, -20.016869799999945 ], [ -40.40841689999997, -20.01687459999993 ], [ -40.408427199999949, -20.016876399999934 ], [ -40.408454399999982, -20.016825799999932 ], [ -40.4084898, -20.016756599999944 ], [ -40.408575299999939, -20.016589 ], [ -40.408265599999943, -20.016248699999952 ], [ -40.408179, -20.015981399999927 ], [ -40.408246799999979, -20.01566749999995 ], [ -40.408111799999972, -20.015573699999951 ], [ -40.408100399999967, -20.015278599999942 ], [ -40.4077473, -20.014961299999978 ], [ -40.407964099999965, -20.014134199999937 ], [ -40.408320299999957, -20.013736199999979 ], [ -40.408476, -20.013242 ], [ -40.408633, -20.013017599999955 ], [ -40.408989699999957, -20.012785599999969 ], [ -40.409533, -20.01278619999994 ], [ -40.409692, -20.012597599999939 ], [ -40.409888, -20.01247009999997 ], [ -40.4101204, -20.012513399999939 ], [ -40.41044549999998, -20.012619499999978 ], [ -40.410718499999973, -20.01298649999995 ], [ -40.410977, -20.013130199999978 ], [ -40.411198599999977, -20.013121799999968 ], [ -40.411461, -20.012909799999932 ], [ -40.411587099999956, -20.012952199999965 ], [ -40.412462899999987, -20.01330349999995 ], [ -40.412737899999975, -20.012633499999932 ], [ -40.412787899999962, -20.012315099999967 ], [ -40.41278449999993, -20.01199129999997 ], [ -40.412985, -20.011811199999951 ], [ -40.413014499999981, -20.01178009999995 ], [ -40.413172299999985, -20.011950499999941 ], [ -40.413229899999983, -20.011994799999972 ], [ -40.413290299999979, -20.012012699999957 ], [ -40.414724599999943, -20.012297899999965 ], [ -40.414735299999961, -20.012264499999958 ], [ -40.415171299999948, -20.011159499999966 ], [ -40.415227699999946, -20.010811699999973 ], [ -40.415303499999936, -20.010507299999968 ], [ -40.415327299999952, -20.010216899999939 ], [ -40.415391, -20.009890499999926 ], [ -40.41534709999997, -20.009555 ], [ -40.415105899999958, -20.00927889999997 ], [ -40.415072799999962, -20.009202899999941 ], [ -40.415095, -20.008861 ], [ -40.415076299999953, -20.008630899999957 ], [ -40.415237899999973, -20.008498799999927 ], [ -40.415567399999929, -20.008556099999957 ], [ -40.415802499999984, -20.008538899999962 ], [ -40.415986299999929, -20.008549399999925 ], [ -40.416592499999979, -20.008493399999971 ], [ -40.416560799999949, -20.008042599999957 ], [ -40.416533, -20.007425699999953 ], [ -40.416396, -20.006069399999948 ], [ -40.416401299999961, -20.00604739999994 ], [ -40.416386899999964, -20.005979 ], [ -40.416372499999966, -20.005910699999966 ], [ -40.41632519999996, -20.005702799999941 ], [ -40.416236699999963, -20.00541609999993 ], [ -40.41622249999994, -20.005374099999937 ], [ -40.416151499999962, -20.005164199999971 ], [ -40.415998899999977, -20.004742 ], [ -40.415885399999979, -20.004430299999964 ], [ -40.415794799999958, -20.004184299999956 ], [ -40.415611899999931, -20.003630099999945 ], [ -40.415545799999968, -20.003241899999971 ], [ -40.415534, -20.00299769999998 ], [ -40.415522299999964, -20.002753599999945 ], [ -40.415543599999978, -20.002179899999931 ], [ -40.415562599999923, -20.001694899999972 ], [ -40.415576899999962, -20.001273899999944 ], [ -40.41559129999996, -20.000668 ], [ -40.415585699999951, -20.000334799999962 ], [ -40.415506, -19.999692799999934 ], [ -40.415380299999988, -19.99897049999992 ], [ -40.415289599999944, -19.998508399999931 ], [ -40.41522619999995, -19.998172599999975 ], [ -40.415137099999988, -19.997723 ], [ -40.415039199999974, -19.997205799999957 ], [ -40.414970499999981, -19.996873799999946 ], [ -40.414951099999939, -19.996753199999951 ], [ -40.414926899999955, -19.996602499999945 ], [ -40.414917599999974, -19.996544099999941 ], [ -40.414859399999962, -19.996134099999939 ], [ -40.414810099999961, -19.995687799999917 ], [ -40.414764299999945, -19.995104399999946 ], [ -40.414731699999948, -19.994587399999947 ], [ -40.414705699999956, -19.994273699999958 ], [ -40.414549199999961, -19.994159 ], [ -40.414501, -19.994129699999974 ], [ -40.414462699999952, -19.994104899999964 ], [ -40.414249899999952, -19.994151 ], [ -40.414200599999965, -19.994154699999974 ], [ -40.414137299999936, -19.994146599999958 ], [ -40.413953699999986, -19.994309399999949 ], [ -40.413356299999982, -19.994079099999972 ], [ -40.413321399999973, -19.994067799999982 ], [ -40.413210099999958, -19.994202399999946 ], [ -40.413113499999952, -19.994339099999934 ], [ -40.413068299999971, -19.994445099999947 ], [ -40.413050099999964, -19.994631 ], [ -40.413050499999947, -19.994721199999955 ], [ -40.413020599999982, -19.994704399999932 ], [ -40.412981299999956, -19.994682299999969 ], [ -40.412816299999974, -19.994515499999988 ], [ -40.412795699999947, -19.99473079999996 ], [ -40.412743499999976, -19.995617299999932 ], [ -40.412621299999962, -19.995619799999922 ], [ -40.412270899999953, -19.995544199999937 ], [ -40.412081, -19.99560229999998 ], [ -40.411111199999944, -19.99562039999995 ], [ -40.410793, -19.995677499999946 ], [ -40.410678599999983, -19.995718 ], [ -40.410395699999981, -19.995691199999957 ], [ -40.410143899999987, -19.995676599999964 ], [ -40.40988909999993, -19.995828499999952 ], [ -40.40974749999998, -19.996002699999966 ], [ -40.409754499999963, -19.996044599999944 ], [ -40.40971849999994, -19.996278599999975 ], [ -40.409757599999985, -19.996345199999947 ], [ -40.409759899999983, -19.996747399999947 ], [ -40.40986479999998, -19.997106699999957 ], [ -40.40990759999994, -19.997304199999974 ], [ -40.409762499999943, -19.997288799999975 ], [ -40.40958169999994, -19.997200699999947 ], [ -40.409554699999944, -19.997049 ], [ -40.409404799999947, -19.996722199999965 ], [ -40.409327699999949, -19.996605599999956 ], [ -40.40916469999997, -19.996359199999969 ], [ -40.409015599999975, -19.996207299999984 ], [ -40.408836899999983, -19.99616489999994 ], [ -40.408757199999975, -19.996024399999957 ], [ -40.408571099999961, -19.995935899999949 ], [ -40.408357199999948, -19.996042899999956 ], [ -40.40823939999995, -19.99620339999996 ], [ -40.408121, -19.99626429999995 ], [ -40.407842, -19.996170599999974 ], [ -40.407515899999964, -19.996061799999946 ], [ -40.407322399999941, -19.995889799999922 ], [ -40.407094399999949, -19.995874599999979 ], [ -40.406898699999942, -19.995881099999956 ], [ -40.40672439999998, -19.996189899999926 ], [ -40.406614499999932, -19.996555599999976 ], [ -40.40662059999994, -19.996706799999966 ], [ -40.406813599999964, -19.996859599999929 ], [ -40.406808599999977, -19.996993199999967 ], [ -40.406418499999972, -19.997182199999948 ], [ -40.406076499999983, -19.997304299999939 ], [ -40.406085899999937, -19.997618399999961 ], [ -40.4060947, -19.99786359999996 ], [ -40.406229199999984, -19.998207799999932 ], [ -40.406199499999957, -19.998293399999962 ], [ -40.406101, -19.9984 ], [ -40.406110899999938, -19.998567699999953 ], [ -40.406112399999977, -19.998592699999968 ], [ -40.406303699999967, -19.998564599999948 ], [ -40.406568399999976, -19.998505399999942 ], [ -40.406679399999973, -19.998487 ], [ -40.406868099999947, -19.99847809999995 ], [ -40.407032199999946, -19.99847479999994 ], [ -40.407408499999974, -19.998495899999973 ], [ -40.407497499999977, -19.998507099999927 ], [ -40.407488099999966, -19.998894599999975 ], [ -40.40744769999997, -19.999135599999942 ], [ -40.40732069999995, -19.999471499999977 ], [ -40.407266299999939, -19.999748299999972 ], [ -40.407154, -20.000008099999953 ], [ -40.406921299999965, -20.000433099999952 ], [ -40.406805399999939, -20.000616699999977 ], [ -40.406460399999958, -20.001028199999958 ], [ -40.406416199999974, -20.001129399999968 ], [ -40.406435099999953, -20.001376899999968 ], [ -40.406408299999953, -20.001379499999938 ], [ -40.406372799999986, -20.001402499999926 ], [ -40.406308699999961, -20.001456 ], [ -40.405933899999972, -20.001588499999961 ], [ -40.405847399999971, -20.00207589999998 ], [ -40.405385099999933, -20.002057599999929 ], [ -40.405375399999976, -20.002641199999971 ], [ -40.405726299999962, -20.00327 ], [ -40.405286499999931, -20.003600199999926 ], [ -40.40528379999995, -20.003621499999948 ], [ -40.405275899999928, -20.003651 ], [ -40.405172, -20.00403869999997 ], [ -40.405358199999974, -20.004195 ], [ -40.405683599999968, -20.004328499999932 ], [ -40.405965199999976, -20.004477399999924 ], [ -40.405691699999977, -20.004851 ], [ -40.405583599999943, -20.005129599999979 ], [ -40.40539629999995, -20.005254799999932 ], [ -40.405399799999948, -20.005473 ], [ -40.405484399999978, -20.005869 ], [ -40.405599199999983, -20.005995799999944 ], [ -40.405563499999978, -20.006139499999957 ], [ -40.405458599999982, -20.006252099999937 ], [ -40.405402799999933, -20.006421099999958 ], [ -40.405491799999936, -20.006688799999949 ], [ -40.405548199999942, -20.006855699999964 ], [ -40.405460199999936, -20.007034399999952 ], [ -40.405210899999929, -20.007110599999969 ], [ -40.405041299999937, -20.007226299999957 ], [ -40.405030199999942, -20.007374899999942 ], [ -40.404992699999987, -20.007574399999942 ], [ -40.405043, -20.007705099999942 ], [ -40.405296699999958, -20.007811799999956 ], [ -40.405515399999963, -20.008051499999958 ], [ -40.405524299999961, -20.008374499999945 ], [ -40.404970699999971, -20.008681399999936 ], [ -40.405058099999962, -20.009010399999958 ], [ -40.404878699999983, -20.009501599999961 ], [ -40.40479879999998, -20.009832899999932 ], [ -40.404745699999978, -20.010177799999951 ], [ -40.404660899999953, -20.010488799999969 ], [ -40.404518899999978, -20.01070779999997 ], [ -40.40421189999995, -20.011020199999955 ], [ -40.404216199999958, -20.011376299999945 ], [ -40.404146299999987, -20.011682199999942 ], [ -40.404066299999954, -20.011996599999986 ], [ -40.403857699999946, -20.012316199999933 ], [ -40.403593099999966, -20.012572 ], [ -40.403374799999938, -20.012798 ], [ -40.403139299999964, -20.013141699999952 ], [ -40.40302619999995, -20.013523299999981 ], [ -40.403008099999965, -20.013922399999942 ], [ -40.403070199999952, -20.014116099999971 ], [ -40.403132199999959, -20.014309899999951 ], [ -40.403143899999975, -20.014846099999932 ], [ -40.403098199999938, -20.015278599999931 ], [ -40.403025899999932, -20.015405799999936 ], [ -40.402859399999954, -20.015698699999959 ], [ -40.402835399999965, -20.015732399999926 ], [ -40.402800499999955, -20.015777299999971 ], [ -40.402646799999957, -20.015974799999977 ], [ -40.402609899999966, -20.016006199999921 ], [ -40.402636899999948, -20.016011699999975 ], [ -40.402921, -20.01607539999997 ], [ -40.403180399999933, -20.016148599999966 ], [ -40.403444499999985, -20.016203 ], [ -40.403818399999977, -20.016289499999978 ], [ -40.403890099999963, -20.016306799999942 ], [ -40.404082599999974, -20.016353299999938 ] ] ], [ [ [ -40.405588299999977, -19.942872499999961 ], [ -40.405722899999944, -19.94326 ], [ -40.406054299999937, -19.943392499999955 ], [ -40.406122799999935, -19.943423099999958 ], [ -40.406229799999963, -19.943654299999924 ], [ -40.406311399999936, -19.943817699999951 ], [ -40.406430199999939, -19.94399709999993 ], [ -40.406598099999947, -19.944195299999922 ], [ -40.40679669999998, -19.944389599999969 ], [ -40.407855799999943, -19.945310499999952 ], [ -40.408418299999937, -19.945796499999968 ], [ -40.408635699999934, -19.945999099999945 ], [ -40.408811799999974, -19.946218899999959 ], [ -40.409050699999973, -19.946552699999931 ], [ -40.409152399999982, -19.946763799999921 ], [ -40.409264699999937, -19.947047499999936 ], [ -40.409332699999936, -19.947266199999941 ], [ -40.409362599999952, -19.947487499999969 ], [ -40.409433099999944, -19.947489799999971 ], [ -40.409757, -19.947453 ], [ -40.409837, -19.947441199999968 ], [ -40.409874699999932, -19.947177299999961 ], [ -40.40991889999998, -19.946826299999941 ], [ -40.409987799999961, -19.946323 ], [ -40.410013699999979, -19.946126499999931 ], [ -40.410018699999966, -19.946087899999956 ], [ -40.410023799999969, -19.946049299999977 ], [ -40.410261699999978, -19.94430709999995 ], [ -40.410338299999985, -19.943968699999967 ], [ -40.413756, -19.943904299999922 ], [ -40.414865399999933, -19.943862699999954 ], [ -40.419555799999955, -19.943744499999983 ], [ -40.423955099999944, -19.943417799999963 ], [ -40.424746099999936, -19.943346799999969 ], [ -40.424769599999941, -19.943361699999969 ], [ -40.42524849999996, -19.943430299999935 ], [ -40.425653499999953, -19.943430599999935 ], [ -40.42604909999995, -19.943362699999966 ], [ -40.426056, -19.943353699999921 ], [ -40.428983, -19.943447099999954 ], [ -40.429080599999971, -19.943085099999951 ], [ -40.429117299999973, -19.942355499999966 ], [ -40.429007499999948, -19.942165599999946 ], [ -40.428717199999937, -19.941949799999975 ], [ -40.428522199999982, -19.941896899999961 ], [ -40.428310499999952, -19.941605499999984 ], [ -40.428151599999971, -19.941243299999936 ], [ -40.427972, -19.941078299999951 ], [ -40.427759699999967, -19.941018599999946 ], [ -40.42702769999994, -19.940812899999976 ], [ -40.426869299999971, -19.940686399999944 ], [ -40.426540899999964, -19.940433399999968 ], [ -40.426414499999964, -19.940357299999949 ], [ -40.426509299999957, -19.939550099999959 ], [ -40.426529, -19.938947199999973 ], [ -40.426384699999971, -19.938798299999977 ], [ -40.426342299999931, -19.938652599999951 ], [ -40.426372499999964, -19.938517299999951 ], [ -40.426455799999985, -19.938368 ], [ -40.426512199999934, -19.938266799999944 ], [ -40.426517199999978, -19.937703199999927 ], [ -40.426808799999939, -19.937375699999947 ], [ -40.42672349999998, -19.937252699999938 ], [ -40.426672699999983, -19.937151799999981 ], [ -40.426563299999941, -19.936747899999943 ], [ -40.4270595, -19.936413499999958 ], [ -40.427186, -19.936328199999942 ], [ -40.427287099999951, -19.936116599999938 ], [ -40.427197799999931, -19.935896199999934 ], [ -40.427384899999936, -19.935680599999955 ], [ -40.427496099999985, -19.935395499999967 ], [ -40.4276546, -19.934954799999964 ], [ -40.427945499999964, -19.934355499999985 ], [ -40.428116699999975, -19.934059699999981 ], [ -40.428264199999951, -19.933770199999962 ], [ -40.428330199999948, -19.93334579999992 ], [ -40.428595099999939, -19.932919899999934 ], [ -40.428661099999943, -19.932752 ], [ -40.42859059999995, -19.932604599999934 ], [ -40.428337, -19.93258249999996 ], [ -40.42707519999994, -19.932517799999975 ], [ -40.426337, -19.932133399999941 ], [ -40.425689399999953, -19.931929299999972 ], [ -40.425508, -19.932144499999936 ], [ -40.425326499999983, -19.932419899999946 ], [ -40.424899099999948, -19.932434099999956 ], [ -40.424394699999937, -19.932287899999949 ], [ -40.424292499999979, -19.931708299999965 ], [ -40.424344099999978, -19.931331799999956 ], [ -40.423962, -19.931199 ], [ -40.423712399999935, -19.931022399999957 ], [ -40.423691499999961, -19.931023699999979 ], [ -40.423663099999942, -19.931018 ], [ -40.4233857, -19.930973899999966 ], [ -40.42291, -19.930898299999967 ], [ -40.422232699999938, -19.930630499999943 ], [ -40.421256599999943, -19.930429 ], [ -40.420225899999934, -19.930167499999975 ], [ -40.419984499999934, -19.93033859999997 ], [ -40.419897699999979, -19.93047189999994 ], [ -40.419583299999942, -19.931243299999949 ], [ -40.419423399999971, -19.931219 ], [ -40.419162499999977, -19.931094899999945 ], [ -40.4189459, -19.93099 ], [ -40.418773299999948, -19.930871 ], [ -40.418662399999967, -19.930559599999977 ], [ -40.418617899999965, -19.93033779999995 ], [ -40.418639299999938, -19.929733799999941 ], [ -40.417241299999944, -19.929391599999981 ], [ -40.417116799999974, -19.929660499999951 ], [ -40.416855299999952, -19.929967699999967 ], [ -40.416562899999981, -19.930529699999973 ], [ -40.416415299999983, -19.930691 ], [ -40.416221399999976, -19.930716199999953 ], [ -40.415866099999953, -19.930551899999951 ], [ -40.414741699999986, -19.930444499999965 ], [ -40.414285599999971, -19.93056 ], [ -40.414148399999938, -19.930715299999981 ], [ -40.414036099999983, -19.930915 ], [ -40.414005399999951, -19.931420299999946 ], [ -40.413850399999951, -19.931893 ], [ -40.413524099999961, -19.932169 ], [ -40.412815599999931, -19.932231299999962 ], [ -40.411600099999937, -19.932332 ], [ -40.41126589999994, -19.932256099999957 ], [ -40.410537599999941, -19.93176479999995 ], [ -40.409662299999972, -19.931204899999958 ], [ -40.409445299999966, -19.931139099999946 ], [ -40.409084299999968, -19.931106399999976 ], [ -40.408897899999943, -19.93095719999997 ], [ -40.408812599999969, -19.93075859999994 ], [ -40.409130299999966, -19.930052299999947 ], [ -40.409236499999963, -19.92962829999993 ], [ -40.409371499999963, -19.928628 ], [ -40.408689699999975, -19.928235499999968 ], [ -40.408383199999953, -19.927953899999988 ], [ -40.407591899999936, -19.926820899999946 ], [ -40.407609199999968, -19.926563199999975 ], [ -40.407679099999946, -19.926420299999961 ], [ -40.407866699999943, -19.926357799999945 ], [ -40.408020599999929, -19.926342099999943 ], [ -40.408198099999936, -19.92634849999996 ], [ -40.408467899999955, -19.926436899999938 ], [ -40.408561, -19.92625089999995 ], [ -40.408714399999944, -19.926018299999956 ], [ -40.408671799999986, -19.925846299999922 ], [ -40.408558799999973, -19.925792699999938 ], [ -40.408365199999935, -19.925724899999974 ], [ -40.407662899999941, -19.925265199999949 ], [ -40.407590399999947, -19.925158299999968 ], [ -40.407540399999959, -19.924762299999948 ], [ -40.406805899999945, -19.924525499999966 ], [ -40.406737899999932, -19.924515399999958 ], [ -40.406682099999962, -19.924505 ], [ -40.406512599999985, -19.924586399999946 ], [ -40.406132899999932, -19.924711599999966 ], [ -40.405829699999977, -19.924917499999935 ], [ -40.405612699999949, -19.924819299999964 ], [ -40.40548229999996, -19.924609099999945 ], [ -40.4052382, -19.92435549999993 ], [ -40.404946699999982, -19.924261799999961 ], [ -40.404648099999974, -19.924074399999938 ], [ -40.40446419999995, -19.923827399999933 ], [ -40.404309199999943, -19.923646299999973 ], [ -40.404011799999978, -19.923454399999983 ], [ -40.403738, -19.923130399999945 ], [ -40.403534799999932, -19.92300349999994 ], [ -40.403317199999954, -19.922769199999944 ], [ -40.403250899999925, -19.922657899999926 ], [ -40.403193899999962, -19.922613699999943 ], [ -40.403065799999972, -19.922620299999945 ], [ -40.402984199999942, -19.92268259999997 ], [ -40.402858899999963, -19.922766 ], [ -40.40279309999994, -19.922723599999923 ], [ -40.402473099999945, -19.922638099999968 ], [ -40.402114199999971, -19.922553299999944 ], [ -40.401863199999987, -19.922467099999945 ], [ -40.401759, -19.922333199999979 ], [ -40.401411, -19.922302 ], [ -40.401223499999958, -19.922258799999963 ], [ -40.400978, -19.92211749999996 ], [ -40.400754899999981, -19.922005899999931 ], [ -40.400509499999949, -19.921834799999946 ], [ -40.399892099999931, -19.921626599999961 ], [ -40.399616899999955, -19.921529899999943 ], [ -40.39926289999994, -19.921487199999948 ], [ -40.398783799999933, -19.921492699999924 ], [ -40.398553299999953, -19.921492699999941 ], [ -40.398382199999958, -19.921589399999952 ], [ -40.398292899999944, -19.921790199999979 ], [ -40.398270599999933, -19.921939 ], [ -40.398002799999972, -19.922080299999951 ], [ -40.397779699999944, -19.922273699999952 ], [ -40.397660699999953, -19.922444799999937 ], [ -40.397482199999956, -19.922667899999954 ], [ -40.397378, -19.922898499999981 ], [ -40.397300899999948, -19.923092799999942 ], [ -40.397379, -19.923213699999952 ], [ -40.39746359999998, -19.923368 ], [ -40.397484, -19.923394 ], [ -40.397473799999943, -19.923604199999943 ], [ -40.397378, -19.923841199999966 ], [ -40.397239499999955, -19.92394539999998 ], [ -40.397042399999968, -19.923966799999956 ], [ -40.397006099999935, -19.924011399999937 ], [ -40.396975499999947, -19.924102499999947 ], [ -40.397092599999958, -19.924391699999941 ], [ -40.397191499999963, -19.924634399999952 ], [ -40.397175099999977, -19.924641 ], [ -40.397071599999947, -19.924682799999964 ], [ -40.396982399999963, -19.924908499999962 ], [ -40.396890599999949, -19.924981 ], [ -40.396801499999988, -19.925027499999928 ], [ -40.396768299999962, -19.925079699999962 ], [ -40.396739099999934, -19.925174199999951 ], [ -40.396415599999955, -19.925230399999968 ], [ -40.395973599999934, -19.925331 ], [ -40.395573299999974, -19.925428199999946 ], [ -40.395515499999924, -19.925463699999966 ], [ -40.395443399999984, -19.925532899999943 ], [ -40.39514749999995, -19.925639699999977 ], [ -40.395089799999937, -19.925714699999965 ], [ -40.395080399999983, -19.925838599999967 ], [ -40.395253499999967, -19.926072199999965 ], [ -40.395339399999962, -19.926202699999976 ], [ -40.395628699999982, -19.926584 ], [ -40.39569419999998, -19.92670679999997 ], [ -40.395685299999975, -19.926886199999952 ], [ -40.395625099999961, -19.927179199999959 ], [ -40.395558699999988, -19.927404799999973 ], [ -40.395612599999936, -19.927610299999969 ], [ -40.395529899999985, -19.927723099999973 ], [ -40.395502399999948, -19.92794489999995 ], [ -40.3955347, -19.928291799999958 ], [ -40.39546, -19.928536299999966 ], [ -40.395315899999957, -19.928654299999945 ], [ -40.395155199999984, -19.928664199999954 ], [ -40.394997699999976, -19.928626199999947 ], [ -40.394802499999962, -19.928507499999974 ], [ -40.394711799999982, -19.928383499999942 ], [ -40.394603199999956, -19.928344799999934 ], [ -40.394568799999945, -19.928542 ], [ -40.394002599999965, -19.92944939999995 ], [ -40.394045099999971, -19.929732799999957 ], [ -40.393975399999931, -19.930033799999944 ], [ -40.393774299999961, -19.930196199999955 ], [ -40.393761599999948, -19.930414399999957 ], [ -40.393781299999944, -19.930660099999958 ], [ -40.393696199999958, -19.930886199999989 ], [ -40.393580899999968, -19.931084499999937 ], [ -40.39359, -19.931477 ], [ -40.393735799999945, -19.931741 ], [ -40.39397629999997, -19.932003399999932 ], [ -40.394629399999978, -19.932312699999944 ], [ -40.394460399999957, -19.932668399999955 ], [ -40.394375699999962, -19.932919699999946 ], [ -40.394219499999963, -19.933149799999967 ], [ -40.394158499999946, -19.933263099999966 ], [ -40.394027, -19.933507299999977 ], [ -40.393771299999969, -19.933602699999923 ], [ -40.393564499999968, -19.933561899999969 ], [ -40.393542899999943, -19.933721399999968 ], [ -40.393475799999983, -19.933855299999941 ], [ -40.393416899999984, -19.933860599999935 ], [ -40.393332699999974, -19.933953699999968 ], [ -40.393280499999946, -19.934122899999966 ], [ -40.393177899999955, -19.934253299999952 ], [ -40.392994799999933, -19.934366899999922 ], [ -40.392934499999974, -19.934475699999957 ], [ -40.392802699999947, -19.934680599999968 ], [ -40.392589799999939, -19.934759 ], [ -40.392459699999968, -19.934951899999923 ], [ -40.392385499999939, -19.935201299999971 ], [ -40.392493099999967, -19.935515399999922 ], [ -40.392586699999981, -19.935899299999956 ], [ -40.392863099999936, -19.93649 ], [ -40.392872399999924, -19.93652109999994 ], [ -40.392880799999951, -19.936552399999982 ], [ -40.393127399999969, -19.937005599999949 ], [ -40.393390899999936, -19.937438099999952 ], [ -40.393536899999965, -19.937986499999969 ], [ -40.393709899999976, -19.93825 ], [ -40.393952899999931, -19.938400899999987 ], [ -40.394594699999971, -19.938250099999955 ], [ -40.395209499999964, -19.9381562 ], [ -40.395373, -19.937966399999929 ], [ -40.395634, -19.93745129999996 ], [ -40.396072099999977, -19.937478 ], [ -40.396319299999959, -19.937337699999954 ], [ -40.396492599999931, -19.937396 ], [ -40.396559399999944, -19.937508799999932 ], [ -40.396915299999925, -19.937472299999968 ], [ -40.39724549999994, -19.937312499999965 ], [ -40.397550599999938, -19.937256599999948 ], [ -40.397724299999943, -19.937117 ], [ -40.397832799999946, -19.937073799999947 ], [ -40.39797729999998, -19.937063899999949 ], [ -40.398175299999934, -19.937130499999959 ], [ -40.398365099999978, -19.937331199999964 ], [ -40.398513399999963, -19.937677399999924 ], [ -40.39868279999996, -19.93859289999995 ], [ -40.399411199999975, -19.939362 ], [ -40.399495699999932, -19.939424399999954 ], [ -40.399908799999942, -19.939997399999982 ], [ -40.399852499999959, -19.940053199999962 ], [ -40.400107299999952, -19.940468199999952 ], [ -40.400087399999968, -19.940531 ], [ -40.400107599999956, -19.940612699999978 ], [ -40.400056099999979, -19.940640499999976 ], [ -40.400004199999962, -19.940650399999978 ], [ -40.399914399999943, -19.940756299999979 ], [ -40.39996089999994, -19.940824199999955 ], [ -40.40011879999998, -19.94083019999993 ], [ -40.400215499999952, -19.940873299999957 ], [ -40.400365299999983, -19.940801899999929 ], [ -40.400569099999984, -19.941070399999944 ], [ -40.400740699999979, -19.941171799999946 ], [ -40.400807399999962, -19.941203399999953 ], [ -40.401489399999946, -19.941116699999956 ], [ -40.401535799999976, -19.941113299999923 ], [ -40.401581199999953, -19.941101399999976 ], [ -40.401729799999941, -19.9411 ], [ -40.40179709999996, -19.94110269999992 ], [ -40.401868, -19.941129 ], [ -40.402003199999967, -19.94111479999998 ], [ -40.402078199999949, -19.941100199999937 ], [ -40.402134499999931, -19.941063799999938 ], [ -40.402407199999971, -19.94094739999997 ], [ -40.40242539999997, -19.940916599999987 ], [ -40.40268889999993, -19.941040299999944 ], [ -40.402784099999955, -19.941033799999971 ], [ -40.402895799999953, -19.94104619999996 ], [ -40.402976299999985, -19.941058599999952 ], [ -40.403068499999961, -19.941093199999965 ], [ -40.403124599999956, -19.941124 ], [ -40.403188199999931, -19.941173 ], [ -40.403259899999973, -19.941253899999932 ], [ -40.403319299999964, -19.941251299999973 ], [ -40.404018399999977, -19.941481 ], [ -40.404156199999932, -19.941545399999935 ], [ -40.404184099999945, -19.941569 ], [ -40.404470799999949, -19.941812299999981 ], [ -40.404802, -19.94203959999993 ], [ -40.404951699999962, -19.942287299999979 ], [ -40.405154399999958, -19.942487199999949 ], [ -40.405408299999984, -19.942639199999977 ], [ -40.405588299999977, -19.942872499999961 ] ] ], [ [ [ -40.450240799999968, -19.92538269999994 ], [ -40.450331199999944, -19.925364399999975 ], [ -40.450649599999963, -19.925274299999966 ], [ -40.450937599999975, -19.925196399999955 ], [ -40.451269599999939, -19.925101 ], [ -40.451577, -19.925006599999968 ], [ -40.451882599999976, -19.924907 ], [ -40.452186299999937, -19.924802299999953 ], [ -40.453272199999965, -19.924478899999936 ], [ -40.453576099999957, -19.924405099999952 ], [ -40.453881799999976, -19.924338199999951 ], [ -40.454189, -19.924277899999939 ], [ -40.454497699999934, -19.924224499999973 ], [ -40.454807599999988, -19.924177799999935 ], [ -40.455197599999963, -19.92414169999995 ], [ -40.455293799999936, -19.924137699999953 ], [ -40.4553782, -19.924141299999977 ], [ -40.455495, -19.924147199999933 ], [ -40.455588499999976, -19.924162699999965 ], [ -40.455667099999971, -19.924182 ], [ -40.455763699999977, -19.924208199999953 ], [ -40.455858, -19.92424069999992 ], [ -40.455967499999922, -19.92428509999996 ], [ -40.45605089999998, -19.924326199999943 ], [ -40.456138299999964, -19.924379599999959 ], [ -40.456244, -19.924448199999976 ], [ -40.45638109999993, -19.92454859999998 ], [ -40.456458099999963, -19.924627199999986 ], [ -40.456615499999941, -19.92478269999998 ], [ -40.456931099999963, -19.925122299999945 ], [ -40.457092499999945, -19.925105699999953 ], [ -40.457195, -19.925093399999977 ], [ -40.45729879999994, -19.925063899999941 ], [ -40.457405299999948, -19.924993399999948 ], [ -40.457545, -19.92486509999997 ], [ -40.457634, -19.924726299999978 ], [ -40.457705399999952, -19.924509 ], [ -40.457892, -19.92325 ], [ -40.457500899999957, -19.922619799999953 ], [ -40.457470599999965, -19.922460899999976 ], [ -40.457435799999985, -19.922465499999944 ], [ -40.45715569999993, -19.922548899999974 ], [ -40.457122399999946, -19.922547199999947 ], [ -40.457078399999951, -19.922551 ], [ -40.457044099999969, -19.922558399999961 ], [ -40.457031, -19.922563699999948 ], [ -40.457017099999973, -19.922571799999957 ], [ -40.456962399999952, -19.922612699999931 ], [ -40.45695, -19.92261939999997 ], [ -40.456938099999952, -19.922623699999978 ], [ -40.45691249999993, -19.92262739999995 ], [ -40.456859699999939, -19.922626899999951 ], [ -40.456838199999936, -19.922628399999962 ], [ -40.456783399999956, -19.922639 ], [ -40.456738099999939, -19.922653599999933 ], [ -40.456695399999951, -19.922675 ], [ -40.456649199999958, -19.9227059 ], [ -40.456621799999944, -19.922730399999981 ], [ -40.456566099999975, -19.922795199999921 ], [ -40.456538599999938, -19.922821299999946 ], [ -40.456502399999977, -19.922848 ], [ -40.456464099999948, -19.922872199999976 ], [ -40.456423499999978, -19.922893799999944 ], [ -40.456402099999934, -19.922903399999928 ], [ -40.456380699999947, -19.922913 ], [ -40.456288199999968, -19.922968599999937 ], [ -40.456197699999969, -19.923026899999972 ], [ -40.456167799999953, -19.923048 ], [ -40.45613579999997, -19.923073099999947 ], [ -40.456029599999965, -19.923164399999969 ], [ -40.455987699999973, -19.923198299999981 ], [ -40.455910499999959, -19.923249199999937 ], [ -40.455882399999957, -19.923263299999977 ], [ -40.4558378, -19.923282199999957 ], [ -40.455805099999964, -19.923292099999983 ], [ -40.455767399999964, -19.923299099999952 ], [ -40.455730199999948, -19.923303099999941 ], [ -40.455637499999966, -19.923309899999936 ], [ -40.455589499999967, -19.923316799999949 ], [ -40.455547799999977, -19.923326899999939 ], [ -40.455502099999926, -19.923341599999961 ], [ -40.455348699999945, -19.923402599999964 ], [ -40.455289499999935, -19.923423299999961 ], [ -40.455258199999953, -19.923432 ], [ -40.455228699999971, -19.92343829999994 ], [ -40.455200299999944, -19.923442399999935 ], [ -40.455172699999935, -19.923444299999971 ], [ -40.455147199999942, -19.923443599999924 ], [ -40.455083, -19.923437499999963 ], [ -40.455049099999947, -19.923439 ], [ -40.455000699999964, -19.923450399999989 ], [ -40.454980599999942, -19.923456899999966 ], [ -40.454958899999951, -19.92346629999998 ], [ -40.454885, -19.92350609999993 ], [ -40.454855799999969, -19.92351959999996 ], [ -40.454825099999937, -19.923529099999939 ], [ -40.454796599999945, -19.923531899999951 ], [ -40.45478119999995, -19.923530499999963 ], [ -40.454746099999973, -19.923524099999952 ], [ -40.45473039999996, -19.923523199999977 ], [ -40.454700799999955, -19.923524499999939 ], [ -40.454680699999983, -19.923527499999988 ], [ -40.454664699999967, -19.923532799999979 ], [ -40.45465309999998, -19.923540499999945 ], [ -40.454643099999949, -19.923553499999969 ], [ -40.454633299999955, -19.923573499999975 ], [ -40.454630399999985, -19.923583699999945 ], [ -40.45462949999996, -19.923595299999938 ], [ -40.454630899999984, -19.923610699999916 ], [ -40.454638899999964, -19.923650299999967 ], [ -40.454640599999955, -19.923667499999965 ], [ -40.454637799999951, -19.923685599999938 ], [ -40.454630599999966, -19.923698299999966 ], [ -40.454618599999954, -19.923710399999958 ], [ -40.454602, -19.923722199999922 ], [ -40.454545399999979, -19.923756299999972 ], [ -40.454530599999948, -19.923769199999981 ], [ -40.454520699999932, -19.923782599999978 ], [ -40.454508199999964, -19.923819599999948 ], [ -40.454501899999975, -19.923831399999919 ], [ -40.454484499999985, -19.923847699999957 ], [ -40.454459499999984, -19.923861299999952 ], [ -40.454426099999971, -19.923871399999943 ], [ -40.454408499999943, -19.923872599999989 ], [ -40.454390899999964, -19.923873799999971 ], [ -40.454371899999948, -19.923871899999948 ], [ -40.4543513, -19.923866899999943 ], [ -40.454119199999973, -19.923871599999931 ], [ -40.454027899999964, -19.92381829999994 ], [ -40.453957, -19.923799399999943 ], [ -40.453849699999971, -19.923836199999979 ], [ -40.453430499999961, -19.923858799999948 ], [ -40.45329739999994, -19.9239 ], [ -40.453078699999942, -19.923987 ], [ -40.452933399999942, -19.924017599999949 ], [ -40.452623899999935, -19.92391339999995 ], [ -40.452370799999983, -19.923876899999968 ], [ -40.452274299999942, -19.923823299999974 ], [ -40.452096099999956, -19.923832399999974 ], [ -40.451620799999951, -19.923805199999947 ], [ -40.451291499999968, -19.923815399999956 ], [ -40.451148099999962, -19.923764499999944 ], [ -40.451194, -19.923537399999912 ], [ -40.451143699999925, -19.923473699999928 ], [ -40.450806399999983, -19.923666199999946 ], [ -40.450687899999942, -19.923656799999932 ], [ -40.450583499999937, -19.923705199999965 ], [ -40.450538299999948, -19.92376129999997 ], [ -40.45036209999995, -19.924013899999974 ], [ -40.450245099999968, -19.924049699999944 ], [ -40.450145399999933, -19.924051299999977 ], [ -40.450047599999948, -19.924029899999926 ], [ -40.449980599999947, -19.923911399999955 ], [ -40.449909099999957, -19.923817299999946 ], [ -40.449816, -19.923788399999982 ], [ -40.449682299999957, -19.923789399999965 ], [ -40.449538899999936, -19.923836099999953 ], [ -40.449476499999946, -19.923937499999976 ], [ -40.449411, -19.924145199999941 ], [ -40.44931669999994, -19.924216099999974 ], [ -40.449226499999959, -19.924385899999947 ], [ -40.449125699999968, -19.924612599999946 ], [ -40.449088299999978, -19.924690499999933 ], [ -40.449002599999972, -19.924763799999937 ], [ -40.448909699999945, -19.924811499999976 ], [ -40.448822499999949, -19.924806599999958 ], [ -40.448790699999968, -19.924804699999989 ], [ -40.448660199999949, -19.925025599999977 ], [ -40.448641099999975, -19.92507709999996 ], [ -40.448825499999941, -19.925113299999961 ], [ -40.449221299999984, -19.925243899999948 ], [ -40.449600599999947, -19.925342799999953 ], [ -40.449804799999974, -19.925390499999935 ], [ -40.449964699999946, -19.925402199999944 ], [ -40.450149299999971, -19.925395199999979 ], [ -40.450240799999968, -19.92538269999994 ] ] ] ] } }
]
}
