{
"type": "FeatureCollection",
"name": "3204807",
"crs": { "type": "name", "properties": { "name": "urn:ogc:def:crs:OGC:1.3:CRS84" } },
"features": [
{ "type": "Feature", "properties": { "CD_MUN": "3204807", "NM_MUN": "São José do Calçado" }, "geometry": { "type": "MultiPolygon", "coordinates": [ [ [ [ -41.659394199999959, -21.034320699999959 ], [ -41.659876, -21.03393229999995 ], [ -41.660464199999979, -21.033374899999952 ], [ -41.660471799999989, -21.032869 ], [ -41.66070179999997, -21.032161899999945 ], [ -41.660696599999945, -21.032125299999954 ], [ -41.6615154, -21.026782099999942 ], [ -41.662023799999936, -21.02346429999994 ], [ -41.657702, -21.021265699999958 ], [ -41.657450299999937, -21.021137599999975 ], [ -41.656294699999926, -21.020549699999957 ], [ -41.652931599999931, -21.01880139999998 ], [ -41.652213299999971, -21.01842849999997 ], [ -41.652291699999978, -21.018281399999989 ], [ -41.652355499999935, -21.017986799999967 ], [ -41.652414499999963, -21.017706899999958 ], [ -41.652507799999974, -21.017456499999973 ], [ -41.652522499999982, -21.017206 ], [ -41.652144399999941, -21.017289499999951 ], [ -41.651843099999951, -21.018243 ], [ -41.648628199999969, -21.016631499999949 ], [ -41.648636899999985, -21.0166508 ], [ -41.648696, -21.016782 ], [ -41.649202599999967, -21.017911599999934 ], [ -41.64938189999998, -21.018311299999937 ], [ -41.649315899999976, -21.018354399999975 ], [ -41.64732539999995, -21.019660099999953 ], [ -41.647147399999938, -21.021985099999938 ], [ -41.647272799999946, -21.02232859999998 ], [ -41.647409499999988, -21.02240489999998 ], [ -41.647393199999961, -21.022658399999948 ], [ -41.648010699999929, -21.024350599999938 ], [ -41.648805, -21.029202199999936 ], [ -41.648843099999965, -21.029370699999944 ], [ -41.650298499999963, -21.036831799999955 ], [ -41.650376299999955, -21.037230799999989 ], [ -41.6445667, -21.043902799999966 ], [ -41.652132799999947, -21.044061299999946 ], [ -41.653553, -21.044091 ], [ -41.655974599999979, -21.039043599999957 ], [ -41.655876499999977, -21.036940399999931 ], [ -41.655827, -21.033929499999932 ], [ -41.655833399999949, -21.033933699999984 ], [ -41.65790439999995, -21.035294899999943 ], [ -41.658520099999976, -21.03566909999995 ], [ -41.659394199999959, -21.034320699999959 ] ] ], [ [ [ -41.6070261, -21.00222459999997 ], [ -41.605410499999948, -21.00474319999994 ], [ -41.604046, -21.006662099999968 ], [ -41.60501249999993, -21.00733009999993 ], [ -41.605566099999976, -21.008014499999952 ], [ -41.609076699999946, -21.005529399999944 ], [ -41.610370099999955, -21.005269299999942 ], [ -41.610341199999937, -21.004688299999934 ], [ -41.610631499999954, -21.004002199999945 ], [ -41.609705899999938, -21.002040399999938 ], [ -41.6070261, -21.00222459999997 ] ] ], [ [ [ -41.624277, -20.945890799999962 ], [ -41.61875989999993, -20.943454799999923 ], [ -41.61670479999998, -20.945987299999949 ], [ -41.621183299999984, -20.948045299999933 ], [ -41.623535499999946, -20.948325399999927 ], [ -41.624277, -20.945890799999962 ] ] ], [ [ [ -41.686995499999966, -20.946504899999983 ], [ -41.687789699999939, -20.947181899999965 ], [ -41.688041799999951, -20.947366099999957 ], [ -41.688064299999958, -20.94759379999994 ], [ -41.688087099999969, -20.947877 ], [ -41.688067099999955, -20.94814249999996 ], [ -41.688070899999964, -20.948245099999944 ], [ -41.688129399999987, -20.948312199999972 ], [ -41.68900419999995, -20.948514499999938 ], [ -41.689488699999984, -20.948590599999932 ], [ -41.689916, -20.948580299999936 ], [ -41.690012199999956, -20.948044199999966 ], [ -41.690162599999951, -20.947774 ], [ -41.690316099999968, -20.947377399999933 ], [ -41.69008, -20.946769699999944 ], [ -41.689812799999977, -20.946831099999937 ], [ -41.689597699999979, -20.946609499999962 ], [ -41.689514099999947, -20.94646159999996 ], [ -41.689690599999949, -20.946364699999943 ], [ -41.689797399999982, -20.946323299999957 ], [ -41.689828499999983, -20.94612519999998 ], [ -41.689802199999981, -20.945045499999932 ], [ -41.690161599999954, -20.94491029999994 ], [ -41.690392, -20.944694599999938 ], [ -41.690611099999963, -20.944082599999955 ], [ -41.690611, -20.943759 ], [ -41.691252299999974, -20.943161399999948 ], [ -41.691513099999952, -20.942328399999948 ], [ -41.690382199999938, -20.941962899999954 ], [ -41.687931499999934, -20.941697499999986 ], [ -41.68533, -20.944483 ], [ -41.684761499999979, -20.944779599999951 ], [ -41.683827099999966, -20.946034399999967 ], [ -41.682716099999936, -20.946232599999966 ], [ -41.682798099999964, -20.946802299999934 ], [ -41.68409539999994, -20.94667359999994 ], [ -41.68523509999995, -20.946295699999947 ], [ -41.686041099999954, -20.946089599999929 ], [ -41.686995499999966, -20.946504899999983 ] ] ] ] } }
]
}
