{
"type": "FeatureCollection",
"name": "3204351",
"crs": { "type": "name", "properties": { "name": "urn:ogc:def:crs:OGC:1.3:CRS84" } },
"features": [
{ "type": "Feature", "properties": { "CD_MUN": "3204351", "NM_MUN": "Rio Bananal" }, "geometry": { "type": "MultiPolygon", "coordinates": [ [ [ [ -40.271813899999984, -19.310699399999969 ], [ -40.272596799999974, -19.310326099999944 ], [ -40.272721499999939, -19.310058099999935 ], [ -40.272712499999962, -19.309850899999955 ], [ -40.272674199999983, -19.309741299999921 ], [ -40.272473299999945, -19.309571099999967 ], [ -40.272270099999957, -19.309426199999951 ], [ -40.271853299999975, -19.309345499999964 ], [ -40.271676299999967, -19.309265699999958 ], [ -40.27284549999996, -19.309117699999948 ], [ -40.273458799999958, -19.308985499999952 ], [ -40.275415399999936, -19.308595599999933 ], [ -40.27536479999997, -19.308174899999923 ], [ -40.275241499999936, -19.308046199999975 ], [ -40.27522509999995, -19.307905399999985 ], [ -40.275265499999939, -19.307721099999981 ], [ -40.27532929999996, -19.307602899999939 ], [ -40.273864399999979, -19.30776719999994 ], [ -40.273618499999941, -19.307850599999938 ], [ -40.273361499999972, -19.308028399999959 ], [ -40.273147899999969, -19.307718299999973 ], [ -40.272201399999972, -19.3081764 ], [ -40.271438499999924, -19.307379899999951 ], [ -40.270647199999985, -19.306418099999973 ], [ -40.270104399999987, -19.306740399999981 ], [ -40.268642299999954, -19.307673899999948 ], [ -40.26927969999997, -19.308428899999967 ], [ -40.269965899999931, -19.309170299999945 ], [ -40.269742399999984, -19.310549099999953 ], [ -40.269574599999949, -19.311187099999923 ], [ -40.269518099999971, -19.311576899999988 ], [ -40.269424399999941, -19.311878799999935 ], [ -40.270737099999963, -19.312073799999951 ], [ -40.271076499999943, -19.31175869999991 ], [ -40.271365099999969, -19.31118889999993 ], [ -40.271547199999937, -19.310876199999939 ], [ -40.271813899999984, -19.310699399999969 ] ] ], [ [ [ -40.352029799999976, -19.276347599999944 ], [ -40.351944, -19.275833 ], [ -40.351954499999977, -19.275727899999939 ], [ -40.352222, -19.273056 ], [ -40.351389, -19.2725 ], [ -40.349722, -19.2725 ], [ -40.348192299999937, -19.272329899999942 ], [ -40.347400299999947, -19.272241799999957 ], [ -40.347222, -19.272222 ], [ -40.346945099999978, -19.270838499999972 ], [ -40.346944, -19.270833 ], [ -40.341944, -19.267778 ], [ -40.341944, -19.266389 ], [ -40.3425, -19.266667 ], [ -40.346667, -19.268333 ], [ -40.346667, -19.267778 ], [ -40.345556, -19.264722 ], [ -40.345, -19.264722 ], [ -40.343333, -19.264722 ], [ -40.34266359999998, -19.264276 ], [ -40.3425, -19.264167 ], [ -40.342962499999942, -19.263889399999982 ], [ -40.3451262, -19.262591099999945 ], [ -40.345181799999985, -19.262557699999942 ], [ -40.345208899999932, -19.262541399999982 ], [ -40.345278, -19.2625 ], [ -40.344111299999952, -19.261139099999983 ], [ -40.341944, -19.258611 ], [ -40.33974429999995, -19.256411299999968 ], [ -40.338868799999943, -19.257192499999967 ], [ -40.338734599999952, -19.257287199999936 ], [ -40.338398599999948, -19.257432699999988 ], [ -40.338282899999967, -19.257482699999983 ], [ -40.33760029999997, -19.257820899999949 ], [ -40.337194299999972, -19.257956299999936 ], [ -40.336075499999936, -19.258318499999977 ], [ -40.335525, -19.25826359999996 ], [ -40.335218499999947, -19.258401199999977 ], [ -40.334163499999931, -19.258999099999986 ], [ -40.334134899999988, -19.259015399999949 ], [ -40.333972399999936, -19.258969099999934 ], [ -40.333725499999957, -19.258925699999963 ], [ -40.333474499999966, -19.258892099999972 ], [ -40.333395399999972, -19.258916199999923 ], [ -40.333351099999966, -19.258959399999977 ], [ -40.333306899999975, -19.259041899999936 ], [ -40.33331139999995, -19.259152 ], [ -40.333147799999956, -19.258776599999987 ], [ -40.332970299999943, -19.258446 ], [ -40.332396, -19.257795099999949 ], [ -40.332100199999964, -19.257387899999969 ], [ -40.332002699999975, -19.25732869999996 ], [ -40.331731199999979, -19.257212099999947 ], [ -40.33149979999996, -19.256989399999952 ], [ -40.331217799999934, -19.256303699999926 ], [ -40.331158699999946, -19.256147099999971 ], [ -40.330946399999952, -19.256178399999957 ], [ -40.330396399999984, -19.256342 ], [ -40.330044899999962, -19.256540399999945 ], [ -40.32954019999994, -19.257006799999942 ], [ -40.32936969999998, -19.257159899999966 ], [ -40.329174799999976, -19.257215599999938 ], [ -40.328917199999985, -19.257253899999956 ], [ -40.328604, -19.257236499999976 ], [ -40.328454299999976, -19.257184299999956 ], [ -40.328336, -19.25704159999998 ], [ -40.328182799999979, -19.256944099999945 ], [ -40.327859099999962, -19.256867499999938 ], [ -40.327549399999953, -19.25674219999997 ], [ -40.327229199999984, -19.25648469999993 ], [ -40.32720479999994, -19.25639069999994 ], [ -40.327002899999968, -19.256279299999946 ], [ -40.32680449999998, -19.256293199999966 ], [ -40.326533099999956, -19.256268899999942 ], [ -40.3264607, -19.256262 ], [ -40.326421, -19.256258899999967 ], [ -40.326367699999935, -19.256336399999952 ], [ -40.326364299999966, -19.256368299999959 ], [ -40.326343399999985, -19.256539599999943 ], [ -40.325918799999961, -19.257347099999947 ], [ -40.325758599999972, -19.257820399999968 ], [ -40.324728399999969, -19.260211599999927 ], [ -40.324129799999987, -19.261269599999931 ], [ -40.320556, -19.262778 ], [ -40.316676799999989, -19.268596299999949 ], [ -40.316667, -19.268611 ], [ -40.311747099999934, -19.263964599999955 ], [ -40.311667, -19.263889 ], [ -40.308611, -19.263333 ], [ -40.308333, -19.263611 ], [ -40.307778, -19.263611 ], [ -40.306667, -19.263056 ], [ -40.305833, -19.262222 ], [ -40.304882099999929, -19.262935799999973 ], [ -40.304856699999966, -19.262954899999944 ], [ -40.304831199999967, -19.262974 ], [ -40.304722, -19.263056 ], [ -40.305278, -19.264167 ], [ -40.305278, -19.264444 ], [ -40.305556, -19.264444 ], [ -40.306667, -19.265278 ], [ -40.304167, -19.2675 ], [ -40.309167, -19.271667 ], [ -40.311667, -19.278056 ], [ -40.308306899999934, -19.283879499999948 ], [ -40.308463599999989, -19.284018699999926 ], [ -40.308585299999947, -19.284126799999967 ], [ -40.308594499999977, -19.284135 ], [ -40.308620699999949, -19.284158299999945 ], [ -40.30865879999994, -19.284192099999927 ], [ -40.309083899999969, -19.284569899999955 ], [ -40.310176099999978, -19.284609799999934 ], [ -40.310500599999955, -19.284621599999983 ], [ -40.310564599999964, -19.284624 ], [ -40.310726899999963, -19.284526599999932 ], [ -40.310984099999985, -19.28439539999993 ], [ -40.311330599999962, -19.284048899999963 ], [ -40.312222, -19.283889 ], [ -40.316944, -19.282222 ], [ -40.317664499999978, -19.282994 ], [ -40.31963269999995, -19.285102899999973 ], [ -40.320833, -19.286389 ], [ -40.320929099999944, -19.286389 ], [ -40.322947399999975, -19.286389 ], [ -40.322973699999977, -19.286389 ], [ -40.322979, -19.286389 ], [ -40.323007699999948, -19.286389 ], [ -40.324945699999958, -19.286389 ], [ -40.325, -19.286389 ], [ -40.323643299999958, -19.281154699999934 ], [ -40.323056, -19.278889 ], [ -40.323611, -19.278611 ], [ -40.325, -19.28 ], [ -40.325166599999939, -19.280182599999936 ], [ -40.326857199999957, -19.279564799999946 ], [ -40.328738699999974, -19.280083499999922 ], [ -40.3282, -19.274623199999947 ], [ -40.329208799999947, -19.274053699999985 ], [ -40.332382499999937, -19.272261899999936 ], [ -40.332424, -19.272214799999972 ], [ -40.34, -19.271944 ], [ -40.34319579999994, -19.275139799999984 ], [ -40.344175299999961, -19.276156399999948 ], [ -40.344722, -19.279167 ], [ -40.347222, -19.279167 ], [ -40.345556, -19.282222 ], [ -40.346835499999941, -19.282714199999919 ], [ -40.34732189999994, -19.282901299999942 ], [ -40.347363899999955, -19.28291739999997 ], [ -40.347405799999933, -19.282933499999956 ], [ -40.349167, -19.283611 ], [ -40.350556, -19.280833 ], [ -40.35215419999998, -19.277635699999955 ], [ -40.352179699999965, -19.277584699999977 ], [ -40.352222, -19.2775 ], [ -40.352029799999976, -19.276347599999944 ] ] ], [ [ [ -40.364304, -19.130424399999978 ], [ -40.365479599999958, -19.132035399999953 ], [ -40.365038, -19.13213589999998 ], [ -40.3650502, -19.132218099999932 ], [ -40.365586099999973, -19.133037299999945 ], [ -40.365860199999929, -19.133430199999964 ], [ -40.367066199999947, -19.133028199999956 ], [ -40.366408399999962, -19.132205899999967 ], [ -40.367078399999968, -19.131685099999974 ], [ -40.36649059999997, -19.130768499999935 ], [ -40.368025499999924, -19.129666099999962 ], [ -40.368098599999939, -19.129519899999938 ], [ -40.366594199999952, -19.128460099999927 ], [ -40.366618499999959, -19.128045899999954 ], [ -40.366052099999941, -19.128052 ], [ -40.36596069999996, -19.127595199999984 ], [ -40.365899799999966, -19.12709569999992 ], [ -40.36590589999998, -19.126779 ], [ -40.366052099999941, -19.126468399999975 ], [ -40.365893699999965, -19.126340499999962 ], [ -40.365644, -19.126632799999989 ], [ -40.365296799999953, -19.12674249999997 ], [ -40.364980099999968, -19.126541499999981 ], [ -40.364675599999941, -19.126169899999983 ], [ -40.364523299999973, -19.125372099999936 ], [ -40.36446849999993, -19.125165 ], [ -40.364389299999978, -19.124720299999979 ], [ -40.364304, -19.1245072 ], [ -40.364194399999981, -19.124275699999952 ], [ -40.364103, -19.124190399999964 ], [ -40.364048199999957, -19.12416 ], [ -40.363850299999974, -19.124251399999935 ], [ -40.363780199999951, -19.124236099999962 ], [ -40.36368889999995, -19.123955899999949 ], [ -40.363551799999975, -19.123441299999964 ], [ -40.36347759999996, -19.123251499999977 ], [ -40.363469599999974, -19.123231099999952 ], [ -40.363402599999972, -19.122804799999933 ], [ -40.363323399999956, -19.122439299999947 ], [ -40.362868599999963, -19.122478099999963 ], [ -40.362405399999943, -19.122499699999931 ], [ -40.362392399999983, -19.120919299999972 ], [ -40.361401899999969, -19.119786599999944 ], [ -40.360448799999972, -19.119897299999938 ], [ -40.359586099999945, -19.117740299999973 ], [ -40.357708699999932, -19.118142799999926 ], [ -40.357987499999979, -19.118905099999953 ], [ -40.356775399999947, -19.119017599999939 ], [ -40.357120799999961, -19.119991 ], [ -40.357621399999971, -19.120812099999963 ], [ -40.359703199999956, -19.120382199999927 ], [ -40.359873399999962, -19.124528899999966 ], [ -40.360354899999955, -19.125456799999924 ], [ -40.361299699999968, -19.127277699999976 ], [ -40.363057, -19.12716619999998 ], [ -40.36371029999998, -19.128715899999975 ], [ -40.363716299999972, -19.128773799999962 ], [ -40.364039099999957, -19.128789 ], [ -40.364017799999942, -19.130436499999981 ], [ -40.364304, -19.130424399999978 ] ] ] ] } }
]
}
