{
"type": "FeatureCollection",
"name": "3204401",
"crs": { "type": "name", "properties": { "name": "urn:ogc:def:crs:OGC:1.3:CRS84" } },
"features": [
{ "type": "Feature", "properties": { "CD_MUN": "3204401", "NM_MUN": "Rio Novo do Sul" }, "geometry": { "type": "MultiPolygon", "coordinates": [ [ [ [ -40.927538799999979, -20.866071299999927 ], [ -40.930581899999936, -20.869891099999961 ], [ -40.9335531, -20.87078779999996 ], [ -40.937532399999952, -20.868611199999975 ], [ -40.940727099999954, -20.871155499999922 ], [ -40.941882, -20.872075299999942 ], [ -40.941129799999942, -20.872814699999928 ], [ -40.940975099999946, -20.872966599999923 ], [ -40.940059899999945, -20.873866199999949 ], [ -40.940819099999949, -20.874616299999946 ], [ -40.94203089999997, -20.873471 ], [ -40.942879399999974, -20.872669099999939 ], [ -40.945147899999931, -20.874572299999961 ], [ -40.945609199999986, -20.87495929999994 ], [ -40.945080299999979, -20.879409 ], [ -40.943199, -20.881083199999985 ], [ -40.941724199999953, -20.881479299999967 ], [ -40.941818799999972, -20.882860099999967 ], [ -40.944403399999942, -20.882812699999921 ], [ -40.945988199999931, -20.88580039999993 ], [ -40.946178899999957, -20.885741799999938 ], [ -40.946341899999936, -20.885726499999972 ], [ -40.946966699999955, -20.885592399999947 ], [ -40.946962499999984, -20.883777 ], [ -40.946259199999929, -20.882150299999974 ], [ -40.947094499999935, -20.876347399999926 ], [ -40.947246399999983, -20.875292299999963 ], [ -40.947308799999973, -20.874858699999937 ], [ -40.947488699999958, -20.87471869999996 ], [ -40.948273599999936, -20.874108399999951 ], [ -40.948785199999968, -20.873710499999959 ], [ -40.949531199999967, -20.873130299999954 ], [ -40.94959079999996, -20.873084 ], [ -40.949369499999932, -20.872986099999917 ], [ -40.949069899999984, -20.872860699999922 ], [ -40.948814799999973, -20.87276 ], [ -40.948725399999951, -20.872694899999939 ], [ -40.948393299999957, -20.872580399999947 ], [ -40.947853899999984, -20.872447299999966 ], [ -40.947447499999953, -20.872292199999947 ], [ -40.94735, -20.872263099999941 ], [ -40.947313599999973, -20.872219399999942 ], [ -40.946379099999952, -20.871098399999934 ], [ -40.946150799999948, -20.87080879999996 ], [ -40.945982799999967, -20.870544799999941 ], [ -40.945662, -20.870257299999931 ], [ -40.945378899999987, -20.869990899999944 ], [ -40.944902299999974, -20.869544799999975 ], [ -40.944744199999953, -20.869318 ], [ -40.944577099999954, -20.869081399999974 ], [ -40.944465399999956, -20.868927599999957 ], [ -40.944303599999962, -20.868742899999983 ], [ -40.943946599999954, -20.868492099999962 ], [ -40.944041299999981, -20.868384 ], [ -40.943705799999982, -20.868106699999938 ], [ -40.944422199999963, -20.867402699999957 ], [ -40.943802599999977, -20.866484699999951 ], [ -40.943866399999941, -20.866173899999982 ], [ -40.943960599999969, -20.865859699999927 ], [ -40.94401819999996, -20.865431599999969 ], [ -40.944096499999944, -20.865349199999965 ], [ -40.944145899999967, -20.865118699999986 ], [ -40.944154099999928, -20.865073399999957 ], [ -40.944245599999931, -20.865105699999958 ], [ -40.944483, -20.865109299999965 ], [ -40.944653, -20.865054399999963 ], [ -40.944725599999977, -20.86499769999994 ], [ -40.944966499999964, -20.864618599999972 ], [ -40.945092299999942, -20.864510599999953 ], [ -40.945708599999932, -20.864202399999954 ], [ -40.945882199999978, -20.864119199999948 ], [ -40.946114199999961, -20.864051899999943 ], [ -40.946960899999972, -20.864035899999973 ], [ -40.947405099999969, -20.864042399999953 ], [ -40.947713599999929, -20.864197099999952 ], [ -40.948261499999944, -20.864360899999951 ], [ -40.948978299999972, -20.864576099999965 ], [ -40.94952909999995, -20.86476389999995 ], [ -40.94991339999995, -20.86486309999998 ], [ -40.950138599999953, -20.864909299999962 ], [ -40.950487799999962, -20.864955799999954 ], [ -40.950636399999944, -20.864963099999958 ], [ -40.950771399999951, -20.864944399999953 ], [ -40.950907099999945, -20.864930699999945 ], [ -40.951043199999958, -20.864921799999934 ], [ -40.951179499999967, -20.864917799999951 ], [ -40.951316, -20.864918699999972 ], [ -40.952079399999946, -20.864995499999964 ], [ -40.952218899999941, -20.865000199999937 ], [ -40.952358099999977, -20.865011599999931 ], [ -40.952473, -20.865020099999988 ], [ -40.952491499999951, -20.864790599999932 ], [ -40.952437, -20.864597099999962 ], [ -40.952385499999927, -20.864488 ], [ -40.952402, -20.864159699999959 ], [ -40.952397899999944, -20.864011499999947 ], [ -40.952365, -20.863900399999977 ], [ -40.952315599999963, -20.863772799999932 ], [ -40.952064399999983, -20.863261099999939 ], [ -40.951982099999952, -20.863093499999934 ], [ -40.951957399999976, -20.862990599999943 ], [ -40.951961499999989, -20.862879399999937 ], [ -40.951990299999977, -20.862793 ], [ -40.95198309999995, -20.86271059999995 ], [ -40.951975, -20.862700699999952 ], [ -40.952236599999942, -20.86245479999997 ], [ -40.952324599999947, -20.862372099999959 ], [ -40.952648699999948, -20.862067499999959 ], [ -40.952666399999949, -20.862050799999967 ], [ -40.957225799999947, -20.857765599999937 ], [ -40.957041099999969, -20.85759609999997 ], [ -40.956535599999938, -20.857132399999948 ], [ -40.956481899999979, -20.857083199999973 ], [ -40.956056399999966, -20.856692799999959 ], [ -40.955735299999965, -20.856398199999948 ], [ -40.95571149999995, -20.85639789999993 ], [ -40.955713699999926, -20.856378399999972 ], [ -40.954201599999983, -20.854991299999938 ], [ -40.951854199999957, -20.856737699999947 ], [ -40.951806, -20.85674809999994 ], [ -40.951746499999963, -20.856817799999931 ], [ -40.947401199999945, -20.860050599999962 ], [ -40.946711, -20.860564099999973 ], [ -40.946541499999974, -20.860690199999965 ], [ -40.946386099999984, -20.860805799999973 ], [ -40.944673799999983, -20.8620797 ], [ -40.944488199999981, -20.862217799999939 ], [ -40.943578499999951, -20.86289459999994 ], [ -40.94328859999996, -20.863114499999938 ], [ -40.942621299999985, -20.863620899999937 ], [ -40.942596899999948, -20.863590599999949 ], [ -40.94229839999997, -20.863349799999977 ], [ -40.942049399999974, -20.863187099999941 ], [ -40.941689099999962, -20.863409399999956 ], [ -40.941561499999978, -20.863565899999958 ], [ -40.941289799999936, -20.863652299999963 ], [ -40.941137499999968, -20.863582299999955 ], [ -40.941079899999977, -20.86336 ], [ -40.940795799999933, -20.863257099999934 ], [ -40.940314099999966, -20.863211799999927 ], [ -40.939993, -20.862985399999946 ], [ -40.939523699999938, -20.862668399999958 ], [ -40.939317899999935, -20.862458499999946 ], [ -40.939145, -20.8622238 ], [ -40.939120299999956, -20.861882099999942 ], [ -40.939079099999958, -20.861231699999959 ], [ -40.939008699999938, -20.861033199999941 ], [ -40.939421399999958, -20.860054699999974 ], [ -40.939204099999976, -20.859861799999972 ], [ -40.938893499999949, -20.859586199999974 ], [ -40.938828499999943, -20.859528499999954 ], [ -40.938722099999943, -20.85961559999993 ], [ -40.938313199999982, -20.859949899999954 ], [ -40.937556799999982, -20.860615899999964 ], [ -40.937353499999979, -20.860805 ], [ -40.93731269999995, -20.860761199999956 ], [ -40.936992399999951, -20.860451599999983 ], [ -40.936835799999983, -20.86030029999996 ], [ -40.933866799999976, -20.857430299999969 ], [ -40.93234769999998, -20.855961899999954 ], [ -40.931810499999983, -20.855442599999943 ], [ -40.931780699999933, -20.855413799999951 ], [ -40.93174259999995, -20.855377 ], [ -40.931195299999956, -20.854848 ], [ -40.930934599999951, -20.854596 ], [ -40.930029499999939, -20.853721099999966 ], [ -40.927577199999973, -20.846017399999944 ], [ -40.925069, -20.845973299999969 ], [ -40.924969899999944, -20.847248 ], [ -40.927635399999986, -20.853594499999929 ], [ -40.926399499999945, -20.854638099999935 ], [ -40.922943099999941, -20.851822899999949 ], [ -40.922387599999979, -20.852293799999924 ], [ -40.922053699999935, -20.852577 ], [ -40.922019699999964, -20.852605799999932 ], [ -40.921999899999946, -20.852622599999968 ], [ -40.921762399999977, -20.852824 ], [ -40.921669299999962, -20.852902899999947 ], [ -40.921788799999945, -20.853000799999965 ], [ -40.922409199999947, -20.853508699999967 ], [ -40.926174599999975, -20.856591499999983 ], [ -40.928421, -20.856992099999957 ], [ -40.929747599999978, -20.857228699999958 ], [ -40.929910199999938, -20.857427699999963 ], [ -40.930175499999969, -20.857752299999962 ], [ -40.931232099999932, -20.859045199999976 ], [ -40.932139099999965, -20.86015509999994 ], [ -40.9314452, -20.860705399999969 ], [ -40.930061799999976, -20.861802399999931 ], [ -40.927919899999949, -20.863500899999973 ], [ -40.926431399999956, -20.864681299999976 ], [ -40.927073, -20.86548659999994 ], [ -40.927141099999972, -20.865572099999959 ], [ -40.927176099999947, -20.865616 ], [ -40.927207499999952, -20.865655499999946 ], [ -40.927269, -20.86573269999996 ], [ -40.927334099999939, -20.865814299999943 ], [ -40.927538799999979, -20.866071299999927 ] ] ], [ [ [ -40.92435119999994, -20.697757399999947 ], [ -40.925057599999946, -20.698082699999922 ], [ -40.925561899999934, -20.699460099999957 ], [ -40.925604399999933, -20.699575899999964 ], [ -40.925746199999942, -20.699580799999982 ], [ -40.926795199999965, -20.699616799999944 ], [ -40.926815499999975, -20.699997299999961 ], [ -40.927054299999959, -20.70098529999995 ], [ -40.927124299999953, -20.701237 ], [ -40.928162399999962, -20.70425409999995 ], [ -40.928313099999968, -20.704217399999944 ], [ -40.928401299999969, -20.70425409999995 ], [ -40.928552, -20.704316599999967 ], [ -40.928732099999941, -20.704371699999953 ], [ -40.928901199999984, -20.704412199999975 ], [ -40.929092299999986, -20.704423199999944 ], [ -40.929287099999961, -20.704448899999935 ], [ -40.929368, -20.704518799999963 ], [ -40.929698799999983, -20.704423199999948 ], [ -40.929974499999965, -20.704437899999956 ], [ -40.930239099999937, -20.704489299999967 ], [ -40.930518499999948, -20.704526099999963 ], [ -40.930654499999939, -20.704566499999945 ], [ -40.930985299999975, -20.70484219999998 ], [ -40.93134919999995, -20.705176699999967 ], [ -40.931499899999949, -20.705338399999953 ], [ -40.931514599999957, -20.705437699999955 ], [ -40.931419, -20.705636099999928 ], [ -40.931404299999933, -20.705731699999937 ], [ -40.93141159999994, -20.705845699999941 ], [ -40.931437399999936, -20.705974299999976 ], [ -40.931532899999972, -20.706011099999952 ], [ -40.931676299999943, -20.705974299999976 ], [ -40.931804899999975, -20.705930199999948 ], [ -40.931896799999947, -20.705944899999952 ], [ -40.93205119999994, -20.706051499999941 ], [ -40.932198199999959, -20.706018399999941 ], [ -40.932319499999949, -20.705904499999971 ], [ -40.932404099999985, -20.705709699999943 ], [ -40.932525399999975, -20.705503799999978 ], [ -40.932679699999944, -20.705375199999942 ], [ -40.932900299999972, -20.705327399999923 ], [ -40.93304, -20.705397199999947 ], [ -40.933098799999989, -20.705522199999958 ], [ -40.93317959999996, -20.705573699999938 ], [ -40.933396499999958, -20.705371499999959 ], [ -40.933451599999955, -20.705018599999956 ], [ -40.933403799999951, -20.70486789999995 ], [ -40.932870899999955, -20.704040899999939 ], [ -40.93280059999995, -20.703913899999982 ], [ -40.932778099999958, -20.703875399999962 ], [ -40.932761399999947, -20.703834399999948 ], [ -40.932750899999974, -20.70379169999995 ], [ -40.932746799999961, -20.703747899999939 ], [ -40.932749199999932, -20.703704099999971 ], [ -40.932746399999985, -20.703613499999953 ], [ -40.93273679999993, -20.703523199999957 ], [ -40.93272039999993, -20.703433899999933 ], [ -40.93269729999998, -20.703345899999942 ], [ -40.932667599999945, -20.703259599999971 ], [ -40.932631499999957, -20.703175499999919 ], [ -40.93258909999998, -20.703094099999923 ], [ -40.932581099999936, -20.703043499999982 ], [ -40.932567499999948, -20.702993899999967 ], [ -40.932548499999939, -20.702945899999978 ], [ -40.932524099999974, -20.702900099999948 ], [ -40.932494799999972, -20.702856899999976 ], [ -40.932460799999944, -20.70281689999997 ], [ -40.932422499999973, -20.70278049999996 ], [ -40.932177899999942, -20.702716399999922 ], [ -40.932123099999963, -20.702706499999969 ], [ -40.932067499999953, -20.702702499999926 ], [ -40.932011699999975, -20.70270429999994 ], [ -40.931956499999956, -20.70271189999994 ], [ -40.931902499999978, -20.70272529999994 ], [ -40.931331, -20.702664499999962 ], [ -40.931259699999941, -20.702647899999928 ], [ -40.931111, -20.702526199999973 ], [ -40.930695899999925, -20.702161399999962 ], [ -40.930187599999954, -20.701722399999934 ], [ -40.92969, -20.701301399999974 ], [ -40.929599099999962, -20.701240399999964 ], [ -40.929440099999972, -20.701162499999946 ], [ -40.929393399999981, -20.701141099999973 ], [ -40.929459499999957, -20.701126799999933 ], [ -40.929787599999948, -20.701094099999981 ], [ -40.92994369999996, -20.701032299999952 ], [ -40.930311899999936, -20.700784799999948 ], [ -40.930450299999961, -20.70063169999996 ], [ -40.930547899999965, -20.700527399999942 ], [ -40.930848, -20.700181 ], [ -40.930921599999976, -20.700086699999936 ], [ -40.931054199999949, -20.699886399999968 ], [ -40.931172, -20.699700799999945 ], [ -40.931275099999937, -20.699515299999977 ], [ -40.931384099999946, -20.699353299999931 ], [ -40.93145769999996, -20.699229499999934 ], [ -40.931552, -20.699091099999986 ], [ -40.931666899999982, -20.698902599999933 ], [ -40.931767, -20.698775899999927 ], [ -40.927872, -20.695873699999925 ], [ -40.927725, -20.695627399999982 ], [ -40.927390499999952, -20.6953554 ], [ -40.926923699999975, -20.695281899999955 ], [ -40.926416499999959, -20.69540319999993 ], [ -40.92624, -20.695539199999924 ], [ -40.924593799999975, -20.695390299999925 ], [ -40.92423359999998, -20.695515299999958 ], [ -40.924204199999963, -20.696581199999976 ], [ -40.92435119999994, -20.697757399999947 ] ] ] ] } }
]
}
