{
"type": "FeatureCollection",
"name": "3301157",
"crs": { "type": "name", "properties": { "name": "urn:ogc:def:crs:OGC:1.3:CRS84" } },
"features": [
{ "type": "Feature", "properties": { "CD_MUN": "3301157", "NM_MUN": "Cardoso Moreira" }, "geometry": { "type": "MultiPolygon", "coordinates": [ [ [ [ -41.629373499999986, -21.504325899999969 ], [ -41.629324099999963, -21.504709699999975 ], [ -41.629825699999977, -21.504933899999955 ], [ -41.630380499999951, -21.504257499999945 ], [ -41.630122099999944, -21.504101699999968 ], [ -41.63013349999995, -21.503641899999941 ], [ -41.631191799999947, -21.503470899999964 ], [ -41.631471099999942, -21.503590599999931 ], [ -41.631554699999988, -21.503600099999964 ], [ -41.631813099999931, -21.503651399999971 ], [ -41.632183199999929, -21.503688699999941 ], [ -41.632343499999941, -21.503829499999942 ], [ -41.632423299999978, -21.50389959999994 ], [ -41.63254969999997, -21.50399329999993 ], [ -41.632727699999982, -21.50412539999996 ], [ -41.633020399999964, -21.504296399999923 ], [ -41.633237799999961, -21.504433699999936 ], [ -41.6333054, -21.504489299999936 ], [ -41.633352499999951, -21.50454359999997 ], [ -41.633383899999949, -21.50460029999995 ], [ -41.63339609999997, -21.504651499999962 ], [ -41.633412699999951, -21.504905 ], [ -41.63342769999997, -21.504972899999927 ], [ -41.633452799999937, -21.505035499999959 ], [ -41.633492499999939, -21.505095899999947 ], [ -41.633558299999933, -21.505156099999965 ], [ -41.633622699999933, -21.505195099999984 ], [ -41.634175099999936, -21.505467799999966 ], [ -41.634872399999949, -21.50582489999994 ], [ -41.634921099999985, -21.505845299999965 ], [ -41.634988299999975, -21.505861499999988 ], [ -41.635072799999939, -21.505868299999975 ], [ -41.635153, -21.505866099999924 ], [ -41.635279799999971, -21.505842799999979 ], [ -41.635413299999989, -21.505805399999922 ], [ -41.635633899999966, -21.505845799999975 ], [ -41.633542099999936, -21.504669799999935 ], [ -41.633534499999939, -21.504521599999979 ], [ -41.633496499999978, -21.504320199999942 ], [ -41.633409099999938, -21.504134 ], [ -41.633287499999938, -21.50390219999997 ], [ -41.63312789999997, -21.503659 ], [ -41.632983499999973, -21.503480399999951 ], [ -41.632839099999956, -21.503324599999928 ], [ -41.632679499999938, -21.503172599999967 ], [ -41.631923299999983, -21.50266339999996 ], [ -41.631486299999949, -21.502401199999948 ], [ -41.631389399999939, -21.502302399999962 ], [ -41.631163299999969, -21.5020421 ], [ -41.63107969999993, -21.501971799999978 ], [ -41.630948599999954, -21.501810299999942 ], [ -41.630794699999967, -21.501679399999936 ], [ -41.630543899999964, -21.502080099999947 ], [ -41.630388099999948, -21.502061099999938 ], [ -41.630152499999944, -21.502053499999924 ], [ -41.630038499999955, -21.502026899999983 ], [ -41.629973899999982, -21.502038299999974 ], [ -41.629890299999943, -21.502080099999937 ], [ -41.629829499999971, -21.502091499999935 ], [ -41.629787699999952, -21.502072499999937 ], [ -41.629749699999927, -21.502019299999972 ], [ -41.629707899999971, -21.501939499999938 ], [ -41.629688599999952, -21.501782799999933 ], [ -41.629667799999943, -21.501699199999965 ], [ -41.62963469999994, -21.501662099999969 ], [ -41.629491299999984, -21.501629799999929 ], [ -41.629434299999964, -21.501579399999965 ], [ -41.629390599999958, -21.501515799999936 ], [ -41.629297199999947, -21.5015648 ], [ -41.629203499999967, -21.501615499999954 ], [ -41.628524499999976, -21.501805499999936 ], [ -41.628109099999953, -21.501896699999982 ], [ -41.627901299999962, -21.501886499999948 ], [ -41.627810599999975, -21.501894799999942 ], [ -41.627687299999934, -21.501949199999952 ], [ -41.627611, -21.501743599999941 ], [ -41.627524799999954, -21.501613799999966 ], [ -41.627406899999983, -21.501481899999916 ], [ -41.627321799999947, -21.50141409999997 ], [ -41.627191599999946, -21.501326 ], [ -41.626954599999976, -21.50121769999993 ], [ -41.626202699999965, -21.500942399999932 ], [ -41.625252899999964, -21.500633099999959 ], [ -41.624856099999924, -21.500426599999972 ], [ -41.624518299999977, -21.500231399999969 ], [ -41.6243755, -21.500148899999939 ], [ -41.62386209999994, -21.49986229999995 ], [ -41.623813399999953, -21.499838 ], [ -41.623565799999938, -21.49972839999997 ], [ -41.623376499999949, -21.499651699999959 ], [ -41.62261969999998, -21.499371 ], [ -41.62241279999995, -21.499260799999941 ], [ -41.621950499999969, -21.499008799999956 ], [ -41.621676699999966, -21.498858499999979 ], [ -41.62159749999995, -21.498798 ], [ -41.621507899999983, -21.498729499999971 ], [ -41.621402699999983, -21.49865519999997 ], [ -41.621701, -21.49844179999997 ], [ -41.62177759999998, -21.498369799999967 ], [ -41.621850099999968, -21.498292399999972 ], [ -41.621922299999937, -21.49818809999994 ], [ -41.621966299999947, -21.498105199999941 ], [ -41.62199819999995, -21.498005399999968 ], [ -41.622024199999942, -21.497892899999954 ], [ -41.622651899999937, -21.497549 ], [ -41.62337169999995, -21.497064799999983 ], [ -41.624234599999959, -21.496448599999958 ], [ -41.624669499999982, -21.49617029999995 ], [ -41.62521519999995, -21.495859099999951 ], [ -41.625219499999965, -21.495854899999919 ], [ -41.626066, -21.495456599999951 ], [ -41.62693059999998, -21.495059299999983 ], [ -41.627250499999953, -21.494909399999973 ], [ -41.62740139999994, -21.494838699999949 ], [ -41.628487299999968, -21.494330699999974 ], [ -41.629127, -21.494015499999946 ], [ -41.629869299999939, -21.493575199999952 ], [ -41.63137, -21.492600299999935 ], [ -41.631612499999967, -21.492446199999961 ], [ -41.63190979999996, -21.492279599999957 ], [ -41.632343799999951, -21.492083799999929 ], [ -41.632745299999961, -21.491952299999987 ], [ -41.633759699999985, -21.49171489999998 ], [ -41.633946199999976, -21.49146949999994 ], [ -41.634053, -21.491221399999965 ], [ -41.634119599999963, -21.491066499999928 ], [ -41.633819799999969, -21.489594899999936 ], [ -41.633489, -21.487970799999971 ], [ -41.633199899999966, -21.488003399999975 ], [ -41.632967199999939, -21.488087499999942 ], [ -41.632724299999957, -21.488181 ], [ -41.632561399999936, -21.48830119999997 ], [ -41.632363, -21.488513599999983 ], [ -41.63222769999993, -21.488683199999961 ], [ -41.631517299999985, -21.489293199999953 ], [ -41.631180899999947, -21.489708699999927 ], [ -41.630972899999968, -21.489891399999973 ], [ -41.630394199999955, -21.490269599999962 ], [ -41.63018969999996, -21.490394499999976 ], [ -41.629672099999944, -21.490667 ], [ -41.629084899999953, -21.491025099999948 ], [ -41.628609899999958, -21.491373299999964 ], [ -41.628117799999984, -21.49179 ], [ -41.627875699999947, -21.491931 ], [ -41.627422299999978, -21.492037499999988 ], [ -41.627023899999983, -21.492030499999949 ], [ -41.626853099999948, -21.491996599999936 ], [ -41.626562499999977, -21.491942899999966 ], [ -41.625963299999974, -21.491628499999933 ], [ -41.625960699999958, -21.491588599999936 ], [ -41.626101699999928, -21.484369699999942 ], [ -41.626102799999956, -21.484312899999953 ], [ -41.626103899999976, -21.484254899999939 ], [ -41.626105899999978, -21.484153099999958 ], [ -41.625821599999931, -21.483964899999933 ], [ -41.623371499999962, -21.483322599999958 ], [ -41.622122599999955, -21.483370199999978 ], [ -41.621831199999981, -21.482591099999983 ], [ -41.621462499999957, -21.482585199999956 ], [ -41.621313899999969, -21.484535799999936 ], [ -41.620992699999931, -21.485499199999939 ], [ -41.62057649999997, -21.485368299999948 ], [ -41.619446499999981, -21.485380199999952 ], [ -41.61926219999998, -21.484833099999946 ], [ -41.619143299999969, -21.484080799999965 ], [ -41.619286, -21.483637799999936 ], [ -41.618903799999948, -21.483601099999927 ], [ -41.6189007, -21.483600899999935 ], [ -41.618799899999942, -21.483771099999956 ], [ -41.618575899999939, -21.483643499999978 ], [ -41.618428799999954, -21.48357969999994 ], [ -41.618072299999938, -21.483283 ], [ -41.617837, -21.48314 ], [ -41.617653, -21.482996099999983 ], [ -41.617562899999946, -21.482871299999932 ], [ -41.617419299999938, -21.482709099999951 ], [ -41.617284399999967, -21.482557599999947 ], [ -41.616875499999935, -21.482231799999969 ], [ -41.616566399999954, -21.48197279999993 ], [ -41.616320899999948, -21.481750099999942 ], [ -41.616036, -21.481520299999936 ], [ -41.615767299999966, -21.481333699999929 ], [ -41.61565759999997, -21.481251399999962 ], [ -41.615412799999952, -21.48116229999993 ], [ -41.614867, -21.480991299999982 ], [ -41.6139874, -21.480685599999962 ], [ -41.613582299999962, -21.480531699999972 ], [ -41.613274699999984, -21.480355099999947 ], [ -41.612473799999975, -21.479852099999952 ], [ -41.612038599999948, -21.479535499999944 ], [ -41.611736699999945, -21.479363599999935 ], [ -41.611537299999952, -21.479235799999959 ], [ -41.611292399999968, -21.47896789999993 ], [ -41.611051099999948, -21.478698799999968 ], [ -41.610894899999955, -21.478560099999985 ], [ -41.610790799999968, -21.478498599999963 ], [ -41.610638699999981, -21.478447599999981 ], [ -41.610426099999984, -21.478375199999956 ], [ -41.610221599999939, -21.478278299999943 ], [ -41.610042699999951, -21.478148099999935 ], [ -41.609825599999958, -21.477942299999942 ], [ -41.609484499999951, -21.477485099999974 ], [ -41.609287799999947, -21.477299299999959 ], [ -41.60920809999994, -21.477143799999965 ], [ -41.609673199999968, -21.476862 ], [ -41.60966609999997, -21.476776599999923 ], [ -41.609664099999982, -21.476764499999945 ], [ -41.607029299999958, -21.47811559999996 ], [ -41.604731299999969, -21.479293899999952 ], [ -41.601907099999949, -21.48074209999994 ], [ -41.600522899999937, -21.481451899999971 ], [ -41.600276599999972, -21.481578199999948 ], [ -41.600284399999971, -21.481880499999939 ], [ -41.600488199999972, -21.482358799999925 ], [ -41.600857199999957, -21.482832 ], [ -41.601153199999942, -21.483044199999938 ], [ -41.601108399999937, -21.483629699999945 ], [ -41.601359699999932, -21.483770899999964 ], [ -41.601710399999945, -21.484027099999931 ], [ -41.6021947, -21.484580199999979 ], [ -41.602978699999937, -21.485166299999943 ], [ -41.603046299999967, -21.485204199999934 ], [ -41.603355199999953, -21.485377499999966 ], [ -41.602150399999978, -21.489131799999935 ], [ -41.603058199999957, -21.489104799999954 ], [ -41.603927699999986, -21.489150499999944 ], [ -41.604362399999957, -21.488784499999941 ], [ -41.604774299999974, -21.487812199999944 ], [ -41.605140399999982, -21.48712589999996 ], [ -41.605260599999951, -21.486831599999952 ], [ -41.605633199999936, -21.487080899999967 ], [ -41.605807499999969, -21.48721809999995 ], [ -41.606042099999975, -21.48738689999993 ], [ -41.606278099999948, -21.487554199999973 ], [ -41.606413299999979, -21.48764019999993 ], [ -41.606507799999982, -21.487689599999946 ], [ -41.606606299999953, -21.487730799999959 ], [ -41.606694199999943, -21.487760199999972 ], [ -41.606789899999967, -21.487777299999951 ], [ -41.606863599999947, -21.487780699999966 ], [ -41.606987699999934, -21.487779399999955 ], [ -41.607061299999948, -21.487774499999944 ], [ -41.60717429999994, -21.487760499999986 ], [ -41.607267299999933, -21.487746199999947 ], [ -41.607355599999941, -21.487787299999983 ], [ -41.60763239999995, -21.487966 ], [ -41.607987, -21.488204799999938 ], [ -41.608410599999957, -21.488479899999955 ], [ -41.608562199999945, -21.488580399999925 ], [ -41.608773399999968, -21.48871059999993 ], [ -41.609007399999939, -21.488848499999968 ], [ -41.609066399999961, -21.488879199999921 ], [ -41.6093494, -21.489007799999964 ], [ -41.609832799999936, -21.489208 ], [ -41.610186499999934, -21.489353099999963 ], [ -41.610419699999973, -21.489448799999938 ], [ -41.610486699999967, -21.489472 ], [ -41.610685199999978, -21.489528799999963 ], [ -41.610974899999974, -21.489590899999932 ], [ -41.611406699999982, -21.489653299999929 ], [ -41.611699599999952, -21.4896907 ], [ -41.61219669999997, -21.489779799999948 ], [ -41.61246459999996, -21.491257799999968 ], [ -41.612705, -21.492875099999946 ], [ -41.612457199999938, -21.493031499999962 ], [ -41.611955599999931, -21.494357 ], [ -41.611650599999969, -21.496191499999949 ], [ -41.61073179999994, -21.499249499999959 ], [ -41.610681699999937, -21.499416099999952 ], [ -41.607455899999934, -21.503397299999964 ], [ -41.610557599999943, -21.504336899999934 ], [ -41.610678899999982, -21.504373799999943 ], [ -41.610774599999957, -21.504402699999954 ], [ -41.612370299999952, -21.504048599999972 ], [ -41.614224499999985, -21.502806799999973 ], [ -41.615064199999949, -21.50306919999997 ], [ -41.615816399999972, -21.502509499999974 ], [ -41.615729, -21.501722399999949 ], [ -41.61586889999996, -21.500970399999968 ], [ -41.616296199999965, -21.500379799999955 ], [ -41.617332, -21.499642 ], [ -41.619354, -21.499070799999977 ], [ -41.619509399999977, -21.49922139999995 ], [ -41.619545199999948, -21.499253899999925 ], [ -41.619582599999944, -21.499284799999934 ], [ -41.619608299999989, -21.499304499999944 ], [ -41.619792099999984, -21.499440499999931 ], [ -41.620503399999961, -21.499942499999985 ], [ -41.620671499999958, -21.500071699999978 ], [ -41.620808, -21.500160799999939 ], [ -41.620952099999954, -21.500239799999971 ], [ -41.621121799999969, -21.500333 ], [ -41.621623299999953, -21.50060639999997 ], [ -41.62184649999994, -21.500724699999967 ], [ -41.621963299999948, -21.500778099999927 ], [ -41.621978299999974, -21.500783799999965 ], [ -41.622756, -21.501072299999983 ], [ -41.622896, -21.501129299999949 ], [ -41.623065499999939, -21.501204399999953 ], [ -41.623524699999955, -21.501460799999961 ], [ -41.624005899999936, -21.501738799999949 ], [ -41.624047499999961, -21.501761699999964 ], [ -41.624498299999971, -21.501996299999973 ], [ -41.624659799999961, -21.502064499999971 ], [ -41.625284699999952, -21.502271599999975 ], [ -41.62565619999998, -21.50238939999997 ], [ -41.626236399999982, -21.502602 ], [ -41.626420699999983, -21.502679 ], [ -41.6290049, -21.503543099999941 ], [ -41.629130299999929, -21.503600099999964 ], [ -41.629232899999977, -21.503672299999945 ], [ -41.629293699999941, -21.503763499999938 ], [ -41.629384899999934, -21.504044699999955 ], [ -41.629388699999929, -21.504132099999929 ], [ -41.629373499999986, -21.504325899999969 ] ] ], [ [ [ -41.476263499999959, -21.480515699999952 ], [ -41.476294799999948, -21.480108499999961 ], [ -41.476094299999943, -21.479774899999942 ], [ -41.476254099999956, -21.479637 ], [ -41.476294399999972, -21.479624599999969 ], [ -41.476285399999945, -21.47961819999994 ], [ -41.476479599999948, -21.479480399999947 ], [ -41.47677409999995, -21.479392699999956 ], [ -41.476993299999954, -21.479455399999953 ], [ -41.477181299999984, -21.479787399999957 ], [ -41.4778391, -21.480138199999946 ], [ -41.478553299999938, -21.480351299999938 ], [ -41.478948, -21.480376299999932 ], [ -41.479204899999964, -21.480319899999923 ], [ -41.4800006, -21.480532899999954 ], [ -41.480547199999933, -21.480538199999959 ], [ -41.480652, -21.480386099999976 ], [ -41.480678899999937, -21.480348299999946 ], [ -41.480709699999977, -21.480305799999947 ], [ -41.481137799999942, -21.479739299999952 ], [ -41.48043, -21.479370399999929 ], [ -41.479263099999976, -21.47897289999997 ], [ -41.478574899999948, -21.478686799999938 ], [ -41.477873399999964, -21.478327599999947 ], [ -41.477430599999941, -21.477957799999949 ], [ -41.476472299999955, -21.477303699999933 ], [ -41.474853099999962, -21.476523499999931 ], [ -41.474811399999965, -21.476501899999963 ], [ -41.47482279999997, -21.476481599999943 ], [ -41.474767899999961, -21.476481599999946 ], [ -41.474553499999956, -21.476626299999964 ], [ -41.474024399999962, -21.476690399999939 ], [ -41.473676399999931, -21.476618 ], [ -41.472679499999963, -21.476771099999954 ], [ -41.4713096, -21.476258799999975 ], [ -41.469304799999982, -21.4753009 ], [ -41.467678599999942, -21.474666099999983 ], [ -41.466537, -21.474100799999981 ], [ -41.466411699999973, -21.473908699999978 ], [ -41.46642009999993, -21.473712399999954 ], [ -41.466470199999947, -21.473411699999922 ], [ -41.466566199999932, -21.473177799999963 ], [ -41.467038599999967, -21.472714399999962 ], [ -41.466727, -21.472526199999947 ], [ -41.466242499999964, -21.472526199999944 ], [ -41.465670299999942, -21.473060799999928 ], [ -41.465344599999987, -21.473415899999956 ], [ -41.465179599999949, -21.473626799999984 ], [ -41.465027099999929, -21.473534899999954 ], [ -41.464741, -21.473386599999966 ], [ -41.464438199999961, -21.473159 ], [ -41.464300399999949, -21.473165299999948 ], [ -41.464084099999987, -21.473076699999968 ], [ -41.463902399999938, -21.473230499999946 ], [ -41.463856899999946, -21.473269 ], [ -41.464631299999951, -21.473603799999974 ], [ -41.466482699999972, -21.474485699999956 ], [ -41.466414, -21.474499899999955 ], [ -41.466211399999963, -21.475012499999941 ], [ -41.466301, -21.475583599999943 ], [ -41.466708199999971, -21.475976199999934 ], [ -41.46795289999995, -21.476911799999979 ], [ -41.46914739999994, -21.477546599999982 ], [ -41.470024499999965, -21.478031099999953 ], [ -41.470809799999977, -21.478248299999962 ], [ -41.471528099999944, -21.478381899999928 ], [ -41.471862299999941, -21.478766199999942 ], [ -41.472174099999968, -21.479201399999972 ], [ -41.472380199999982, -21.479325899999925 ], [ -41.473499499999946, -21.481088399999962 ], [ -41.473959, -21.481589599999953 ], [ -41.474359899999968, -21.481531199999949 ], [ -41.474827699999928, -21.481330699999937 ], [ -41.475111699999957, -21.482191099999973 ], [ -41.475546099999981, -21.482669299999941 ], [ -41.475919, -21.483132099999985 ], [ -41.476263299999978, -21.483342599999951 ], [ -41.476514499999958, -21.483282699999954 ], [ -41.476563799999951, -21.483237599999939 ], [ -41.476624699999945, -21.483309499999965 ], [ -41.476698899999981, -21.483241 ], [ -41.47676469999994, -21.482902699999947 ], [ -41.476689499999964, -21.482160299999983 ], [ -41.476733499999966, -21.481943199999925 ], [ -41.476545399999964, -21.48091669999997 ], [ -41.476263499999959, -21.480515699999952 ] ] ] ] } }
]
}
