{
"type": "FeatureCollection",
"name": "3301801",
"crs": { "type": "name", "properties": { "name": "urn:ogc:def:crs:OGC:1.3:CRS84" } },
"features": [
{ "type": "Feature", "properties": { "CD_MUN": "3301801", "NM_MUN": "Engenheiro Paulo de Frontin" }, "geometry": { "type": "MultiPolygon", "coordinates": [ [ [ [ -43.68155279999997, -22.56271259999993 ], [ -43.681769899999949, -22.562730699999975 ], [ -43.6818512, -22.562884399999984 ], [ -43.681733699999945, -22.563074299999982 ], [ -43.681344899999942, -22.563336499999931 ], [ -43.68097419999998, -22.563616799999973 ], [ -43.680657699999983, -22.563924199999978 ], [ -43.680449699999933, -22.564150299999937 ], [ -43.680323099999953, -22.564493899999956 ], [ -43.680395499999968, -22.564710899999955 ], [ -43.680603399999939, -22.564801299999946 ], [ -43.680829499999959, -22.564729 ], [ -43.681055499999957, -22.564502899999983 ], [ -43.68139009999993, -22.564105099999939 ], [ -43.681968799999943, -22.563616799999984 ], [ -43.682457099999965, -22.563327499999968 ], [ -43.682755499999985, -22.563417899999937 ], [ -43.683035799999971, -22.563680099999932 ], [ -43.683062899999982, -22.563915199999936 ], [ -43.682945299999979, -22.564105099999942 ], [ -43.682583599999937, -22.564186499999952 ], [ -43.682339499999955, -22.564421599999946 ], [ -43.68186929999996, -22.564710899999959 ], [ -43.681453399999953, -22.564991199999962 ], [ -43.681326799999965, -22.565199199999938 ], [ -43.68127249999997, -22.565361899999978 ], [ -43.681561899999963, -22.565375499999952 ], [ -43.681686199999952, -22.565332599999987 ], [ -43.681830899999966, -22.565244399999987 ], [ -43.682925, -22.56453909999993 ], [ -43.683078699999946, -22.564552699999986 ], [ -43.68323689999994, -22.564512 ], [ -43.683481099999938, -22.564240699999971 ], [ -43.683756899999942, -22.564082499999927 ], [ -43.684001, -22.563779599999972 ], [ -43.684123099999965, -22.563485699999941 ], [ -43.684172799999942, -22.563404299999949 ], [ -43.684145699999931, -22.563200899999973 ], [ -43.684023599999939, -22.56304259999996 ], [ -43.683643799999963, -22.562916099999942 ], [ -43.683110399999975, -22.562780399999948 ], [ -43.682667299999942, -22.562554399999961 ], [ -43.682332699999961, -22.562246899999938 ], [ -43.681663599999979, -22.56190329999998 ], [ -43.680876899999937, -22.561731499999954 ], [ -43.680442, -22.561779499999933 ], [ -43.680289599999981, -22.561929899999946 ], [ -43.680222099999988, -22.562204 ], [ -43.679458499999953, -22.563009699999949 ], [ -43.679091099999944, -22.563113599999944 ], [ -43.678604199999938, -22.563233799999981 ], [ -43.678158299999943, -22.563366599999945 ], [ -43.677772499999939, -22.56342979999993 ], [ -43.677010499999938, -22.563309699999934 ], [ -43.676944099999957, -22.563116799999928 ], [ -43.67701359999996, -22.562927099999964 ], [ -43.677247599999937, -22.562765799999969 ], [ -43.677475299999976, -22.562652 ], [ -43.677644599999958, -22.562499899999974 ], [ -43.677643, -22.56249959999997 ], [ -43.677781, -22.562448499999959 ], [ -43.678090899999972, -22.562431699999923 ], [ -43.679043699999966, -22.562336799999969 ], [ -43.679397899999969, -22.562155499999964 ], [ -43.679596, -22.561911 ], [ -43.679688799999958, -22.561561 ], [ -43.67991439999998, -22.561263799999946 ], [ -43.680030299999942, -22.561048799999977 ], [ -43.679986, -22.560907499999914 ], [ -43.679977599999972, -22.560658799999938 ], [ -43.680040799999965, -22.560384699999926 ], [ -43.680129399999949, -22.560266699999946 ], [ -43.680258199999976, -22.560216699999952 ], [ -43.680580199999959, -22.559916499999925 ], [ -43.680565099999974, -22.55969039999998 ], [ -43.680763899999931, -22.559559399999948 ], [ -43.681173099999967, -22.559421299999951 ], [ -43.681299699999954, -22.559186199999946 ], [ -43.681435299999976, -22.558996299999929 ], [ -43.68169359999996, -22.558794199999969 ], [ -43.682016099999942, -22.558863699999957 ], [ -43.682186899999977, -22.55905029999996 ], [ -43.68237339999996, -22.559357 ], [ -43.682262699999967, -22.55993669999998 ], [ -43.68231689999994, -22.560004499999931 ], [ -43.682565599999975, -22.560036099999923 ], [ -43.682831899999947, -22.559771299999966 ], [ -43.683369499999969, -22.559723799999958 ], [ -43.683736299999971, -22.559641599999956 ], [ -43.683872199999939, -22.559837199999944 ], [ -43.684025899999938, -22.560018099999979 ], [ -43.684084599999949, -22.560126599999933 ], [ -43.684062, -22.560203399999978 ], [ -43.683967099999961, -22.560375199999957 ], [ -43.683845, -22.560538 ], [ -43.683845, -22.560768499999938 ], [ -43.683921899999966, -22.560872499999963 ], [ -43.684084599999956, -22.560899699999936 ], [ -43.684229299999963, -22.560863499999982 ], [ -43.684369499999953, -22.560813799999941 ], [ -43.684545799999967, -22.560800199999964 ], [ -43.684676899999943, -22.560868 ], [ -43.684792399999935, -22.561235299999954 ], [ -43.684549, -22.561719099999948 ], [ -43.684643799999954, -22.561845599999963 ], [ -43.685077, -22.561387099999941 ], [ -43.685178199999939, -22.561355499999923 ], [ -43.685279399999963, -22.56129859999993 ], [ -43.685499299999954, -22.56121 ], [ -43.685458499999982, -22.561169499999945 ], [ -43.685372799999989, -22.561015699999928 ], [ -43.68531, -22.560912 ], [ -43.685237899999954, -22.560793 ], [ -43.685022799999949, -22.560352 ], [ -43.68499369999995, -22.560292299999954 ], [ -43.684882799999976, -22.560123399999949 ], [ -43.684795399999985, -22.559969299999977 ], [ -43.684709599999962, -22.559815199999946 ], [ -43.684574599999955, -22.559589299999974 ], [ -43.68443549999995, -22.5593464 ], [ -43.684348, -22.559194899999962 ], [ -43.684282899999978, -22.559102899999967 ], [ -43.684269699999959, -22.559091299999974 ], [ -43.684233699999936, -22.559087199999965 ], [ -43.684023199999956, -22.55914719999992 ], [ -43.683877899999978, -22.559184199999947 ], [ -43.683664399999941, -22.559241299999943 ], [ -43.683502599999933, -22.559275 ], [ -43.683318899999961, -22.559285499999941 ], [ -43.683198499999946, -22.559289799999945 ], [ -43.6830801, -22.559274499999951 ], [ -43.68295, -22.559247599999932 ], [ -43.68283329999997, -22.559223899999932 ], [ -43.68275129999995, -22.559195799999941 ], [ -43.682726199999934, -22.559178199999945 ], [ -43.682713099999944, -22.559048699999941 ], [ -43.682722099999978, -22.558934 ], [ -43.682710199999974, -22.558815799999934 ], [ -43.682692099999947, -22.558703 ], [ -43.682670099999939, -22.558511499999952 ], [ -43.682653599999973, -22.558395799999971 ], [ -43.682634199999931, -22.558274499999975 ], [ -43.682610299999965, -22.558152899999982 ], [ -43.682586099999973, -22.558042599999968 ], [ -43.682562099999984, -22.557926699999939 ], [ -43.682541799999967, -22.557897899999944 ], [ -43.682487, -22.557862299999954 ], [ -43.682424199999957, -22.557846 ], [ -43.682332499999973, -22.55784 ], [ -43.682250099999976, -22.557823099999943 ], [ -43.682224799999972, -22.557811 ], [ -43.682138399999985, -22.557715299999934 ], [ -43.682105799999931, -22.557669199999957 ], [ -43.682073099999975, -22.557623099999951 ], [ -43.681989099999953, -22.557493699999949 ], [ -43.681900799999937, -22.557352899999952 ], [ -43.681865399999943, -22.55732359999995 ], [ -43.681755499999952, -22.557277 ], [ -43.68166489999993, -22.557253899999978 ], [ -43.68159669999995, -22.557212199999981 ], [ -43.681534699999936, -22.557159399999929 ], [ -43.681511199999939, -22.557136099999973 ], [ -43.681493899999971, -22.557107399999953 ], [ -43.681483, -22.557062 ], [ -43.681478, -22.55702249999996 ], [ -43.681485599999974, -22.556960899999972 ], [ -43.681489899999981, -22.556910499999962 ], [ -43.681491499999929, -22.556848699999936 ], [ -43.681493199999984, -22.556781299999955 ], [ -43.681497799999931, -22.556719599999955 ], [ -43.681508299999969, -22.556663699999948 ], [ -43.681519099999939, -22.556596599999985 ], [ -43.681526299999973, -22.556551899999935 ], [ -43.681542399999955, -22.556513099999957 ], [ -43.681568, -22.556452099999952 ], [ -43.681603099999968, -22.556380199999971 ], [ -43.681629, -22.556308 ], [ -43.68176, -22.556025699999957 ], [ -43.681773, -22.555986799999964 ], [ -43.681773499999963, -22.555967099999965 ], [ -43.681774, -22.555947499999938 ], [ -43.681765899999952, -22.555913399999948 ], [ -43.681751499999969, -22.555884799999937 ], [ -43.681740199999986, -22.555856199999933 ], [ -43.681717299999946, -22.555810399999913 ], [ -43.68170669999995, -22.555753699999968 ], [ -43.681692899999973, -22.555702499999942 ], [ -43.681679899999956, -22.555638 ], [ -43.681727399999943, -22.555401399999937 ], [ -43.681754599999984, -22.555366799999941 ], [ -43.681797199999956, -22.555351399999946 ], [ -43.681842799999977, -22.555339 ], [ -43.681912299999965, -22.555333 ], [ -43.682040699999959, -22.555320799999951 ], [ -43.682274899999982, -22.555298199999982 ], [ -43.682584499999962, -22.55527 ], [ -43.682800499999985, -22.555260599999933 ], [ -43.682944199999959, -22.555237599999931 ], [ -43.683019899999977, -22.555223499999943 ], [ -43.683115599999958, -22.555193099999933 ], [ -43.683279499999969, -22.55512519999996 ], [ -43.683296799999937, -22.555118099999955 ], [ -43.683322299999929, -22.5551086 ], [ -43.683347899999944, -22.555099199999972 ], [ -43.683410299999935, -22.55507619999997 ], [ -43.683442699999944, -22.555064199999951 ], [ -43.683615699999962, -22.554957899999977 ], [ -43.683645, -22.554939799999936 ], [ -43.68368, -22.554918099999959 ], [ -43.683832399999972, -22.554850399999967 ], [ -43.683891299999971, -22.554838499999956 ], [ -43.684091499999973, -22.554845699999927 ], [ -43.684143899999981, -22.554831399999955 ], [ -43.684423099999954, -22.554717 ], [ -43.684498299999973, -22.554688799999941 ], [ -43.684573599999958, -22.554660499999951 ], [ -43.684597199999978, -22.554650099999947 ], [ -43.684668, -22.554618899999973 ], [ -43.684811399999951, -22.554548099999977 ], [ -43.684900199999959, -22.554495099999937 ], [ -43.684950699999945, -22.554463199999933 ], [ -43.684998399999984, -22.554425499999969 ], [ -43.685098399999958, -22.554344699999941 ], [ -43.685159799999951, -22.554301899999928 ], [ -43.685242199999948, -22.554259899999966 ], [ -43.685284599999939, -22.554250099999919 ], [ -43.685323799999942, -22.554245899999962 ], [ -43.685380699999939, -22.554253599999981 ], [ -43.685434799999946, -22.554255599999969 ], [ -43.685488899999946, -22.554257599999961 ], [ -43.685540199999942, -22.554253799999966 ], [ -43.685594099999946, -22.554261399999973 ], [ -43.685636199999983, -22.554262899999973 ], [ -43.68567239999993, -22.554258599999972 ], [ -43.685705499999983, -22.55425979999994 ], [ -43.685750499999983, -22.554261399999969 ], [ -43.685783599999972, -22.554262599999955 ], [ -43.685914299999986, -22.554222499999966 ], [ -43.686073699999952, -22.554106499999925 ], [ -43.686141099999929, -22.554038 ], [ -43.686212799999957, -22.553948799999944 ], [ -43.686245299999946, -22.553893899999935 ], [ -43.686277799999971, -22.553838899999963 ], [ -43.686330599999962, -22.553730399999942 ], [ -43.686339899999957, -22.553712699999945 ], [ -43.686430099999946, -22.553558799999966 ], [ -43.686473399999954, -22.553481199999961 ], [ -43.686491399999966, -22.553448899999971 ], [ -43.6865739, -22.553313399999979 ], [ -43.686656799999987, -22.553203899999971 ], [ -43.68678959999994, -22.553060499999969 ], [ -43.686832399999957, -22.553019499999948 ], [ -43.686878799999931, -22.552982099999948 ], [ -43.686941099999956, -22.552951699999944 ], [ -43.687026799999963, -22.552925099999975 ], [ -43.687089199999953, -22.552894699999971 ], [ -43.687142399999971, -22.552867699999979 ], [ -43.687177599999984, -22.55283709999998 ], [ -43.687224, -22.552773 ], [ -43.68722589999993, -22.552769499999947 ], [ -43.68722779999996, -22.552766099999928 ], [ -43.687229799999955, -22.552759299999931 ], [ -43.687233499999941, -22.552755899999955 ], [ -43.687235599999951, -22.552749 ], [ -43.687235599999951, -22.552745899999938 ], [ -43.687237699999969, -22.552738699999967 ], [ -43.687239599999941, -22.552735299999938 ], [ -43.687241499999978, -22.552731799999947 ], [ -43.687241499999978, -22.552730099999959 ], [ -43.687241599999936, -22.552728399999978 ], [ -43.687243599999924, -22.552721499999958 ], [ -43.687245499999968, -22.552718099999929 ], [ -43.687245599999976, -22.552714699999964 ], [ -43.687247599999978, -22.552707799999951 ], [ -43.687247799999959, -22.552704399999982 ], [ -43.687249699999938, -22.552700899999934 ], [ -43.687249899999983, -22.552694099999936 ], [ -43.68725, -22.552690599999949 ], [ -43.687250099999972, -22.552687199999976 ], [ -43.687239, -22.552635399999932 ], [ -43.687228499999947, -22.552625 ], [ -43.687209099999961, -22.552611 ], [ -43.687191399999961, -22.552600499999976 ], [ -43.68718529999996, -22.552593599999977 ], [ -43.687179099999973, -22.55258659999992 ], [ -43.687172499999974, -22.552569299999959 ], [ -43.687166099999956, -22.552541699999942 ], [ -43.68715439999994, -22.552510599999952 ], [ -43.687100599999951, -22.552441299999956 ], [ -43.687083399999949, -22.552413599999962 ], [ -43.68707, -22.552379 ], [ -43.687057499999973, -22.552317 ], [ -43.687048199999928, -22.552268699999949 ], [ -43.68705319999998, -22.552220599999945 ], [ -43.687071599999975, -22.552093599999981 ], [ -43.687076, -22.552007799999966 ], [ -43.687091399999986, -22.551918599999979 ], [ -43.687104199999965, -22.551853399999978 ], [ -43.687122299999942, -22.551795199999955 ], [ -43.68714929999993, -22.551737099999965 ], [ -43.687168299999939, -22.551706399999951 ], [ -43.687211099999956, -22.551662199999939 ], [ -43.687233599999956, -22.551635 ], [ -43.687261599999935, -22.551601 ], [ -43.687282299999936, -22.551573799999964 ], [ -43.687299299999957, -22.551549899999937 ], [ -43.687340899999981, -22.551543499999983 ], [ -43.687371399999968, -22.551547199999959 ], [ -43.687401699999953, -22.551561299999946 ], [ -43.687437299999957, -22.55157539999993 ], [ -43.687476499999939, -22.5515895 ], [ -43.687608599999976, -22.551632099999953 ], [ -43.687670499999975, -22.551641399999934 ], [ -43.687732399999959, -22.551650599999952 ], [ -43.687827899999945, -22.551651599999957 ], [ -43.687883699999936, -22.551655699999969 ], [ -43.687915199999964, -22.551656 ], [ -43.687946699999948, -22.551656299999923 ], [ -43.688006299999984, -22.551653499999915 ], [ -43.688073099999947, -22.551647399999975 ], [ -43.688152799999955, -22.551634499999981 ], [ -43.688197799999955, -22.551635 ], [ -43.688241099999978, -22.551635399999956 ], [ -43.688288099999966, -22.551629099999957 ], [ -43.688331699999928, -22.551615799999983 ], [ -43.688373599999977, -22.551599099999972 ], [ -43.688493699999981, -22.551578299999967 ], [ -43.688540499999931, -22.5515693 ], [ -43.68859109999994, -22.551575 ], [ -43.688649899999966, -22.55159109999995 ], [ -43.688679099999959, -22.551606499999931 ], [ -43.688710499999956, -22.551621299999958 ], [ -43.68875259999993, -22.55164439999993 ], [ -43.688794699999953, -22.55165959999994 ], [ -43.688859699999973, -22.551667599999977 ], [ -43.688917899999979, -22.551661599999928 ], [ -43.689002499999965, -22.551653299999941 ], [ -43.68906549999997, -22.551657599999938 ], [ -43.689109199999962, -22.551665199999942 ], [ -43.689126, -22.551666299999965 ], [ -43.689153799999985, -22.551672799999942 ], [ -43.689194499999985, -22.55168679999997 ], [ -43.689249099999984, -22.551700499999985 ], [ -43.689297499999959, -22.551721899999954 ], [ -43.689387099999976, -22.551749499999968 ], [ -43.689515299999989, -22.551765499999938 ], [ -43.689644, -22.551762199999921 ], [ -43.689767099999983, -22.551757199999944 ], [ -43.689811499999969, -22.551751799999984 ], [ -43.689861199999946, -22.551742 ], [ -43.689892199999981, -22.551729699999946 ], [ -43.689923299999975, -22.551717399999973 ], [ -43.689961199999971, -22.551711599999976 ], [ -43.689999, -22.551705799999972 ], [ -43.690097499999986, -22.551698899999966 ], [ -43.690171899999939, -22.551698 ], [ -43.690283199999961, -22.55166429999996 ], [ -43.690394599999934, -22.551619399999939 ], [ -43.69057649999997, -22.55156089999997 ], [ -43.6906398, -22.551546299999927 ], [ -43.690719299999955, -22.551533399999986 ], [ -43.690803, -22.551532499999944 ], [ -43.690871699999946, -22.551537299999953 ], [ -43.690936799999974, -22.551561 ], [ -43.690989, -22.551588899999963 ], [ -43.691059399999972, -22.551641899999936 ], [ -43.691089499999975, -22.551693899999972 ], [ -43.691092199999964, -22.551740899999967 ], [ -43.69108029999996, -22.551802199999941 ], [ -43.691056399999987, -22.551861599999942 ], [ -43.691024499999969, -22.55191549999995 ], [ -43.69097979999998, -22.551974899999944 ], [ -43.690944299999956, -22.552052799999956 ], [ -43.690881199999978, -22.552121699999923 ], [ -43.690818199999967, -22.552190699999983 ], [ -43.6907978, -22.552207799999955 ], [ -43.690768499999933, -22.552243899999961 ], [ -43.690725499999985, -22.552299199999933 ], [ -43.690712599999976, -22.552343199999942 ], [ -43.690704599999954, -22.552391899999982 ], [ -43.690725499999985, -22.55243279999997 ], [ -43.690795599999952, -22.552537199999968 ], [ -43.690926099999963, -22.552712799999934 ], [ -43.69108719999997, -22.552869799999943 ], [ -43.691268599999951, -22.553036399999943 ], [ -43.691345799999972, -22.553170099999932 ], [ -43.691345199999944, -22.553215199999954 ], [ -43.691333499999985, -22.553260099999928 ], [ -43.691302199999946, -22.553295499999933 ], [ -43.691270499999973, -22.55333069999995 ], [ -43.691423299999933, -22.553391199999968 ], [ -43.691532599999967, -22.553407099999955 ], [ -43.691663099999971, -22.553366099999955 ], [ -43.691729599999981, -22.553290899999986 ], [ -43.691871499999941, -22.553020799999949 ], [ -43.692008499999986, -22.552814899999934 ], [ -43.692017399999941, -22.552653399999937 ], [ -43.691934299999964, -22.552407199999944 ], [ -43.691934, -22.552227399999929 ], [ -43.69217279999998, -22.551832299999944 ], [ -43.692273299999961, -22.551742199999978 ], [ -43.69246069999997, -22.551688699999943 ], [ -43.692661399999963, -22.551615 ], [ -43.692796199999982, -22.551550699999954 ], [ -43.692839, -22.55147659999994 ], [ -43.692781699999962, -22.551428199999979 ], [ -43.692724399999982, -22.551379699999927 ], [ -43.692610799999962, -22.551295899999953 ], [ -43.692493799999973, -22.551313699999987 ], [ -43.692299, -22.551384299999938 ], [ -43.692022099999967, -22.551389 ], [ -43.691491299999939, -22.551278199999956 ], [ -43.69102979999996, -22.551033599999986 ], [ -43.690271299999942, -22.550597499999988 ], [ -43.689912899999975, -22.55009839999996 ], [ -43.689620599999962, -22.549226499999982 ], [ -43.68906659999994, -22.548728299999937 ], [ -43.688689799999956, -22.54830619999996 ], [ -43.688334599999969, -22.547785499999986 ], [ -43.688109299999951, -22.547680499999952 ], [ -43.687743699999935, -22.54783509999994 ], [ -43.687411399999974, -22.547835099999919 ], [ -43.687073399999974, -22.547728799999959 ], [ -43.686844499999943, -22.547520499999962 ], [ -43.686768899999947, -22.547136499999962 ], [ -43.68683859999993, -22.546948499999946 ], [ -43.687161899999978, -22.54666379999998 ], [ -43.687421799999989, -22.546318599999953 ], [ -43.687983699999961, -22.545601299999923 ], [ -43.688814399999956, -22.545010599999959 ], [ -43.689368299999956, -22.54453059999998 ], [ -43.690125199999954, -22.544069 ], [ -43.690623599999981, -22.543829 ], [ -43.69102979999996, -22.543349 ], [ -43.691491299999932, -22.542776699999926 ], [ -43.692071299999959, -22.54218979999996 ], [ -43.692235699999969, -22.542023299999983 ], [ -43.693185499999977, -22.541436299999926 ], [ -43.69395929999996, -22.540958099999962 ], [ -43.694137299999966, -22.540862799999957 ], [ -43.694179399999946, -22.540838 ], [ -43.6941796, -22.540868399999955 ], [ -43.694671499999963, -22.541308199999936 ], [ -43.695642199999959, -22.542077499999941 ], [ -43.69642969999996, -22.542663599999976 ], [ -43.697565299999951, -22.543414499999979 ], [ -43.697846599999934, -22.543729799999927 ], [ -43.698725699999954, -22.543262799999972 ], [ -43.698975499999953, -22.542681899999941 ], [ -43.699470099999978, -22.541564699999984 ], [ -43.700514, -22.540337499999957 ], [ -43.701649499999974, -22.53918369999997 ], [ -43.702299099999955, -22.538310799999966 ], [ -43.702054799999985, -22.538022099999981 ], [ -43.701747, -22.537924 ], [ -43.701681099999973, -22.53777179999998 ], [ -43.701619799999953, -22.53763019999996 ], [ -43.7015775, -22.537339499999973 ], [ -43.701632799999963, -22.537064 ], [ -43.701197199999967, -22.537298199999945 ], [ -43.700868099999973, -22.53734 ], [ -43.700630499999939, -22.537370099999979 ], [ -43.700164299999983, -22.537295899999947 ], [ -43.700054099999925, -22.536598099999928 ], [ -43.699458199999981, -22.536893599999924 ], [ -43.697901299999955, -22.537398799999949 ], [ -43.696526799999965, -22.537541299999933 ], [ -43.69537669999994, -22.537839299999984 ], [ -43.69461929999995, -22.538474 ], [ -43.693202, -22.539205 ], [ -43.692515399999927, -22.539559 ], [ -43.691325, -22.540049799999963 ], [ -43.691155599999945, -22.539565099999951 ], [ -43.690785, -22.539296799999921 ], [ -43.690199799999967, -22.538988799999959 ], [ -43.6898303, -22.538958 ], [ -43.689435099999969, -22.539353199999944 ], [ -43.689419699999974, -22.539666299999958 ], [ -43.689332399999962, -22.54014879999994 ], [ -43.688706199999956, -22.540934099999955 ], [ -43.688552199999947, -22.541334399999979 ], [ -43.686540199999968, -22.541919599999979 ], [ -43.685780599999937, -22.542042799999933 ], [ -43.684795099999974, -22.541765599999966 ], [ -43.684302299999963, -22.541190699999959 ], [ -43.683871199999942, -22.540513199999964 ], [ -43.683748, -22.539948599999942 ], [ -43.683881499999977, -22.539065799999946 ], [ -43.683614599999942, -22.537916099999961 ], [ -43.6831648, -22.537155799999933 ], [ -43.68294869999994, -22.537109099999959 ], [ -43.682405599999989, -22.536757199999958 ], [ -43.681744499999979, -22.536454699999986 ], [ -43.681133399999965, -22.536597499999974 ], [ -43.680660199999977, -22.536830699999939 ], [ -43.679966699999973, -22.536916499999961 ], [ -43.679129599999953, -22.537012599999983 ], [ -43.678420499999959, -22.537084299999947 ], [ -43.677149499999985, -22.537212899999933 ], [ -43.67705119999993, -22.53753979999993 ], [ -43.675610799999959, -22.537446099999951 ], [ -43.673224599999969, -22.537667899999981 ], [ -43.672077699999932, -22.537774399999929 ], [ -43.671529199999952, -22.537517199999961 ], [ -43.671237, -22.537374799999942 ], [ -43.670852099999934, -22.537635099999932 ], [ -43.670615799999958, -22.537800799999953 ], [ -43.667493899999961, -22.539588599999949 ], [ -43.666147099999925, -22.540351899999958 ], [ -43.664657799999929, -22.541196 ], [ -43.663434399999971, -22.541805799999956 ], [ -43.663402099999985, -22.541821899999945 ], [ -43.663362099999972, -22.541889599999934 ], [ -43.663361699999939, -22.541994099999936 ], [ -43.663387899999968, -22.542269199999971 ], [ -43.664200699999981, -22.542467 ], [ -43.664325, -22.542808899999958 ], [ -43.664088599999957, -22.543163 ], [ -43.664310599999972, -22.543809299999957 ], [ -43.663528299999946, -22.543742 ], [ -43.662900099999945, -22.54370879999993 ], [ -43.662401499999923, -22.543708799999912 ], [ -43.662002599999944, -22.543609 ], [ -43.66168689999995, -22.543509299999986 ], [ -43.661470799999961, -22.543409599999954 ], [ -43.661304699999967, -22.543442899999942 ], [ -43.661188299999935, -22.543559199999947 ], [ -43.661155099999974, -22.543675499999939 ], [ -43.661171699999954, -22.543808499999962 ], [ -43.661254799999945, -22.543958 ], [ -43.661437599999942, -22.544091 ], [ -43.661437599999942, -22.54419069999993 ], [ -43.661337899999978, -22.544257199999944 ], [ -43.661155099999974, -22.544157499999972 ], [ -43.660822699999983, -22.543791899999977 ], [ -43.660340799999972, -22.543559199999944 ], [ -43.660025, -22.543376399999943 ], [ -43.659692599999971, -22.543143699999973 ], [ -43.659476599999948, -22.543160299999954 ], [ -43.659194099999986, -22.543243399999934 ], [ -43.659111, -22.543409599999965 ], [ -43.659144199999965, -22.543575799999921 ], [ -43.659260499999959, -22.543841699999973 ], [ -43.659310399999981, -22.543974699999985 ], [ -43.659327, -22.544174099999974 ], [ -43.6594032, -22.544405199999968 ], [ -43.659659399999953, -22.544506499999969 ], [ -43.659955, -22.544464699999939 ], [ -43.660183099999983, -22.544432499999964 ], [ -43.660352199999977, -22.544769799999973 ], [ -43.660324099999976, -22.545270899999931 ], [ -43.660262499999924, -22.545847199999958 ], [ -43.659775699999955, -22.546367799999921 ], [ -43.659376899999984, -22.54673339999993 ], [ -43.659077699999955, -22.546783199999929 ], [ -43.658612399999981, -22.546600399999928 ], [ -43.65813049999997, -22.546367799999938 ], [ -43.657715, -22.54616829999998 ], [ -43.65748229999997, -22.546118499999967 ], [ -43.657266299999947, -22.546185 ], [ -43.65715, -22.546450899999968 ], [ -43.657764899999961, -22.546916199999931 ], [ -43.658287, -22.547115 ], [ -43.65863639999997, -22.547282799999948 ], [ -43.658296699999944, -22.547680599999985 ], [ -43.658263399999953, -22.547978199999928 ], [ -43.658509399999957, -22.548028 ], [ -43.659028899999953, -22.548060499999966 ], [ -43.659526, -22.547958299999944 ], [ -43.660075799999966, -22.548080899999935 ], [ -43.660496, -22.548267699999929 ], [ -43.660442199999977, -22.547912799999946 ], [ -43.660674399999948, -22.547578 ], [ -43.660963, -22.54733229999994 ], [ -43.661348, -22.546981 ], [ -43.661622699999953, -22.546817799999932 ], [ -43.662009299999966, -22.54679109999995 ], [ -43.662113099999942, -22.547160799999972 ], [ -43.662218, -22.547410899999928 ], [ -43.662475099999931, -22.54746289999996 ], [ -43.66286859999996, -22.547578499999918 ], [ -43.663322899999969, -22.547954499999943 ], [ -43.663570099999959, -22.548045099999953 ], [ -43.663579899999945, -22.548043799999963 ], [ -43.663933099999959, -22.547995 ], [ -43.664331599999969, -22.548211 ], [ -43.664345599999933, -22.548221199999933 ], [ -43.664589699999965, -22.548399199999956 ], [ -43.66469149999994, -22.54848949999997 ], [ -43.6647483, -22.54853339999994 ], [ -43.664958499999955, -22.548499699999986 ], [ -43.664997399999947, -22.548462699999963 ], [ -43.665382199999954, -22.548095599999964 ], [ -43.66587729999997, -22.548188399999958 ], [ -43.666524599999946, -22.548172099999931 ], [ -43.667043799999931, -22.547914499999926 ], [ -43.668079599999942, -22.546623799999963 ], [ -43.670322499999941, -22.54764369999997 ], [ -43.670458099999962, -22.547929199999931 ], [ -43.670759199999978, -22.548143899999953 ], [ -43.670699599999971, -22.548285599999939 ], [ -43.669806199999982, -22.552429899999936 ], [ -43.674288799999943, -22.553633399999963 ], [ -43.673753199999965, -22.55551909999997 ], [ -43.672928099999979, -22.55764529999994 ], [ -43.672917299999931, -22.557673099999931 ], [ -43.672915899999964, -22.557676699999949 ], [ -43.672346499999939, -22.557347799999942 ], [ -43.672054499999945, -22.557253599999971 ], [ -43.671597699999957, -22.557357199999956 ], [ -43.671578199999935, -22.558246 ], [ -43.671084, -22.558559299999942 ], [ -43.671019599999966, -22.559217699999966 ], [ -43.671011599999986, -22.559299099999983 ], [ -43.671962299999969, -22.559828599999946 ], [ -43.67440129999995, -22.560798 ], [ -43.674602099999959, -22.560871899999942 ], [ -43.676541799999939, -22.562274699999925 ], [ -43.676263899999981, -22.562384599999969 ], [ -43.676211199999955, -22.562626 ], [ -43.6760106, -22.563118499999966 ], [ -43.675736899999947, -22.563173199999941 ], [ -43.675390299999947, -22.562936099999941 ], [ -43.675062, -22.562461799999937 ], [ -43.674843099999975, -22.562242899999955 ], [ -43.674405299999933, -22.562188099999947 ], [ -43.673931, -22.562388799999962 ], [ -43.673821499999974, -22.562936099999941 ], [ -43.67411339999996, -22.563483399999939 ], [ -43.674660599999982, -22.564158299999971 ], [ -43.674697099999946, -22.564359 ], [ -43.674843099999983, -22.56479679999995 ], [ -43.674952499999968, -22.565143399999947 ], [ -43.675153199999954, -22.5653076 ], [ -43.675718699999948, -22.564997499999937 ], [ -43.675773399999969, -22.564322499999953 ], [ -43.6760106, -22.564176599999943 ], [ -43.676174799999956, -22.564194799999935 ], [ -43.676174799999949, -22.564815 ], [ -43.676083499999947, -22.565216399999944 ], [ -43.67607419999996, -22.565459599999926 ], [ -43.676050099999948, -22.565698699999921 ], [ -43.675846399999955, -22.565946099999962 ], [ -43.675828199999955, -22.566475099999927 ], [ -43.675992299999962, -22.566858199999956 ], [ -43.676083499999947, -22.567077099999938 ], [ -43.675809899999926, -22.567332499999964 ], [ -43.675518, -22.567989199999943 ], [ -43.675463299999933, -22.56870059999995 ], [ -43.675609199999933, -22.569047299999955 ], [ -43.67560919999994, -22.569521499999954 ], [ -43.675572799999948, -22.569649199999947 ], [ -43.67552459999996, -22.569783599999941 ], [ -43.676067299999943, -22.570089599999953 ], [ -43.676275199999964, -22.570220499999941 ], [ -43.676380799999954, -22.57021769999994 ], [ -43.676544099999944, -22.570185399999961 ], [ -43.677050399999985, -22.570050599999952 ], [ -43.677072499999944, -22.569464899999961 ], [ -43.677086299999985, -22.569101299999943 ], [ -43.677108899999951, -22.568503599999932 ], [ -43.676995699999964, -22.567934499999971 ], [ -43.677579399999956, -22.56740539999992 ], [ -43.677834799999971, -22.567095299999945 ], [ -43.677814399999932, -22.566871599999953 ], [ -43.677433499999957, -22.566529799999952 ], [ -43.677427, -22.566127699999978 ], [ -43.677321099999972, -22.565736299999969 ], [ -43.677194399999962, -22.564928099999978 ], [ -43.677418399999965, -22.564327899999967 ], [ -43.677652399999943, -22.564182399999925 ], [ -43.677834799999971, -22.564231299999964 ], [ -43.678528, -22.564085299999924 ], [ -43.679203, -22.563848199999939 ], [ -43.679604299999937, -22.563866399999924 ], [ -43.679798699999942, -22.563897099999966 ], [ -43.680422599999979, -22.563490199999915 ], [ -43.681091699999961, -22.562947699999945 ], [ -43.68155279999997, -22.56271259999993 ] ] ], [ [ [ -43.664379099999969, -22.530991699999948 ], [ -43.664597, -22.531190599999938 ], [ -43.665212799999949, -22.531550599999935 ], [ -43.665724299999965, -22.531796899999964 ], [ -43.66550639999997, -22.532365299999974 ], [ -43.665317, -22.532725299999985 ], [ -43.665241199999969, -22.532971599999939 ], [ -43.665032799999949, -22.53287679999994 ], [ -43.664634899999946, -22.532782099999963 ], [ -43.664256, -22.532763099999958 ], [ -43.663914899999959, -22.532734699999942 ], [ -43.663668599999937, -22.532782099999952 ], [ -43.66349809999997, -22.532895799999956 ], [ -43.66339389999996, -22.533104199999968 ], [ -43.663365499999948, -22.533331499999985 ], [ -43.66349809999997, -22.533577799999925 ], [ -43.663730599999951, -22.533679899999974 ], [ -43.664483299999965, -22.533862 ], [ -43.664814899999953, -22.533871499999968 ], [ -43.665155899999938, -22.533805199999964 ], [ -43.665364299999965, -22.533795699999924 ], [ -43.665658, -22.533881 ], [ -43.665752699999985, -22.533928399999976 ], [ -43.665743299999974, -22.534203099999957 ], [ -43.665752699999985, -22.534477799999934 ], [ -43.665762199999968, -22.534619899999932 ], [ -43.66614079999993, -22.534738199999939 ], [ -43.666615899999954, -22.534573 ], [ -43.666925699999979, -22.534139199999963 ], [ -43.666863699999965, -22.533850099999935 ], [ -43.666925699999979, -22.533147799999927 ], [ -43.667194199999976, -22.531949799999943 ], [ -43.6671942, -22.53133019999996 ], [ -43.667318099999932, -22.530834499999969 ], [ -43.667318099999932, -22.530359399999941 ], [ -43.667090899999955, -22.530173499999933 ], [ -43.666760499999953, -22.530318099999935 ], [ -43.666409299999941, -22.53075189999992 ], [ -43.666283199999953, -22.531095899999968 ], [ -43.665667499999984, -22.530660099999974 ], [ -43.665269599999931, -22.530461199999941 ], [ -43.66490959999993, -22.530413799999963 ], [ -43.664578, -22.530470599999948 ], [ -43.664417, -22.530593799999966 ], [ -43.664350699999943, -22.530783199999966 ], [ -43.664379099999969, -22.530991699999948 ] ] ], [ [ [ -43.67393229999994, -22.529817499999982 ], [ -43.67340779999995, -22.529825799999973 ], [ -43.673094, -22.529982699999948 ], [ -43.672453799999978, -22.530639399999924 ], [ -43.67170219999997, -22.531638799999943 ], [ -43.671578299999965, -22.532126099999957 ], [ -43.671355299999959, -22.532489599999966 ], [ -43.671322199999963, -22.532873699999975 ], [ -43.671380099999965, -22.53296859999994 ], [ -43.671731099999938, -22.533117299999951 ], [ -43.67222669999996, -22.533191699999982 ], [ -43.672883299999974, -22.533212299999953 ], [ -43.673279799999932, -22.533038799999929 ], [ -43.673606099999972, -22.532654799999918 ], [ -43.673688699999957, -22.532386299999935 ], [ -43.674353599999954, -22.53182049999997 ], [ -43.675002, -22.531238199999954 ], [ -43.675096899999971, -22.530891299999958 ], [ -43.675134099999973, -22.53057739999997 ], [ -43.675220799999984, -22.530399899999964 ], [ -43.675373699999966, -22.530375099999951 ], [ -43.675584299999969, -22.530408099999917 ], [ -43.675840299999948, -22.530420499999916 ], [ -43.676038599999963, -22.529945599999966 ], [ -43.676501099999932, -22.529706 ], [ -43.67668279999998, -22.529334399999978 ], [ -43.676815, -22.528834599999989 ], [ -43.676748899999957, -22.528681799999951 ], [ -43.676715899999984, -22.528566099999971 ], [ -43.676385499999988, -22.528599199999974 ], [ -43.676112899999971, -22.528847 ], [ -43.675827899999938, -22.529388 ], [ -43.675580099999934, -22.529627599999969 ], [ -43.675105199999969, -22.52966889999993 ], [ -43.674816099999923, -22.529664699999962 ], [ -43.674469199999976, -22.529768 ], [ -43.67393229999994, -22.529817499999982 ] ] ], [ [ [ -43.604129599999972, -22.494537199999964 ], [ -43.604595, -22.494255499999959 ], [ -43.60511159999993, -22.49364919999994 ], [ -43.605344099999961, -22.4937882 ], [ -43.6054903, -22.493891299999984 ], [ -43.605737199999972, -22.494039899999958 ], [ -43.606021199999937, -22.494243599999937 ], [ -43.606168699999962, -22.494362299999981 ], [ -43.606271699999979, -22.494452099999922 ], [ -43.606533, -22.494604399999947 ], [ -43.606586399999976, -22.494644899999965 ], [ -43.607052899999985, -22.494994499999954 ], [ -43.607634, -22.494775 ], [ -43.608343199999979, -22.493743 ], [ -43.609830299999942, -22.49304659999995 ], [ -43.609874199999979, -22.493039499999956 ], [ -43.609932, -22.492990899999938 ], [ -43.610755799999936, -22.49205539999997 ], [ -43.608957799999985, -22.490203799999957 ], [ -43.610146399999969, -22.489404699999955 ], [ -43.610899699999948, -22.488580899999949 ], [ -43.611726899999951, -22.487983499999928 ], [ -43.612511199999979, -22.487725099999981 ], [ -43.612494899999945, -22.487197499999972 ], [ -43.612243699999958, -22.487184499999959 ], [ -43.61192919999997, -22.487198099999933 ], [ -43.611541, -22.487271 ], [ -43.611218899999983, -22.487446499999965 ], [ -43.611287899999979, -22.487306499999931 ], [ -43.611620399999943, -22.486630799999933 ], [ -43.611841, -22.484775699999936 ], [ -43.612071199999946, -22.482832299999934 ], [ -43.61049689999993, -22.483005699999975 ], [ -43.609955299999967, -22.483065099999973 ], [ -43.60956089999997, -22.483108299999973 ], [ -43.609080199999937, -22.483161 ], [ -43.599742599999956, -22.484184599999931 ], [ -43.599198, -22.484441499999949 ], [ -43.594859799999938, -22.486488299999959 ], [ -43.594712399999942, -22.486557799999957 ], [ -43.59365159999993, -22.487648599999943 ], [ -43.593643199999981, -22.487657299999963 ], [ -43.589417099999928, -22.492002799999959 ], [ -43.592698399999961, -22.494698299999982 ], [ -43.593941199999968, -22.494942299999938 ], [ -43.595646299999942, -22.495090099999974 ], [ -43.597959899999978, -22.495290699999941 ], [ -43.600621399999966, -22.49479209999993 ], [ -43.601253199999974, -22.496071899999937 ], [ -43.601475099999966, -22.496088499999921 ], [ -43.602561699999967, -22.495428299999958 ], [ -43.60384149999993, -22.494700899999955 ], [ -43.604129599999972, -22.494537199999964 ] ] ], [ [ [ -43.578161399999942, -22.486782799999961 ], [ -43.578393699999943, -22.486511899999979 ], [ -43.578935499999943, -22.485853899999945 ], [ -43.579541899999988, -22.485892599999939 ], [ -43.580386899999958, -22.485031399999968 ], [ -43.581122299999954, -22.484576699999945 ], [ -43.581944699999958, -22.483821899999956 ], [ -43.582443, -22.483505899999951 ], [ -43.583352599999955, -22.484019099999951 ], [ -43.584060099999931, -22.484501699999946 ], [ -43.585337399999965, -22.48529989999998 ], [ -43.586128399999957, -22.485633799999963 ], [ -43.587021, -22.485387 ], [ -43.587071799999933, -22.484973399999944 ], [ -43.586404099999982, -22.485024199999955 ], [ -43.585845299999967, -22.484893599999964 ], [ -43.584945499999947, -22.484378299999946 ], [ -43.5856639, -22.483601799999981 ], [ -43.586171899999954, -22.482861599999968 ], [ -43.586440399999958, -22.482404399999933 ], [ -43.586491199999955, -22.481983499999956 ], [ -43.586331599999937, -22.481729499999972 ], [ -43.58598319999993, -22.481584399999981 ], [ -43.586611, -22.481493699999934 ], [ -43.587318499999981, -22.481537199999938 ], [ -43.58824379999993, -22.481733199999947 ], [ -43.589223499999953, -22.481874699999945 ], [ -43.59020739999994, -22.482301799999952 ], [ -43.590420299999948, -22.482215699999987 ], [ -43.590261199999929, -22.481861 ], [ -43.590307699999975, -22.481809099999964 ], [ -43.590361499999979, -22.481907099999951 ], [ -43.590499199999961, -22.482209099999977 ], [ -43.59059469999994, -22.482614199999944 ], [ -43.591026699999929, -22.482419299999957 ], [ -43.590957899999971, -22.482113499999972 ], [ -43.590824099999956, -22.48201789999996 ], [ -43.590685, -22.481700899999964 ], [ -43.590912, -22.481555399999937 ], [ -43.591236899999956, -22.481467499999944 ], [ -43.591561799999958, -22.481402499999938 ], [ -43.591726199999982, -22.481268699999926 ], [ -43.591661499999937, -22.481021 ], [ -43.591511899999936, -22.481082799999967 ], [ -43.591321699999988, -22.481147 ], [ -43.591062799999968, -22.481183599999948 ], [ -43.590895499999931, -22.481151599999979 ], [ -43.590758099999967, -22.481163 ], [ -43.590643499999942, -22.481247799999945 ], [ -43.590535799999934, -22.481399 ], [ -43.590513899999969, -22.481429699999964 ], [ -43.590370799999967, -22.481630499999927 ], [ -43.590327899999984, -22.481587599999958 ], [ -43.590594599999982, -22.480493 ], [ -43.588683299999964, -22.479868699999937 ], [ -43.5884157, -22.47914239999994 ], [ -43.588657799999964, -22.478454299999964 ], [ -43.589651699999941, -22.475918699999951 ], [ -43.588810699999954, -22.473650599999928 ], [ -43.591741299999967, -22.472159799999929 ], [ -43.593053799999957, -22.470834599999929 ], [ -43.593334099999936, -22.470605299999935 ], [ -43.593423299999984, -22.46995539999995 ], [ -43.594022199999984, -22.469904399999958 ], [ -43.594328, -22.469573199999957 ], [ -43.594582799999955, -22.469127199999956 ], [ -43.595041499999972, -22.468821399999975 ], [ -43.593993499999961, -22.468575299999944 ], [ -43.593883599999963, -22.468465399999957 ], [ -43.593835799999965, -22.468274299999955 ], [ -43.593778499999985, -22.468130899999938 ], [ -43.593635099999965, -22.468040099999946 ], [ -43.593533299999933, -22.468018699999959 ], [ -43.593553899999954, -22.467904 ], [ -43.593448799999976, -22.467330599999968 ], [ -43.593066499999971, -22.46647049999995 ], [ -43.592846699999939, -22.465830199999971 ], [ -43.592158599999955, -22.465228099999941 ], [ -43.59185279999997, -22.46531419999997 ], [ -43.591470599999987, -22.465906699999948 ], [ -43.591241199999956, -22.46659469999997 ], [ -43.591123399999965, -22.467219099999955 ], [ -43.590836699999954, -22.467601299999963 ], [ -43.590205899999944, -22.467754199999938 ], [ -43.589642099999942, -22.467544 ], [ -43.589231199999979, -22.466378099999915 ], [ -43.587224299999946, -22.464476399999974 ], [ -43.586660499999937, -22.46480129999998 ], [ -43.587133499999936, -22.466521499999946 ], [ -43.587098599999941, -22.467522199999969 ], [ -43.586260899999964, -22.468180699999948 ], [ -43.584755799999989, -22.469667899999934 ], [ -43.583327399999973, -22.470021 ], [ -43.58324639999995, -22.470176199999969 ], [ -43.582736099999984, -22.470380299999931 ], [ -43.582248499999935, -22.470334899999962 ], [ -43.581919699999958, -22.470187499999959 ], [ -43.581534199999965, -22.470142099999972 ], [ -43.581216699999977, -22.47023279999997 ], [ -43.580959199999938, -22.47037689999997 ], [ -43.580889199999945, -22.470339 ], [ -43.580835099999952, -22.47028139999998 ], [ -43.580765199999973, -22.470207 ], [ -43.580728599999929, -22.470147499999936 ], [ -43.580727299999971, -22.469971699999967 ], [ -43.580763899999965, -22.469834399999971 ], [ -43.580797699999955, -22.469664699999946 ], [ -43.580799699999936, -22.469519899999963 ], [ -43.580776599999979, -22.469437399999958 ], [ -43.581203099999982, -22.469145 ], [ -43.581608299999971, -22.46869479999998 ], [ -43.581646099999951, -22.468196599999942 ], [ -43.581165399999982, -22.467771599999931 ], [ -43.580523299999975, -22.467600499999939 ], [ -43.579785699999945, -22.467127699999931 ], [ -43.579370799999943, -22.466856899999982 ], [ -43.578999499999952, -22.466456299999955 ], [ -43.579033699999961, -22.465294599999947 ], [ -43.579113499999949, -22.464659099999956 ], [ -43.578548499999954, -22.464189699999956 ], [ -43.578065899999949, -22.463684599999972 ], [ -43.577347699999962, -22.465926699999955 ], [ -43.577518799999957, -22.466642899999965 ], [ -43.577510199999956, -22.466689 ], [ -43.577504699999963, -22.466718599999986 ], [ -43.577487699999949, -22.466811 ], [ -43.577144, -22.468181399999935 ], [ -43.576393799999956, -22.472725399999941 ], [ -43.575551799999978, -22.474537599999966 ], [ -43.575390199999958, -22.475099299999957 ], [ -43.575360499999938, -22.478311599999934 ], [ -43.575060699999938, -22.478149899999945 ], [ -43.574807799999967, -22.477870699999983 ], [ -43.574618199999975, -22.477544199999947 ], [ -43.574464199999973, -22.476751799999931 ], [ -43.574397, -22.476419099999937 ], [ -43.574312199999959, -22.476204899999971 ], [ -43.574217599999947, -22.476086599999963 ], [ -43.573954499999964, -22.475869099999962 ], [ -43.573504, -22.475737 ], [ -43.573120499999959, -22.475738699999962 ], [ -43.572847399999944, -22.475813199999951 ], [ -43.572571099999941, -22.47585429999998 ], [ -43.572370199999966, -22.475840699999932 ], [ -43.57135709999995, -22.475671199999969 ], [ -43.570862499999976, -22.475579 ], [ -43.569782699999962, -22.475363399999932 ], [ -43.569611, -22.475316 ], [ -43.569346899999971, -22.475202099999944 ], [ -43.568667099999971, -22.474767199999977 ], [ -43.568501899999944, -22.474664299999965 ], [ -43.568460799999961, -22.474820099999938 ], [ -43.567824399999949, -22.477239299999951 ], [ -43.568569399999944, -22.477444499999937 ], [ -43.569170899999953, -22.477451199999958 ], [ -43.570617, -22.477255199999949 ], [ -43.571157599999928, -22.477349799999956 ], [ -43.570860299999943, -22.477579599999952 ], [ -43.570684599999943, -22.478147299999939 ], [ -43.57084679999997, -22.478701399999981 ], [ -43.570752099999943, -22.479769099999938 ], [ -43.570562899999977, -22.480269199999949 ], [ -43.570089899999978, -22.480701599999964 ], [ -43.569306, -22.481255799999925 ], [ -43.568684299999966, -22.482039699999962 ], [ -43.56827879999998, -22.48262079999995 ], [ -43.568170699999939, -22.483039799999972 ], [ -43.568184199999962, -22.483675 ], [ -43.56815719999998, -22.484526499999962 ], [ -43.570238599999989, -22.484877899999951 ], [ -43.571292799999974, -22.484688699999946 ], [ -43.572860499999933, -22.484046699999961 ], [ -43.574110699999949, -22.481796399999951 ], [ -43.574671599999931, -22.480519199999943 ], [ -43.574901299999972, -22.4798231 ], [ -43.575144199999954, -22.479223699999984 ], [ -43.576339699999949, -22.479352699999929 ], [ -43.576227899999935, -22.480561199999961 ], [ -43.57682559999995, -22.48139539999994 ], [ -43.578481299999964, -22.482367299999972 ], [ -43.57993479999994, -22.483399399999936 ], [ -43.578696299999926, -22.484896 ], [ -43.577318, -22.486621499999959 ], [ -43.576535899999961, -22.487608499999961 ], [ -43.576719699999956, -22.488901799999947 ], [ -43.578042099999941, -22.487863299999969 ], [ -43.578954899999978, -22.487531099999952 ], [ -43.578987099999949, -22.487169799999947 ], [ -43.578161399999942, -22.486782799999961 ] ] ] ] } }
]
}
