{
"type": "FeatureCollection",
"name": "3301504",
"crs": { "type": "name", "properties": { "name": "urn:ogc:def:crs:OGC:1.3:CRS84" } },
"features": [
{ "type": "Feature", "properties": { "CD_MUN": "3301504", "NM_MUN": "Cordeiro" }, "geometry": { "type": "Polygon", "coordinates": [ [ [ -42.374187799999959, -22.04302089999992 ], [ -42.374482499999942, -22.043155 ], [ -42.374829899999952, -22.043347899999965 ], [ -42.375293, -22.043405799999952 ], [ -42.3759492, -22.04346369999995 ], [ -42.376315799999929, -22.043811099999964 ], [ -42.376682499999966, -22.043984799999969 ], [ -42.377357899999936, -22.043811099999967 ], [ -42.378033399999936, -22.043386499999936 ], [ -42.378766699999979, -22.04301989999993 ], [ -42.379461399999968, -22.04301989999993 ], [ -42.379963199999963, -22.042865499999941 ], [ -42.38031049999995, -22.042807599999939 ], [ -42.380426299999954, -22.042286499999932 ], [ -42.380812299999945, -22.041862 ], [ -42.381236599999973, -22.041110799999952 ], [ -42.383575199999939, -22.040477099999961 ], [ -42.385728399999941, -22.039893699999936 ], [ -42.39670719999998, -22.036918799999956 ], [ -42.395998299999981, -22.035999599999975 ], [ -42.395866499999947, -22.035828799999923 ], [ -42.395826099999965, -22.035776399999975 ], [ -42.394227199999932, -22.033703899999971 ], [ -42.393847299999948, -22.03361879999995 ], [ -42.393619699999931, -22.033471199999948 ], [ -42.393423599999949, -22.033552699999976 ], [ -42.39306229999994, -22.033538899999947 ], [ -42.392376599999977, -22.033164499999934 ], [ -42.392151299999966, -22.03314679999994 ], [ -42.391957399999967, -22.033185199999938 ], [ -42.391790699999945, -22.033117599999958 ], [ -42.39178, -22.032995399999944 ], [ -42.391667699999964, -22.03295839999992 ], [ -42.39156319999995, -22.03298919999996 ], [ -42.391556899999962, -22.033092899999925 ], [ -42.391470899999945, -22.033124499999932 ], [ -42.391273799999972, -22.033028299999952 ], [ -42.391101899999967, -22.033149899999952 ], [ -42.391005, -22.033105299999924 ], [ -42.390885099999934, -22.03315769999994 ], [ -42.390830499999936, -22.033171899999964 ], [ -42.39037929999995, -22.033299 ], [ -42.389858, -22.033518899999923 ], [ -42.38913539999993, -22.033509699999975 ], [ -42.3888386, -22.033346699999971 ], [ -42.388517199999967, -22.033351299999932 ], [ -42.388387299999984, -22.033295199999944 ], [ -42.388030599999979, -22.033340499999955 ], [ -42.387633899999969, -22.033262899999944 ], [ -42.387547799999936, -22.033186 ], [ -42.387327899999946, -22.033182899999922 ], [ -42.38717569999995, -22.033128399999953 ], [ -42.386992699999951, -22.033155299999979 ], [ -42.386880499999961, -22.033120699999916 ], [ -42.386761299999932, -22.033144499999942 ], [ -42.386665199999989, -22.033086099999938 ], [ -42.386450699999955, -22.033106799999935 ], [ -42.386267, -22.033201399999943 ], [ -42.386091699999959, -22.033185199999938 ], [ -42.385854199999983, -22.032820099999988 ], [ -42.385832599999958, -22.032702399999948 ], [ -42.385771899999952, -22.032620199999933 ], [ -42.385696599999967, -22.032601 ], [ -42.385616599999935, -22.032740899999965 ], [ -42.385547599999931, -22.03278 ], [ -42.385252199999968, -22.032634 ], [ -42.38540439999997, -22.032446399999966 ], [ -42.385302899999949, -22.032352599999975 ], [ -42.385275299999932, -22.032164299999977 ], [ -42.384947799999964, -22.032133499999919 ], [ -42.384772499999947, -22.032265 ], [ -42.38460409999994, -22.032348799999973 ], [ -42.384137099999975, -22.032854 ], [ -42.384175899999953, -22.032914599999962 ], [ -42.384179699999954, -22.033049899999988 ], [ -42.384072899999978, -22.033098399999968 ], [ -42.383942199999986, -22.033093 ], [ -42.383667, -22.03287309999995 ], [ -42.3835524, -22.032851599999944 ], [ -42.383350199999938, -22.032975399999945 ], [ -42.3830981, -22.03292 ], [ -42.382528399999963, -22.032970699999968 ], [ -42.38225929999993, -22.033066799999975 ], [ -42.382214, -22.033012299999939 ], [ -42.38211629999995, -22.032981499999945 ], [ -42.381202199999954, -22.032987699999975 ], [ -42.38111459999994, -22.032962299999948 ], [ -42.381105399999967, -22.03289 ], [ -42.380658699999969, -22.032567099999934 ], [ -42.380609799999952, -22.032451499999983 ], [ -42.380476599999959, -22.03229169999997 ], [ -42.380454099999952, -22.032066899999968 ], [ -42.38022019999994, -22.031864699999971 ], [ -42.380087899999978, -22.03185469999994 ], [ -42.379983, -22.031913799999916 ], [ -42.379739099999938, -22.031863 ], [ -42.379494399999942, -22.031910399999962 ], [ -42.379105699999968, -22.031773099999953 ], [ -42.37888339999995, -22.031795599999953 ], [ -42.378746099999951, -22.031677399999968 ], [ -42.378424799999955, -22.031598299999921 ], [ -42.378190899999936, -22.031481799999934 ], [ -42.377968699999947, -22.031518399999982 ], [ -42.377902899999988, -22.031555 ], [ -42.377922099999971, -22.03085219999997 ], [ -42.369887899999988, -22.029129399999924 ], [ -42.369650799999931, -22.029078599999924 ], [ -42.368879, -22.028141399999978 ], [ -42.368634799999946, -22.027382199999973 ], [ -42.368613399999965, -22.027315599999948 ], [ -42.36856529999995, -22.027314799999949 ], [ -42.368546499999987, -22.027183299999926 ], [ -42.368498399999964, -22.026926199999934 ], [ -42.368398, -22.026591099999973 ], [ -42.368353, -22.026401399999937 ], [ -42.368555399999934, -22.026239799999924 ], [ -42.369112699999967, -22.02613069999995 ], [ -42.369689399999977, -22.026109499999954 ], [ -42.370390399999962, -22.026262699999961 ], [ -42.371133799999946, -22.026500499999941 ], [ -42.371276699999953, -22.026554899999951 ], [ -42.371699199999966, -22.026736199999963 ], [ -42.372023799999965, -22.026872899999944 ], [ -42.372411399999976, -22.026955599999951 ], [ -42.372751899999969, -22.02688809999994 ], [ -42.373356399999984, -22.026595799999932 ], [ -42.373594499999975, -22.026220499999965 ], [ -42.373628499999938, -22.02553139999997 ], [ -42.373325899999941, -22.024728199999966 ], [ -42.373285299999971, -22.024649499999949 ], [ -42.373243199999941, -22.024547599999941 ], [ -42.373049499999979, -22.024086699999927 ], [ -42.37271759999993, -22.023409399999935 ], [ -42.372443099999934, -22.022987 ], [ -42.372223899999938, -22.022698699999989 ], [ -42.372117499999952, -22.022567399999954 ], [ -42.37210639999995, -22.022553699999946 ], [ -42.3718942, -22.022337699999987 ], [ -42.371737, -22.022154199999925 ], [ -42.371542399999953, -22.021923399999942 ], [ -42.37141249999997, -22.021795899999969 ], [ -42.371330599999972, -22.021725199999924 ], [ -42.371166899999935, -22.021584199999943 ], [ -42.371087399999965, -22.021505599999944 ], [ -42.370956899999953, -22.021376699999955 ], [ -42.37087, -22.02129079999996 ], [ -42.370771699999977, -22.021226899999931 ], [ -42.370655899999974, -22.021153 ], [ -42.370200699999941, -22.021140499999944 ], [ -42.37021359999995, -22.020926599999939 ], [ -42.370246099999981, -22.020544799999971 ], [ -42.370268099999976, -22.020242199999927 ], [ -42.370291299999963, -22.019783699999945 ], [ -42.370262699999962, -22.019240299999979 ], [ -42.370270099999978, -22.018914399999971 ], [ -42.370281899999952, -22.018537 ], [ -42.37028429999998, -22.018316799999987 ], [ -42.370277299999941, -22.017955399999934 ], [ -42.370286399999948, -22.017766899999973 ], [ -42.370324799999942, -22.017365899999966 ], [ -42.370352599999933, -22.017172499999962 ], [ -42.370400299999972, -22.016911199999985 ], [ -42.370467499999968, -22.016543199999944 ], [ -42.370492299999974, -22.016041 ], [ -42.370522599999958, -22.015427699999986 ], [ -42.370494499999957, -22.014980399999956 ], [ -42.370451199999934, -22.01435889999993 ], [ -42.370188199999973, -22.013667399999971 ], [ -42.370136499999951, -22.013456899999934 ], [ -42.369959599999952, -22.012743699999923 ], [ -42.369804199999976, -22.012133 ], [ -42.369766, -22.011573299999956 ], [ -42.369714, -22.011002899999934 ], [ -42.369693699999978, -22.010793899999946 ], [ -42.369694899999949, -22.01068169999995 ], [ -42.369705299999957, -22.010468799999941 ], [ -42.369717699999974, -22.010217399999927 ], [ -42.369724399999939, -22.010070899999956 ], [ -42.369790099999932, -22.009826399999938 ], [ -42.370224499999949, -22.00967089999995 ], [ -42.370268699999947, -22.009655099999978 ], [ -42.370879099999968, -22.009261399999961 ], [ -42.371406899999954, -22.008762499999932 ], [ -42.371569099999931, -22.008609099999944 ], [ -42.37206969999994, -22.007957299999916 ], [ -42.372364299999951, -22.007581299999956 ], [ -42.372555899999952, -22.00735079999998 ], [ -42.372741199999957, -22.007068099999969 ], [ -42.372907699999985, -22.006828199999958 ], [ -42.373132099999964, -22.006545599999971 ], [ -42.373196499999956, -22.006470599999925 ], [ -42.373210299999982, -22.006462 ], [ -42.373520799999945, -22.005302499999974 ], [ -42.373575199999948, -22.003692599999965 ], [ -42.373265799999963, -22.00292509999997 ], [ -42.371061599999962, -22.003675099999949 ], [ -42.37083309999997, -22.003752899999938 ], [ -42.370670899999936, -22.003808099999958 ], [ -42.370451, -22.003882899999951 ], [ -42.369821299999963, -22.004097199999926 ], [ -42.365505799999944, -22.005565499999935 ], [ -42.361359899999968, -22.006976099999967 ], [ -42.361438, -22.007199099999966 ], [ -42.364867599999968, -22.016985 ], [ -42.365360499999952, -22.018410199999945 ], [ -42.355690699999975, -22.02325879999994 ], [ -42.355675199999951, -22.023266599999939 ], [ -42.355664499999932, -22.023272 ], [ -42.355534499999983, -22.023378699999959 ], [ -42.355498699999956, -22.023408099999976 ], [ -42.352614599999981, -22.025777299999969 ], [ -42.349217199999941, -22.028780799999943 ], [ -42.348925299999969, -22.031585899999975 ], [ -42.348828899999937, -22.032512099999956 ], [ -42.348354099999938, -22.037074299999965 ], [ -42.348255499999937, -22.038022299999955 ], [ -42.348207799999955, -22.038480699999973 ], [ -42.348902199999941, -22.039939599999958 ], [ -42.348903299999968, -22.03994189999996 ], [ -42.348489699999959, -22.040868 ], [ -42.349626599999958, -22.042629 ], [ -42.351655099999952, -22.044078 ], [ -42.353750599999955, -22.048558699999941 ], [ -42.355622, -22.048051599999948 ], [ -42.355712199999971, -22.048027199999975 ], [ -42.370744399999978, -22.043953899999956 ], [ -42.372681099999966, -22.043429099999958 ], [ -42.374187799999959, -22.04302089999992 ] ] ] } }
]
}
