{
"type": "FeatureCollection",
"name": "3302452",
"crs": { "type": "name", "properties": { "name": "urn:ogc:def:crs:OGC:1.3:CRS84" } },
"features": [
{ "type": "Feature", "properties": { "CD_MUN": "3302452", "NM_MUN": "Macuco" }, "geometry": { "type": "Polygon", "coordinates": [ [ [ -42.251487399999974, -21.998264 ], [ -42.251634399999951, -21.998322199999961 ], [ -42.252346399999965, -21.998590799999928 ], [ -42.252768699999933, -21.998681199999968 ], [ -42.253180899999968, -21.998713799999962 ], [ -42.253630799999939, -21.998703199999959 ], [ -42.254033799999938, -21.998616299999977 ], [ -42.254552799999949, -21.998435299999979 ], [ -42.25490469999994, -21.998246299999945 ], [ -42.2551984, -21.998042299999941 ], [ -42.255492499999946, -21.99777579999995 ], [ -42.25585, -21.997404599999978 ], [ -42.256163699999952, -21.997006699999925 ], [ -42.256394299999954, -21.996652399999956 ], [ -42.256621499999937, -21.996318299999924 ], [ -42.256820699999935, -21.996089599999934 ], [ -42.257048, -21.995931799999937 ], [ -42.257414599999954, -21.995746399999977 ], [ -42.25779079999996, -21.995635799999935 ], [ -42.257963299999979, -21.995620599999942 ], [ -42.258182499999968, -21.995639 ], [ -42.258476599999938, -21.995735599999929 ], [ -42.258711299999966, -21.995909099999952 ], [ -42.258902399999954, -21.996131899999966 ], [ -42.259278599999959, -21.996638599999983 ], [ -42.259575299999931, -21.997024399999937 ], [ -42.259885599999961, -21.997406399999939 ], [ -42.260401299999955, -21.998261499999948 ], [ -42.260455899999954, -21.998350899999924 ], [ -42.2614349, -21.999951499999941 ], [ -42.26147049999998, -22.000004 ], [ -42.261648699999974, -22.00026609999998 ], [ -42.261831199999961, -22.000444899999923 ], [ -42.261968599999925, -22.000524599999942 ], [ -42.262078499999966, -22.000570299999929 ], [ -42.262157699999932, -22.000592 ], [ -42.262241, -22.000614799999934 ], [ -42.262320399999957, -22.000622699999944 ], [ -42.2623943, -22.00063 ], [ -42.262638199999969, -22.000608799999956 ], [ -42.262800699999964, -22.000572899999952 ], [ -42.262975299999944, -22.000498899999975 ], [ -42.263197, -22.000388099999949 ], [ -42.263429199999962, -22.000255399999958 ], [ -42.263360399999954, -22.000199699999936 ], [ -42.263252699999946, -22.000105699999946 ], [ -42.263185699999951, -22.000039 ], [ -42.263163399999939, -22.000004499999918 ], [ -42.263100599999973, -21.999907399999913 ], [ -42.262909199999967, -21.999654199999952 ], [ -42.262882299999951, -21.999652 ], [ -42.2628127, -21.999631299999976 ], [ -42.262748, -21.999592399999987 ], [ -42.262683899999963, -21.999548099999981 ], [ -42.262650899999983, -21.999527099999959 ], [ -42.262618, -21.999506099999959 ], [ -42.26255459999993, -21.999463 ], [ -42.262500299999942, -21.99942019999996 ], [ -42.262439399999955, -21.999377199999977 ], [ -42.262379199999941, -21.999338399999939 ], [ -42.262318199999982, -21.999308799999941 ], [ -42.262246, -21.999281899999975 ], [ -42.262183199999974, -21.999258 ], [ -42.262118599999958, -21.999237499999943 ], [ -42.262046899999987, -21.999217199999968 ], [ -42.261980899999976, -21.999202 ], [ -42.261912299999949, -21.999189399999974 ], [ -42.261887899999984, -21.99918579999996 ], [ -42.261819899999978, -21.999182899999937 ], [ -42.261746899999935, -21.999187099999983 ], [ -42.26167479999998, -21.999189199999929 ], [ -42.261601, -21.999195699999966 ], [ -42.261521699999953, -21.999199 ], [ -42.261452099999978, -21.999197499999969 ], [ -42.261383599999938, -21.999187099999968 ], [ -42.261316499999964, -21.999160599999971 ], [ -42.261266199999966, -21.999109499999964 ], [ -42.26125749999995, -21.999046399999926 ], [ -42.261293599999938, -21.99899 ], [ -42.261341199999947, -21.998944299999945 ], [ -42.261399799999936, -21.998902 ], [ -42.261463, -21.998862699999954 ], [ -42.261522599999985, -21.998815199999967 ], [ -42.261579, -21.998768299999938 ], [ -42.261633699999948, -21.998722799999943 ], [ -42.261685599999964, -21.998668399999918 ], [ -42.261718, -21.998606699999975 ], [ -42.261726, -21.998540499999926 ], [ -42.261678699999948, -21.998494 ], [ -42.261609199999953, -21.998488 ], [ -42.261534199999971, -21.998504799999974 ], [ -42.261468499999985, -21.998527 ], [ -42.261394, -21.998550399999942 ], [ -42.261326199999985, -21.998562899999957 ], [ -42.26124939999994, -21.998564899999963 ], [ -42.261171899999972, -21.998561599999956 ], [ -42.261101799999949, -21.998552699999941 ], [ -42.261030899999973, -21.998522299999923 ], [ -42.260981899999933, -21.998477199999961 ], [ -42.260966899999978, -21.998414699999955 ], [ -42.260968499999933, -21.998350499999951 ], [ -42.260942499999942, -21.998283199999932 ], [ -42.260908599999944, -21.998217199999942 ], [ -42.260879499999938, -21.998147599999964 ], [ -42.260838699999972, -21.998094599999941 ], [ -42.260794799999985, -21.998040699999926 ], [ -42.260756, -21.997978899999953 ], [ -42.260720299999939, -21.997916499999981 ], [ -42.2606967, -21.997850799999966 ], [ -42.260680899999961, -21.997786 ], [ -42.260661299999988, -21.997716 ], [ -42.260638699999959, -21.997645099999932 ], [ -42.260610399999969, -21.997575599999941 ], [ -42.260585799999944, -21.997515 ], [ -42.260559699999938, -21.997449199999949 ], [ -42.26053469999993, -21.997376699999954 ], [ -42.260518299999944, -21.997309 ], [ -42.260515299999952, -21.997241 ], [ -42.260519299999942, -21.997175399999943 ], [ -42.260545499999985, -21.997111299999968 ], [ -42.260596199999952, -21.99706649999996 ], [ -42.260651499999945, -21.997026199999922 ], [ -42.260703399999954, -21.99697249999997 ], [ -42.260743, -21.996910299999957 ], [ -42.260757499999961, -21.996839899999944 ], [ -42.260750799999975, -21.996763 ], [ -42.260730499999973, -21.996692199999913 ], [ -42.260693599999975, -21.996620799999956 ], [ -42.260656799999936, -21.996567199999951 ], [ -42.260616199999959, -21.996511299999941 ], [ -42.260581099999968, -21.996456199999951 ], [ -42.260545399999955, -21.99639309999996 ], [ -42.260514699999931, -21.996325599999981 ], [ -42.260485399999929, -21.996263399999975 ], [ -42.260447499999948, -21.996198 ], [ -42.260402699999929, -21.996145599999981 ], [ -42.260356299999962, -21.996096099999932 ], [ -42.260304399999939, -21.996044899999958 ], [ -42.260242199999936, -21.995993399999968 ], [ -42.260194399999939, -21.995938 ], [ -42.260151399999984, -21.995879799999958 ], [ -42.260103099999988, -21.995819099999952 ], [ -42.260056199999951, -21.995760799999967 ], [ -42.260000399999974, -21.995706499999972 ], [ -42.259953899999971, -21.995659199999967 ], [ -42.259905, -21.995611099999973 ], [ -42.25985019999996, -21.995554 ], [ -42.259803, -21.995503699999965 ], [ -42.259789699999942, -21.995434699999969 ], [ -42.259787399999929, -21.995369599999954 ], [ -42.259790099999982, -21.99529739999997 ], [ -42.259797299999946, -21.995231899999965 ], [ -42.259829, -21.995167199999976 ], [ -42.259865099999956, -21.995113 ], [ -42.259895899999947, -21.995050599999953 ], [ -42.259906299999955, -21.994985899999957 ], [ -42.259888899999957, -21.994921899999948 ], [ -42.259820299999951, -21.994894599999952 ], [ -42.259752599999956, -21.994882799999985 ], [ -42.259677299999971, -21.994864799999959 ], [ -42.259620199999972, -21.994826799999942 ], [ -42.259584199999956, -21.994772399999938 ], [ -42.259569599999971, -21.994697399999943 ], [ -42.25956019999996, -21.994632099999933 ], [ -42.259541299999967, -21.994564399999934 ], [ -42.259519799999964, -21.994503899999916 ], [ -42.259481799999939, -21.994442799999934 ], [ -42.259426, -21.994387899999928 ], [ -42.259376399999958, -21.994339 ], [ -42.259330899999952, -21.994285899999955 ], [ -42.259288599999934, -21.994232099999969 ], [ -42.259284, -21.994163299999972 ], [ -42.259326499999936, -21.994107799999927 ], [ -42.259380399999941, -21.994063799999932 ], [ -42.259430499999951, -21.994014499999935 ], [ -42.259453599999972, -21.993948099999947 ], [ -42.259428499999956, -21.993877099999967 ], [ -42.259389599999956, -21.993817499999981 ], [ -42.259341699999936, -21.99376429999996 ], [ -42.259287899999947, -21.993721199999989 ], [ -42.259231599999964, -21.993683199999953 ], [ -42.259188799999947, -21.993654199999977 ], [ -42.259185399999978, -21.993638499999967 ], [ -42.259053299999955, -21.993530499999967 ], [ -42.259065899999939, -21.993181 ], [ -42.259116, -21.992922799999981 ], [ -42.259102, -21.992746599999986 ], [ -42.259060399999953, -21.992653799999974 ], [ -42.258953, -21.992561699999957 ], [ -42.258528399999939, -21.992358899999942 ], [ -42.25812929999995, -21.992300099999973 ], [ -42.258082, -21.992252099999966 ], [ -42.258084599999961, -21.992183499999957 ], [ -42.25812, -21.992082399999962 ], [ -42.258252699999964, -21.991679199999957 ], [ -42.258287699999983, -21.991399099999963 ], [ -42.258340699999962, -21.991241799999948 ], [ -42.258434, -21.991053599999926 ], [ -42.25839, -21.99085359999998 ], [ -42.25825819999995, -21.990739699999938 ], [ -42.258482899999926, -21.990613 ], [ -42.258965499999931, -21.990300199999986 ], [ -42.260216899999932, -21.989468899999959 ], [ -42.260686199999952, -21.989151599999957 ], [ -42.260974499999975, -21.988941499999957 ], [ -42.261519699999951, -21.988584 ], [ -42.262127499999956, -21.988454399999959 ], [ -42.26292749999994, -21.988266699999937 ], [ -42.263101799999959, -21.988584 ], [ -42.263233699999937, -21.988856599999952 ], [ -42.263367799999969, -21.989093499999964 ], [ -42.263658299999975, -21.98967 ], [ -42.26377, -21.989647699999967 ], [ -42.264404599999978, -21.989455499999963 ], [ -42.264856, -21.989343799999965 ], [ -42.265222499999943, -21.989223099999947 ], [ -42.265012499999962, -21.988892399999937 ], [ -42.264820299999947, -21.988494599999964 ], [ -42.264668299999983, -21.988230899999966 ], [ -42.264485099999952, -21.987864399999975 ], [ -42.265240399999982, -21.987305799999934 ], [ -42.265553199999935, -21.98706 ], [ -42.265700699999975, -21.987046599999921 ], [ -42.268317499999966, -21.986711399999923 ], [ -42.269792299999949, -21.985732599999952 ], [ -42.27001579999996, -21.985594099999947 ], [ -42.270011299999965, -21.985062199999962 ], [ -42.26997559999996, -21.984298 ], [ -42.26997559999996, -21.984123399999927 ], [ -42.269949099999963, -21.984123599999979 ], [ -42.269879799999948, -21.984124099999974 ], [ -42.269808799999971, -21.984124599999969 ], [ -42.269738899999936, -21.984125099999964 ], [ -42.269671899999928, -21.984138599999941 ], [ -42.269621899999954, -21.984160499999962 ], [ -42.269610599999965, -21.984165399999942 ], [ -42.269589, -21.984168199999928 ], [ -42.269388299999946, -21.984313399999962 ], [ -42.268713799999951, -21.984688499999947 ], [ -42.268658599999981, -21.984733499999951 ], [ -42.268610799999983, -21.984778299999949 ], [ -42.268579099999954, -21.984841099999979 ], [ -42.268579199999976, -21.984911 ], [ -42.268590299999971, -21.984976099999987 ], [ -42.268611799999981, -21.985035899999961 ], [ -42.2686528, -21.985095599999966 ], [ -42.268705899999929, -21.985140299999951 ], [ -42.268726099999988, -21.985154499999958 ], [ -42.268746299999975, -21.985168799999936 ], [ -42.268759499999931, -21.985178199999961 ], [ -42.268790599999932, -21.985204899999939 ], [ -42.268812599999926, -21.985223799999972 ], [ -42.268868399999974, -21.985263799999931 ], [ -42.268917599999945, -21.985313099999924 ], [ -42.268954199999939, -21.98536919999998 ], [ -42.268979699999946, -21.985433099999952 ], [ -42.268984099999969, -21.985497799999962 ], [ -42.268962399999964, -21.985558499999975 ], [ -42.268920099999953, -21.985611599999977 ], [ -42.268862199999944, -21.985649199999955 ], [ -42.268797499999948, -21.985672 ], [ -42.268727699999943, -21.985685399999962 ], [ -42.268658499999951, -21.985704 ], [ -42.26858779999997, -21.985729399999958 ], [ -42.268525899999936, -21.985762899999937 ], [ -42.268474199999964, -21.985808899999931 ], [ -42.268416799999954, -21.985851199999953 ], [ -42.26834359999998, -21.985848599999933 ], [ -42.268274, -21.985825899999941 ], [ -42.268205699999953, -21.985818099999964 ], [ -42.268131399999959, -21.985820199999974 ], [ -42.268058899999964, -21.985834199999946 ], [ -42.267997, -21.985861499999935 ], [ -42.267936799999973, -21.985890899999955 ], [ -42.267883899999966, -21.985931699999963 ], [ -42.26785109999998, -21.985989299999972 ], [ -42.267821, -21.986047 ], [ -42.267785499999938, -21.98610419999995 ], [ -42.26774039999998, -21.986158799999931 ], [ -42.267684199999962, -21.986201099999949 ], [ -42.267621799999979, -21.986226399999961 ], [ -42.26755419999995, -21.986240399999929 ], [ -42.267483199999965, -21.986244499999938 ], [ -42.267413899999958, -21.986247099999961 ], [ -42.267342299999946, -21.98624449999993 ], [ -42.26657119999993, -21.986046199999958 ], [ -42.266549099999956, -21.986040499999937 ], [ -42.266514099999945, -21.986021099999956 ], [ -42.266463399999964, -21.985993 ], [ -42.266374599999949, -21.985943799999962 ], [ -42.266304099999957, -21.985939199999965 ], [ -42.266229299999971, -21.985942799999979 ], [ -42.266157299999975, -21.98595579999995 ], [ -42.266089699999952, -21.985971799999952 ], [ -42.266027899999983, -21.986005399999954 ], [ -42.26596939999996, -21.986043099999957 ], [ -42.265904199999966, -21.986076099999917 ], [ -42.265830599999966, -21.986098899999934 ], [ -42.265760899999982, -21.986114399999959 ], [ -42.265683899999942, -21.98612589999993 ], [ -42.265613, -21.986136199999972 ], [ -42.265543199999968, -21.986150199999944 ], [ -42.265475699999968, -21.986168799999966 ], [ -42.26540209999996, -21.9861921 ], [ -42.2653385, -21.986222 ], [ -42.265273899999961, -21.986258199999952 ], [ -42.265211, -21.986299 ], [ -42.265154799999948, -21.986339299999937 ], [ -42.265100799999978, -21.9863774 ], [ -42.265045099999952, -21.986416099999929 ], [ -42.264974099999961, -21.986425499999928 ], [ -42.264907199999982, -21.986442499999942 ], [ -42.264830199999956, -21.986457 ], [ -42.264760399999943, -21.986474099999949 ], [ -42.264693499999964, -21.986497399999958 ], [ -42.26462319999996, -21.986517 ], [ -42.264560299999978, -21.986550599999916 ], [ -42.264489499999975, -21.986577 ], [ -42.264425399999936, -21.986612099999952 ], [ -42.264363, -21.986648299999938 ], [ -42.26430229999994, -21.986682899999941 ], [ -42.26423989999995, -21.986719 ], [ -42.264177499999953, -21.986749 ], [ -42.264105499999971, -21.986767099999948 ], [ -42.264040799999975, -21.986787699999987 ], [ -42.263977799999964, -21.986812 ], [ -42.263917099999958, -21.986850699999927 ], [ -42.263857399999956, -21.986880599999939 ], [ -42.26379559999998, -21.986913199999936 ], [ -42.263735899999979, -21.986944099999949 ], [ -42.26367289999996, -21.986973599999942 ], [ -42.263607799999932, -21.987009199999918 ], [ -42.263547599999981, -21.987045899999931 ], [ -42.26348749999994, -21.98708769999995 ], [ -42.263432499999965, -21.987137799999971 ], [ -42.263385699999958, -21.987187299999967 ], [ -42.263321099999985, -21.987216699999973 ], [ -42.263290499999982, -21.987233099999976 ], [ -42.263259199999936, -21.987249799999976 ], [ -42.26320879999998, -21.987272099999924 ], [ -42.263192899999979, -21.987279199999918 ], [ -42.263120499999964, -21.987310799999932 ], [ -42.263056399999982, -21.987336599999935 ], [ -42.262981699999962, -21.987364599999985 ], [ -42.262919299999965, -21.987394499999926 ], [ -42.262849099999983, -21.987424499999964 ], [ -42.2627811, -21.987451399999937 ], [ -42.262715599999979, -21.987461199999927 ], [ -42.262711799999977, -21.987461799999956 ], [ -42.26264249999997, -21.98746849999997 ], [ -42.262570399999966, -21.987469 ], [ -42.262501099999959, -21.987471099999929 ], [ -42.262427899999977, -21.987477799999951 ], [ -42.262358099999979, -21.987489699999966 ], [ -42.262286699999947, -21.987506799999942 ], [ -42.262229899999973, -21.987542899999927 ], [ -42.262180299999955, -21.987587199999947 ], [ -42.26210709999998, -21.987582099999944 ], [ -42.26204149999996, -21.987562399999952 ], [ -42.261968199999956, -21.987557199999966 ], [ -42.261940099999947, -21.987558299999918 ], [ -42.261899399999947, -21.987559799999925 ], [ -42.261829599999935, -21.987567499999958 ], [ -42.26175649999994, -21.98758 ], [ -42.261687299999956, -21.987600699999966 ], [ -42.261623199999974, -21.987628099999938 ], [ -42.261555199999975, -21.987657 ], [ -42.261485499999935, -21.987681799999965 ], [ -42.261419699999969, -21.98771129999994 ], [ -42.261353399999962, -21.987738199999963 ], [ -42.261282599999959, -21.987759899999947 ], [ -42.261212899999983, -21.987784699999953 ], [ -42.26114709999996, -21.987809 ], [ -42.26107959999996, -21.987829099999942 ], [ -42.261012, -21.987843599999948 ], [ -42.260942199999931, -21.987854499999969 ], [ -42.260868, -21.987869499999917 ], [ -42.260799799999965, -21.987876199999956 ], [ -42.26073109999993, -21.987886499999949 ], [ -42.260664799999979, -21.987908199999925 ], [ -42.260597899999937, -21.98793669999997 ], [ -42.260531, -21.987964599999941 ], [ -42.2604664, -21.987999199999926 ], [ -42.260397799999964, -21.988027099999947 ], [ -42.26033149999995, -21.988052399999951 ], [ -42.260266799999947, -21.988080299999982 ], [ -42.260204899999962, -21.988108199999935 ], [ -42.26013909999994, -21.988135599999957 ], [ -42.260068899999965, -21.988157799999943 ], [ -42.260003, -21.988172799999973 ], [ -42.259932599999964, -21.98818679999993 ], [ -42.259864, -21.988199699999946 ], [ -42.259796899999976, -21.98821049999998 ], [ -42.259723199999932, -21.98821519999996 ], [ -42.259654399999931, -21.988218299999975 ], [ -42.259579599999938, -21.988224499999951 ], [ -42.25951089999996, -21.988234799999923 ], [ -42.259444499999972, -21.988258599999931 ], [ -42.259377599999937, -21.988279799999933 ], [ -42.259314, -21.988310799999969 ], [ -42.2591207, -21.98832689999994 ], [ -42.258901899999962, -21.98855969999995 ], [ -42.258228899999949, -21.989225399999949 ], [ -42.25791129999994, -21.989538699999965 ], [ -42.257739699999952, -21.989693099999954 ], [ -42.257718699999948, -21.989712 ], [ -42.257697699999937, -21.98973089999992 ], [ -42.2574997, -21.989849799999938 ], [ -42.257470499999954, -21.989861199999957 ], [ -42.257343599999963, -21.989910699999935 ], [ -42.257309, -21.989812299999979 ], [ -42.257283599999937, -21.989750899999933 ], [ -42.257252499999929, -21.989693799999937 ], [ -42.257198299999978, -21.989641799999944 ], [ -42.257146899999945, -21.989598099999974 ], [ -42.25709489999997, -21.989548399999933 ], [ -42.257044299999961, -21.989503899999928 ], [ -42.256988399999955, -21.989455599999918 ], [ -42.256934799999954, -21.989405899999948 ], [ -42.256883799999969, -21.989351099999965 ], [ -42.256834899999959, -21.989303699999933 ], [ -42.25677369999994, -21.989248599999929 ], [ -42.25672569999994, -21.989198299999941 ], [ -42.256673, -21.989147099999961 ], [ -42.256628099999944, -21.989099099999972 ], [ -42.256581599999947, -21.98905039999995 ], [ -42.256538499999969, -21.988997299999923 ], [ -42.256504299999968, -21.988939299999966 ], [ -42.25646839999996, -21.988882099999948 ], [ -42.256428599999936, -21.988824699999945 ], [ -42.256384, -21.988769299999937 ], [ -42.256330099999957, -21.988709299999986 ], [ -42.256275099999982, -21.98865429999994 ], [ -42.256223899999952, -21.988606099999963 ], [ -42.256175, -21.988558799999964 ], [ -42.256123699999932, -21.988513599999973 ], [ -42.256070899999941, -21.988464599999933 ], [ -42.256018099999956, -21.988414899999945 ], [ -42.255970399999974, -21.988358699999939 ], [ -42.255933799999987, -21.988300699999954 ], [ -42.255908499999983, -21.988234899999952 ], [ -42.255888699999957, -21.988173699999944 ], [ -42.255868199999959, -21.98810659999997 ], [ -42.255841499999981, -21.988039299999958 ], [ -42.25582, -21.987978099999964 ], [ -42.255801, -21.987916199999976 ], [ -42.255762499999953, -21.987793699999937 ], [ -42.255754599999932, -21.987768599999981 ], [ -42.255719199999938, -21.987740099999932 ], [ -42.255677099999964, -21.987680399999928 ], [ -42.255644399999944, -21.987621099999945 ], [ -42.255622199999955, -21.987559199999964 ], [ -42.25560059999998, -21.987489 ], [ -42.255570599999942, -21.987416299999946 ], [ -42.255544499999985, -21.987349199999969 ], [ -42.255521699999981, -21.987282099999959 ], [ -42.255497299999952, -21.987215599999956 ], [ -42.25547179999996, -21.987145399999967 ], [ -42.255445699999939, -21.987083 ], [ -42.255416299999979, -21.987009699999923 ], [ -42.255393599999941, -21.986947299999937 ], [ -42.25536859999994, -21.986882299999934 ], [ -42.255341499999929, -21.986821399999929 ], [ -42.255309899999929, -21.986763199999931 ], [ -42.255282299999983, -21.986703899999942 ], [ -42.255253499999988, -21.986646699999937 ], [ -42.255216299999972, -21.986582799999937 ], [ -42.255187599999942, -21.986524599999925 ], [ -42.255151, -21.986470499999939 ], [ -42.255102399999949, -21.986424299999943 ], [ -42.255042199999941, -21.986386499999981 ], [ -42.255026699999981, -21.986382699999972 ], [ -42.254998299999961, -21.986375799999948 ], [ -42.254993199999944, -21.98637449999995 ], [ -42.254969899999928, -21.986368899999949 ], [ -42.254898699999956, -21.986346599999919 ], [ -42.254833, -21.986320199999973 ], [ -42.254771199999936, -21.98628239999994 ], [ -42.254736299999941, -21.986227799999941 ], [ -42.254707, -21.986169 ], [ -42.254682599999967, -21.986107099999963 ], [ -42.254662099999962, -21.98603949999994 ], [ -42.254656, -21.985975899999964 ], [ -42.254656599999969, -21.985911199999968 ], [ -42.254666, -21.985847 ], [ -42.254703799999959, -21.985786699999935 ], [ -42.25474829999996, -21.985737199999964 ], [ -42.254801099999952, -21.985685099999944 ], [ -42.254830499999969, -21.985620199999971 ], [ -42.254847199999972, -21.985558499999971 ], [ -42.254861099999971, -21.985495299999961 ], [ -42.254873299999979, -21.985429 ], [ -42.254889899999966, -21.985357 ], [ -42.254903199999951, -21.985285499999968 ], [ -42.254910299999949, -21.985212 ], [ -42.254916899999962, -21.98513539999993 ], [ -42.254919, -21.985058299999928 ], [ -42.254918399999951, -21.984989499999983 ], [ -42.254915599999947, -21.984919099999956 ], [ -42.254904499999959, -21.984851399999968 ], [ -42.254887799999949, -21.984779099999965 ], [ -42.254876699999954, -21.984707299999965 ], [ -42.25488, -21.98463949999995 ], [ -42.254897199999959, -21.984572599999971 ], [ -42.254896599999938, -21.984499199999949 ], [ -42.254895499999975, -21.984433499999973 ], [ -42.254886, -21.984366799999975 ], [ -42.254879399999936, -21.984332399999978 ], [ -42.254872699999964, -21.984298099999922 ], [ -42.254853299999979, -21.98423559999997 ], [ -42.254824499999984, -21.984170099999972 ], [ -42.254791199999943, -21.98410309999996 ], [ -42.254754599999956, -21.984035099999968 ], [ -42.254720799999973, -21.98398 ], [ -42.254683199999931, -21.983925399999972 ], [ -42.2546445, -21.983872399999932 ], [ -42.254600099999948, -21.983810599999977 ], [ -42.25456029999998, -21.983752 ], [ -42.254525399999977, -21.983697399999969 ], [ -42.254483799999953, -21.983634 ], [ -42.254440599999953, -21.983576399999937 ], [ -42.25439189999998, -21.983516199999929 ], [ -42.254343799999958, -21.983469499999948 ], [ -42.254291199999962, -21.983421799999984 ], [ -42.254239199999972, -21.983367799999932 ], [ -42.254179399999941, -21.983315 ], [ -42.254122399999972, -21.98326829999996 ], [ -42.254063799999983, -21.98322579999995 ], [ -42.254005299999967, -21.9831905 ], [ -42.25394069999993, -21.983156799999954 ], [ -42.253872699999931, -21.983124699999962 ], [ -42.253809299999944, -21.983101899999944 ], [ -42.25374249999993, -21.983079699999958 ], [ -42.253670799999952, -21.983056399999938 ], [ -42.253602899999983, -21.983034099999937 ], [ -42.253527899999945, -21.983014 ], [ -42.253457299999972, -21.982995299999967 ], [ -42.253391099999938, -21.982974099999975 ], [ -42.253325399999937, -21.982948199999957 ], [ -42.25326019999995, -21.982912399999968 ], [ -42.253206599999942, -21.982868299999947 ], [ -42.253158499999984, -21.982819 ], [ -42.253112599999959, -21.982767099999929 ], [ -42.253054499999962, -21.982727699999941 ], [ -42.252992599999978, -21.98268419999993 ], [ -42.25297269999993, -21.982654599999925 ], [ -42.25295269999998, -21.982624899999951 ], [ -42.252922199999951, -21.982561 ], [ -42.252892799999984, -21.982494 ], [ -42.25286239999997, -21.982435199999951 ], [ -42.2528392, -21.982379399999953 ], [ -42.25283409999998, -21.982367099999969 ], [ -42.252811299999969, -21.982301599999971 ], [ -42.252786899999933, -21.982234499999944 ], [ -42.252759799999978, -21.98217109999996 ], [ -42.252727099999959, -21.982105099999956 ], [ -42.252702099999972, -21.982035399999976 ], [ -42.252683199999971, -21.981973499999981 ], [ -42.252664899999957, -21.981902699999971 ], [ -42.25265, -21.981840299999934 ], [ -42.252624499999975, -21.981778899999927 ], [ -42.252604, -21.981716399999982 ], [ -42.252580199999954, -21.981654499999941 ], [ -42.252550799999938, -21.98159679999997 ], [ -42.252499499999942, -21.981555199999942 ], [ -42.252442, -21.981514299999954 ], [ -42.2524016, -21.981459699999949 ], [ -42.252368899999972, -21.981402499999934 ], [ -42.252350599999943, -21.981335399999978 ], [ -42.252347799999939, -21.981265599999979 ], [ -42.252351099999935, -21.981197299999952 ], [ -42.252369399999964, -21.981130399999916 ], [ -42.252390899999973, -21.981103899999933 ], [ -42.252412299999953, -21.981077299999974 ], [ -42.252427199999943, -21.98106359999996 ], [ -42.252447899999929, -21.981044699999927 ], [ -42.252461799999935, -21.981032 ], [ -42.252465899999955, -21.981027899999944 ], [ -42.252509099999948, -21.980985599999944 ], [ -42.252548099999956, -21.980931 ], [ -42.252579199999957, -21.980872799999936 ], [ -42.252589199999932, -21.980804399999943 ], [ -42.252587499999947, -21.980735599999946 ], [ -42.252584899999924, -21.980712 ], [ -42.252580299999984, -21.980668899999959 ], [ -42.252568, -21.980599699999967 ], [ -42.252550899999967, -21.980536199999953 ], [ -42.25253749999996, -21.980467499999978 ], [ -42.2525093, -21.980403499999955 ], [ -42.252473299999963, -21.980344799999944 ], [ -42.252440599999943, -21.980283499999921 ], [ -42.25240179999998, -21.980220099999929 ], [ -42.252369099999953, -21.980161899999921 ], [ -42.252333699999944, -21.980106799999923 ], [ -42.252301599999953, -21.980049599999973 ], [ -42.252268299999969, -21.979985199999931 ], [ -42.252241799999979, -21.979925899999962 ], [ -42.252218499999962, -21.979859299999919 ], [ -42.252204099999972, -21.979796299999968 ], [ -42.252194699999961, -21.97973119999995 ], [ -42.252183, -21.979660899999946 ], [ -42.252173599999935, -21.97959679999995 ], [ -42.252161899999983, -21.97952709999992 ], [ -42.252140899999979, -21.979464599999968 ], [ -42.252113699999946, -21.97940119999992 ], [ -42.252088199999946, -21.979342399999936 ], [ -42.252055, -21.979283099999964 ], [ -42.252018, -21.979229099999934 ], [ -42.251966, -21.979182899999952 ], [ -42.251910699999932, -21.979134199999972 ], [ -42.251861399999939, -21.979083799999952 ], [ -42.251817199999948, -21.979029299999965 ], [ -42.251781699999981, -21.97897319999992 ], [ -42.251746899999944, -21.978912899999951 ], [ -42.251713599999967, -21.978846399999941 ], [ -42.251677499999978, -21.978779899999946 ], [ -42.251636499999961, -21.978711399999952 ], [ -42.251607699999973, -21.978651099999983 ], [ -42.251583899999964, -21.978591199999975 ], [ -42.251552199999942, -21.978521099999963 ], [ -42.25152, -21.978452499999939 ], [ -42.251493399999958, -21.978392199999977 ], [ -42.251456799999978, -21.978323699999969 ], [ -42.25142139999997, -21.978267 ], [ -42.251384299999984, -21.978207799999947 ], [ -42.251343299999974, -21.978149099999936 ], [ -42.251299599999982, -21.978100799999915 ], [ -42.251272, -21.978042 ], [ -42.251226599999946, -21.977991599999928 ], [ -42.251180699999964, -21.977944399999956 ], [ -42.25111719999996, -21.977911199999934 ], [ -42.251048899999944, -21.977894099999936 ], [ -42.250979399999949, -21.977875499999982 ], [ -42.250913699999955, -21.977847499999942 ], [ -42.250856199999923, -21.977806499999929 ], [ -42.250809199999935, -21.977759799999937 ], [ -42.250759499999958, -21.977712 ], [ -42.250707499999976, -21.977662199999923 ], [ -42.25065109999997, -21.977617099999968 ], [ -42.2505958, -21.977577199999914 ], [ -42.250531699999954, -21.97753989999995 ], [ -42.250468799999965, -21.977507699999926 ], [ -42.250407399999972, -21.977470399999955 ], [ -42.250391899999954, -21.977407899999942 ], [ -42.250393599999938, -21.977343199999936 ], [ -42.250416899999955, -21.977279399999919 ], [ -42.250455799999941, -21.977221199999963 ], [ -42.250502, -21.977174799999947 ], [ -42.250539899999978, -21.977121299999968 ], [ -42.250571499999985, -21.977057399999975 ], [ -42.250597599999928, -21.976992499999938 ], [ -42.25061479999993, -21.976928299999937 ], [ -42.25060869999993, -21.97686 ], [ -42.250565499999936, -21.976803899999936 ], [ -42.250497099999961, -21.976779599999929 ], [ -42.250422199999946, -21.976782699999941 ], [ -42.250372099999936, -21.976819299999921 ], [ -42.250338199999931, -21.976845399999949 ], [ -42.250309799999968, -21.976869399999941 ], [ -42.250254699999964, -21.976911199999957 ], [ -42.250227399999964, -21.97693 ], [ -42.250200099999972, -21.976948899999954 ], [ -42.250143199999968, -21.976985 ], [ -42.250075199999976, -21.977003599999936 ], [ -42.25000689999996, -21.977001499999975 ], [ -42.250001, -21.976999199999959 ], [ -42.249944099999951, -21.976977599999945 ], [ -42.249930599999971, -21.976964499999955 ], [ -42.249902699999957, -21.976918399999928 ], [ -42.249877499999968, -21.976853299999959 ], [ -42.249839399999985, -21.976743799999948 ], [ -42.249783399999956, -21.976553199999959 ], [ -42.249770899999923, -21.976524599999944 ], [ -42.249755199999981, -21.976504 ], [ -42.249727399999983, -21.976477099999954 ], [ -42.249696, -21.976472599999969 ], [ -42.249668899999961, -21.976474399999976 ], [ -42.249613799999963, -21.976513 ], [ -42.249574199999977, -21.976559399999932 ], [ -42.249529099999961, -21.976663199999955 ], [ -42.249475299999972, -21.976759099999963 ], [ -42.249414399999985, -21.976837499999927 ], [ -42.249348, -21.976863399999957 ], [ -42.249294599999985, -21.976867699999946 ], [ -42.249273099999989, -21.976869399999934 ], [ -42.249251499999957, -21.976871199999955 ], [ -42.249191, -21.976876 ], [ -42.2491323, -21.976866899999951 ], [ -42.249067099999941, -21.976832299999952 ], [ -42.24898689999997, -21.976767699999982 ], [ -42.24893, -21.976726699999968 ], [ -42.248865799999976, -21.976698499999948 ], [ -42.248679599999946, -21.97666479999998 ], [ -42.24855059999993, -21.976619599999935 ], [ -42.248372599999982, -21.976574699999958 ], [ -42.248059099999985, -21.976421 ], [ -42.247926, -21.976374199999945 ], [ -42.247843499999938, -21.976358899999987 ], [ -42.247767299999964, -21.976359499999933 ], [ -42.247698899999939, -21.976367899999968 ], [ -42.247657, -21.976384099999962 ], [ -42.247596699999974, -21.976449799999951 ], [ -42.247573599999953, -21.97654539999996 ], [ -42.247565899999984, -21.97668989999994 ], [ -42.247566799999959, -21.976729699999954 ], [ -42.247565599999973, -21.976748799999932 ], [ -42.247559599999938, -21.976780599999923 ], [ -42.247546599999957, -21.976806199999938 ], [ -42.247518799999966, -21.976847699999954 ], [ -42.2474716, -21.976892599999935 ], [ -42.247390199999984, -21.976923799999948 ], [ -42.247304699999965, -21.976953599999948 ], [ -42.247212, -21.976971799999934 ], [ -42.247111599999982, -21.976947 ], [ -42.246923, -21.976810399999966 ], [ -42.246862299999982, -21.976786899999976 ], [ -42.246787799999943, -21.976784299999959 ], [ -42.246676, -21.976784799999958 ], [ -42.246475499999974, -21.976757299999978 ], [ -42.246313799999939, -21.976729299999921 ], [ -42.246223199999974, -21.976725199999972 ], [ -42.246029299999982, -21.976721699999917 ], [ -42.24597839999997, -21.976714099999977 ], [ -42.245922199999939, -21.976698599999949 ], [ -42.245864899999958, -21.976675199999931 ], [ -42.245837599999966, -21.976652199999929 ], [ -42.24581029999996, -21.976629099999968 ], [ -42.245791, -21.976462799999972 ], [ -42.245777399999959, -21.976388099999944 ], [ -42.24575429999993, -21.976310899999923 ], [ -42.245717499999955, -21.976261899999937 ], [ -42.24566329999994, -21.976224 ], [ -42.24557759999994, -21.976176899999924 ], [ -42.245490599999982, -21.976148899999931 ], [ -42.245415099999946, -21.976139899999968 ], [ -42.245342199999982, -21.976132499999949 ], [ -42.245245599999976, -21.976126799999967 ], [ -42.245148099999938, -21.976116399999967 ], [ -42.245077, -21.976116899999973 ], [ -42.244884299999974, -21.976140899999958 ], [ -42.244648099999949, -21.976166399999954 ], [ -42.244579299999941, -21.976155799999951 ], [ -42.244506199999933, -21.976138799999937 ], [ -42.244151699999975, -21.976047799999947 ], [ -42.244014899999968, -21.976012399999941 ], [ -42.243950799999944, -21.975973699999933 ], [ -42.243912599999931, -21.975928699999944 ], [ -42.243855199999985, -21.975838499999941 ], [ -42.243752499999964, -21.975658199999938 ], [ -42.243741899999975, -21.975603499999981 ], [ -42.243764199999923, -21.975535899999954 ], [ -42.243826099999986, -21.97543289999993 ], [ -42.24394, -21.975358899999954 ], [ -42.2443962, -21.975117699999938 ], [ -42.244505699999934, -21.974994299999942 ], [ -42.244544799999971, -21.974927699999963 ], [ -42.244566199999959, -21.97485579999994 ], [ -42.244548499999951, -21.974749399999943 ], [ -42.244528299999949, -21.9747 ], [ -42.24442739999995, -21.974577399999919 ], [ -42.244204, -21.974408599999933 ], [ -42.243849399999931, -21.97411179999995 ], [ -42.243663199999958, -21.973918099999938 ], [ -42.243457, -21.973612499999934 ], [ -42.243389099999945, -21.97351249999997 ], [ -42.243241, -21.973328499999969 ], [ -42.243116399999963, -21.97316909999995 ], [ -42.243089499999932, -21.973134799999968 ], [ -42.243026699999973, -21.973025 ], [ -42.243002099999963, -21.972944299999945 ], [ -42.242991399999937, -21.97287319999997 ], [ -42.242996399999974, -21.972818299999972 ], [ -42.243006699999967, -21.972789299999931 ], [ -42.242850899999951, -21.972851699999985 ], [ -42.242812899999926, -21.972884 ], [ -42.242794, -21.972929199999953 ], [ -42.242775299999948, -21.973009899999951 ], [ -42.242756399999969, -21.973058399999957 ], [ -42.24271159999995, -21.973116499999939 ], [ -42.242672199999959, -21.973158899999927 ], [ -42.242582099999936, -21.973212 ], [ -42.242529, -21.973236799999935 ], [ -42.242302799999948, -21.973342499999934 ], [ -42.242205199999958, -21.973388099999962 ], [ -42.242128499999971, -21.975231199999932 ], [ -42.242069199999953, -21.976656199999969 ], [ -42.242324899999979, -21.978706299999931 ], [ -42.242601, -21.98092059999993 ], [ -42.243284799999969, -21.986403499999934 ], [ -42.243881399999964, -21.986461899999945 ], [ -42.243929299999941, -21.986551799999969 ], [ -42.246601199999937, -21.991561799999936 ], [ -42.246619, -21.991595099999923 ], [ -42.246637299999975, -21.991629399999958 ], [ -42.246844499999952, -21.992017399999948 ], [ -42.246865699999944, -21.992057 ], [ -42.246955199999938, -21.992224599999926 ], [ -42.247238099999947, -21.992754199999975 ], [ -42.247286499999973, -21.992844899999955 ], [ -42.249843399999975, -21.997631799999965 ], [ -42.249926399999943, -21.997645899999938 ], [ -42.249950299999973, -21.99765 ], [ -42.251487399999974, -21.998264 ] ] ] } }
]
}
