{
"type": "FeatureCollection",
"name": "3302809",
"crs": { "type": "name", "properties": { "name": "urn:ogc:def:crs:OGC:1.3:CRS84" } },
"features": [
{ "type": "Feature", "properties": { "CD_MUN": "3302809", "NM_MUN": "Mendes" }, "geometry": { "type": "Polygon", "coordinates": [ [ [ -43.771529599999944, -22.551581299999953 ], [ -43.774974099999952, -22.546795299999935 ], [ -43.7751229, -22.545754899999963 ], [ -43.784888099999932, -22.549575199999936 ], [ -43.787982399999976, -22.550943899999936 ], [ -43.788142599999965, -22.55062439999995 ], [ -43.788403599999981, -22.550528 ], [ -43.788621599999942, -22.550422599999937 ], [ -43.788764499999957, -22.550366899999979 ], [ -43.789002699999969, -22.550274199999933 ], [ -43.789279899999947, -22.550377099999931 ], [ -43.789373599999976, -22.550677 ], [ -43.789328399999931, -22.551039 ], [ -43.789112099999961, -22.551724 ], [ -43.789479, -22.552102199999972 ], [ -43.78967379999996, -22.552128299999943 ], [ -43.790249599999981, -22.552198599999947 ], [ -43.790690799999936, -22.551912299999969 ], [ -43.79103079999993, -22.55171149999995 ], [ -43.791152, -22.551406499999921 ], [ -43.79127989999995, -22.551248899999973 ], [ -43.791701199999977, -22.551077 ], [ -43.792001599999942, -22.550933099999941 ], [ -43.79170919999995, -22.550545899999968 ], [ -43.791542599999957, -22.55033879999996 ], [ -43.791465899999935, -22.550141599999971 ], [ -43.791563599999968, -22.549821 ], [ -43.791794199999977, -22.549590099999929 ], [ -43.792037199999982, -22.549275799999968 ], [ -43.79231029999994, -22.54897609999993 ], [ -43.79303, -22.548880699999927 ], [ -43.793235399999958, -22.548846099999931 ], [ -43.793389899999966, -22.548839299999944 ], [ -43.793464299999989, -22.548917699999954 ], [ -43.793510199999965, -22.549035499999938 ], [ -43.793564199999942, -22.549316299999926 ], [ -43.793702799999949, -22.549509499999939 ], [ -43.793951799999952, -22.549738099999963 ], [ -43.794058299999968, -22.549965699999976 ], [ -43.794218, -22.550319699999925 ], [ -43.795249099999985, -22.550564399999928 ], [ -43.795765399999937, -22.55105169999996 ], [ -43.796109099999967, -22.551241099999967 ], [ -43.796356399999979, -22.551289 ], [ -43.796603699999942, -22.551336899999971 ], [ -43.79718639999993, -22.551368799999981 ], [ -43.797518699999962, -22.551759 ], [ -43.797622699999977, -22.551881099999949 ], [ -43.793369599999956, -22.543232799999934 ], [ -43.792999799999961, -22.542481 ], [ -43.789750699999964, -22.535874099999941 ], [ -43.789730499999962, -22.535833099999937 ], [ -43.789727199999952, -22.535826299999947 ], [ -43.78904609999995, -22.534441399999935 ], [ -43.78904689999996, -22.53443939999994 ], [ -43.788998099999965, -22.534426799999959 ], [ -43.785999499999946, -22.533542399999934 ], [ -43.785742699999957, -22.533458399999983 ], [ -43.785208, -22.533167299999945 ], [ -43.7844133, -22.532561899999955 ], [ -43.784030899999955, -22.532303899999931 ], [ -43.78361289999998, -22.532136699999967 ], [ -43.783451199999945, -22.532111499999928 ], [ -43.783105699999957, -22.532078199999948 ], [ -43.782921799999933, -22.532069899999961 ], [ -43.782715499999945, -22.532095699999946 ], [ -43.78241219999996, -22.532148299999964 ], [ -43.782051899999935, -22.532247899999955 ], [ -43.781541899999986, -22.532503799999969 ], [ -43.78123439999996, -22.532697399999957 ], [ -43.780764499999982, -22.533051599999961 ], [ -43.777732, -22.531191499999981 ], [ -43.773945099999935, -22.524777499999963 ], [ -43.76318729999997, -22.530556799999935 ], [ -43.762882599999962, -22.529566699999961 ], [ -43.762264099999982, -22.528870799999947 ], [ -43.761926299999978, -22.528597499999925 ], [ -43.760977299999979, -22.52814179999995 ], [ -43.759453099999973, -22.527103599999982 ], [ -43.758083499999941, -22.526242 ], [ -43.755145399999954, -22.52527 ], [ -43.753908299999978, -22.524828199999941 ], [ -43.752538699999945, -22.525027099999932 ], [ -43.7506236, -22.525046599999946 ], [ -43.751105899999978, -22.523202 ], [ -43.751262299999958, -22.522361099999962 ], [ -43.751132, -22.521565899999914 ], [ -43.750988599999978, -22.520979299999958 ], [ -43.750908799999934, -22.520885699999948 ], [ -43.750881899999968, -22.51898529999994 ], [ -43.751456299999973, -22.517461 ], [ -43.752560799999976, -22.516886699999915 ], [ -43.753974599999935, -22.516930799999965 ], [ -43.755255899999959, -22.517173799999952 ], [ -43.756143799999961, -22.518152799999928 ], [ -43.756824299999948, -22.518410899999932 ], [ -43.75773, -22.51812369999994 ], [ -43.759298399999984, -22.51757149999996 ], [ -43.760513399999979, -22.516732 ], [ -43.760603499999952, -22.515824699999932 ], [ -43.755856499999943, -22.514167799999921 ], [ -43.75312229999998, -22.513213499999949 ], [ -43.753421, -22.512154399999922 ], [ -43.753935099999971, -22.510140899999946 ], [ -43.753463799999963, -22.50487139999996 ], [ -43.75299259999997, -22.503157699999974 ], [ -43.752714099999935, -22.502472299999965 ], [ -43.752221399999947, -22.501015599999956 ], [ -43.75213569999994, -22.495424799999963 ], [ -43.753528099999983, -22.491836899999953 ], [ -43.753603, -22.490958599999939 ], [ -43.753453099999938, -22.489480599999972 ], [ -43.752607, -22.486845899999931 ], [ -43.7516323, -22.485367799999946 ], [ -43.751493099999948, -22.483675599999962 ], [ -43.751975099999981, -22.482840199999931 ], [ -43.752917599999932, -22.481158699999988 ], [ -43.753388799999982, -22.480516 ], [ -43.754524099999976, -22.479680599999938 ], [ -43.755188199999964, -22.478845199999963 ], [ -43.755252399999961, -22.478159799999961 ], [ -43.754695499999968, -22.476724599999962 ], [ -43.754888299999948, -22.475846299999944 ], [ -43.755745099999956, -22.475139399999929 ], [ -43.756601899999978, -22.475053799999948 ], [ -43.757822899999951, -22.475332199999954 ], [ -43.759238799999935, -22.474638199999966 ], [ -43.759224299999971, -22.473556099999929 ], [ -43.758904699999952, -22.473275799999954 ], [ -43.757994299999943, -22.472461899999917 ], [ -43.757212399999965, -22.471583599999978 ], [ -43.756730499999946, -22.470780299999941 ], [ -43.756687599999964, -22.470159099999925 ], [ -43.756741199999965, -22.468702499999953 ], [ -43.757726499999933, -22.466646099999934 ], [ -43.758690499999943, -22.465489399999967 ], [ -43.760104199999951, -22.46399 ], [ -43.762203499999941, -22.463561599999942 ], [ -43.766129299999932, -22.463836599999979 ], [ -43.765776199999948, -22.458793299999975 ], [ -43.765491199999985, -22.458822199999926 ], [ -43.76447619999994, -22.45892479999997 ], [ -43.754766, -22.45990629999995 ], [ -43.754762299999989, -22.459932199999965 ], [ -43.754744399999936, -22.45996359999998 ], [ -43.754732299999951, -22.459977599999952 ], [ -43.754720299999974, -22.459991599999977 ], [ -43.754635199999939, -22.460018199999976 ], [ -43.754558299999985, -22.460015699999925 ], [ -43.754523099999972, -22.460013199999938 ], [ -43.75446, -22.459993899999976 ], [ -43.754417199999985, -22.459983399999942 ], [ -43.754374499999983, -22.459972899999979 ], [ -43.754310799999985, -22.459962499999968 ], [ -43.754127899999958, -22.459961299999971 ], [ -43.754076499999947, -22.459960599999928 ], [ -43.753989299999944, -22.459969299999951 ], [ -43.7538924, -22.459980199999954 ], [ -43.753856499999983, -22.459989499999953 ], [ -43.753813099999952, -22.460019099999943 ], [ -43.753792599999933, -22.460041299999951 ], [ -43.753768099999952, -22.460075199999956 ], [ -43.753756299999971, -22.460112899999956 ], [ -43.753749199999959, -22.460180599999944 ], [ -43.753750599999925, -22.4602389 ], [ -43.753755799999965, -22.46045689999994 ], [ -43.753756299999971, -22.460670299999947 ], [ -43.753754, -22.460711699999941 ], [ -43.75374369999998, -22.460779099999971 ], [ -43.753731699999946, -22.460819699999945 ], [ -43.753692499999943, -22.460888 ], [ -43.753641199999954, -22.460943599999943 ], [ -43.753567499999974, -22.460997599999935 ], [ -43.753497899999957, -22.461037099999942 ], [ -43.753399199999933, -22.461080299999924 ], [ -43.753195199999936, -22.461116099999973 ], [ -43.753098399999942, -22.46112689999994 ], [ -43.752986299999975, -22.461124799999936 ], [ -43.752909799999941, -22.461116399999984 ], [ -43.752862099999966, -22.46111 ], [ -43.752839599999959, -22.461111399999929 ], [ -43.752816399999972, -22.461124499999979 ], [ -43.752802699999961, -22.461141299999948 ], [ -43.752788199999941, -22.461169899999952 ], [ -43.752742, -22.461297299999959 ], [ -43.752638699999984, -22.461470799999976 ], [ -43.752565899999979, -22.461569099999966 ], [ -43.752418399999961, -22.461741899999939 ], [ -43.752374899999943, -22.461774199999972 ], [ -43.752345199999986, -22.461789799999956 ], [ -43.752306099999949, -22.461801799999929 ], [ -43.752258, -22.461804299999976 ], [ -43.752130299999983, -22.46178959999996 ], [ -43.751976199999945, -22.46179919999997 ], [ -43.751760699999984, -22.461810699999944 ], [ -43.751684699999942, -22.461796399999969 ], [ -43.751619, -22.461771 ], [ -43.751547199999948, -22.461739199999943 ], [ -43.751486799999952, -22.461732 ], [ -43.751419299999952, -22.461738899999936 ], [ -43.751373699999931, -22.46175339999996 ], [ -43.751331, -22.461773899999962 ], [ -43.751271699999961, -22.461805099999939 ], [ -43.751234699999941, -22.461837899999978 ], [ -43.751197499999932, -22.461873599999926 ], [ -43.751134199999967, -22.462028899999947 ], [ -43.751103099999966, -22.462071 ], [ -43.751085899999957, -22.462093299999935 ], [ -43.751069299999983, -22.462104 ], [ -43.751036499999941, -22.46211929999992 ], [ -43.75097819999997, -22.462132799999942 ], [ -43.750917099999988, -22.462134699999972 ], [ -43.750609499999932, -22.462091899999962 ], [ -43.750555899999945, -22.462079199999938 ], [ -43.750485899999944, -22.462074099999931 ], [ -43.750434699999971, -22.462076299999975 ], [ -43.75038, -22.462084199999936 ], [ -43.750318099999959, -22.462106299999952 ], [ -43.750165299999935, -22.462154299999955 ], [ -43.750104699999952, -22.462163499999967 ], [ -43.750044299999956, -22.462183 ], [ -43.750000599999971, -22.462185899999952 ], [ -43.749954099999968, -22.462188899999941 ], [ -43.749876599999943, -22.462226499999922 ], [ -43.749800699999987, -22.462323599999937 ], [ -43.749775199999938, -22.46241 ], [ -43.749740199999962, -22.462474199999967 ], [ -43.749658, -22.462558599999966 ], [ -43.749491399999954, -22.462698799999938 ], [ -43.749231, -22.462976 ], [ -43.749179599999941, -22.463036399999954 ], [ -43.749171799999935, -22.463082899999961 ], [ -43.74917, -22.463148299999943 ], [ -43.749148799999951, -22.46319429999993 ], [ -43.749125, -22.463215299999948 ], [ -43.74906779999997, -22.463244199999956 ], [ -43.749036799999949, -22.463283599999958 ], [ -43.749024299999967, -22.463376699999962 ], [ -43.749055899999973, -22.463443299999938 ], [ -43.749107899999956, -22.46348289999996 ], [ -43.749170699999986, -22.463503899999978 ], [ -43.749281599999968, -22.463586199999959 ], [ -43.749403799999975, -22.463619 ], [ -43.749582399999959, -22.463660199999932 ], [ -43.749658899999986, -22.463669 ], [ -43.749714899999965, -22.463690099999958 ], [ -43.749753399999975, -22.463744499999954 ], [ -43.749760599999945, -22.463850799999936 ], [ -43.749816499999945, -22.464002499999918 ], [ -43.749868299999953, -22.46417619999994 ], [ -43.749933599999956, -22.464225399999982 ], [ -43.749964699999964, -22.46430759999993 ], [ -43.749965699999962, -22.464395 ], [ -43.749905899999924, -22.464517399999981 ], [ -43.749869199999985, -22.464774399999957 ], [ -43.749856, -22.464898499999943 ], [ -43.749901899999941, -22.465049799999967 ], [ -43.749978699999986, -22.465164699999939 ], [ -43.750000599999957, -22.465174699999988 ], [ -43.750024599999961, -22.465185499999951 ], [ -43.750057499999976, -22.465202299999945 ], [ -43.750076899999954, -22.465221699999979 ], [ -43.750102, -22.465278699999946 ], [ -43.750103499999966, -22.465347299999955 ], [ -43.750101599999937, -22.465524599999977 ], [ -43.750106699999947, -22.465554699999927 ], [ -43.750131, -22.465582199999968 ], [ -43.75023369999996, -22.465626099999952 ], [ -43.750452899999978, -22.46568729999996 ], [ -43.750529, -22.465685699999934 ], [ -43.750608599999964, -22.465675199999957 ], [ -43.750679, -22.465658499999964 ], [ -43.750730499999982, -22.465638499999947 ], [ -43.750800099999928, -22.465639799999966 ], [ -43.750833899999975, -22.465667399999973 ], [ -43.750879599999969, -22.465713299999948 ], [ -43.750945, -22.465741599999941 ], [ -43.751302399999986, -22.465765199999968 ], [ -43.751384699999953, -22.4657668 ], [ -43.751423699999982, -22.465743499999974 ], [ -43.75144419999998, -22.465707899999927 ], [ -43.751449499999985, -22.465653899999957 ], [ -43.751457499999958, -22.465612 ], [ -43.751474399999942, -22.465585299999933 ], [ -43.751493299999943, -22.465588699999955 ], [ -43.751524399999937, -22.465604299999939 ], [ -43.751674699999974, -22.46581129999992 ], [ -43.751693799999941, -22.465889799999957 ], [ -43.751689899999981, -22.465907699999942 ], [ -43.751669599999957, -22.465940299999936 ], [ -43.751643599999973, -22.465954899999925 ], [ -43.751585699999957, -22.465974799999962 ], [ -43.751547, -22.465992099999944 ], [ -43.751517499999977, -22.466015499999965 ], [ -43.751503799999966, -22.46604229999997 ], [ -43.751492699999979, -22.466081099999947 ], [ -43.751384199999961, -22.466654299999949 ], [ -43.751337499999984, -22.466791399999963 ], [ -43.751288099999954, -22.466916499999964 ], [ -43.751213099999973, -22.467050099999938 ], [ -43.750931, -22.467529199999941 ], [ -43.750892899999947, -22.467609499999988 ], [ -43.750861099999959, -22.467692799999949 ], [ -43.75073069999997, -22.468104199999967 ], [ -43.750698699999937, -22.468190599999943 ], [ -43.750664699999966, -22.468249899999929 ], [ -43.750617899999952, -22.468311899999943 ], [ -43.750581, -22.468362099999968 ], [ -43.750546899999961, -22.468424399999943 ], [ -43.750468499999954, -22.46864179999994 ], [ -43.750422399999941, -22.468927899999972 ], [ -43.750416599999944, -22.468993699999949 ], [ -43.75041479999993, -22.469038699999945 ], [ -43.750478699999981, -22.469262 ], [ -43.750478699999974, -22.46934 ], [ -43.750467199999946, -22.469390799999914 ], [ -43.750446199999942, -22.469441299999961 ], [ -43.750419499999971, -22.469476799999935 ], [ -43.750389399999953, -22.469515099999963 ], [ -43.750372099999936, -22.469553699999945 ], [ -43.75036, -22.469619399999942 ], [ -43.750358, -22.469667399999938 ], [ -43.750345199999977, -22.469751099999936 ], [ -43.7503033, -22.469849199999938 ], [ -43.750248499999948, -22.469953 ], [ -43.750208899999961, -22.470034599999963 ], [ -43.750073899999954, -22.470105799999942 ], [ -43.750000499999942, -22.470142699999943 ], [ -43.749939599999948, -22.470173499999934 ], [ -43.749819099999968, -22.470219899999968 ], [ -43.749751599999968, -22.470264099999948 ], [ -43.749724, -22.470311699999968 ], [ -43.749735, -22.470395699999983 ], [ -43.749758199999974, -22.470520399999938 ], [ -43.74981269999995, -22.470717399999952 ], [ -43.749895899999949, -22.470826599999949 ], [ -43.749901699999945, -22.470857799999987 ], [ -43.749880599999983, -22.470900399999945 ], [ -43.749749, -22.471117799999949 ], [ -43.749633299999971, -22.471365399999954 ], [ -43.749547399999983, -22.471485099999938 ], [ -43.749402099999941, -22.471593499999987 ], [ -43.749236899999978, -22.471704299999946 ], [ -43.749024399999939, -22.471861799999942 ], [ -43.748923499999933, -22.471925299999938 ], [ -43.748834, -22.47192229999996 ], [ -43.748773199999967, -22.4719325 ], [ -43.748747699999967, -22.47193679999998 ], [ -43.748520399999961, -22.472028799999961 ], [ -43.748271799999948, -22.472175699999966 ], [ -43.748116699999969, -22.472286799999956 ], [ -43.74799349999995, -22.472321699999949 ], [ -43.74790059999998, -22.472324799999967 ], [ -43.74783089999994, -22.472342899999944 ], [ -43.747595599999954, -22.472496399999955 ], [ -43.747459899999967, -22.472611699999963 ], [ -43.747423499999968, -22.472642599999965 ], [ -43.747339599999975, -22.472704199999949 ], [ -43.747271099999985, -22.472670499999943 ], [ -43.747246799999971, -22.472701599999937 ], [ -43.747150399999953, -22.47282639999996 ], [ -43.747029899999973, -22.472982299999952 ], [ -43.746854199999973, -22.473317199999943 ], [ -43.746715399999978, -22.47346019999997 ], [ -43.746441699999934, -22.473460199999966 ], [ -43.746325099999986, -22.473457099999969 ], [ -43.746131199999979, -22.473452 ], [ -43.746029699999958, -22.473403899999933 ], [ -43.745898399999923, -22.473341699999938 ], [ -43.745653299999958, -22.473223299999972 ], [ -43.745428699999934, -22.473211 ], [ -43.745322399999964, -22.473321299999952 ], [ -43.745244799999966, -22.473546 ], [ -43.74511, -22.473607299999966 ], [ -43.745040599999982, -22.473766599999973 ], [ -43.745130499999959, -22.473831899999922 ], [ -43.745003799999949, -22.473938099999938 ], [ -43.744852699999967, -22.474097399999948 ], [ -43.744701599999985, -22.474309799999951 ], [ -43.7447, -22.474312199999925 ], [ -43.744505499999953, -22.474616199999957 ], [ -43.744456499999949, -22.474955199999958 ], [ -43.744338, -22.475220699999962 ], [ -43.744117399999936, -22.475523 ], [ -43.743958099999936, -22.475735399999955 ], [ -43.743823299999974, -22.475870199999978 ], [ -43.743717099999976, -22.476160199999974 ], [ -43.743566, -22.476254199999971 ], [ -43.743316799999945, -22.476760699999929 ], [ -43.743235099999943, -22.477042499999978 ], [ -43.743259599999938, -22.477340699999953 ], [ -43.743401399999982, -22.477609 ], [ -43.743378899999982, -22.477698399999948 ], [ -43.743370299999981, -22.477732399999979 ], [ -43.743360599999967, -22.477771 ], [ -43.743333199999945, -22.477879899999941 ], [ -43.743043099999966, -22.478141299999937 ], [ -43.743025, -22.478162299999937 ], [ -43.742838899999988, -22.478378299999967 ], [ -43.742716399999956, -22.478705 ], [ -43.742622399999959, -22.479156399999969 ], [ -43.742753099999966, -22.479262599999963 ], [ -43.742753099999966, -22.479409699999955 ], [ -43.742573399999969, -22.479483199999947 ], [ -43.742434499999945, -22.479548499999954 ], [ -43.74219759999994, -22.479605699999979 ], [ -43.742115899999931, -22.479761 ], [ -43.74209959999996, -22.479916199999934 ], [ -43.741870799999958, -22.47998969999998 ], [ -43.741609399999966, -22.480095899999984 ], [ -43.741429699999976, -22.480218399999956 ], [ -43.741420299999966, -22.480257 ], [ -43.741411099999944, -22.480295099999974 ], [ -43.741403399999975, -22.480327 ], [ -43.74136429999993, -22.480488 ], [ -43.741241799999955, -22.480814799999951 ], [ -43.74121729999996, -22.481051699999952 ], [ -43.741266299999943, -22.481337699999969 ], [ -43.741274399999952, -22.481648099999969 ], [ -43.741111099999955, -22.481917699999947 ], [ -43.741249899999964, -22.482122 ], [ -43.741070199999967, -22.482383399999954 ], [ -43.740735299999983, -22.482424199999965 ], [ -43.740485699999972, -22.482280399999969 ], [ -43.740081799999984, -22.482070599999933 ], [ -43.739845699999933, -22.481905299999937 ], [ -43.739574199999936, -22.48179319999997 ], [ -43.739355799999942, -22.481887599999947 ], [ -43.739150399999964, -22.482064799999932 ], [ -43.738905299999942, -22.482048399999933 ], [ -43.738864499999984, -22.482059499999938 ], [ -43.738423299999965, -22.482179099999929 ], [ -43.73817, -22.482342499999959 ], [ -43.738006599999956, -22.482538599999931 ], [ -43.737541, -22.482840899999928 ], [ -43.73740209999994, -22.483012399999946 ], [ -43.737328599999955, -22.483453599999958 ], [ -43.737173399999961, -22.483660899999958 ], [ -43.736854699999981, -22.483853899999936 ], [ -43.736423499999944, -22.483727099999943 ], [ -43.736144, -22.483853899999932 ], [ -43.735613, -22.483853899999932 ], [ -43.735425099999929, -22.483715 ], [ -43.735229, -22.483429099999967 ], [ -43.734967599999955, -22.48339639999994 ], [ -43.73481229999993, -22.483363699999931 ], [ -43.734702, -22.483286099999933 ], [ -43.734689799999956, -22.483114599999961 ], [ -43.73458769999997, -22.482824499999939 ], [ -43.734457, -22.482759199999972 ], [ -43.734305799999959, -22.482734699999984 ], [ -43.734195499999949, -22.482763299999917 ], [ -43.7340526, -22.482644799999942 ], [ -43.733846799999981, -22.482424599999948 ], [ -43.733839899999971, -22.482336799999928 ], [ -43.733872799999979, -22.482240399999974 ], [ -43.733798899999954, -22.482102299999955 ], [ -43.733717599999977, -22.481921799999945 ], [ -43.733566499999938, -22.481725699999981 ], [ -43.733419399999946, -22.48157869999994 ], [ -43.733313199999941, -22.481337699999983 ], [ -43.733180399999981, -22.48108529999995 ], [ -43.733113099999976, -22.481027199999964 ], [ -43.733023199999934, -22.481023099999955 ], [ -43.732851599999947, -22.480872 ], [ -43.732708699999932, -22.480774 ], [ -43.732504399999982, -22.480692299999927 ], [ -43.732402299999933, -22.480618799999945 ], [ -43.732308399999965, -22.480308299999926 ], [ -43.73223889999997, -22.479985599999967 ], [ -43.732145, -22.479863099999928 ], [ -43.732014299999953, -22.479769099999931 ], [ -43.731887599999936, -22.479769099999942 ], [ -43.731834499999934, -22.479716 ], [ -43.731773899999951, -22.479577399999979 ], [ -43.731805899999983, -22.479438299999959 ], [ -43.731755699999958, -22.479355 ], [ -43.731681399999957, -22.479285599999965 ], [ -43.731610699999976, -22.479203299999938 ], [ -43.731531799999978, -22.479022799999932 ], [ -43.731458699999962, -22.47897259999996 ], [ -43.731323899999957, -22.478939899999933 ], [ -43.731172799999975, -22.478882699999918 ], [ -43.731087199999926, -22.478899399999936 ], [ -43.730796299999952, -22.479019599999962 ], [ -43.730631699999954, -22.479028199999956 ], [ -43.730522699999938, -22.479038099999975 ], [ -43.730443499999986, -22.47898849999995 ], [ -43.730309799999922, -22.478874699999956 ], [ -43.730191, -22.478661699999986 ], [ -43.729973099999931, -22.478429 ], [ -43.729735399999974, -22.478206199999931 ], [ -43.729522499999966, -22.478003199999932 ], [ -43.729507699999942, -22.477928899999938 ], [ -43.729492799999946, -22.477815 ], [ -43.729383899999952, -22.477790199999962 ], [ -43.729260099999976, -22.477735799999941 ], [ -43.729190699999954, -22.477582299999938 ], [ -43.729096699999957, -22.477324799999948 ], [ -43.728953099999956, -22.477067299999913 ], [ -43.728868899999952, -22.476879099999962 ], [ -43.7288243, -22.476631599999969 ], [ -43.728819399999963, -22.47642849999994 ], [ -43.728792799999951, -22.476271899999965 ], [ -43.728784699999949, -22.476171099999924 ], [ -43.728690599999936, -22.476037399999932 ], [ -43.728497499999953, -22.475666 ], [ -43.728462899999961, -22.475482799999934 ], [ -43.728467799999983, -22.475359 ], [ -43.728423199999952, -22.475245099999931 ], [ -43.728309399999951, -22.475170799999937 ], [ -43.728165799999942, -22.475101499999937 ], [ -43.727660699999944, -22.47457659999997 ], [ -43.727314099999944, -22.474027 ], [ -43.727254699999953, -22.47370509999995 ], [ -43.726904199999986, -22.473184499999945 ], [ -43.72638139999998, -22.472420599999957 ], [ -43.726009699999963, -22.471930499999917 ], [ -43.725699199999951, -22.471534199999944 ], [ -43.725571099999968, -22.471214499999959 ], [ -43.725493799999981, -22.471094699999973 ], [ -43.725380699999967, -22.471022699999931 ], [ -43.725319199999944, -22.471002599999959 ], [ -43.725224499999975, -22.470971799999965 ], [ -43.725164799999959, -22.470940899999945 ], [ -43.725157499999966, -22.470937 ], [ -43.725130199999967, -22.470922299999913 ], [ -43.725073799999954, -22.470892 ], [ -43.724963499999944, -22.470807399999952 ], [ -43.723910399999966, -22.471895499999956 ], [ -43.725488399999968, -22.47409719999996 ], [ -43.725268, -22.474990199999972 ], [ -43.726107899999938, -22.47601739999994 ], [ -43.727413799999965, -22.475631599999922 ], [ -43.728238599999948, -22.47674459999995 ], [ -43.72826769999994, -22.478291 ], [ -43.727831699999967, -22.479353 ], [ -43.725800599999964, -22.478972199999944 ], [ -43.722066599999941, -22.481996299999928 ], [ -43.721917099999985, -22.482759 ], [ -43.721220899999942, -22.483526399999963 ], [ -43.720739, -22.484944799999937 ], [ -43.719893099999979, -22.485213699999978 ], [ -43.719654199999979, -22.486066599999951 ], [ -43.718239899999958, -22.486669199999927 ], [ -43.717655199999975, -22.485871499999959 ], [ -43.71742809999995, -22.485241499999972 ], [ -43.716579099999933, -22.484938399999976 ], [ -43.715843799999952, -22.485106899999945 ], [ -43.715680799999973, -22.485171799999932 ], [ -43.714073, -22.485812 ], [ -43.713914299999942, -22.485840899999971 ], [ -43.712903699999963, -22.486025099999949 ], [ -43.712444599999969, -22.486245499999946 ], [ -43.712410299999931, -22.486261899999928 ], [ -43.712408499999981, -22.486260099999985 ], [ -43.71238059999996, -22.486273899999958 ], [ -43.711121099999957, -22.486697199999977 ], [ -43.711241499999964, -22.489040799999945 ], [ -43.71149319999995, -22.490861699999989 ], [ -43.711788899999931, -22.491325599999985 ], [ -43.712206899999956, -22.491621199999948 ], [ -43.713571, -22.490857199999926 ], [ -43.714821799999982, -22.4897989 ], [ -43.715130199999983, -22.48953889999995 ], [ -43.716515299999976, -22.490671099999922 ], [ -43.716170299999931, -22.491245699999972 ], [ -43.71642669999995, -22.491684899999935 ], [ -43.715935599999973, -22.492732399999966 ], [ -43.715792899999947, -22.493558199999946 ], [ -43.716017099999938, -22.493802899999931 ], [ -43.716470799999975, -22.493945599999968 ], [ -43.716899, -22.49388439999996 ], [ -43.717775699999947, -22.493015599999978 ], [ -43.718429499999964, -22.492257199999983 ], [ -43.720297499999958, -22.493129599999975 ], [ -43.720213299999962, -22.494262899999967 ], [ -43.721070399999974, -22.49461789999997 ], [ -43.721276899999964, -22.495304199999957 ], [ -43.72025739999998, -22.495372299999921 ], [ -43.71969009999998, -22.495447 ], [ -43.719294099999956, -22.496560399999964 ], [ -43.720050199999946, -22.496752699999952 ], [ -43.721841199999979, -22.49677359999998 ], [ -43.723216199999968, -22.496439899999935 ], [ -43.7242586, -22.495671899999923 ], [ -43.725429299999966, -22.494390399999936 ], [ -43.725494, -22.494319599999979 ], [ -43.728358199999953, -22.4917215 ], [ -43.729388, -22.490393399999949 ], [ -43.730348599999964, -22.490852599999975 ], [ -43.729764599999953, -22.492633599999984 ], [ -43.729566499999976, -22.493923399999979 ], [ -43.729160199999974, -22.494436 ], [ -43.729083599999967, -22.495074199999973 ], [ -43.72856279999997, -22.495880699999919 ], [ -43.72879439999997, -22.496747899999942 ], [ -43.730030399999976, -22.497235699999965 ], [ -43.731421, -22.496839099999942 ], [ -43.732409099999984, -22.495405099999982 ], [ -43.731200699999931, -22.49499829999997 ], [ -43.730421899999953, -22.494503399999918 ], [ -43.730671699999959, -22.49317809999997 ], [ -43.731961499999954, -22.491406399999963 ], [ -43.732718199999972, -22.489291499999979 ], [ -43.733392699999968, -22.488886499999975 ], [ -43.733833299999958, -22.488856499999933 ], [ -43.734702399999946, -22.488922499999944 ], [ -43.734748099999933, -22.488926 ], [ -43.734748, -22.488939599999966 ], [ -43.734741799999938, -22.48940889999994 ], [ -43.734742099999956, -22.489412699999946 ], [ -43.734794299999976, -22.490130299999979 ], [ -43.734732399999984, -22.490308799999976 ], [ -43.734706399999936, -22.490462 ], [ -43.734611799999982, -22.490664699999961 ], [ -43.734609, -22.490955399999962 ], [ -43.734665099999972, -22.491075199999958 ], [ -43.735192799999943, -22.491629 ], [ -43.735278299999948, -22.49189349999995 ], [ -43.735383699999943, -22.491989699999969 ], [ -43.735469699999953, -22.49204819999995 ], [ -43.735696099999984, -22.492106199999967 ], [ -43.735988, -22.492124899999965 ], [ -43.736165799999988, -22.492184799999954 ], [ -43.736483899999946, -22.492476599999975 ], [ -43.73659239999995, -22.492684299999944 ], [ -43.736626099999967, -22.492826499999975 ], [ -43.736641, -22.493009899999944 ], [ -43.736613099999943, -22.493558099999969 ], [ -43.736613, -22.49356 ], [ -43.736551199999944, -22.493835099999959 ], [ -43.736508199999946, -22.494381399999938 ], [ -43.736468899999977, -22.494860399999926 ], [ -43.736396299999967, -22.495151299999971 ], [ -43.736429099999953, -22.495421699999955 ], [ -43.736520299999938, -22.495655899999971 ], [ -43.736671899999983, -22.495778199999972 ], [ -43.737252599999977, -22.495916299999976 ], [ -43.737448499999971, -22.495921099999979 ], [ -43.737666599999962, -22.495846099999934 ], [ -43.7378308, -22.495736799999982 ], [ -43.73807359999995, -22.495414799999931 ], [ -43.738147699999956, -22.49521679999998 ], [ -43.738610399999978, -22.494928299999952 ], [ -43.738804799999976, -22.494929299999967 ], [ -43.738901, -22.494982499999924 ], [ -43.739032799999961, -22.495189199999974 ], [ -43.739075899999939, -22.49553539999993 ], [ -43.739187199999947, -22.495593499999924 ], [ -43.739306, -22.495613299999942 ], [ -43.739410699999944, -22.495609499999951 ], [ -43.7394015, -22.495654 ], [ -43.739301899999923, -22.49613209999994 ], [ -43.736520599999949, -22.509484799999932 ], [ -43.736453, -22.509809199999946 ], [ -43.735652199999954, -22.513654 ], [ -43.735646299999985, -22.51365329999993 ], [ -43.733844799999986, -22.513445599999947 ], [ -43.732228799999966, -22.51393389999993 ], [ -43.730462399999965, -22.514010699999965 ], [ -43.728734399999951, -22.513857099999935 ], [ -43.725931199999927, -22.513165899999933 ], [ -43.724481599999933, -22.512551499999969 ], [ -43.723879, -22.511991899999938 ], [ -43.722312099999954, -22.510986699999926 ], [ -43.721697699999929, -22.510045899999959 ], [ -43.721457699999974, -22.509623499999975 ], [ -43.720449699999961, -22.508999499999952 ], [ -43.719076899999955, -22.508269899999963 ], [ -43.718548899999966, -22.508068299999938 ], [ -43.718136099999981, -22.508010699999943 ], [ -43.71788649999997, -22.508125899999978 ], [ -43.717732899999938, -22.508509899999979 ], [ -43.717752099999984, -22.509143499999922 ], [ -43.717809699999975, -22.509623499999972 ], [ -43.71856809999997, -22.510343499999973 ], [ -43.719023899999975, -22.510632 ], [ -43.719070899999963, -22.51071549999995 ], [ -43.719800499999963, -22.511905899999928 ], [ -43.719973299999936, -22.512520299999956 ], [ -43.719839799999932, -22.513357199999962 ], [ -43.719371199999955, -22.514234 ], [ -43.719366099999945, -22.514237499999986 ], [ -43.718733, -22.513259199999951 ], [ -43.712656199999977, -22.509719499999957 ], [ -43.711463899999956, -22.50942909999997 ], [ -43.710432299999972, -22.509240699999964 ], [ -43.709969899999983, -22.509156299999976 ], [ -43.709018499999964, -22.511391799999945 ], [ -43.708794, -22.511511 ], [ -43.708373699999981, -22.511662399999974 ], [ -43.70818189999995, -22.511806799999921 ], [ -43.708388299999974, -22.512426 ], [ -43.707389499999984, -22.512228899999968 ], [ -43.707054599999935, -22.512794599999953 ], [ -43.70510459999997, -22.51334309999994 ], [ -43.705088699999983, -22.513409499999959 ], [ -43.70446469999996, -22.516024399999932 ], [ -43.702655299999947, -22.516429 ], [ -43.700869299999958, -22.517182199999983 ], [ -43.699620099999947, -22.517060399999938 ], [ -43.698614599999985, -22.516237699999966 ], [ -43.696753899999983, -22.515707299999974 ], [ -43.696965199999958, -22.517045 ], [ -43.697943799999962, -22.523239599999954 ], [ -43.700054099999925, -22.536598099999928 ], [ -43.700164299999983, -22.537295899999947 ], [ -43.700630499999939, -22.537370099999979 ], [ -43.700868099999973, -22.53734 ], [ -43.701197199999967, -22.537298199999945 ], [ -43.701632799999963, -22.537064 ], [ -43.7015775, -22.537339499999973 ], [ -43.701619799999953, -22.53763019999996 ], [ -43.701681099999973, -22.53777179999998 ], [ -43.70171229999994, -22.537753899999931 ], [ -43.702108499999952, -22.537526399999937 ], [ -43.702522099999953, -22.537376799999944 ], [ -43.702618799999982, -22.537341799999972 ], [ -43.702750599999945, -22.537461299999951 ], [ -43.702857, -22.537522899999939 ], [ -43.702963399999931, -22.53758449999998 ], [ -43.70303489999997, -22.53756 ], [ -43.70344689999996, -22.537418899999981 ], [ -43.70360709999995, -22.537364 ], [ -43.703743699999968, -22.537287199999973 ], [ -43.70388029999998, -22.537210399999939 ], [ -43.704036799999983, -22.537210599999973 ], [ -43.704192199999966, -22.537278499999946 ], [ -43.704261599999931, -22.537522699999958 ], [ -43.704463099999941, -22.537630099999941 ], [ -43.704521799999952, -22.537661499999949 ], [ -43.70464979999997, -22.537653899999953 ], [ -43.705036699999944, -22.537631199999964 ], [ -43.705672299999954, -22.537506099999973 ], [ -43.706384799999967, -22.537343199999945 ], [ -43.706612299999961, -22.537098199999942 ], [ -43.70666, -22.536891399999938 ], [ -43.707567399999959, -22.535869399999967 ], [ -43.707659599999943, -22.535570599999971 ], [ -43.707598899999937, -22.535360099999931 ], [ -43.707775099999942, -22.535097899999979 ], [ -43.707947399999966, -22.535127099999947 ], [ -43.70803229999995, -22.535141499999952 ], [ -43.708141199999943, -22.535229899999926 ], [ -43.708250199999952, -22.535318199999953 ], [ -43.708288, -22.535421499999924 ], [ -43.708325799999955, -22.535524799999958 ], [ -43.708339, -22.535802099999952 ], [ -43.708449099999932, -22.536084399999929 ], [ -43.708743399999953, -22.536279799999928 ], [ -43.709189499999979, -22.536035799999979 ], [ -43.709191699999955, -22.536034699999963 ], [ -43.70924569999994, -22.53600519999998 ], [ -43.709249599999971, -22.536003 ], [ -43.709265299999963, -22.535951199999936 ], [ -43.709378, -22.535581199999967 ], [ -43.709338299999949, -22.53529239999995 ], [ -43.709496699999931, -22.53469209999998 ], [ -43.710134599999947, -22.534103799999968 ], [ -43.710926899999947, -22.533745 ], [ -43.711563599999977, -22.5337603 ], [ -43.712013099999979, -22.533775 ], [ -43.712553699999944, -22.534062299999956 ], [ -43.712585299999944, -22.534093899999956 ], [ -43.712957799999963, -22.534466 ], [ -43.712993899999958, -22.534502 ], [ -43.713354699999968, -22.535090399999934 ], [ -43.713699099999985, -22.535671799999932 ], [ -43.713729099999966, -22.535722499999959 ], [ -43.714245, -22.5358136 ], [ -43.714415199999962, -22.535843699999933 ], [ -43.714479099999949, -22.535756799999948 ], [ -43.714691399999936, -22.535467799999935 ], [ -43.714756, -22.53538 ], [ -43.71473619999994, -22.535246899999954 ], [ -43.714716399999922, -22.534685899999928 ], [ -43.714624599999986, -22.534063799999956 ], [ -43.714594, -22.532992899999957 ], [ -43.714624599999979, -22.532279 ], [ -43.714706199999966, -22.531779299999982 ], [ -43.714940799999965, -22.531391699999972 ], [ -43.715399699999978, -22.531147 ], [ -43.715981, -22.530892 ], [ -43.716205399999986, -22.530565599999928 ], [ -43.716230899999971, -22.530351499999934 ], [ -43.716144199999974, -22.530211199999936 ], [ -43.715990699999963, -22.530130699999962 ], [ -43.715851, -22.53011689999995 ], [ -43.715144499999951, -22.530111399999949 ], [ -43.715117199999959, -22.530054399999976 ], [ -43.716365699999983, -22.53004939999995 ], [ -43.716691599999933, -22.530046499999973 ], [ -43.718607099999986, -22.529826 ], [ -43.719075499999974, -22.52968329999992 ], [ -43.722805499999936, -22.528292799999974 ], [ -43.722984899999972, -22.528249199999937 ], [ -43.72350449999994, -22.528138499999962 ], [ -43.723981599999952, -22.528111099999933 ], [ -43.723994099999977, -22.528158499999954 ], [ -43.726576399999942, -22.537989799999934 ], [ -43.727793399999946, -22.537909099999972 ], [ -43.727798399999983, -22.537860499999951 ], [ -43.727815599999985, -22.537823 ], [ -43.727913599999965, -22.537739699999978 ], [ -43.727970099999936, -22.537603699999959 ], [ -43.727986799999947, -22.537478799999967 ], [ -43.728006899999976, -22.537326199999946 ], [ -43.728035299999931, -22.537228799999969 ], [ -43.728110799999968, -22.537092199999961 ], [ -43.728228699999939, -22.536944699999932 ], [ -43.7284696, -22.536668699999954 ], [ -43.728596499999988, -22.536594399999956 ], [ -43.728818299999944, -22.536619699999971 ], [ -43.729142799999977, -22.536592 ], [ -43.729396399999985, -22.536431099999948 ], [ -43.729549499999962, -22.536485499999969 ], [ -43.729660599999931, -22.536525 ], [ -43.729782699999937, -22.536568399999975 ], [ -43.72989429999997, -22.536643 ], [ -43.73006909999998, -22.536818199999963 ], [ -43.730244199999959, -22.536970899999972 ], [ -43.730426399999942, -22.53699509999996 ], [ -43.730599499999983, -22.537002599999923 ], [ -43.730584899999947, -22.537054 ], [ -43.730540799999972, -22.53725 ], [ -43.730490699999962, -22.537497499999979 ], [ -43.730486699999979, -22.537730399999937 ], [ -43.730486599999949, -22.53777239999993 ], [ -43.730262599999953, -22.538068199999945 ], [ -43.73007089999993, -22.538226799999961 ], [ -43.729969399999959, -22.538640399999963 ], [ -43.730247, -22.538786299999959 ], [ -43.730434399999972, -22.538808199999952 ], [ -43.731067899999971, -22.53837319999997 ], [ -43.731360499999937, -22.537653199999959 ], [ -43.73148149999998, -22.537443199999913 ], [ -43.731602199999941, -22.537325899999924 ], [ -43.731827899999985, -22.537342899999931 ], [ -43.731997099999944, -22.53740689999994 ], [ -43.732700799999975, -22.537018499999931 ], [ -43.732761399999951, -22.536820699999968 ], [ -43.733512499999954, -22.536184899999963 ], [ -43.734618199999943, -22.535673399999947 ], [ -43.735086699999954, -22.535797799999948 ], [ -43.735530199999971, -22.536218 ], [ -43.735821599999952, -22.536640099999936 ], [ -43.735779, -22.536999899999945 ], [ -43.735631399999924, -22.537354699999973 ], [ -43.734988799999947, -22.537993 ], [ -43.734089499999989, -22.538264799999983 ], [ -43.733856399999986, -22.538473599999978 ], [ -43.733735, -22.538918599999931 ], [ -43.733733599999944, -22.538923499999942 ], [ -43.733232099999952, -22.539530799999955 ], [ -43.72994719999997, -22.543146099999937 ], [ -43.727373799999953, -22.545263799999923 ], [ -43.726872199999946, -22.545710699999962 ], [ -43.726653099999965, -22.545930199999923 ], [ -43.726678099999958, -22.546363899999946 ], [ -43.726974, -22.546976499999957 ], [ -43.727378299999941, -22.547526599999959 ], [ -43.727979799999957, -22.548228499999926 ], [ -43.731360699999982, -22.551202799999935 ], [ -43.731372099999938, -22.551214399999932 ], [ -43.731875, -22.551301399999939 ], [ -43.732648, -22.551291699999972 ], [ -43.736069599999951, -22.550537799999972 ], [ -43.736920199999979, -22.549416599999965 ], [ -43.740706699999983, -22.540876799999982 ], [ -43.7408291, -22.540488399999958 ], [ -43.741065399999982, -22.53911579999993 ], [ -43.748072899999954, -22.543382199999929 ], [ -43.76655959999993, -22.554637499999949 ], [ -43.769477099999961, -22.556413799999966 ], [ -43.771521299999975, -22.551600699999927 ], [ -43.771529599999944, -22.551581299999953 ] ] ] } }
]
}
