{
"type": "FeatureCollection",
"name": "3302205",
"crs": { "type": "name", "properties": { "name": "urn:ogc:def:crs:OGC:1.3:CRS84" } },
"features": [
{ "type": "Feature", "properties": { "CD_MUN": "3302205", "NM_MUN": "Itaperuna" }, "geometry": { "type": "MultiPolygon", "coordinates": [ [ [ [ -41.629121299999952, -21.32216509999995 ], [ -41.629006799999956, -21.321242699999971 ], [ -41.631171799999954, -21.322015099999923 ], [ -41.631447299999934, -21.320458599999927 ], [ -41.632733099999939, -21.320200799999952 ], [ -41.634216799999933, -21.318982699999932 ], [ -41.634212199999972, -21.318602099999971 ], [ -41.632370599999945, -21.318723899999952 ], [ -41.632338099999977, -21.318324799999964 ], [ -41.632783, -21.318108599999963 ], [ -41.633095, -21.317031099999944 ], [ -41.633173, -21.317154899999935 ], [ -41.63327959999998, -21.317125899999947 ], [ -41.633425, -21.316995 ], [ -41.63357039999994, -21.316810899999961 ], [ -41.633691499999941, -21.316617099999966 ], [ -41.633866, -21.316684899999927 ], [ -41.633851399999969, -21.316922399999957 ], [ -41.63390469999996, -21.317024099999966 ], [ -41.634011299999948, -21.316999899999928 ], [ -41.634193499999988, -21.316811399999946 ], [ -41.633817499999964, -21.314848499999986 ], [ -41.632470499999954, -21.314015099999949 ], [ -41.6314546, -21.316381899999957 ], [ -41.631457499999954, -21.316446399999958 ], [ -41.630925199999986, -21.316634899999944 ], [ -41.630610199999978, -21.316709099999962 ], [ -41.63020389999997, -21.316792199999945 ], [ -41.629899299999977, -21.316930699999947 ], [ -41.629594599999962, -21.316967599999934 ], [ -41.62941919999998, -21.316764499999973 ], [ -41.629096, -21.316570599999967 ], [ -41.628717499999937, -21.316589099999931 ], [ -41.628625199999938, -21.316755299999944 ], [ -41.628495899999976, -21.316801399999981 ], [ -41.628283599999975, -21.316829099999953 ], [ -41.628237399999939, -21.316699899999954 ], [ -41.627960399999949, -21.316579899999969 ], [ -41.627637299999947, -21.316422899999974 ], [ -41.627510599999944, -21.316134399999946 ], [ -41.6273, -21.316129399999962 ], [ -41.627071699999931, -21.315980499999963 ], [ -41.626794099999984, -21.315864099999938 ], [ -41.626643799999954, -21.316025899999936 ], [ -41.62673529999995, -21.316305099999962 ], [ -41.626406699999961, -21.316361599999937 ], [ -41.626356299999955, -21.316296899999941 ], [ -41.626223799999934, -21.316173499999937 ], [ -41.62616079999998, -21.316138299999963 ], [ -41.626072499999971, -21.316126499999939 ], [ -41.625927399999966, -21.316138299999974 ], [ -41.625826499999953, -21.316114799999973 ], [ -41.625713, -21.316038399999968 ], [ -41.62560579999996, -21.315985499999961 ], [ -41.625555299999967, -21.315903299999956 ], [ -41.625523799999947, -21.31585629999995 ], [ -41.625454399999967, -21.31582689999993 ], [ -41.625340899999969, -21.315826899999934 ], [ -41.625164299999938, -21.315844499999972 ], [ -41.625, -21.315797499999981 ], [ -41.624836399999936, -21.315709399999953 ], [ -41.624628199999961, -21.31566829999996 ], [ -41.624582099999948, -21.315662499999974 ], [ -41.624439, -21.315644799999976 ], [ -41.62438139999994, -21.315649699999941 ], [ -41.624369699999939, -21.315650599999959 ], [ -41.624262499999929, -21.315674099999963 ], [ -41.624003899999934, -21.315826899999923 ], [ -41.623821, -21.315944399999971 ], [ -41.623562399999962, -21.316138299999981 ], [ -41.623461499999969, -21.316197 ], [ -41.623203599999954, -21.316216199999928 ], [ -41.623160199999973, -21.316208 ], [ -41.6230336, -21.316215799999945 ], [ -41.623005599999942, -21.316209 ], [ -41.622615499999938, -21.316231 ], [ -41.622258599999952, -21.316280799999962 ], [ -41.62216449999994, -21.316304699999936 ], [ -41.621777, -21.31623339999992 ], [ -41.621592599999985, -21.316191099999966 ], [ -41.621515099999954, -21.316171699999931 ], [ -41.6213226, -21.316151299999945 ], [ -41.6209583, -21.31617539999997 ], [ -41.620570699999966, -21.316203399999946 ], [ -41.620369699999969, -21.31619749999993 ], [ -41.620270299999959, -21.316142499999962 ], [ -41.620165599999957, -21.316068899999944 ], [ -41.62001109999995, -21.316047099999942 ], [ -41.61987739999995, -21.316236299999964 ], [ -41.618978399999946, -21.317254399999968 ], [ -41.619143199999932, -21.317307799999977 ], [ -41.619153599999947, -21.317731299999931 ], [ -41.620201399999985, -21.317945 ], [ -41.621403899999962, -21.317980699999971 ], [ -41.621734299999957, -21.318136299999942 ], [ -41.620853399999923, -21.318996199999965 ], [ -41.621493199999975, -21.319658899999975 ], [ -41.620472599999964, -21.320641599999934 ], [ -41.620933199999961, -21.321107 ], [ -41.621529699999947, -21.321707499999938 ], [ -41.622515399999941, -21.320771299999929 ], [ -41.624611899999941, -21.322539199999937 ], [ -41.625243499999961, -21.322029799999932 ], [ -41.625356699999948, -21.322261499999968 ], [ -41.62528789999994, -21.322638899999959 ], [ -41.625378399999938, -21.322951399999962 ], [ -41.625615, -21.323070599999927 ], [ -41.625675599999965, -21.324024699999931 ], [ -41.626740199999972, -21.324013599999951 ], [ -41.627049399999976, -21.323667 ], [ -41.626570699999945, -21.323292599999938 ], [ -41.626544199999955, -21.323144399999936 ], [ -41.627188199999978, -21.322098099999952 ], [ -41.629121299999952, -21.32216509999995 ] ] ], [ [ [ -42.024052299999944, -21.315642299999961 ], [ -42.024031199999975, -21.315766199999914 ], [ -42.024027499999931, -21.315918 ], [ -42.024112499999944, -21.315791899999958 ], [ -42.024244299999971, -21.315591099999956 ], [ -42.024373899999944, -21.315409199999976 ], [ -42.024465399999947, -21.315209799999934 ], [ -42.024742599999968, -21.315384599999948 ], [ -42.025950599999931, -21.313919299999956 ], [ -42.026955099999952, -21.316795699999947 ], [ -42.028738799999978, -21.31450939999996 ], [ -42.028906099999979, -21.314202799999983 ], [ -42.028287399999954, -21.31394 ], [ -42.0266994, -21.312821 ], [ -42.025055799999969, -21.311303899999938 ], [ -42.023377299999943, -21.312695099999917 ], [ -42.02225969999995, -21.314460699999923 ], [ -42.024126099999933, -21.315484 ], [ -42.024052299999944, -21.315642299999961 ] ] ], [ [ [ -41.791283699999951, -21.27470059999996 ], [ -41.790114399999943, -21.274251599999953 ], [ -41.786117199999978, -21.272716799999955 ], [ -41.785898699999954, -21.273013199999983 ], [ -41.785584799999981, -21.27311189999994 ], [ -41.785103599999957, -21.273065 ], [ -41.784729399999947, -21.272922099999953 ], [ -41.784433699999965, -21.272877299999944 ], [ -41.7841342, -21.272943 ], [ -41.783983399999961, -21.273078 ], [ -41.783626599999941, -21.273367499999949 ], [ -41.783596499999931, -21.273392 ], [ -41.78390979999994, -21.273801499999927 ], [ -41.784269699999989, -21.274302199999951 ], [ -41.784882699999976, -21.275096199999947 ], [ -41.785287499999988, -21.275625899999952 ], [ -41.785603299999934, -21.275973699999938 ], [ -41.786014499999972, -21.276383 ], [ -41.786343299999942, -21.276694099999929 ], [ -41.786388, -21.276736299999978 ], [ -41.786433399999972, -21.276779299999923 ], [ -41.786499799999952, -21.276842199999969 ], [ -41.787136299999936, -21.277434 ], [ -41.787625799999944, -21.277873599999946 ], [ -41.787729899999938, -21.27798169999993 ], [ -41.789018099999971, -21.279236399999935 ], [ -41.791003699999976, -21.281039199999952 ], [ -41.792688, -21.279185299999916 ], [ -41.79075169999993, -21.277498699999967 ], [ -41.791283699999951, -21.27470059999996 ] ] ], [ [ [ -41.918711599999945, -21.207129799999958 ], [ -41.919541, -21.206884799999948 ], [ -41.919395499999958, -21.206382 ], [ -41.918595899999964, -21.206626099999916 ], [ -41.918125399999951, -21.204496099999972 ], [ -41.919948599999948, -21.204394 ], [ -41.920074899999982, -21.204229899999977 ], [ -41.920031499999936, -21.204158299999953 ], [ -41.9199417, -21.204172599999922 ], [ -41.919247, -21.204196799999981 ], [ -41.918741199999943, -21.20422079999997 ], [ -41.917790899999936, -21.204272699999933 ], [ -41.917272, -21.204273 ], [ -41.917305199999923, -21.204125699999956 ], [ -41.917349099999967, -21.203917499999925 ], [ -41.91742279999994, -21.203816 ], [ -41.917497499999975, -21.20371989999995 ], [ -41.917547699999943, -21.203599099999956 ], [ -41.917585, -21.203437299999955 ], [ -41.917592599999978, -21.203257899999972 ], [ -41.917579199999977, -21.203031799999962 ], [ -41.917497499999968, -21.202753499999968 ], [ -41.917435599999983, -21.20249229999995 ], [ -41.917452599999933, -21.202316799999945 ], [ -41.917505199999944, -21.202160099999951 ], [ -41.917560199999969, -21.202006199999971 ], [ -41.917616799999969, -21.201929699999926 ], [ -41.9176394, -21.201313299999963 ], [ -41.917678799999983, -21.200946899999952 ], [ -41.917662199999945, -21.200717199999922 ], [ -41.920559199999957, -21.200461699999945 ], [ -41.920441899999958, -21.199304399999956 ], [ -41.918387199999984, -21.199516899999935 ], [ -41.918220199999958, -21.197997099999945 ], [ -41.917532199999982, -21.19752469999997 ], [ -41.917355299999947, -21.195240799999961 ], [ -41.917361699999958, -21.194067099999931 ], [ -41.917433399999936, -21.193094899999934 ], [ -41.917462599999972, -21.192352699999951 ], [ -41.922563699999948, -21.191555099999963 ], [ -41.928541099999968, -21.190688699999942 ], [ -41.935241599999983, -21.189715899999943 ], [ -41.935604499999961, -21.189350199999986 ], [ -41.935318, -21.188926299999931 ], [ -41.935192, -21.188479399999949 ], [ -41.935340899999979, -21.188009699999931 ], [ -41.935890899999947, -21.187230499999945 ], [ -41.93623469999995, -21.186027399999926 ], [ -41.936372199999944, -21.185076399999957 ], [ -41.936319, -21.184552099999966 ], [ -41.936292, -21.184285799999937 ], [ -41.936257599999976, -21.183509599999969 ], [ -41.936430799999989, -21.183104499999956 ], [ -41.919398899999983, -21.184242499999986 ], [ -41.917668799999952, -21.182518499999958 ], [ -41.915972499999953, -21.183085 ], [ -41.913199699999957, -21.183041399999972 ], [ -41.910186699999947, -21.180486899999934 ], [ -41.908713, -21.180192099999932 ], [ -41.905442799999953, -21.181606499999926 ], [ -41.907182899999952, -21.185712099999929 ], [ -41.90517019999993, -21.187989399999925 ], [ -41.904993399999967, -21.187649699999945 ], [ -41.900662299999965, -21.18669 ], [ -41.90103419999997, -21.185613699999973 ], [ -41.898766299999977, -21.185453099999965 ], [ -41.897183, -21.185451899999961 ], [ -41.897452699999974, -21.182874899999941 ], [ -41.897077199999963, -21.182939399999956 ], [ -41.896142, -21.183046799999939 ], [ -41.896039299999984, -21.181701199999964 ], [ -41.893261, -21.182059899999949 ], [ -41.893118299999969, -21.181754 ], [ -41.892823899999939, -21.181444 ], [ -41.892782799999964, -21.180876 ], [ -41.892677699999986, -21.180486799999979 ], [ -41.892593099999949, -21.180175 ], [ -41.892555499999965, -21.179773099999959 ], [ -41.892661499999974, -21.17950919999992 ], [ -41.892641099999942, -21.179176499999986 ], [ -41.89237769999994, -21.178966 ], [ -41.8920356, -21.178690699999951 ], [ -41.891937599999949, -21.178502199999961 ], [ -41.891685099999961, -21.178471399999982 ], [ -41.891502299999971, -21.178143199999962 ], [ -41.891664299999945, -21.177961099999937 ], [ -41.891765, -21.177288499999971 ], [ -41.891361199999949, -21.177325199999935 ], [ -41.891256899999981, -21.177411399999972 ], [ -41.891013599999951, -21.177254799999961 ], [ -41.890669399999979, -21.176938699999944 ], [ -41.890330199999937, -21.177004199999935 ], [ -41.886532699999975, -21.178657 ], [ -41.88619, -21.178675399999971 ], [ -41.885263099999982, -21.179176399999964 ], [ -41.884894899999949, -21.179908899999919 ], [ -41.883947399999954, -21.180439 ], [ -41.883928, -21.180426299999969 ], [ -41.883896599999957, -21.180442599999935 ], [ -41.879800199999984, -21.179700899999936 ], [ -41.878145599999982, -21.179691899999963 ], [ -41.876173699999981, -21.179681199999951 ], [ -41.874891599999962, -21.181983299999956 ], [ -41.875322399999959, -21.182277099999965 ], [ -41.874785699999968, -21.183036899999937 ], [ -41.87492009999994, -21.183042299999951 ], [ -41.875068899999981, -21.183039599999972 ], [ -41.875230699999975, -21.183005 ], [ -41.875410599999945, -21.182946299999958 ], [ -41.875583599999977, -21.182910199999977 ], [ -41.875736499999967, -21.182900299999964 ], [ -41.875875, -21.182929099999946 ], [ -41.876005, -21.18301119999995 ], [ -41.876117799999975, -21.183126399999924 ], [ -41.876178799999934, -21.183255599999939 ], [ -41.876278599999985, -21.183672799999954 ], [ -41.876351199999931, -21.183915399999925 ], [ -41.876389, -21.184077 ], [ -41.876347099999983, -21.184253699999939 ], [ -41.876215099999968, -21.184399899999963 ], [ -41.875962899999941, -21.184638299999957 ], [ -41.875859599999956, -21.184816299999969 ], [ -41.875749199999973, -21.184878699999949 ], [ -41.875261899999948, -21.185097199999966 ], [ -41.875334599999974, -21.1856 ], [ -41.874728499999947, -21.186013 ], [ -41.875375099999985, -21.187695 ], [ -41.87406979999998, -21.187865 ], [ -41.874246199999966, -21.18896379999995 ], [ -41.875534799999961, -21.18889559999996 ], [ -41.874610899999944, -21.189965299999976 ], [ -41.87536, -21.190622099999921 ], [ -41.87627949999996, -21.191071799999971 ], [ -41.876632099999938, -21.190937499999958 ], [ -41.877228599999974, -21.191239199999924 ], [ -41.877924299999968, -21.192986399999917 ], [ -41.87972879999996, -21.192171899999934 ], [ -41.879359, -21.191551799999942 ], [ -41.880091199999988, -21.191065899999955 ], [ -41.880553699999957, -21.191431199999936 ], [ -41.88098, -21.191919899999952 ], [ -41.881190299999957, -21.192440699999967 ], [ -41.881152, -21.192833199999946 ], [ -41.881042, -21.193190299999973 ], [ -41.879904, -21.193385199999963 ], [ -41.878642099999979, -21.194189499999936 ], [ -41.878653, -21.194396099999949 ], [ -41.8779148, -21.194930599999957 ], [ -41.877264499999967, -21.195096 ], [ -41.876832899999954, -21.195483699999954 ], [ -41.876668399999971, -21.195946699999972 ], [ -41.87665579999998, -21.196851699999964 ], [ -41.87636, -21.19692649999995 ], [ -41.875877199999934, -21.197023699999924 ], [ -41.875414399999954, -21.196465399999962 ], [ -41.87574, -21.196185199999945 ], [ -41.875122599999941, -21.195425099999955 ], [ -41.874493499999971, -21.19587179999996 ], [ -41.873687099999984, -21.194227299999966 ], [ -41.87311, -21.194372499999925 ], [ -41.872924899999937, -21.195087799999943 ], [ -41.870647199999951, -21.195976799999972 ], [ -41.869312, -21.195433899999951 ], [ -41.871940099999954, -21.190502899999945 ], [ -41.870917299999974, -21.189833 ], [ -41.863725699999975, -21.194436599999953 ], [ -41.864494599999944, -21.195318399999955 ], [ -41.864895499999925, -21.195888099999927 ], [ -41.8649377, -21.196331199999968 ], [ -41.864747799999982, -21.197006299999934 ], [ -41.86481109999994, -21.197660399999943 ], [ -41.86497989999998, -21.198208899999937 ], [ -41.865106399999945, -21.198757499999932 ], [ -41.8652752, -21.199095099999958 ], [ -41.865336899999932, -21.199481699999975 ], [ -41.86530879999998, -21.199748399999969 ], [ -41.865372499999985, -21.199929299999951 ], [ -41.865639499999929, -21.200261 ], [ -41.865818599999955, -21.20031409999995 ], [ -41.865929299999955, -21.200496599999948 ], [ -41.866456799999987, -21.200740799999934 ], [ -41.866119199999957, -21.200951799999924 ], [ -41.866203599999956, -21.201268199999944 ], [ -41.866477899999957, -21.201458099999972 ], [ -41.866477899999957, -21.201837899999919 ], [ -41.866499, -21.202217699999935 ], [ -41.866541199999972, -21.202660799999929 ], [ -41.86675269999995, -21.203073899999929 ], [ -41.866954, -21.203379599999952 ], [ -41.86666229999998, -21.203807499999975 ], [ -41.866484299999968, -21.20396339999995 ], [ -41.866348099999989, -21.204084599999927 ], [ -41.866338299999946, -21.204433299999941 ], [ -41.866481199999953, -21.204844699999956 ], [ -41.866450099999952, -21.204794699999983 ], [ -41.865794299999955, -21.204645899999946 ], [ -41.865121099999953, -21.204498699999931 ], [ -41.864787499999977, -21.205766499999967 ], [ -41.864110299999936, -21.20560329999994 ], [ -41.862649299999937, -21.205323099999919 ], [ -41.862979099999961, -21.20367329999992 ], [ -41.862418199999986, -21.20356309999994 ], [ -41.857261299999948, -21.205991599999944 ], [ -41.856814399999962, -21.207764799999946 ], [ -41.855345899999975, -21.209491399999923 ], [ -41.855180599999983, -21.209458699999956 ], [ -41.853602299999984, -21.209039399999931 ], [ -41.850570599999969, -21.208313899999936 ], [ -41.847995699999949, -21.207669399999929 ], [ -41.846431199999984, -21.207378399999985 ], [ -41.845347799999963, -21.207355199999927 ], [ -41.84413689999996, -21.207536799999957 ], [ -41.843606199999954, -21.207678299999934 ], [ -41.842959499999949, -21.207836099999941 ], [ -41.842286899999984, -21.20806709999993 ], [ -41.841744799999958, -21.208326399999969 ], [ -41.841231499999942, -21.208715799999926 ], [ -41.840665, -21.209501299999946 ], [ -41.839769499999932, -21.210683899999928 ], [ -41.837247599999948, -21.212444299999952 ], [ -41.834600799999983, -21.21426549999995 ], [ -41.83045629999998, -21.217102399999924 ], [ -41.829655, -21.217585699999962 ], [ -41.829025399999985, -21.217853499999915 ], [ -41.828525799999973, -21.21800249999994 ], [ -41.82804589999995, -21.218055799999942 ], [ -41.827599, -21.21805519999997 ], [ -41.828077499999949, -21.221458299999934 ], [ -41.833398599999953, -21.221435699999969 ], [ -41.836047299999962, -21.217818 ], [ -41.8417391, -21.213991299999972 ], [ -41.851252099999954, -21.216152199999947 ], [ -41.851946599999962, -21.215562199999962 ], [ -41.852227699999958, -21.21504189999996 ], [ -41.852405099999942, -21.214773099999942 ], [ -41.853917199999955, -21.213813599999984 ], [ -41.854095799999982, -21.213221 ], [ -41.854167299999979, -21.212788799999931 ], [ -41.854195299999958, -21.212597899999931 ], [ -41.85413449999993, -21.212406799999926 ], [ -41.854371699999952, -21.212466099999958 ], [ -41.856492799999955, -21.21289019999994 ], [ -41.856377499999951, -21.213272299999971 ], [ -41.859901899999954, -21.214075599999941 ], [ -41.860540299999968, -21.211730499999927 ], [ -41.864033099999972, -21.212692099999977 ], [ -41.866391599999929, -21.212662899999927 ], [ -41.866403, -21.212962099999963 ], [ -41.866477899999957, -21.213444099999943 ], [ -41.866747699999962, -21.214455399999956 ], [ -41.867023299999978, -21.215272599999921 ], [ -41.869192099999971, -21.220459199999944 ], [ -41.86998959999994, -21.222188899999942 ], [ -41.87025749999998, -21.222344 ], [ -41.869778199999978, -21.222682299999967 ], [ -41.870349799999985, -21.222941599999949 ], [ -41.870779099999936, -21.223246199999931 ], [ -41.871187899999939, -21.224134399999961 ], [ -41.87114569999995, -21.225093 ], [ -41.871667299999963, -21.224797 ], [ -41.871230199999957, -21.225882499999948 ], [ -41.870483099999952, -21.22639 ], [ -41.870807299999967, -21.226728399999949 ], [ -41.871343, -21.226587399999961 ], [ -41.871258399999931, -21.226968 ], [ -41.871568199999963, -21.22694829999994 ], [ -41.871653199999969, -21.227306399999971 ], [ -41.871357099999962, -21.227842099999979 ], [ -41.870962399999939, -21.227926699999951 ], [ -41.871864799999962, -21.229468299999937 ], [ -41.87161889999993, -21.229619299999964 ], [ -41.87108859999995, -21.229837599999946 ], [ -41.870234699999969, -21.230457399999967 ], [ -41.871586599999944, -21.230760899999943 ], [ -41.8715481, -21.231042299999945 ], [ -41.87073879999997, -21.231125299999977 ], [ -41.870969899999977, -21.231717099999955 ], [ -41.8704274, -21.232017699999961 ], [ -41.869509499999936, -21.231856599999947 ], [ -41.868803799999974, -21.231802799999969 ], [ -41.868114699999985, -21.232095199999954 ], [ -41.867668899999956, -21.232385099999924 ], [ -41.866981299999971, -21.232627099999938 ], [ -41.866532099999979, -21.232916799999931 ], [ -41.865721899999983, -21.232928399999931 ], [ -41.865522599999963, -21.23310779999996 ], [ -41.864998499999963, -21.233343699999967 ], [ -41.86456069999997, -21.233413199999973 ], [ -41.864820799999961, -21.235059199999959 ], [ -41.865495099999983, -21.234893099999969 ], [ -41.866976099999938, -21.234893599999957 ], [ -41.866954699999958, -21.235278299999944 ], [ -41.867052899999976, -21.235701399999975 ], [ -41.867412199999933, -21.236192799999962 ], [ -41.867730599999952, -21.236372199999948 ], [ -41.868016399999931, -21.236274499999983 ], [ -41.868221399999982, -21.236222399999964 ], [ -41.868564099999958, -21.236192399999936 ], [ -41.869068499999969, -21.236007199999953 ], [ -41.869269599999946, -21.23623409999993 ], [ -41.869699599999933, -21.236122699999946 ], [ -41.86992859999998, -21.235878799999963 ], [ -41.870342599999965, -21.235375799999915 ], [ -41.870443499999972, -21.235041699999936 ], [ -41.87194889999995, -21.235801099999932 ], [ -41.872014399999955, -21.236811199999977 ], [ -41.872333599999941, -21.237092799999978 ], [ -41.872528899999971, -21.237883699999941 ], [ -41.872550499999939, -21.237964799999926 ], [ -41.87258779999997, -21.238195799999968 ], [ -41.87287489999995, -21.238331099999971 ], [ -41.873041299999961, -21.238391 ], [ -41.873114499999978, -21.238550699999962 ], [ -41.873194399999932, -21.238823599999925 ], [ -41.873713499999951, -21.239089799999931 ], [ -41.873881599999947, -21.239241699999969 ], [ -41.874027799999965, -21.239297799999967 ], [ -41.874196599999948, -21.239351699999936 ], [ -41.874589299999975, -21.239602199999968 ], [ -41.87496729999998, -21.240022499999956 ], [ -41.875983499999961, -21.239082199999913 ], [ -41.875828099999978, -21.23649319999992 ], [ -41.876124499999946, -21.235924099999963 ], [ -41.877338699999946, -21.235442699999954 ], [ -41.885189299999979, -21.234339199999951 ], [ -41.885711499999964, -21.23492779999998 ], [ -41.89006819999998, -21.241958599999979 ], [ -41.891663899999969, -21.241414899999928 ], [ -41.891741799999977, -21.241347099999913 ], [ -41.892039699999941, -21.240823799999923 ], [ -41.891235599999966, -21.239328 ], [ -41.890117099999941, -21.235530699999959 ], [ -41.889144599999952, -21.23220729999997 ], [ -41.887700699999989, -21.229711599999955 ], [ -41.890979199999954, -21.230214299999936 ], [ -41.894018, -21.231878899999959 ], [ -41.896779299999942, -21.232216499999922 ], [ -41.899195299999974, -21.233592299999934 ], [ -41.900277399999943, -21.232084899999961 ], [ -41.900263, -21.230011199999975 ], [ -41.899430399999979, -21.227718699999958 ], [ -41.901129899999944, -21.228156 ], [ -41.90236189999996, -21.230264399999957 ], [ -41.903346299999953, -21.229701799999923 ], [ -41.904636599999947, -21.228834899999974 ], [ -41.903536699999961, -21.226878499999927 ], [ -41.902928699999961, -21.225857899999934 ], [ -41.901365, -21.226599599999922 ], [ -41.900216499999942, -21.225994599999972 ], [ -41.899878499999943, -21.225126 ], [ -41.899043399999989, -21.225145299999944 ], [ -41.896636199999939, -21.222135899999952 ], [ -41.897336, -21.221078099999936 ], [ -41.896371599999945, -21.220499099999927 ], [ -41.896500399999987, -21.219657799999936 ], [ -41.897133399999973, -21.218337399999935 ], [ -41.899782099999989, -21.218562899999924 ], [ -41.899998399999959, -21.21783559999993 ], [ -41.900222, -21.217502299999968 ], [ -41.901508199999967, -21.217358 ], [ -41.902707899999946, -21.218203299999978 ], [ -41.903966, -21.21923409999992 ], [ -41.906360899999981, -21.214686699999959 ], [ -41.909428599999963, -21.213408399999928 ], [ -41.909724, -21.213100099999956 ], [ -41.90998629999995, -21.212333799999943 ], [ -41.91043639999998, -21.212324799999966 ], [ -41.91095429999995, -21.212051299999917 ], [ -41.911797199999967, -21.211997399999969 ], [ -41.912923199999973, -21.211633199999927 ], [ -41.913871699999959, -21.211278399999969 ], [ -41.914136799999937, -21.21120429999997 ], [ -41.914505899999945, -21.211180199999934 ], [ -41.914954499999965, -21.211152499999951 ], [ -41.91538039999994, -21.211256499999937 ], [ -41.915782099999952, -21.211376299999909 ], [ -41.916228199999978, -21.211368 ], [ -41.916412, -21.211237099999948 ], [ -41.91664429999998, -21.211272299999962 ], [ -41.916856099999961, -21.211177899999942 ], [ -41.917076299999962, -21.211335599999916 ], [ -41.917358399999955, -21.211388499999948 ], [ -41.917492099999954, -21.21162339999994 ], [ -41.917672599999946, -21.21176349999995 ], [ -41.917648599999957, -21.212371699999945 ], [ -41.917442299999955, -21.212762 ], [ -41.917238199999986, -21.213233099999961 ], [ -41.917807899999964, -21.213249699999935 ], [ -41.918046899999979, -21.213217599999954 ], [ -41.918278799999946, -21.213015599999959 ], [ -41.918510799999986, -21.212814099999946 ], [ -41.918981299999984, -21.21262 ], [ -41.919444199999937, -21.212530899999926 ], [ -41.919824499999947, -21.212898299999953 ], [ -41.919994899999949, -21.212767899999957 ], [ -41.920156599999984, -21.212638899999945 ], [ -41.919952199999955, -21.212284 ], [ -41.919572199999955, -21.211871799999972 ], [ -41.919181399999957, -21.211523699999923 ], [ -41.918680799999947, -21.211055099999946 ], [ -41.918249799999955, -21.210739799999939 ], [ -41.918858899999982, -21.210149799999943 ], [ -41.920136699999951, -21.209446499999952 ], [ -41.919922699999979, -21.207751599999927 ], [ -41.91892189999993, -21.20801 ], [ -41.918711599999945, -21.207129799999958 ] ] ], [ [ [ -42.119942, -21.201223799999983 ], [ -42.119338399999947, -21.201747 ], [ -42.119319799999978, -21.202020599999972 ], [ -42.118299799999932, -21.206657 ], [ -42.118678799999941, -21.20743079999993 ], [ -42.118699399999976, -21.207473 ], [ -42.118923, -21.207953099999951 ], [ -42.119135299999982, -21.207909099999931 ], [ -42.119457699999941, -21.207844299999962 ], [ -42.119637699999949, -21.207793399999947 ], [ -42.119815499999959, -21.207716 ], [ -42.119975099999984, -21.207602499999943 ], [ -42.120205599999963, -21.207350099999925 ], [ -42.120425299999965, -21.207081299999967 ], [ -42.120530499999973, -21.206921399999931 ], [ -42.120568, -21.206864299999946 ], [ -42.120676199999934, -21.206692 ], [ -42.120796699999971, -21.206411199999938 ], [ -42.120924399999979, -21.206216799999922 ], [ -42.121193499999947, -21.205859499999974 ], [ -42.121368899999936, -21.20564109999998 ], [ -42.121438599999976, -21.20555429999996 ], [ -42.121619, -21.205342899999941 ], [ -42.12183059999996, -21.205139699999958 ], [ -42.121852199999985, -21.205119 ], [ -42.122093899999989, -21.204948899999984 ], [ -42.122344499999947, -21.204805699999945 ], [ -42.122962599999944, -21.204505799999929 ], [ -42.123433499999976, -21.204312799999958 ], [ -42.12389079999997, -21.20413219999995 ], [ -42.124102299999947, -21.204046399999978 ], [ -42.12425079999997, -21.204008699999974 ], [ -42.124308099999951, -21.204000799999953 ], [ -42.124365499999953, -21.203992799999973 ], [ -42.124503899999986, -21.203981799999955 ], [ -42.124580399999964, -21.203974099999964 ], [ -42.124729099999968, -21.203923099999933 ], [ -42.125001599999969, -21.203677399999943 ], [ -42.125199499999951, -21.203352399999968 ], [ -42.125455099999954, -21.202885399999953 ], [ -42.125650099999973, -21.202486699999948 ], [ -42.125799, -21.202139299999939 ], [ -42.125815299999942, -21.202101299999978 ], [ -42.125832, -21.202047799999949 ], [ -42.125925699999982, -21.201747299999958 ], [ -42.126010099999981, -21.20120809999997 ], [ -42.126134599999943, -21.200662099999924 ], [ -42.126185499999963, -21.200321 ], [ -42.126198099999954, -21.199928399999976 ], [ -42.126185899999946, -21.19954 ], [ -42.1261684, -21.199453599999956 ], [ -42.126118399999946, -21.199206199999931 ], [ -42.125960499999962, -21.198958499999939 ], [ -42.125906499999985, -21.198902399999941 ], [ -42.125713599999983, -21.198701899999939 ], [ -42.12543229999995, -21.198466 ], [ -42.125164899999966, -21.198272 ], [ -42.1250017, -21.1982 ], [ -42.124551299999951, -21.198125899999976 ], [ -42.124108299999925, -21.19810579999994 ], [ -42.12367189999997, -21.19813459999995 ], [ -42.123334399999976, -21.198398099999956 ], [ -42.123186, -21.198594299999968 ], [ -42.122323599999959, -21.199167 ], [ -42.121980599999972, -21.199332399999943 ], [ -42.121969099999944, -21.199358899999922 ], [ -42.121925299999937, -21.199372899999961 ], [ -42.121486599999969, -21.199660899999969 ], [ -42.121509099999969, -21.199707899999954 ], [ -42.121366, -21.199740599999934 ], [ -42.12076449999995, -21.20020239999997 ], [ -42.119942, -21.201223799999983 ] ] ], [ [ [ -42.003874699999983, -21.178759 ], [ -42.006176399999966, -21.178614699999965 ], [ -42.008136899999961, -21.178701299999933 ], [ -42.01042079999997, -21.179453899999945 ], [ -42.011415099999965, -21.180210299999928 ], [ -42.01191979999993, -21.18153109999998 ], [ -42.012576899999942, -21.181711899999982 ], [ -42.016153, -21.180481299999929 ], [ -42.016355699999963, -21.180438299999938 ], [ -42.016841299999953, -21.180212399999959 ], [ -42.017362899999966, -21.179894299999937 ], [ -42.017768799999949, -21.179505799999955 ], [ -42.018097799999971, -21.179001699999951 ], [ -42.018746, -21.178528499999974 ], [ -42.019386099999963, -21.178224399999969 ], [ -42.020102599999973, -21.17793 ], [ -42.020571599999982, -21.177819499999941 ], [ -42.021159299999965, -21.177819 ], [ -42.02145649999995, -21.177910499999932 ], [ -42.021725499999945, -21.178172299999964 ], [ -42.021847499999986, -21.17834659999993 ], [ -42.021919699999962, -21.178614099999951 ], [ -42.023307099999961, -21.178546099999952 ], [ -42.023305, -21.177077799999957 ], [ -42.022340899999953, -21.177117199999934 ], [ -42.022511699999946, -21.176480799999975 ], [ -42.018650699999966, -21.176641599999975 ], [ -42.018197099999959, -21.176480699999956 ], [ -42.012337499999951, -21.174964699999968 ], [ -42.008218399999976, -21.174057199999933 ], [ -42.008813799999984, -21.175489099999933 ], [ -42.005990599999961, -21.175726899999979 ], [ -42.00512, -21.175812599999961 ], [ -42.004815399999984, -21.17584689999995 ], [ -42.00473479999993, -21.175893499999965 ], [ -42.004731799999945, -21.175871399999956 ], [ -42.003022699999974, -21.176036399999933 ], [ -42.001867899999979, -21.176135 ], [ -42.001800399999979, -21.176140299999918 ], [ -42.001722199999961, -21.176146399999929 ], [ -42.001667899999966, -21.176252699999957 ], [ -42.00166349999995, -21.176261899999908 ], [ -42.001327099999976, -21.176534899999979 ], [ -42.001310199999978, -21.176549 ], [ -42.001095199999959, -21.177130399999953 ], [ -41.998759299999953, -21.177527299999952 ], [ -41.996886, -21.177996899999972 ], [ -41.995472099999979, -21.178786099999979 ], [ -41.995486199999966, -21.179190499999944 ], [ -41.995756399999955, -21.179755199999931 ], [ -41.99591189999996, -21.180157699999942 ], [ -41.997588799999967, -21.179734199999931 ], [ -41.99690309999994, -21.18093249999998 ], [ -41.996747, -21.181564499999983 ], [ -41.998031399999952, -21.18186239999994 ], [ -41.998773799999981, -21.18204 ], [ -41.999391099999968, -21.180445299999974 ], [ -42.000820399999952, -21.180752799999933 ], [ -42.000514599999974, -21.182004099999965 ], [ -42.001391299999966, -21.182204099999968 ], [ -42.002112699999941, -21.180149299999975 ], [ -42.002059599999946, -21.179359699999967 ], [ -42.003874699999983, -21.178759 ] ] ], [ [ [ -42.100584099999935, -21.184249 ], [ -42.100660699999935, -21.184118899999923 ], [ -42.10081519999995, -21.183986399999981 ], [ -42.101031199999966, -21.183796 ], [ -42.101204399999979, -21.18370409999994 ], [ -42.101454599999954, -21.18366089999995 ], [ -42.101629699999926, -21.183671199999935 ], [ -42.101935599999933, -21.183771399999948 ], [ -42.102357299999937, -21.184015299999938 ], [ -42.1025906, -21.184219399999972 ], [ -42.102751699999942, -21.184474199999944 ], [ -42.102932899999985, -21.184914599999956 ], [ -42.103103, -21.185534599999976 ], [ -42.103211499999922, -21.186055299999961 ], [ -42.103217, -21.186091199999975 ], [ -42.103318799999954, -21.186752199999951 ], [ -42.1033743, -21.187313599999982 ], [ -42.104752199999957, -21.186944299999926 ], [ -42.105664199999985, -21.186590599999924 ], [ -42.105399199999965, -21.185891599999941 ], [ -42.105111099999938, -21.18404629999997 ], [ -42.10527529999996, -21.183273799999945 ], [ -42.106020199999932, -21.182551499999928 ], [ -42.106213199999956, -21.181631699999969 ], [ -42.108216399999947, -21.178818899999939 ], [ -42.108716899999941, -21.177884099999972 ], [ -42.109854699999978, -21.17806579999996 ], [ -42.110205299999954, -21.177738599999934 ], [ -42.11024939999993, -21.177336499999964 ], [ -42.109424499999925, -21.176653899999955 ], [ -42.109772499999963, -21.176032 ], [ -42.109332499999944, -21.175656399999969 ], [ -42.109570399999939, -21.175225699999938 ], [ -42.109950299999987, -21.174989299999933 ], [ -42.110576199999969, -21.174786 ], [ -42.111546199999964, -21.174887299999956 ], [ -42.111848899999984, -21.174947499999963 ], [ -42.111961, -21.174690199999922 ], [ -42.111944099999967, -21.174613199999943 ], [ -42.111954699999963, -21.174567699999944 ], [ -42.112018499999984, -21.174591799999963 ], [ -42.112058599999955, -21.174586499999982 ], [ -42.112045299999977, -21.174156399999962 ], [ -42.111283399999941, -21.173938399999923 ], [ -42.110723099999973, -21.173908499999978 ], [ -42.109571399999936, -21.174081299999948 ], [ -42.108822499999974, -21.174424799999937 ], [ -42.108650699999941, -21.173881199999972 ], [ -42.108854099999974, -21.173348799999918 ], [ -42.109215099999972, -21.173192699999959 ], [ -42.110786599999983, -21.17297479999996 ], [ -42.111553299999969, -21.172990099999929 ], [ -42.111965099999964, -21.172801399999969 ], [ -42.111785599999962, -21.172087599999944 ], [ -42.111753, -21.171957699999947 ], [ -42.111596399999939, -21.17160129999996 ], [ -42.110723799999967, -21.171822599999917 ], [ -42.109904599999943, -21.171868699999933 ], [ -42.109493599999958, -21.171847 ], [ -42.109029599999985, -21.171704499999965 ], [ -42.108758099999939, -21.171783199999929 ], [ -42.10808969999993, -21.171960399999939 ], [ -42.107512399999962, -21.17214379999994 ], [ -42.107356799999934, -21.172224099999934 ], [ -42.107193199999983, -21.172286699999969 ], [ -42.107190599999967, -21.172288449999936 ], [ -42.104758, -21.172921399999943 ], [ -42.104569, -21.173001199999923 ], [ -42.104293499999983, -21.173075 ], [ -42.104204699999968, -21.173097099999939 ], [ -42.102782299999951, -21.173482 ], [ -42.100896599999942, -21.173836399999963 ], [ -42.099864799999985, -21.174069899999942 ], [ -42.099590199999966, -21.17407529999997 ], [ -42.099213099999929, -21.174127099999968 ], [ -42.098646, -21.174258599999973 ], [ -42.097819599999987, -21.17448579999996 ], [ -42.096927799999946, -21.174391499999949 ], [ -42.096767, -21.174316499999961 ], [ -42.096147399999957, -21.173992799999937 ], [ -42.095326299999954, -21.173338899999983 ], [ -42.094992099999949, -21.172749899999925 ], [ -42.094988299999962, -21.172417399999976 ], [ -42.094999799999982, -21.172175299999932 ], [ -42.094871599999983, -21.17197119999997 ], [ -42.094178499999948, -21.172495299999976 ], [ -42.094139199999972, -21.172523499999951 ], [ -42.093997599999966, -21.172594199999924 ], [ -42.093525199999931, -21.172792899999937 ], [ -42.093434499999951, -21.172989299999923 ], [ -42.093675599999983, -21.174111699999958 ], [ -42.094255399999952, -21.175235599999944 ], [ -42.09393369999998, -21.175359599999982 ], [ -42.093571299999944, -21.175715299999961 ], [ -42.093109199999951, -21.175738 ], [ -42.092968599999942, -21.176016 ], [ -42.092992499999987, -21.176069 ], [ -42.093203199999955, -21.176426899999978 ], [ -42.093813299999972, -21.176487799999947 ], [ -42.094309099999975, -21.176144 ], [ -42.0947566, -21.176051 ], [ -42.095074899999936, -21.175944499999954 ], [ -42.095784799999933, -21.175947799999953 ], [ -42.096453199999985, -21.176076099999932 ], [ -42.096153299999969, -21.176935299999972 ], [ -42.096147, -21.176987699999923 ], [ -42.096468, -21.177301299999947 ], [ -42.097449899999958, -21.177593599999955 ], [ -42.099786299999955, -21.178234399999962 ], [ -42.100594299999955, -21.178447399999975 ], [ -42.101135799999952, -21.178955499999972 ], [ -42.10157, -21.179682199999942 ], [ -42.102011299999958, -21.180873499999951 ], [ -42.10176169999994, -21.181348099999983 ], [ -42.100183299999962, -21.183264299999959 ], [ -42.099810799999943, -21.183678399999955 ], [ -42.09946529999997, -21.184517 ], [ -42.098899399999944, -21.185131099999968 ], [ -42.098451199999943, -21.184712 ], [ -42.097981099999977, -21.184565299999971 ], [ -42.097542199999964, -21.184520499999955 ], [ -42.097471299999931, -21.184593899999971 ], [ -42.097465199999938, -21.184757299999934 ], [ -42.097445399999977, -21.184893799999941 ], [ -42.097526, -21.185064799999953 ], [ -42.0974581, -21.185210299999934 ], [ -42.097735099999966, -21.18595769999995 ], [ -42.097862099999929, -21.18661509999998 ], [ -42.098311899999949, -21.186572399999932 ], [ -42.098509899999961, -21.186529699999937 ], [ -42.09861479999995, -21.186507199999934 ], [ -42.098904399999988, -21.186444799999933 ], [ -42.099363399999959, -21.186334699999968 ], [ -42.09983909999994, -21.186169399999986 ], [ -42.099922499999934, -21.186060599999955 ], [ -42.100035199999979, -21.185783699999941 ], [ -42.100410199999949, -21.185344699999966 ], [ -42.100474599999984, -21.185157299999947 ], [ -42.10049029999994, -21.184664399999978 ], [ -42.1005067, -21.184423 ], [ -42.100584099999935, -21.184249 ] ] ], [ [ [ -42.119203299999974, -21.108492899999927 ], [ -42.120454399999971, -21.108923699999934 ], [ -42.121609, -21.10933 ], [ -42.121718199999982, -21.108909799999932 ], [ -42.122083599999939, -21.109063799999937 ], [ -42.122285699999971, -21.10915169999992 ], [ -42.122488899999951, -21.109247899999946 ], [ -42.122660799999942, -21.109381199999969 ], [ -42.122882799999957, -21.109602499999937 ], [ -42.123044799999946, -21.109794399999934 ], [ -42.123163699999971, -21.110001 ], [ -42.123225899999966, -21.110253299999957 ], [ -42.123284299999966, -21.110428199999941 ], [ -42.1234702, -21.11070079999995 ], [ -42.123535199999942, -21.110822299999935 ], [ -42.123602099999971, -21.11089939999993 ], [ -42.123773899999954, -21.110982 ], [ -42.123861199999958, -21.111160199999976 ], [ -42.124199399999952, -21.108271499999947 ], [ -42.1233218, -21.1074369 ], [ -42.12185419999998, -21.106857499999929 ], [ -42.121112399999966, -21.106507499999964 ], [ -42.119864399999983, -21.104605299999939 ], [ -42.1209765, -21.102439299999958 ], [ -42.122025, -21.102369 ], [ -42.122916699999969, -21.10252469999994 ], [ -42.123203299999936, -21.103050399999962 ], [ -42.123935899999942, -21.103364599999964 ], [ -42.124963099999945, -21.100715399999949 ], [ -42.122341499999948, -21.099936499999963 ], [ -42.121121499999958, -21.099478699999949 ], [ -42.120472, -21.100274699999943 ], [ -42.118081199999956, -21.10084589999995 ], [ -42.117082499999988, -21.100798599999958 ], [ -42.116147199999936, -21.099914499999947 ], [ -42.115445199999961, -21.099099199999937 ], [ -42.11446959999995, -21.098562399999924 ], [ -42.113176299999971, -21.097801299999954 ], [ -42.113225, -21.096324899999956 ], [ -42.111631499999937, -21.09535649999998 ], [ -42.111447299999945, -21.095570499999955 ], [ -42.111248599999954, -21.095403 ], [ -42.110912399999961, -21.095788599999931 ], [ -42.110714899999941, -21.095911599999965 ], [ -42.110397899999953, -21.095826699999968 ], [ -42.109858699999961, -21.09551869999995 ], [ -42.109924699999972, -21.095398299999939 ], [ -42.109963299999947, -21.09521629999994 ], [ -42.109926, -21.095172699999978 ], [ -42.109773299999972, -21.095148799999951 ], [ -42.109593099999984, -21.09521309999997 ], [ -42.10941749999995, -21.095248499999965 ], [ -42.109277499999962, -21.095202599999936 ], [ -42.109204299999938, -21.095124499999926 ], [ -42.109184699999958, -21.094898299999951 ], [ -42.109211699999946, -21.094744599999942 ], [ -42.109352099999967, -21.094560799999957 ], [ -42.109369799999975, -21.094478799999933 ], [ -42.109311099999957, -21.09443439999994 ], [ -42.109002499999974, -21.094625699999938 ], [ -42.108392399999957, -21.094769199999977 ], [ -42.107438, -21.095052299999953 ], [ -42.107254599999976, -21.095244199999954 ], [ -42.106909599999945, -21.095811399999938 ], [ -42.106820599999942, -21.09595529999995 ], [ -42.106588199999976, -21.096028799999932 ], [ -42.106406499999942, -21.096180099999959 ], [ -42.106281399999943, -21.096403499999948 ], [ -42.106044399999973, -21.09661409999995 ], [ -42.105786599999924, -21.096648699999943 ], [ -42.105466899999954, -21.096601199999949 ], [ -42.104818799999975, -21.096377799999978 ], [ -42.104430899999954, -21.096260899999947 ], [ -42.10397629999995, -21.096090599999968 ], [ -42.103765399999936, -21.09599749999996 ], [ -42.103648899999939, -21.095946399999946 ], [ -42.103556, -21.095888799999948 ], [ -42.103517599999975, -21.095858899999939 ], [ -42.103479099999959, -21.095828899999944 ], [ -42.103398, -21.095750499999934 ], [ -42.10333159999994, -21.095652899999934 ], [ -42.103315199999948, -21.09562429999994 ], [ -42.103248, -21.095507299999937 ], [ -42.103178099999987, -21.09532259999996 ], [ -42.103072699999984, -21.095049499999945 ], [ -42.10306339999994, -21.095019599999933 ], [ -42.102228799999978, -21.095358299999926 ], [ -42.102332399999973, -21.095851399999937 ], [ -42.102056499999954, -21.09621419999997 ], [ -42.101196799999968, -21.096550199999957 ], [ -42.09980749999994, -21.096944299999951 ], [ -42.098796899999975, -21.097096299999961 ], [ -42.098872399999941, -21.097533 ], [ -42.0989752, -21.098345099999957 ], [ -42.099206899999949, -21.099641 ], [ -42.09913679999994, -21.10009759999997 ], [ -42.101359199999933, -21.100001499999962 ], [ -42.101767699999989, -21.099699699999967 ], [ -42.102218799999946, -21.099114399999955 ], [ -42.10353269999996, -21.098667799999919 ], [ -42.103796399999972, -21.098238 ], [ -42.103870399999956, -21.098515 ], [ -42.104004499999974, -21.099153299999948 ], [ -42.104001499999988, -21.099423499999943 ], [ -42.103983899999953, -21.099591899999954 ], [ -42.103956899999957, -21.09965479999995 ], [ -42.103850899999941, -21.09977369999995 ], [ -42.103568199999984, -21.100001699999961 ], [ -42.103975899999966, -21.100216599999953 ], [ -42.104568499999964, -21.099927 ], [ -42.106487199999947, -21.100076799999954 ], [ -42.106722199999979, -21.100220499999974 ], [ -42.107178399999952, -21.100873399999955 ], [ -42.107058699999982, -21.101295899999961 ], [ -42.107532, -21.101829699999936 ], [ -42.109096499999964, -21.10340629999995 ], [ -42.11046349999998, -21.104548099999928 ], [ -42.11060839999994, -21.104829299999942 ], [ -42.113105499999953, -21.106247599999961 ], [ -42.114933599999972, -21.107227899999938 ], [ -42.11572909999996, -21.106038299999966 ], [ -42.117049799999961, -21.106725199999961 ], [ -42.117308599999951, -21.106415399999946 ], [ -42.118034899999941, -21.106894699999931 ], [ -42.119017, -21.108015399999942 ], [ -42.119203299999974, -21.108492899999927 ] ] ] ] } }
]
}
