{
"type": "FeatureCollection",
"name": "3303856",
"crs": { "type": "name", "properties": { "name": "urn:ogc:def:crs:OGC:1.3:CRS84" } },
"features": [
{ "type": "Feature", "properties": { "CD_MUN": "3303856", "NM_MUN": "Paty do Alferes" }, "geometry": { "type": "MultiPolygon", "coordinates": [ [ [ [ -43.412017299999945, -22.459880299999952 ], [ -43.412159799999976, -22.460081 ], [ -43.412263399999972, -22.460333499999926 ], [ -43.412246099999955, -22.460594599999975 ], [ -43.412202899999954, -22.460801799999942 ], [ -43.412287099999958, -22.460920399999964 ], [ -43.412343199999953, -22.461019699999948 ], [ -43.412170599999968, -22.46152039999993 ], [ -43.412118799999973, -22.461969199999942 ], [ -43.412222399999969, -22.46228 ], [ -43.412231099999985, -22.462310199999926 ], [ -43.412584899999956, -22.462275699999964 ], [ -43.412809299999942, -22.462327499999954 ], [ -43.412792099999933, -22.462517399999971 ], [ -43.412481299999975, -22.462949 ], [ -43.412429499999973, -22.463518699999948 ], [ -43.412671199999977, -22.464295599999954 ], [ -43.413560299999972, -22.464684 ], [ -43.414544399999954, -22.464925699999988 ], [ -43.414630299999949, -22.464903099999972 ], [ -43.414630699999975, -22.464893299999975 ], [ -43.414906899999956, -22.464202799999942 ], [ -43.414665199999945, -22.463132399999953 ], [ -43.414458099999933, -22.462804399999971 ], [ -43.413905599999964, -22.462182899999956 ], [ -43.41354309999997, -22.461440499999984 ], [ -43.413206399999979, -22.460620499999944 ], [ -43.412895699999986, -22.459472399999978 ], [ -43.413232299999947, -22.458894099999949 ], [ -43.41342219999995, -22.458315699999968 ], [ -43.413387699999937, -22.457064099999968 ], [ -43.412999199999945, -22.456287199999952 ], [ -43.412412299999971, -22.455458499999956 ], [ -43.412252899999949, -22.455187499999958 ], [ -43.412504299999966, -22.455281499999952 ], [ -43.41300959999996, -22.45591369999994 ], [ -43.413673299999971, -22.456365799999954 ], [ -43.413895799999977, -22.456804699999957 ], [ -43.414044299999944, -22.45691329999994 ], [ -43.414152299999955, -22.456981899999953 ], [ -43.414408799999933, -22.457159199999975 ], [ -43.414962199999934, -22.457456399999952 ], [ -43.41535029999995, -22.457610699999975 ], [ -43.415449399999943, -22.457655199999973 ], [ -43.415675799999974, -22.457685399999942 ], [ -43.415971199999952, -22.457803299999963 ], [ -43.416460899999954, -22.458468099999944 ], [ -43.4168567, -22.45858109999994 ], [ -43.417252399999946, -22.458694099999949 ], [ -43.417627799999934, -22.458521299999962 ], [ -43.418003299999953, -22.458348499999946 ], [ -43.41858359999997, -22.45860209999995 ], [ -43.419010199999946, -22.458670899999952 ], [ -43.419436799999971, -22.458739699999963 ], [ -43.419962799999951, -22.45767 ], [ -43.419672, -22.457191499999961 ], [ -43.419489599999963, -22.457300899999957 ], [ -43.418948599999965, -22.457269099999969 ], [ -43.418423399999945, -22.457078099999933 ], [ -43.418057399999952, -22.457078099999936 ], [ -43.417548199999942, -22.457125899999934 ], [ -43.417341299999975, -22.45671209999994 ], [ -43.416752499999966, -22.456409799999953 ], [ -43.415956899999969, -22.455821 ], [ -43.415399899999962, -22.455677799999933 ], [ -43.413713099999931, -22.454866199999962 ], [ -43.412885599999981, -22.454500199999931 ], [ -43.412360399999955, -22.454229699999932 ], [ -43.412360399999955, -22.453863699999935 ], [ -43.412837799999984, -22.453274899999929 ], [ -43.412901499999975, -22.452622399999928 ], [ -43.412662799999971, -22.452145 ], [ -43.412004399999944, -22.451954099999952 ], [ -43.411900899999978, -22.451572099999954 ], [ -43.411885, -22.450927599999943 ], [ -43.41171, -22.450537799999939 ], [ -43.411415599999941, -22.450458199999954 ], [ -43.411105299999974, -22.45097539999993 ], [ -43.41097, -22.452288199999941 ], [ -43.410683599999977, -22.45257469999995 ], [ -43.410150499999929, -22.452686099999937 ], [ -43.409625299999959, -22.452359799999954 ], [ -43.40945819999996, -22.451938099999943 ], [ -43.40936279999994, -22.451349299999951 ], [ -43.409211599999935, -22.450999299999967 ], [ -43.408964899999944, -22.450673 ], [ -43.408630799999962, -22.450681 ], [ -43.408304499999986, -22.450764499999934 ], [ -43.407843, -22.450808299999945 ], [ -43.407405399999959, -22.450645199999936 ], [ -43.406371099999944, -22.450203599999949 ], [ -43.406259699999964, -22.450052399999944 ], [ -43.406223899999929, -22.449706299999942 ], [ -43.406160199999938, -22.449324399999963 ], [ -43.406379, -22.449149299999924 ], [ -43.406776799999932, -22.448878799999932 ], [ -43.407047399999946, -22.44851279999995 ], [ -43.407402, -22.447890099999942 ], [ -43.406813, -22.44671819999996 ], [ -43.404896599999979, -22.44452649999992 ], [ -43.404349699999962, -22.443901099999948 ], [ -43.403652099999931, -22.443134199999982 ], [ -43.402999499999964, -22.442471399999942 ], [ -43.401088299999969, -22.441720399999944 ], [ -43.400473899999952, -22.441549699999953 ], [ -43.400024099999939, -22.441701799999972 ], [ -43.399751299999934, -22.44176289999994 ], [ -43.399478599999959, -22.441824 ], [ -43.399288, -22.441784299999938 ], [ -43.398952099999967, -22.441714399999977 ], [ -43.398425599999939, -22.441604699999981 ], [ -43.3975114, -22.441148399999978 ], [ -43.397254, -22.441019899999947 ], [ -43.396144399999969, -22.440693599999978 ], [ -43.39503469999994, -22.440367299999949 ], [ -43.393495399999942, -22.440460699999953 ], [ -43.392468799999961, -22.440411499999982 ], [ -43.391337499999963, -22.440314099999977 ], [ -43.390400899999968, -22.439976399999985 ], [ -43.389576799999936, -22.439896399999949 ], [ -43.388653499999982, -22.44050759999994 ], [ -43.388955899999985, -22.441021599999935 ], [ -43.389481, -22.441674 ], [ -43.390133499999934, -22.441896799999935 ], [ -43.390897299999949, -22.441960499999936 ], [ -43.391342899999984, -22.442008199999972 ], [ -43.392043099999967, -22.441928699999945 ], [ -43.392162399999961, -22.442191199999961 ], [ -43.391884, -22.443010799999975 ], [ -43.391327, -22.443894 ], [ -43.389282099999953, -22.445365899999949 ], [ -43.388184099999933, -22.446448 ], [ -43.38740439999998, -22.446591299999966 ], [ -43.385431099999948, -22.445763799999959 ], [ -43.384110299999975, -22.445397799999956 ], [ -43.383927299999989, -22.445556899999925 ], [ -43.383485699999937, -22.445903 ], [ -43.383235099999979, -22.446320699999948 ], [ -43.383270899999957, -22.446917499999927 ], [ -43.383402099999962, -22.447490399999928 ], [ -43.383258899999937, -22.44782449999996 ], [ -43.383008299999979, -22.448254199999955 ], [ -43.382912799999986, -22.44857649999993 ], [ -43.382960599999933, -22.449101599999942 ], [ -43.382793499999934, -22.449304499999975 ], [ -43.382590599999958, -22.449495399999925 ], [ -43.382519, -22.449698299999966 ], [ -43.382459299999937, -22.449996699999925 ], [ -43.382280299999934, -22.450080299999964 ], [ -43.382172799999978, -22.450259299999967 ], [ -43.382160899999974, -22.450724799999936 ], [ -43.382065399999931, -22.45127379999996 ], [ -43.380645199999947, -22.450987299999948 ], [ -43.379881299999965, -22.450856 ], [ -43.379320399999983, -22.450545699999957 ], [ -43.378699799999936, -22.450271199999978 ], [ -43.377876199999946, -22.449984799999978 ], [ -43.377076599999953, -22.449829599999923 ], [ -43.376205299999988, -22.44953129999994 ], [ -43.375322199999971, -22.449053899999956 ], [ -43.374859899999933, -22.448614 ], [ -43.374320799999957, -22.448789099999953 ], [ -43.374210399999988, -22.448825 ], [ -43.374230299999965, -22.449079099999942 ], [ -43.374232399999983, -22.44913089999994 ], [ -43.374534799999935, -22.449476499999939 ], [ -43.37542389999993, -22.450063499999942 ], [ -43.376278499999955, -22.450348299999977 ], [ -43.376416599999978, -22.450685 ], [ -43.376399299999946, -22.451151099999947 ], [ -43.3773705, -22.451694899999939 ], [ -43.378911299999977, -22.452717799999956 ], [ -43.379083899999955, -22.45304589999995 ], [ -43.379140599999971, -22.453286099999943 ], [ -43.379581299999977, -22.45355469999993 ], [ -43.380333399999984, -22.453341499999972 ], [ -43.380512499999952, -22.453358799999929 ], [ -43.381015299999945, -22.453244399999964 ], [ -43.381205199999947, -22.453043699999956 ], [ -43.380942, -22.452765299999953 ], [ -43.381097299999965, -22.452402799999945 ], [ -43.38148579999995, -22.452411399999956 ], [ -43.382029599999953, -22.452316499999931 ], [ -43.38231449999995, -22.452428699999921 ], [ -43.382711499999971, -22.45246319999994 ], [ -43.383056799999963, -22.452333699999926 ], [ -43.38354019999997, -22.45238549999992 ], [ -43.383350299999961, -22.452903399999972 ], [ -43.383445299999948, -22.453723499999963 ], [ -43.383548799999978, -22.45425 ], [ -43.383428, -22.454854299999962 ], [ -43.383246699999972, -22.455415399999925 ], [ -43.382858299999945, -22.455708799999972 ], [ -43.38259069999998, -22.456054099999953 ], [ -43.382495699999936, -22.456364899999979 ], [ -43.381882899999937, -22.456200899999939 ], [ -43.381339, -22.456114599999975 ], [ -43.380855599999961, -22.456123199999976 ], [ -43.380384899999974, -22.456234399999964 ], [ -43.378883199999962, -22.457188899999952 ], [ -43.378984799999955, -22.457353599999983 ], [ -43.379009499999938, -22.457376499999949 ], [ -43.379048, -22.457407 ], [ -43.379151799999931, -22.457489399999929 ], [ -43.379170199999969, -22.457503899999953 ], [ -43.379350599999945, -22.457643799999975 ], [ -43.379496599999989, -22.457444399999922 ], [ -43.37996279999993, -22.45706459999996 ], [ -43.380765499999939, -22.456822899999963 ], [ -43.381248899999939, -22.456658899999987 ], [ -43.381930899999929, -22.456684799999955 ], [ -43.382405599999963, -22.456822899999963 ], [ -43.382673199999942, -22.456961 ], [ -43.38292359999997, -22.457030099999947 ], [ -43.383199799999943, -22.45690059999998 ], [ -43.383571, -22.456641599999955 ], [ -43.383991799999933, -22.45659419999992 ], [ -43.384509699999974, -22.45643019999995 ], [ -43.385113899999972, -22.456188499999932 ], [ -43.385763499999939, -22.45560579999994 ], [ -43.386035399999969, -22.455398599999967 ], [ -43.386326699999984, -22.454926 ], [ -43.386715199999969, -22.45413619999994 ], [ -43.386877, -22.454343399999964 ], [ -43.387278399999957, -22.455291799999934 ], [ -43.387637699999971, -22.456000699999947 ], [ -43.387773699999961, -22.456738799999982 ], [ -43.3876183, -22.457505899999948 ], [ -43.387657199999978, -22.458088599999943 ], [ -43.388142699999953, -22.458447899999953 ], [ -43.388725399999934, -22.457933199999943 ], [ -43.38898759999995, -22.458108 ], [ -43.389162399999968, -22.458758699999972 ], [ -43.389434299999955, -22.459127699999947 ], [ -43.38985189999994, -22.459234499999983 ], [ -43.390432399999952, -22.459110899999935 ], [ -43.39064819999993, -22.458719799999983 ], [ -43.390395699999942, -22.457059199999946 ], [ -43.390609299999937, -22.456515399999951 ], [ -43.391056, -22.456127 ], [ -43.39158039999996, -22.455981299999955 ], [ -43.3920854, -22.455437499999963 ], [ -43.392813699999984, -22.454272099999969 ], [ -43.393182699999954, -22.454340099999961 ], [ -43.393027399999944, -22.45459749999997 ], [ -43.392862299999933, -22.455078199999949 ], [ -43.392711799999972, -22.455461799999963 ], [ -43.392430099999956, -22.455811399999959 ], [ -43.391993099999986, -22.456384299999975 ], [ -43.391905699999938, -22.456831 ], [ -43.39201259999993, -22.45741369999995 ], [ -43.392556399999933, -22.457666199999945 ], [ -43.393275, -22.457821499999969 ], [ -43.393760599999951, -22.458326499999941 ], [ -43.39417149999997, -22.458663199999929 ], [ -43.394634599999961, -22.45819059999997 ], [ -43.394683099999952, -22.457850699999938 ], [ -43.394352899999951, -22.457064099999968 ], [ -43.393983899999967, -22.456462 ], [ -43.393411, -22.456364899999986 ], [ -43.393731399999979, -22.455656 ], [ -43.394051899999965, -22.45499559999995 ], [ -43.394488899999942, -22.454830499999961 ], [ -43.394658799999945, -22.455612299999938 ], [ -43.394877299999962, -22.455893899999982 ], [ -43.395139499999971, -22.456015299999919 ], [ -43.395348299999966, -22.455889 ], [ -43.395843599999985, -22.455291799999948 ], [ -43.396013499999981, -22.454379 ], [ -43.396839, -22.454330399999954 ], [ -43.396984599999932, -22.455049 ], [ -43.397162699999967, -22.456081599999955 ], [ -43.397195, -22.456321199999934 ], [ -43.39720959999994, -22.456345799999944 ], [ -43.397292099999959, -22.45639889999995 ], [ -43.397492799999952, -22.456347099999952 ], [ -43.397842399999945, -22.455958599999974 ], [ -43.398082, -22.455667299999948 ], [ -43.398360399999952, -22.455486 ], [ -43.39858049999998, -22.455486 ], [ -43.399143699999975, -22.45594569999998 ], [ -43.399493299999961, -22.456042799999977 ], [ -43.399914099999926, -22.456036299999941 ], [ -43.400328499999937, -22.455783799999949 ], [ -43.400658599999979, -22.455511899999983 ], [ -43.400982299999953, -22.455499 ], [ -43.401260699999966, -22.45559609999998 ], [ -43.401299599999959, -22.455777399999921 ], [ -43.401247799999972, -22.456211099999962 ], [ -43.401215399999955, -22.456606 ], [ -43.401365899999973, -22.45734409999994 ], [ -43.401356199999945, -22.457483299999982 ], [ -43.401357599999983, -22.457489 ], [ -43.401355499999973, -22.457491099999967 ], [ -43.401440899999962, -22.457538799999938 ], [ -43.402131499999939, -22.457659699999962 ], [ -43.402597599999972, -22.457348899999936 ], [ -43.403098299999961, -22.45776329999995 ], [ -43.403685299999943, -22.458056799999937 ], [ -43.403409, -22.458609199999952 ], [ -43.402269599999954, -22.459541499999954 ], [ -43.401130199999955, -22.460007599999987 ], [ -43.400128899999977, -22.460646399999966 ], [ -43.399317399999973, -22.4609053 ], [ -43.398557799999928, -22.461216099999952 ], [ -43.397815499999986, -22.461958399999943 ], [ -43.397150899999986, -22.462960799999951 ], [ -43.397271599999954, -22.463486299999943 ], [ -43.397392499999974, -22.463684899999965 ], [ -43.397763699999985, -22.463728 ], [ -43.398221199999973, -22.463451799999973 ], [ -43.39877359999997, -22.463037499999931 ], [ -43.399188, -22.462873399999975 ], [ -43.399498699999981, -22.462882099999952 ], [ -43.399861299999941, -22.463598499999932 ], [ -43.40016339999994, -22.463779799999934 ], [ -43.40062949999998, -22.463814299999971 ], [ -43.40131139999994, -22.463477699999949 ], [ -43.402209199999959, -22.463434499999938 ], [ -43.403305399999965, -22.463244599999936 ], [ -43.404125499999964, -22.463192799999948 ], [ -43.404419, -22.463365499999945 ], [ -43.40444489999993, -22.463667599999948 ], [ -43.404073699999969, -22.464159599999963 ], [ -43.403633499999955, -22.46460849999994 ], [ -43.402960199999939, -22.464910599999939 ], [ -43.402822, -22.465204099999948 ], [ -43.402830699999988, -22.465497599999917 ], [ -43.403003299999966, -22.46574789999994 ], [ -43.403400399999953, -22.466067299999967 ], [ -43.403219099999944, -22.466852799999966 ], [ -43.403284299999939, -22.467089 ], [ -43.404237699999946, -22.467534799999953 ], [ -43.404962799999971, -22.467448399999981 ], [ -43.406896399999937, -22.466826899999937 ], [ -43.407362499999977, -22.466360799999975 ], [ -43.407776799999965, -22.466568 ], [ -43.408864499999936, -22.466516199999951 ], [ -43.409814, -22.46601549999998 ], [ -43.410306099999957, -22.465523399999942 ], [ -43.410237, -22.463596399999968 ], [ -43.410172099999954, -22.462741499999929 ], [ -43.41001689999996, -22.462087899999965 ], [ -43.409965099999958, -22.461207499999933 ], [ -43.41005569999993, -22.460670099999952 ], [ -43.41024989999994, -22.460268699999972 ], [ -43.4104895, -22.459919099999976 ], [ -43.410988, -22.459796099999959 ], [ -43.411518799999953, -22.459718399999936 ], [ -43.411823099999943, -22.459750799999938 ], [ -43.412017299999945, -22.459880299999952 ] ] ], [ [ [ -43.420312499999966, -22.451667699999962 ], [ -43.420631599999979, -22.45228 ], [ -43.42084779999994, -22.452989499999941 ], [ -43.421332, -22.453102099999974 ], [ -43.421619299999982, -22.452769499999931 ], [ -43.422787799999981, -22.451693899999956 ], [ -43.422821699999979, -22.451272399999937 ], [ -43.42264849999998, -22.450590299999931 ], [ -43.422302, -22.449799899999963 ], [ -43.42195559999994, -22.448847199999921 ], [ -43.421360099999966, -22.448208399999949 ], [ -43.420548099999962, -22.44721229999994 ], [ -43.419595299999969, -22.446110699999963 ], [ -43.419506, -22.445899599999954 ], [ -43.419579099999964, -22.445704699999965 ], [ -43.419729299999965, -22.445412399999952 ], [ -43.419684599999982, -22.445254 ], [ -43.419148699999944, -22.444655199999943 ], [ -43.418935599999941, -22.444405499999942 ], [ -43.4191, -22.444094899999982 ], [ -43.419264399999982, -22.443747799999983 ], [ -43.418856399999989, -22.443029099999933 ], [ -43.418296099999971, -22.442627199999947 ], [ -43.417297299999973, -22.441884199999944 ], [ -43.417370399999982, -22.441409199999946 ], [ -43.417212099999972, -22.440995099999952 ], [ -43.416669799999973, -22.440678199999979 ], [ -43.416587799999945, -22.440737799999958 ], [ -43.4164689, -22.440824299999971 ], [ -43.416202099999964, -22.441018299999943 ], [ -43.416280299999976, -22.441080299999953 ], [ -43.416219399999939, -22.441549299999963 ], [ -43.416268099999968, -22.442006 ], [ -43.415939199999976, -22.442450599999983 ], [ -43.415543399999926, -22.44301089999994 ], [ -43.415305899999971, -22.443571199999951 ], [ -43.415009, -22.444108599999947 ], [ -43.415013899999963, -22.444635799999958 ], [ -43.415747, -22.446193399999956 ], [ -43.416064, -22.446684399999977 ], [ -43.416767199999981, -22.447111199999934 ], [ -43.417130199999981, -22.447671199999945 ], [ -43.417467799999947, -22.447675899999975 ], [ -43.418149899999946, -22.447761099999987 ], [ -43.418966, -22.448443199999925 ], [ -43.419185199999959, -22.449259299999937 ], [ -43.4191, -22.449880499999949 ], [ -43.419173099999966, -22.450404199999976 ], [ -43.419587199999974, -22.451288799999929 ], [ -43.420013499999989, -22.451287299999937 ], [ -43.420312499999966, -22.451667699999962 ] ] ], [ [ [ -43.435900799999963, -22.44896169999992 ], [ -43.43632109999993, -22.449271599999967 ], [ -43.4370421, -22.449792 ], [ -43.436529299999968, -22.450729 ], [ -43.435708799999929, -22.452211299999927 ], [ -43.435361899999982, -22.452839 ], [ -43.434724699999954, -22.453338599999924 ], [ -43.434031199999936, -22.453657099999933 ], [ -43.433425599999978, -22.45394019999998 ], [ -43.43320319999998, -22.454409199999937 ], [ -43.433274, -22.45498959999998 ], [ -43.433520699999981, -22.45512569999995 ], [ -43.43358929999993, -22.45533 ], [ -43.433657499999981, -22.45564279999995 ], [ -43.433836699999972, -22.455814899999957 ], [ -43.434543, -22.456143199999921 ], [ -43.435291199999945, -22.45653839999995 ], [ -43.436227199999962, -22.456502 ], [ -43.43706519999995, -22.456073799999942 ], [ -43.437179799999967, -22.456059899999961 ], [ -43.437301299999945, -22.456073799999949 ], [ -43.437349899999958, -22.456129399999956 ], [ -43.437419299999931, -22.456296 ], [ -43.437421699999959, -22.45630119999992 ], [ -43.437502699999982, -22.45647659999997 ], [ -43.437589399999979, -22.456559899999949 ], [ -43.437697099999987, -22.456580699999961 ], [ -43.437733699999974, -22.45658549999996 ], [ -43.437912299999937, -22.456608499999962 ], [ -43.438058199999944, -22.456598099999951 ], [ -43.438186599999938, -22.456530799999943 ], [ -43.438204, -22.456521699999932 ], [ -43.438325499999962, -22.45639319999998 ], [ -43.438447, -22.456264799999946 ], [ -43.438624899999972, -22.45608029999995 ], [ -43.438634499999978, -22.456070399999923 ], [ -43.438738599999965, -22.455931499999966 ], [ -43.43883, -22.455794399999956 ], [ -43.438845699999952, -22.455769199999963 ], [ -43.439214, -22.455857099999946 ], [ -43.43922619999995, -22.455829699999988 ], [ -43.439243799999986, -22.455788599999952 ], [ -43.439267799999982, -22.455719699999971 ], [ -43.439297599999975, -22.455573899999941 ], [ -43.439312, -22.455512799999944 ], [ -43.439332099999945, -22.455457699999943 ], [ -43.43935769999996, -22.455411499999965 ], [ -43.439410099999982, -22.455324799999968 ], [ -43.439472199999955, -22.455147199999939 ], [ -43.439497099999983, -22.455064099999966 ], [ -43.439520299999977, -22.455009199999939 ], [ -43.439543599999979, -22.45495139999997 ], [ -43.439566199999945, -22.454904899999981 ], [ -43.439594499999949, -22.454864499999928 ], [ -43.439631, -22.454838799999951 ], [ -43.439667, -22.454821599999946 ], [ -43.439758099999956, -22.454742099999972 ], [ -43.439815099999976, -22.454703699999989 ], [ -43.439889899999969, -22.454649499999967 ], [ -43.439938699999971, -22.45462189999995 ], [ -43.439986599999941, -22.454608299999961 ], [ -43.440092699999973, -22.454564899999983 ], [ -43.440158699999984, -22.454529899999955 ], [ -43.440204799999947, -22.454496399999982 ], [ -43.440287199999943, -22.454365099999961 ], [ -43.440331399999934, -22.454266199999942 ], [ -43.44037469999995, -22.454181399999975 ], [ -43.44041859999993, -22.454106699999951 ], [ -43.440446299999955, -22.4540775 ], [ -43.440521099999948, -22.454019099999972 ], [ -43.440602099999978, -22.4539612 ], [ -43.440677, -22.453902799999973 ], [ -43.440769099999955, -22.453837099999927 ], [ -43.440883099999951, -22.453768399999948 ], [ -43.440982399999939, -22.453711699999921 ], [ -43.441010499999955, -22.45367669999996 ], [ -43.441019899999965, -22.453649 ], [ -43.441021699999972, -22.453620699999924 ], [ -43.441012, -22.45358019999998 ], [ -43.440987899999989, -22.453527399999924 ], [ -43.440943199999943, -22.453439 ], [ -43.440925, -22.453389399999928 ], [ -43.440911699999958, -22.45336 ], [ -43.440909599999948, -22.453320099999935 ], [ -43.440922799999946, -22.453252199999952 ], [ -43.440925, -22.45320119999997 ], [ -43.440929199999978, -22.453106299999948 ], [ -43.440930499999986, -22.453033899999976 ], [ -43.440941799999955, -22.452970699999984 ], [ -43.440966899999978, -22.452935399999937 ], [ -43.441029, -22.452894299999972 ], [ -43.441065099999953, -22.452854099999968 ], [ -43.441112, -22.452763499999939 ], [ -43.441200599999952, -22.452614399999959 ], [ -43.441296399999949, -22.452471499999945 ], [ -43.441394699999933, -22.452322899999952 ], [ -43.441536199999973, -22.452158599999969 ], [ -43.441733199999931, -22.451940899999954 ], [ -43.441813799999984, -22.451823399999963 ], [ -43.44194779999998, -22.451586199999955 ], [ -43.442050299999956, -22.451464199999982 ], [ -43.44222769999994, -22.451324299999964 ], [ -43.442336299999972, -22.451208199999936 ], [ -43.44236669999998, -22.451164399999978 ], [ -43.442378, -22.451081599999945 ], [ -43.442367599999955, -22.451052199999936 ], [ -43.442317599999967, -22.450919199999934 ], [ -43.442316899999987, -22.450783799999943 ], [ -43.44233829999996, -22.450638299999973 ], [ -43.44233509999998, -22.450542699999964 ], [ -43.442303699999968, -22.45035519999993 ], [ -43.442293899999981, -22.450215 ], [ -43.442326099999946, -22.450042899999971 ], [ -43.442379899999935, -22.449872 ], [ -43.442454099999964, -22.449673399999941 ], [ -43.442472799999962, -22.449572799999938 ], [ -43.442469599999981, -22.449476399999973 ], [ -43.442432899999972, -22.449371799999927 ], [ -43.442447, -22.449293699999945 ], [ -43.442476599999964, -22.44921659999995 ], [ -43.442489299999977, -22.449161499999946 ], [ -43.442483899999957, -22.449099199999978 ], [ -43.442451099999978, -22.449029399999969 ], [ -43.44235139999995, -22.44889929999994 ], [ -43.442228099999966, -22.448813199999957 ], [ -43.442069899999986, -22.448709 ], [ -43.441873299999934, -22.448573 ], [ -43.441677, -22.448425199999967 ], [ -43.441488099999958, -22.448254499999965 ], [ -43.441291199999966, -22.448064099999957 ], [ -43.441051199999947, -22.447808 ], [ -43.440877499999942, -22.4476362 ], [ -43.440767799999946, -22.44754289999997 ], [ -43.440647199999944, -22.447472099999963 ], [ -43.440465299999971, -22.447385499999946 ], [ -43.440252399999963, -22.447296899999962 ], [ -43.440101099999936, -22.44722859999996 ], [ -43.439899, -22.447127899999945 ], [ -43.439763599999935, -22.447054899999966 ], [ -43.439648299999938, -22.446959799999949 ], [ -43.439553, -22.44682639999996 ], [ -43.439418199999984, -22.446678699999953 ], [ -43.439136199999957, -22.446445299999944 ], [ -43.439083, -22.446396299999947 ], [ -43.438926199999969, -22.446251699999952 ], [ -43.438840699999957, -22.446159599999927 ], [ -43.438745099999956, -22.446056799999948 ], [ -43.438702799999938, -22.446011199999923 ], [ -43.438629299999953, -22.445913799999968 ], [ -43.438610599999947, -22.445843299999986 ], [ -43.43861789999994, -22.445756899999928 ], [ -43.438689699999948, -22.445633599999947 ], [ -43.43881939999995, -22.445514799999959 ], [ -43.43907059999998, -22.445350899999926 ], [ -43.439264499999972, -22.445229199999979 ], [ -43.439493499999976, -22.445098 ], [ -43.439640399999973, -22.445048799999935 ], [ -43.439770499999952, -22.444990599999976 ], [ -43.439771899999982, -22.44499 ], [ -43.439903299999969, -22.444931199999928 ], [ -43.440131, -22.444781899999953 ], [ -43.440186499999982, -22.444744299999964 ], [ -43.440325099999946, -22.444682699999927 ], [ -43.440510799999963, -22.444618199999987 ], [ -43.440713099999982, -22.444531599999944 ], [ -43.440769099999962, -22.444488099999941 ], [ -43.440783799999963, -22.444453799999973 ], [ -43.440791399999959, -22.444383599999988 ], [ -43.440807899999989, -22.444219899999965 ], [ -43.440821899999946, -22.444187299999964 ], [ -43.44083, -22.44416839999997 ], [ -43.440857599999958, -22.444128899999956 ], [ -43.440966799999956, -22.444088799999975 ], [ -43.44128459999996, -22.443997299999985 ], [ -43.441330199999982, -22.443970699999959 ], [ -43.441354699999977, -22.443931 ], [ -43.441391699999947, -22.443892199999937 ], [ -43.441440099999966, -22.443871699999935 ], [ -43.441513499999985, -22.443852799999942 ], [ -43.441669399999974, -22.443821399999933 ], [ -43.441794499999958, -22.44378219999993 ], [ -43.441972599999986, -22.443699199999973 ], [ -43.44215539999994, -22.443592799999969 ], [ -43.442252599999961, -22.443498699999964 ], [ -43.442402299999969, -22.443419699999936 ], [ -43.442493099999979, -22.44337819999993 ], [ -43.442551399999957, -22.443352399999981 ], [ -43.442595399999959, -22.443325699999946 ], [ -43.442624199999955, -22.443308099999975 ], [ -43.442636899999968, -22.443300399999941 ], [ -43.442700299999956, -22.443237899999922 ], [ -43.44280519999996, -22.443142699999946 ], [ -43.449436399999968, -22.439988099999937 ], [ -43.449814499999945, -22.438529399999933 ], [ -43.449715399999945, -22.43805829999997 ], [ -43.448901, -22.438043899999968 ], [ -43.448278599999981, -22.437607799999977 ], [ -43.447822199999962, -22.437425799999978 ], [ -43.44688559999998, -22.438126399999945 ], [ -43.446439899999973, -22.438472 ], [ -43.445710299999966, -22.438554299999954 ], [ -43.44508449999995, -22.438926299999942 ], [ -43.444258499999933, -22.439335199999963 ], [ -43.443349599999983, -22.43952 ], [ -43.442815499999945, -22.439585399999935 ], [ -43.44199709999998, -22.439515499999963 ], [ -43.441184199999952, -22.439291599999937 ], [ -43.440355299999958, -22.43879109999995 ], [ -43.439765799999975, -22.438382299999951 ], [ -43.43729459999998, -22.436893799999936 ], [ -43.437719899999941, -22.436763399999954 ], [ -43.438016599999962, -22.435611699999981 ], [ -43.438071899999954, -22.435592 ], [ -43.438469099999963, -22.43545059999996 ], [ -43.439047199999941, -22.435030799999932 ], [ -43.439472199999955, -22.434078899999971 ], [ -43.440063499999951, -22.432792799999952 ], [ -43.440602399999932, -22.432043 ], [ -43.441494399999954, -22.431406099999961 ], [ -43.442026399999975, -22.430480499999931 ], [ -43.442116399999975, -22.429875199999969 ], [ -43.442087099999988, -22.429082199999975 ], [ -43.441760199999976, -22.428602899999923 ], [ -43.441075299999966, -22.428255899999954 ], [ -43.440629099999967, -22.428190399999945 ], [ -43.440669499999956, -22.428164099999957 ], [ -43.441197299999942, -22.427820799999935 ], [ -43.441425699999968, -22.427041099999947 ], [ -43.441493899999962, -22.42639139999994 ], [ -43.441257199999946, -22.425561 ], [ -43.440745899999975, -22.424783099999949 ], [ -43.441151399999967, -22.424326399999924 ], [ -43.441256, -22.423785 ], [ -43.441284299999957, -22.423204599999959 ], [ -43.441266199999973, -22.422947599999929 ], [ -43.441260299999946, -22.422863699999947 ], [ -43.441342899999938, -22.422460599999976 ], [ -43.441347799999967, -22.42245389999994 ], [ -43.441345699999943, -22.422261599999967 ], [ -43.441318499999966, -22.422124299999947 ], [ -43.441278299999972, -22.421960299999963 ], [ -43.441217799999954, -22.421778799999966 ], [ -43.441097599999978, -22.421624399999928 ], [ -43.441046699999966, -22.421565499999936 ], [ -43.440995799999946, -22.42150649999996 ], [ -43.440848099999982, -22.421342199999977 ], [ -43.440805699999942, -22.421316099999952 ], [ -43.440668499999958, -22.421240399999927 ], [ -43.440078199999967, -22.420952 ], [ -43.439898799999987, -22.420860299999966 ], [ -43.440468399999929, -22.420522699999946 ], [ -43.440769899999964, -22.420303199999971 ], [ -43.440836599999955, -22.42025609999996 ], [ -43.441085499999986, -22.419985899999975 ], [ -43.441238299999952, -22.419763899999964 ], [ -43.441401399999961, -22.419596299999967 ], [ -43.441569799999961, -22.419284599999965 ], [ -43.441708899999973, -22.419119199999958 ], [ -43.441880799999979, -22.418862099999959 ], [ -43.442011199999968, -22.418727099999948 ], [ -43.442127299999981, -22.418591299999957 ], [ -43.442273799999953, -22.418357599999975 ], [ -43.442372299999931, -22.418142399999969 ], [ -43.442373499999974, -22.418117199999983 ], [ -43.442413, -22.417956799999946 ], [ -43.442449899999986, -22.417861 ], [ -43.442490699999951, -22.417755 ], [ -43.442573199999977, -22.417643199999944 ], [ -43.442676699999943, -22.417439699999928 ], [ -43.442692399999942, -22.417298599999977 ], [ -43.442719899999922, -22.417036 ], [ -43.442766899999988, -22.41676549999994 ], [ -43.442829599999989, -22.416400899999932 ], [ -43.442845299999931, -22.416232399999952 ], [ -43.442825699999958, -22.416028499999978 ], [ -43.442790399999986, -22.415805099999936 ], [ -43.44272379999996, -22.415620799999932 ], [ -43.442661099999953, -22.41547189999994 ], [ -43.442638199999976, -22.415369799999958 ], [ -43.442633599999965, -22.415201399999948 ], [ -43.442616799999939, -22.414941 ], [ -43.442573399999958, -22.414784499999946 ], [ -43.442467199999953, -22.414602 ], [ -43.442376399999951, -22.414444499999934 ], [ -43.442351399999957, -22.414366399999953 ], [ -43.442371, -22.414268399999965 ], [ -43.442421899999943, -22.41409989999995 ], [ -43.442432399999973, -22.413964299999975 ], [ -43.44868089999995, -22.410409799999968 ], [ -43.452862499999981, -22.410456499999945 ], [ -43.452896199999941, -22.410460899999979 ], [ -43.452812199999983, -22.410389899999927 ], [ -43.452636799999929, -22.410261699999975 ], [ -43.452225299999959, -22.409941799999956 ], [ -43.45207019999998, -22.40980919999992 ], [ -43.451716, -22.40960229999995 ], [ -43.451527099999964, -22.409483099999925 ], [ -43.451398899999958, -22.409403799999936 ], [ -43.451259499999935, -22.409318399999957 ], [ -43.451045899999933, -22.409199199999932 ], [ -43.450870499999951, -22.409055299999981 ], [ -43.450679399999963, -22.408922599999975 ], [ -43.450499499999978, -22.408772 ], [ -43.450373, -22.408641 ], [ -43.45031, -22.408578 ], [ -43.450215599999979, -22.408440899999956 ], [ -43.450105399999984, -22.408272199999942 ], [ -43.450030599999934, -22.4081255 ], [ -43.449942899999947, -22.407956799999972 ], [ -43.449832699999945, -22.40769089999997 ], [ -43.449747299999956, -22.407490799999941 ], [ -43.449657399999978, -22.40731089999997 ], [ -43.449558399999944, -22.407182199999955 ], [ -43.449464, -22.407096699999958 ], [ -43.449196399999956, -22.406914599999929 ], [ -43.448892799999946, -22.406678499999931 ], [ -43.448534699999989, -22.40635409999993 ], [ -43.448330099999964, -22.406176499999962 ], [ -43.448096199999952, -22.405980799999941 ], [ -43.44801079999997, -22.40586389999994 ], [ -43.447875899999985, -22.405809899999948 ], [ -43.447543099999969, -22.405544599999935 ], [ -43.447408099999954, -22.405468099999943 ], [ -43.447282199999961, -22.405315199999958 ], [ -43.447110199999948, -22.405132 ], [ -43.447045, -22.404988099999962 ], [ -43.44700679999994, -22.404880099999957 ], [ -43.446957299999951, -22.404785099999966 ], [ -43.446916799999933, -22.404605199999942 ], [ -43.446788599999934, -22.404445599999967 ], [ -43.446714399999962, -22.404353399999934 ], [ -43.446599799999944, -22.404252199999974 ], [ -43.446536199999969, -22.404166699999962 ], [ -43.446512599999942, -22.404139499999928 ], [ -43.44648889999997, -22.404112199999926 ], [ -43.446448499999981, -22.404065499999941 ], [ -43.446313599999932, -22.404052099999952 ], [ -43.446239399999968, -22.404099299999928 ], [ -43.446185399999926, -22.404261199999954 ], [ -43.446133699999962, -22.404324099999943 ], [ -43.446039299999939, -22.404373599999925 ], [ -43.445940299999968, -22.404346599999933 ], [ -43.445913399999938, -22.404272399999961 ], [ -43.445897599999967, -22.404112199999936 ], [ -43.445863899999949, -22.403808599999927 ], [ -43.445850399999983, -22.40359049999995 ], [ -43.445825699999943, -22.403414 ], [ -43.445773899999956, -22.403204899999935 ], [ -43.445760399999983, -22.403052 ], [ -43.445702, -22.402932799999967 ], [ -43.445623299999959, -22.402858599999934 ], [ -43.445501899999961, -22.402743299999937 ], [ -43.445243299999959, -22.402563499999932 ], [ -43.445097099999941, -22.40245329999993 ], [ -43.444993699999941, -22.402349799999968 ], [ -43.444927299999961, -22.402238499999953 ], [ -43.444871099999943, -22.402198 ], [ -43.444794699999932, -22.402081099999968 ], [ -43.444731699999984, -22.401979899999954 ], [ -43.444572, -22.401802299999922 ], [ -43.44430159999996, -22.401554399999959 ], [ -43.444164499999943, -22.401394699999965 ], [ -43.444022799999978, -22.40127549999994 ], [ -43.443878899999959, -22.4011384 ], [ -43.443793399999947, -22.401032699999977 ], [ -43.44367879999993, -22.400920299999935 ], [ -43.443602299999952, -22.400828099999956 ], [ -43.443428599999947, -22.400658299999964 ], [ -43.443320699999958, -22.400548099999977 ], [ -43.443134, -22.400343499999966 ], [ -43.442967599999982, -22.400174799999935 ], [ -43.442805699999951, -22.400024199999951 ], [ -43.442659599999949, -22.39984879999998 ], [ -43.442614599999956, -22.39975429999993 ], [ -43.442583099999986, -22.39964359999993 ], [ -43.4425629, -22.399463699999963 ], [ -43.442542599999967, -22.399274799999947 ], [ -43.442538099999979, -22.399090399999988 ], [ -43.44253139999995, -22.398919499999973 ], [ -43.442490899999946, -22.398727799999957 ], [ -43.442445899999946, -22.3985929 ], [ -43.442421199999956, -22.398343299999969 ], [ -43.442398699999963, -22.398217399999961 ], [ -43.44238519999994, -22.398111099999934 ], [ -43.442374, -22.397942499999939 ], [ -43.442401, -22.397757499999951 ], [ -43.442432399999973, -22.39761139999996 ], [ -43.442468399999939, -22.397436 ], [ -43.442487, -22.397266799999951 ], [ -43.442505, -22.397111599999953 ], [ -43.442565699999939, -22.397005399999955 ], [ -43.442628599999978, -22.396933399999952 ], [ -43.442779299999977, -22.396791699999941 ], [ -43.442869199999961, -22.396695 ], [ -43.44291869999995, -22.396632099999984 ], [ -43.442947899999979, -22.396521899999982 ], [ -43.443028899999945, -22.396208799999954 ], [ -43.443089599999965, -22.396118799999947 ], [ -43.443177299999945, -22.395988399999961 ], [ -43.443238, -22.395832699999964 ], [ -43.443267299999953, -22.39563709999992 ], [ -43.44326279999995, -22.395472899999966 ], [ -43.443238, -22.395374 ], [ -43.443226799999934, -22.395277299999965 ], [ -43.443253799999987, -22.39512149999997 ], [ -43.443278499999955, -22.395045099999937 ], [ -43.443316699999968, -22.394961899999938 ], [ -43.443348199999953, -22.39486519999997 ], [ -43.443395399999986, -22.39473929999998 ], [ -43.44342689999997, -22.394486899999951 ], [ -43.44344939999997, -22.394201299999967 ], [ -43.443456099999935, -22.394014699999943 ], [ -43.443422399999982, -22.393831899999956 ], [ -43.443384199999961, -22.393699299999984 ], [ -43.443319, -22.393510399999972 ], [ -43.443257699999954, -22.393372099999965 ], [ -43.443154799999945, -22.393179299999936 ], [ -43.443065399999966, -22.393024699999955 ], [ -43.442956399999957, -22.392857199999984 ], [ -43.442839499999934, -22.392627799999971 ], [ -43.442724799999951, -22.392447899999983 ], [ -43.442618, -22.392269099999972 ], [ -43.442492199999947, -22.392060599999979 ], [ -43.442277399999966, -22.391698599999927 ], [ -43.441868099999965, -22.390978199999953 ], [ -43.441754099999969, -22.390799699999956 ], [ -43.44167589999995, -22.390713699999925 ], [ -43.441565699999948, -22.390641799999973 ], [ -43.441457599999978, -22.390595499999961 ], [ -43.441345799999965, -22.390571 ], [ -43.441103399999982, -22.390504199999949 ], [ -43.440951199999972, -22.390444 ], [ -43.440843399999956, -22.390370399999941 ], [ -43.440755899999942, -22.39030629999996 ], [ -43.44058769999998, -22.39017269999993 ], [ -43.440271299999957, -22.389966199999964 ], [ -43.440148399999934, -22.389914899999958 ], [ -43.440015099999982, -22.389853399999936 ], [ -43.439834399999945, -22.389717099999931 ], [ -43.439687199999973, -22.389599 ], [ -43.439471299999987, -22.389914099999938 ], [ -43.439344799999965, -22.390120699999954 ], [ -43.439238399999972, -22.390250899999955 ], [ -43.4388613, -22.390662 ], [ -43.438750899999945, -22.390834899999959 ], [ -43.43869489999998, -22.39104389999995 ], [ -43.438690099999981, -22.391170199999966 ], [ -43.43873, -22.391694399999952 ], [ -43.438684399999943, -22.392018299999961 ], [ -43.438644, -22.392157799999946 ], [ -43.438576799999971, -22.392294299999953 ], [ -43.438303799999971, -22.392659699999975 ], [ -43.438187599999942, -22.392834199999982 ], [ -43.438147299999969, -22.392953199999969 ], [ -43.438138299999927, -22.393140599999978 ], [ -43.438178799999953, -22.393391 ], [ -43.438204599999949, -22.39353889999995 ], [ -43.438166, -22.393663 ], [ -43.438005499999974, -22.393794499999956 ], [ -43.437728099999958, -22.393867099999966 ], [ -43.437082599999947, -22.393816499999961 ], [ -43.437009499999924, -22.393843599999958 ], [ -43.436884, -22.393968699999956 ], [ -43.43657, -22.394343199999984 ], [ -43.436516399999967, -22.394383699999942 ], [ -43.436425099999951, -22.394454599999968 ], [ -43.436294199999971, -22.394516099999969 ], [ -43.4361019, -22.39454679999994 ], [ -43.43589319999996, -22.394570899999955 ], [ -43.43569389999994, -22.394578699999943 ], [ -43.435433799999942, -22.394591 ], [ -43.435405299999957, -22.394510699999952 ], [ -43.435321499999937, -22.394180399999986 ], [ -43.435204699999986, -22.393952499999958 ], [ -43.434948399999939, -22.393567199999946 ], [ -43.434545599999971, -22.393126099999957 ], [ -43.434122799999955, -22.39284159999994 ], [ -43.433907399999953, -22.392832299999945 ], [ -43.433615, -22.392826099999969 ], [ -43.433433599999944, -22.392865899999947 ], [ -43.433232699999969, -22.392910099999934 ], [ -43.433069699999983, -22.393012699999918 ], [ -43.432709699999968, -22.393341099999926 ], [ -43.432386399999984, -22.393611299999971 ], [ -43.431935199999941, -22.39400309999996 ], [ -43.431749299999979, -22.393854199999954 ], [ -43.431699299999941, -22.393829899999954 ], [ -43.431237399999937, -22.393605399999956 ], [ -43.431072799999974, -22.393606 ], [ -43.42966679999995, -22.394628299999965 ], [ -43.429243399999962, -22.394908499999929 ], [ -43.428881899999965, -22.394608299999959 ], [ -43.428285, -22.394118699999986 ], [ -43.428501799999935, -22.393916299999944 ], [ -43.428507399999951, -22.393663 ], [ -43.42849049999996, -22.393179 ], [ -43.428935199999955, -22.391484699999978 ], [ -43.429216599999961, -22.390460299999972 ], [ -43.429092799999978, -22.389514699999953 ], [ -43.428856399999972, -22.388681599999934 ], [ -43.428901399999972, -22.387820399999967 ], [ -43.429087099999947, -22.387223799999958 ], [ -43.429374199999984, -22.386604599999934 ], [ -43.42963309999994, -22.386131799999927 ], [ -43.42997649999996, -22.38598549999994 ], [ -43.430164399999967, -22.385606799999941 ], [ -43.429800499999942, -22.38547769999996 ], [ -43.429509799999948, -22.385390099999935 ], [ -43.429248899999955, -22.385331 ], [ -43.429099099999981, -22.385258899999929 ], [ -43.429038799999944, -22.385231699999967 ], [ -43.428851799999968, -22.385082 ], [ -43.428427399999975, -22.384890899999956 ], [ -43.42834639999996, -22.38486389999996 ], [ -43.428280699999959, -22.384855699999939 ], [ -43.42821639999994, -22.384847899999961 ], [ -43.428104599999983, -22.384920299999962 ], [ -43.427929899999981, -22.385008 ], [ -43.427820299999944, -22.385018 ], [ -43.427734499999985, -22.384994 ], [ -43.427641599999959, -22.384901099999972 ], [ -43.427523699999931, -22.384785299999983 ], [ -43.427407, -22.384694299999978 ], [ -43.427260399999966, -22.384612 ], [ -43.427124599999956, -22.384556399999955 ], [ -43.42690749999997, -22.384491899999947 ], [ -43.426767399999967, -22.384456499999931 ], [ -43.426628499999936, -22.384437 ], [ -43.426432199999965, -22.384427399999943 ], [ -43.426338, -22.384425199999953 ], [ -43.42626689999998, -22.384466299999936 ], [ -43.426097699999964, -22.384632699999923 ], [ -43.426012399999934, -22.384754399999963 ], [ -43.425939299999989, -22.384814599999963 ], [ -43.42576089999995, -22.384888 ], [ -43.425720499999947, -22.384386899999978 ], [ -43.425239199999972, -22.384581099999938 ], [ -43.424715699999979, -22.384952599999959 ], [ -43.423939, -22.385923599999959 ], [ -43.423694099999985, -22.386700299999969 ], [ -43.423550599999949, -22.389765199999939 ], [ -43.423601299999966, -22.390558799999951 ], [ -43.424394899999982, -22.391116 ], [ -43.425002799999966, -22.391757699999971 ], [ -43.425036599999949, -22.392247399999984 ], [ -43.425061899999946, -22.392889099999916 ], [ -43.42491839999996, -22.393826299999944 ], [ -43.425349, -22.394316 ], [ -43.424791699999957, -22.394535499999957 ], [ -43.425036599999942, -22.395388199999946 ], [ -43.424774799999973, -22.395953899999935 ], [ -43.424061399999978, -22.397123299999979 ], [ -43.423512599999974, -22.398094199999946 ], [ -43.422970699999951, -22.398588899999947 ], [ -43.418408099999965, -22.401110799999966 ], [ -43.41618219999998, -22.400758299999953 ], [ -43.415666699999974, -22.399659299999929 ], [ -43.414788, -22.401215 ], [ -43.413087299999972, -22.405401199999961 ], [ -43.41197, -22.404544299999937 ], [ -43.411005299999943, -22.404086799999948 ], [ -43.409878599999956, -22.403960599999937 ], [ -43.408900699999947, -22.403832 ], [ -43.408410699999934, -22.40386 ], [ -43.40826, -22.403940299999938 ], [ -43.408170599999949, -22.404073299999933 ], [ -43.408113899999933, -22.404236799999978 ], [ -43.408081199999963, -22.404310899999931 ], [ -43.407928699999957, -22.404371899999941 ], [ -43.407804399999975, -22.404452599999949 ], [ -43.407771699999962, -22.404659699999979 ], [ -43.407669299999959, -22.404797 ], [ -43.407627799999943, -22.404949599999949 ], [ -43.407633699999963, -22.405092 ], [ -43.407710599999973, -22.405672299999942 ], [ -43.40734, -22.406732799999929 ], [ -43.406763399999932, -22.406949 ], [ -43.405703, -22.407402 ], [ -43.404947199999981, -22.407299299999973 ], [ -43.404315299999951, -22.407370499999956 ], [ -43.404066699999937, -22.407407599999946 ], [ -43.40347909999997, -22.407402899999955 ], [ -43.402772599999935, -22.407192599999973 ], [ -43.401748299999952, -22.40697729999993 ], [ -43.400958299999957, -22.406615599999952 ], [ -43.400123199999939, -22.406601899999941 ], [ -43.399142399999967, -22.406938699999948 ], [ -43.398301699999934, -22.407142799999974 ], [ -43.397509599999978, -22.407059499999953 ], [ -43.396731499999937, -22.406915799999986 ], [ -43.396202099999989, -22.406841699999969 ], [ -43.395238099999965, -22.40721549999995 ], [ -43.394249799999947, -22.406536699999947 ], [ -43.394269299999962, -22.405820099999968 ], [ -43.394298899999967, -22.40473129999998 ], [ -43.394384399999979, -22.401588799999963 ], [ -43.392161599999959, -22.401329 ], [ -43.389441899999959, -22.401011199999974 ], [ -43.388508899999984, -22.400902099999929 ], [ -43.388012599999975, -22.400844099999969 ], [ -43.385399199999938, -22.400538699999974 ], [ -43.384982399999956, -22.40049 ], [ -43.384079299999939, -22.40038439999995 ], [ -43.383506199999943, -22.400317499999975 ], [ -43.383062599999967, -22.400265599999944 ], [ -43.381447, -22.400076799999962 ], [ -43.381211199999946, -22.400049199999952 ], [ -43.380863099999942, -22.400008599999968 ], [ -43.380512899999985, -22.399967599999968 ], [ -43.380358599999965, -22.39994959999996 ], [ -43.379650399999946, -22.39986619999997 ], [ -43.379151, -22.399807399999929 ], [ -43.378962099999967, -22.399785199999929 ], [ -43.378615899999943, -22.399744399999978 ], [ -43.378038099999976, -22.399676399999972 ], [ -43.377759199999957, -22.39964359999993 ], [ -43.377330799999982, -22.399580899999926 ], [ -43.376902499999979, -22.399518199999932 ], [ -43.376169, -22.399410799999934 ], [ -43.37511319999993, -22.399241399999941 ], [ -43.374608199999962, -22.399160299999942 ], [ -43.374525099999978, -22.398789199999943 ], [ -43.373652199999981, -22.39853659999995 ], [ -43.373005299999932, -22.398349399999969 ], [ -43.372566399999982, -22.398092099999921 ], [ -43.372127499999984, -22.397834799999934 ], [ -43.371978099999986, -22.397318499999972 ], [ -43.372028899999982, -22.396489399999947 ], [ -43.37201169999998, -22.39609959999996 ], [ -43.371394599999974, -22.39571409999996 ], [ -43.370061499999963, -22.395318199999966 ], [ -43.36942769999996, -22.3951393 ], [ -43.368886699999962, -22.395068499999972 ], [ -43.368535699999946, -22.395108699999973 ], [ -43.367591299999958, -22.395139799999985 ], [ -43.366767699999961, -22.395245 ], [ -43.366240499999954, -22.395421 ], [ -43.365475099999969, -22.395763799999933 ], [ -43.365016099999934, -22.396288599999931 ], [ -43.364747499999972, -22.396595599999962 ], [ -43.364597299999957, -22.396767399999931 ], [ -43.364536599999958, -22.396846699999958 ], [ -43.364522399999949, -22.396869899999956 ], [ -43.364088399999957, -22.39757829999996 ], [ -43.363465899999944, -22.398573099999965 ], [ -43.363048699999986, -22.399226399999975 ], [ -43.362462, -22.400030499999954 ], [ -43.364608099999941, -22.40025589999993 ], [ -43.364805499999932, -22.400217499999936 ], [ -43.366273799999924, -22.400332699999975 ], [ -43.366470599999957, -22.400348199999939 ], [ -43.366523099999938, -22.400352299999955 ], [ -43.366657399999958, -22.400372899999983 ], [ -43.367370699999981, -22.400482299999979 ], [ -43.368707, -22.400676099999952 ], [ -43.369114499999959, -22.400731199999942 ], [ -43.369558099999956, -22.400789299999932 ], [ -43.369567899999943, -22.400792599999924 ], [ -43.370391899999959, -22.401278099999946 ], [ -43.370714699999958, -22.401676599999973 ], [ -43.370865899999956, -22.401867299999932 ], [ -43.371041799999951, -22.402022799999951 ], [ -43.372097199999985, -22.403294899999928 ], [ -43.372295299999969, -22.403724099999973 ], [ -43.372413499999936, -22.404413299999941 ], [ -43.372347599999955, -22.404853399999975 ], [ -43.37233759999998, -22.404919899999964 ], [ -43.372232199999985, -22.405623699999978 ], [ -43.372167699999984, -22.406053899999954 ], [ -43.372633299999961, -22.406155699999942 ], [ -43.373666799999967, -22.406907499999935 ], [ -43.374272399999938, -22.408226599999974 ], [ -43.374273799999976, -22.408230299999964 ], [ -43.374435199999937, -22.408572799999948 ], [ -43.374491699999965, -22.408692799999983 ], [ -43.374769299999969, -22.40869019999996 ], [ -43.374808399999949, -22.408693899999946 ], [ -43.37493219999994, -22.408705599999962 ], [ -43.375196199999955, -22.408730599999938 ], [ -43.375515199999946, -22.408951 ], [ -43.376012, -22.409302499999963 ], [ -43.376356199999975, -22.409427899999965 ], [ -43.376590399999948, -22.409863699999963 ], [ -43.376784899999969, -22.410383899999939 ], [ -43.377630599999975, -22.410714899999956 ], [ -43.377760599999931, -22.410870399999961 ], [ -43.377889599999953, -22.410997499999944 ], [ -43.378430099999953, -22.411301 ], [ -43.3790006, -22.411523399999972 ], [ -43.380084699999948, -22.411850399999935 ], [ -43.380723799999949, -22.41201939999997 ], [ -43.381041799999934, -22.412239299999953 ], [ -43.38131309999995, -22.413250499999936 ], [ -43.382622699999956, -22.41372929999994 ], [ -43.382838499999934, -22.413787599999974 ], [ -43.382917799999973, -22.413811599999985 ], [ -43.383729699999947, -22.413575799999922 ], [ -43.384775199999986, -22.413787 ], [ -43.386403599999937, -22.413927699999928 ], [ -43.386850099999947, -22.413919 ], [ -43.387627799999962, -22.413903799999957 ], [ -43.388231299999973, -22.413801399999944 ], [ -43.388588499999969, -22.413985599999936 ], [ -43.388924799999984, -22.414305099999972 ], [ -43.389389, -22.415330299999926 ], [ -43.389951, -22.416293199999927 ], [ -43.391026099999984, -22.417405799999983 ], [ -43.392206699999967, -22.418247499999964 ], [ -43.392297899999967, -22.418312599999968 ], [ -43.393698499999978, -22.419003899999943 ], [ -43.395110299999935, -22.419469899999964 ], [ -43.395363, -22.419553299999961 ], [ -43.396304, -22.419484899999933 ], [ -43.396816299999955, -22.41988379999998 ], [ -43.397376099999967, -22.420907799999952 ], [ -43.398497, -22.421326099999927 ], [ -43.399700199999984, -22.422348 ], [ -43.400687399999988, -22.423710399999944 ], [ -43.40163519999993, -22.424065899999956 ], [ -43.402203499999985, -22.424708799999948 ], [ -43.402364899999952, -22.42490969999993 ], [ -43.402636299999983, -22.42512039999998 ], [ -43.403274099999983, -22.425424499999973 ], [ -43.405003, -22.425031799999939 ], [ -43.405861699999946, -22.424859399999942 ], [ -43.406385699999937, -22.426607699999966 ], [ -43.40674659999997, -22.427333799999921 ], [ -43.407448399999964, -22.427982 ], [ -43.408924499999962, -22.428989499999947 ], [ -43.409174, -22.429146 ], [ -43.4097872, -22.429780699999966 ], [ -43.410214099999962, -22.430664399999944 ], [ -43.411137099999962, -22.431197699999927 ], [ -43.411696499999948, -22.43152269999996 ], [ -43.412234099999985, -22.432252399999978 ], [ -43.41255789999996, -22.432749399999985 ], [ -43.412870599999962, -22.43298469999996 ], [ -43.413205899999973, -22.433403399999971 ], [ -43.413432599999965, -22.433965599999969 ], [ -43.413296899999978, -22.434795199999932 ], [ -43.413157, -22.435137 ], [ -43.412775199999949, -22.43624409999995 ], [ -43.413043199999947, -22.436599 ], [ -43.413202899999924, -22.436671 ], [ -43.413630199999943, -22.436863799999959 ], [ -43.414214099999988, -22.437127 ], [ -43.41549329999998, -22.437700299999953 ], [ -43.417074, -22.438408799999934 ], [ -43.417196, -22.438101199999956 ], [ -43.417418299999952, -22.437562599999971 ], [ -43.417620899999982, -22.437010299999933 ], [ -43.417877, -22.436348899999924 ], [ -43.419747099999938, -22.437188699999972 ], [ -43.420767299999966, -22.437728499999928 ], [ -43.421889199999953, -22.43827529999993 ], [ -43.422777599999961, -22.438853 ], [ -43.423622899999941, -22.439419499999939 ], [ -43.424356499999931, -22.439936299999932 ], [ -43.424985899999974, -22.440325799999979 ], [ -43.425782899999945, -22.440407299999947 ], [ -43.427735599999949, -22.440662499999984 ], [ -43.428606399999978, -22.440987099999965 ], [ -43.429730899999981, -22.441896799999938 ], [ -43.430097, -22.442719199999946 ], [ -43.430765599999965, -22.443416699999943 ], [ -43.431334699999979, -22.445470499999928 ], [ -43.432752499999935, -22.445598499999964 ], [ -43.433221099999969, -22.445634099999953 ], [ -43.433963799999965, -22.445816899999961 ], [ -43.434588199999943, -22.446455199999949 ], [ -43.434776699999937, -22.446971799999975 ], [ -43.434801899999968, -22.447324299999927 ], [ -43.434786499999973, -22.447829899999938 ], [ -43.435004299999946, -22.44833779999993 ], [ -43.435351899999951, -22.448602199999982 ], [ -43.435900799999963, -22.44896169999992 ] ] ], [ [ [ -43.421871299999964, -22.337051899999945 ], [ -43.422465, -22.337106099999975 ], [ -43.423379599999983, -22.33725 ], [ -43.423439299999984, -22.337244599999966 ], [ -43.423761799999966, -22.337261 ], [ -43.424309699999981, -22.337288699999927 ], [ -43.42432679999996, -22.337676 ], [ -43.424717199999968, -22.337733099999987 ], [ -43.424859799999986, -22.337218899999986 ], [ -43.425248, -22.337177199999914 ], [ -43.425389799999948, -22.337042899999975 ], [ -43.425826, -22.337292699999981 ], [ -43.425834399999985, -22.337305299999962 ], [ -43.426420299999961, -22.338175199999959 ], [ -43.42670819999995, -22.338604799999938 ], [ -43.426973299999929, -22.338694399999941 ], [ -43.427019899999948, -22.338711399999973 ], [ -43.427521699999943, -22.33873119999992 ], [ -43.427933, -22.338695099999939 ], [ -43.428344399999951, -22.33865889999992 ], [ -43.428996599999948, -22.33871989999993 ], [ -43.429755099999966, -22.339082499999961 ], [ -43.429817899999925, -22.339486299999979 ], [ -43.430136199999936, -22.339603799999963 ], [ -43.430868, -22.339956799999982 ], [ -43.43157059999993, -22.34003759999997 ], [ -43.432197599999938, -22.34048 ], [ -43.432997499999942, -22.340745799999979 ], [ -43.433497899999971, -22.340734799999954 ], [ -43.433912699999944, -22.340496 ], [ -43.434210499999949, -22.340375899999973 ], [ -43.434372699999983, -22.340480199999952 ], [ -43.434404099999938, -22.340520099999932 ], [ -43.434602299999938, -22.340772099999974 ], [ -43.43467, -22.34098639999997 ], [ -43.434797099999969, -22.341426599999981 ], [ -43.434791699999955, -22.341462199999974 ], [ -43.434785199999965, -22.341505699999963 ], [ -43.434841899999981, -22.341521699999923 ], [ -43.435194899999949, -22.341671499999961 ], [ -43.435470899999977, -22.341752099999944 ], [ -43.435897299999965, -22.341833399999935 ], [ -43.436293399999947, -22.34189049999998 ], [ -43.436448, -22.341916599999934 ], [ -43.437125299999941, -22.342058199999947 ], [ -43.437817799999941, -22.34218849999997 ], [ -43.437918599999932, -22.342207199999962 ], [ -43.438160399999958, -22.342275399999952 ], [ -43.438676699999974, -22.342484799999973 ], [ -43.438803199999938, -22.342529199999937 ], [ -43.43910429999994, -22.342626 ], [ -43.439495699999952, -22.342784 ], [ -43.439576699999982, -22.342816699999947 ], [ -43.439639299999953, -22.342832 ], [ -43.439732799999945, -22.342838 ], [ -43.439886099999967, -22.342784899999973 ], [ -43.44000479999994, -22.342749499999972 ], [ -43.440125799999976, -22.342735499999954 ], [ -43.440271899999964, -22.342734799999953 ], [ -43.440350799999976, -22.342730599999971 ], [ -43.440417599999932, -22.342730399999937 ], [ -43.440540299999952, -22.34272349999997 ], [ -43.440728, -22.342696099999973 ], [ -43.440892199999958, -22.342661599999925 ], [ -43.441093899999949, -22.34263239999996 ], [ -43.44122839999995, -22.342643499999944 ], [ -43.441535499999929, -22.342688699999947 ], [ -43.441731899999986, -22.34275649999995 ], [ -43.441929399999935, -22.34284229999998 ], [ -43.439633399999927, -22.341452799999956 ], [ -43.425392899999963, -22.333174699999976 ], [ -43.420758499999984, -22.32024349999994 ], [ -43.4202552, -22.317862699999974 ], [ -43.420239399999964, -22.317787 ], [ -43.4202337, -22.317737099999924 ], [ -43.420108899999946, -22.31756739999998 ], [ -43.420037699999959, -22.317512299999976 ], [ -43.419984199999931, -22.317441899999945 ], [ -43.419908399999933, -22.317286599999932 ], [ -43.419900299999938, -22.317110099999979 ], [ -43.419940499999946, -22.316941699999969 ], [ -43.420012699999972, -22.31682939999995 ], [ -43.420173099999943, -22.316749099999978 ], [ -43.420518099999981, -22.316404199999965 ], [ -43.4207507, -22.316219699999969 ], [ -43.421095699999974, -22.315971 ], [ -43.420999199999983, -22.315971699999967 ], [ -43.416255899999953, -22.316006299999962 ], [ -43.416059799999978, -22.316007699999947 ], [ -43.415699399999944, -22.316394699999922 ], [ -43.414671399999982, -22.317062599999922 ], [ -43.413974499999945, -22.317004499999932 ], [ -43.413184599999965, -22.316760599999952 ], [ -43.411244799999977, -22.316702499999955 ], [ -43.410164599999973, -22.316505 ], [ -43.409165599999938, -22.316470199999966 ], [ -43.408724299999967, -22.316295899999943 ], [ -43.408437299999946, -22.316063399999962 ], [ -43.407760499999938, -22.316068399999946 ], [ -43.407636299999979, -22.316177899999957 ], [ -43.407365199999958, -22.316390799999962 ], [ -43.406869599999929, -22.316507 ], [ -43.406308199999955, -22.316654099999933 ], [ -43.406064299999976, -22.316325 ], [ -43.405890099999972, -22.316239799999945 ], [ -43.405228, -22.316363699999961 ], [ -43.404856299999949, -22.316518599999942 ], [ -43.404469099999972, -22.31678189999997 ], [ -43.403648299999929, -22.316851599999946 ], [ -43.403106199999975, -22.316348199999929 ], [ -43.402827499999951, -22.316325 ], [ -43.402277249999948, -22.316634499999964 ], [ -43.402413199999955, -22.317308399999948 ], [ -43.402366699999959, -22.317761399999927 ], [ -43.402249799999943, -22.31787809999998 ], [ -43.401088399999935, -22.31956 ], [ -43.400908899999934, -22.319490699999957 ], [ -43.4007539, -22.319431199999933 ], [ -43.400645499999939, -22.31937419999996 ], [ -43.400585199999966, -22.31932379999995 ], [ -43.4005418, -22.319272799999972 ], [ -43.400525199999954, -22.319204499999959 ], [ -43.400521099999935, -22.319072299999952 ], [ -43.40052349999997, -22.318979499999958 ], [ -43.400497599999937, -22.318807699999983 ], [ -43.400461199999931, -22.318721199999974 ], [ -43.399805599999979, -22.31788569999998 ], [ -43.398740699999962, -22.316571899999921 ], [ -43.398047199999958, -22.315736099999985 ], [ -43.397790799999939, -22.315401899999923 ], [ -43.397724499999981, -22.31522559999997 ], [ -43.397667499999947, -22.315031099999949 ], [ -43.397657099999947, -22.314862299999952 ], [ -43.397655499999985, -22.314780699999964 ], [ -43.397496699999976, -22.314797 ], [ -43.397174799999959, -22.315216299999978 ], [ -43.397191699999951, -22.316656299999984 ], [ -43.397750799999983, -22.317554099999935 ], [ -43.398835, -22.318299499999966 ], [ -43.39936019999994, -22.31874 ], [ -43.399580399999941, -22.319299 ], [ -43.399360199999933, -22.319925799999965 ], [ -43.398750299999961, -22.320163 ], [ -43.397382299999954, -22.320150299999955 ], [ -43.396060899999945, -22.321166799999954 ], [ -43.395010599999978, -22.322149299999982 ], [ -43.394604, -22.324012799999931 ], [ -43.394562099999973, -22.324694 ], [ -43.394705, -22.324796699999972 ], [ -43.395621499999947, -22.325455599999941 ], [ -43.395678099999948, -22.325490099999964 ], [ -43.395715499999945, -22.325512899999971 ], [ -43.395767399999954, -22.325544599999951 ], [ -43.3958095, -22.325570199999955 ], [ -43.398697399999939, -22.327887699999955 ], [ -43.39994919999998, -22.3288611 ], [ -43.399970499999938, -22.328880499999983 ], [ -43.410211899999979, -22.338256499999936 ], [ -43.410937799999942, -22.338956599999964 ], [ -43.411016799999977, -22.339032799999913 ], [ -43.411055599999948, -22.339070199999988 ], [ -43.411085299999968, -22.339107399999932 ], [ -43.41123539999996, -22.339171 ], [ -43.411301, -22.33920119999993 ], [ -43.411566, -22.339308899999939 ], [ -43.411692399999936, -22.339378299999968 ], [ -43.411818799999928, -22.339447699999937 ], [ -43.411938, -22.339516599999968 ], [ -43.412005099999924, -22.339565399999962 ], [ -43.412225099999937, -22.339823699999947 ], [ -43.412450599999943, -22.340100499999942 ], [ -43.412679699999948, -22.340039499999936 ], [ -43.412817399999945, -22.340438699999936 ], [ -43.412999099999986, -22.340797599999977 ], [ -43.41385559999997, -22.341566799999949 ], [ -43.415421199999969, -22.342979 ], [ -43.415539899999949, -22.342936799999965 ], [ -43.416094299999941, -22.343150099999946 ], [ -43.4169189, -22.342671899999971 ], [ -43.416931799999929, -22.342664799999969 ], [ -43.417853, -22.341938899999935 ], [ -43.419029299999977, -22.341107 ], [ -43.419738299999956, -22.340453299999979 ], [ -43.419495299999937, -22.34017149999994 ], [ -43.419216399999989, -22.34007529999996 ], [ -43.41921339999994, -22.339899799999952 ], [ -43.419203, -22.33978319999995 ], [ -43.419131499999942, -22.338977199999935 ], [ -43.418943399999939, -22.33876469999996 ], [ -43.41904489999996, -22.338602099999939 ], [ -43.419961199999932, -22.339014 ], [ -43.420803899999953, -22.339734799999974 ], [ -43.420901099999973, -22.340008599999976 ], [ -43.421029199999964, -22.340369099999961 ], [ -43.421135399999969, -22.340583499999969 ], [ -43.421297699999968, -22.340633199999953 ], [ -43.421433599999943, -22.340607199999958 ], [ -43.421520299999948, -22.340567899999932 ], [ -43.4216426, -22.340510299999952 ], [ -43.421764899999978, -22.34045269999995 ], [ -43.421955299999979, -22.340248499999969 ], [ -43.421982499999956, -22.339917399999923 ], [ -43.422174899999959, -22.339563299999945 ], [ -43.42275269999994, -22.339836599999941 ], [ -43.423008799999934, -22.339748299999943 ], [ -43.423922299999951, -22.34067569999997 ], [ -43.424346599999978, -22.342897499999925 ], [ -43.423904899999968, -22.343448599999924 ], [ -43.424420199999929, -22.343900899999934 ], [ -43.425055099999959, -22.344235499999957 ], [ -43.425317699999937, -22.344132699999925 ], [ -43.425772599999966, -22.343954699999923 ], [ -43.426859199999967, -22.344253599999945 ], [ -43.427373899999964, -22.344103399999938 ], [ -43.427407299999977, -22.344073799999936 ], [ -43.427385299999969, -22.3440179 ], [ -43.427142399999987, -22.343560399999941 ], [ -43.426195199999931, -22.343376299999939 ], [ -43.425504899999964, -22.343002099999982 ], [ -43.425211299999944, -22.342128 ], [ -43.425226899999984, -22.341816399999971 ], [ -43.425050799999951, -22.341113799999949 ], [ -43.424635599999938, -22.340404899999957 ], [ -43.424070299999983, -22.339799 ], [ -43.424028399999941, -22.339759699999941 ], [ -43.423150699999951, -22.338935499999931 ], [ -43.42269559999994, -22.338530299999949 ], [ -43.422628499999973, -22.338485699999978 ], [ -43.420726299999949, -22.337220399999982 ], [ -43.420107399999949, -22.336958899999953 ], [ -43.419783, -22.336821799999942 ], [ -43.419697099999951, -22.336524799999943 ], [ -43.419619899999937, -22.336391499999937 ], [ -43.419540199999979, -22.336253699999926 ], [ -43.419239599999976, -22.335878599999941 ], [ -43.4193916, -22.335723499999972 ], [ -43.419899599999951, -22.336303699999966 ], [ -43.420513599999936, -22.33661289999997 ], [ -43.421500799999933, -22.336947 ], [ -43.421799499999963, -22.337048099999954 ], [ -43.42181439999996, -22.337046799999939 ], [ -43.421871299999964, -22.337051899999945 ] ] ] ] } }
]
}
