{
"type": "FeatureCollection",
"name": "3304300",
"crs": { "type": "name", "properties": { "name": "urn:ogc:def:crs:OGC:1.3:CRS84" } },
"features": [
{ "type": "Feature", "properties": { "CD_MUN": "3304300", "NM_MUN": "Rio Bonito" }, "geometry": { "type": "MultiPolygon", "coordinates": [ [ [ [ -42.524818499999981, -22.78885589999993 ], [ -42.524912099999945, -22.789035099999982 ], [ -42.525026799999978, -22.789298199999951 ], [ -42.525056299999953, -22.789365799999928 ], [ -42.525055899999984, -22.789401299999955 ], [ -42.525050799999967, -22.789902699999967 ], [ -42.525030099999981, -22.791939599999964 ], [ -42.527822599999986, -22.791642499999952 ], [ -42.531962899999947, -22.793754699999958 ], [ -42.535873399999957, -22.791622399999945 ], [ -42.538624, -22.792501099999974 ], [ -42.538899199999939, -22.79222639999994 ], [ -42.539017299999962, -22.791974199999981 ], [ -42.538969, -22.791692199999936 ], [ -42.539014299999963, -22.791383 ], [ -42.538848599999938, -22.790856399999932 ], [ -42.538996399999967, -22.790750699999936 ], [ -42.539151, -22.790295699999934 ], [ -42.539305599999977, -22.789840799999968 ], [ -42.539323499999966, -22.789769399999958 ], [ -42.539397799999968, -22.789564199999965 ], [ -42.539472099999962, -22.789359099999945 ], [ -42.539377, -22.789115199999966 ], [ -42.539103399999931, -22.788913 ], [ -42.539043899999967, -22.788716799999975 ], [ -42.539234299999976, -22.788449199999949 ], [ -42.539121299999977, -22.788021 ], [ -42.539198599999963, -22.787479799999975 ], [ -42.539174799999948, -22.787354899999961 ], [ -42.538984499999977, -22.787093199999955 ], [ -42.538812, -22.78697429999993 ], [ -42.538615799999945, -22.786189199999956 ], [ -42.53848789999995, -22.785377499999981 ], [ -42.53836, -22.784565699999977 ], [ -42.537949699999956, -22.784036399999923 ], [ -42.537753399999986, -22.783804399999941 ], [ -42.537652299999927, -22.783703299999964 ], [ -42.537551199999946, -22.783602199999962 ], [ -42.537447899999968, -22.783478299999945 ], [ -42.537164699999941, -22.783138399999924 ], [ -42.53714679999996, -22.783093799999968 ], [ -42.537129, -22.783049199999937 ], [ -42.537033799999968, -22.782980799999962 ], [ -42.536938699999951, -22.782912399999926 ], [ -42.536748399999965, -22.782775599999979 ], [ -42.536677, -22.782659599999942 ], [ -42.536605599999973, -22.782597199999941 ], [ -42.53648069999997, -22.782573399999929 ], [ -42.536385599999967, -22.782484199999953 ], [ -42.536159599999962, -22.782525799999984 ], [ -42.536021299999959, -22.78248739999998 ], [ -42.535857399999934, -22.782437699999946 ], [ -42.535581499999971, -22.782425699999965 ], [ -42.535473499999966, -22.782509699999935 ], [ -42.535311599999943, -22.782491699999987 ], [ -42.535149599999961, -22.782515699999976 ], [ -42.534975699999954, -22.782581599999951 ], [ -42.534831699999977, -22.782551599999984 ], [ -42.534729699999957, -22.782611599999935 ], [ -42.534555799999971, -22.782605599999954 ], [ -42.534321799999923, -22.782635599999935 ], [ -42.534117899999949, -22.782635599999924 ], [ -42.533990899999942, -22.782699499999971 ], [ -42.53386, -22.782665599999977 ], [ -42.533536099999935, -22.782647599999969 ], [ -42.533344099999965, -22.782587599999935 ], [ -42.533194199999969, -22.782503699999943 ], [ -42.533044199999949, -22.782341699999957 ], [ -42.532947599999943, -22.782282799999962 ], [ -42.532804299999952, -22.782035799999949 ], [ -42.532474399999963, -22.781633899999964 ], [ -42.532130399999971, -22.781506699999966 ], [ -42.531785799999973, -22.78109 ], [ -42.531593399999963, -22.780913699999925 ], [ -42.531329, -22.780697299999925 ], [ -42.531112599999979, -22.780569099999983 ], [ -42.531016399999949, -22.78027249999996 ], [ -42.530840099999971, -22.78008019999994 ], [ -42.530591699999945, -22.779807699999935 ], [ -42.530207, -22.779415 ], [ -42.529870399999936, -22.779142599999936 ], [ -42.52943769999996, -22.778781899999949 ], [ -42.528592799999956, -22.778298099999976 ], [ -42.525864199999951, -22.779372 ], [ -42.524176699999948, -22.780029499999952 ], [ -42.520889299999965, -22.781322499999924 ], [ -42.52192759999997, -22.783388199999937 ], [ -42.523293499999966, -22.785937499999928 ], [ -42.524314599999968, -22.787891599999966 ], [ -42.524711699999962, -22.788651499999951 ], [ -42.524818499999981, -22.78885589999993 ] ] ], [ [ [ -42.53324809999998, -22.777411099999938 ], [ -42.533482099999958, -22.777519099999942 ], [ -42.534657799999941, -22.777747 ], [ -42.534664899999939, -22.777750499999961 ], [ -42.534867699999957, -22.777849 ], [ -42.534903699999973, -22.778244899999951 ], [ -42.534927699999969, -22.778622799999926 ], [ -42.534999699999958, -22.778808699999942 ], [ -42.5352276, -22.779072599999942 ], [ -42.535485499999943, -22.779366499999977 ], [ -42.535608799999984, -22.77969529999995 ], [ -42.535569499999951, -22.780392299999967 ], [ -42.535599499999933, -22.780842099999965 ], [ -42.535671499999971, -22.781352 ], [ -42.535809399999948, -22.781837799999948 ], [ -42.535953399999983, -22.782293699999972 ], [ -42.535983199999976, -22.782378799999943 ], [ -42.537144799999965, -22.781835299999951 ], [ -42.53807339999998, -22.781271399999977 ], [ -42.538322199999982, -22.779082399999936 ], [ -42.538786499999958, -22.777142099999942 ], [ -42.537774899999931, -22.776744099999974 ], [ -42.535436599999969, -22.776346099999959 ], [ -42.532650399999966, -22.77588419999994 ], [ -42.53275629999996, -22.776313399999928 ], [ -42.533104199999968, -22.777141199999953 ], [ -42.53324809999998, -22.777411099999938 ] ] ], [ [ [ -42.533272099999976, -22.767100799999987 ], [ -42.533220399999948, -22.767606099999963 ], [ -42.533236399999964, -22.767828099999971 ], [ -42.533240799999938, -22.76789029999998 ], [ -42.533282299999939, -22.768060199999983 ], [ -42.53343689999997, -22.768091399999939 ], [ -42.533866099999962, -22.768091399999939 ], [ -42.53406549999994, -22.768116699999947 ], [ -42.534224799999947, -22.768179599999932 ], [ -42.534530799999978, -22.76841029999996 ], [ -42.535153899999955, -22.768720599999938 ], [ -42.537082599999955, -22.765498299999926 ], [ -42.539434699999958, -22.761076399999983 ], [ -42.540355199999972, -22.759445599999932 ], [ -42.540533, -22.759130699999968 ], [ -42.540548, -22.759104099999945 ], [ -42.540875299999982, -22.758524399999949 ], [ -42.538286899999939, -22.757220499999953 ], [ -42.537494899999963, -22.756852099999946 ], [ -42.536969499999948, -22.756573599999964 ], [ -42.535382899999938, -22.755827599999975 ], [ -42.534847, -22.75672069999996 ], [ -42.534626299999957, -22.757109499999952 ], [ -42.534290099999971, -22.757529799999933 ], [ -42.534048399999961, -22.757818799999928 ], [ -42.533974899999968, -22.758113 ], [ -42.533748899999978, -22.758522799999977 ], [ -42.533597799999946, -22.758894599999945 ], [ -42.533538799999974, -22.759058699999958 ], [ -42.532839899999949, -22.76032029999994 ], [ -42.532351099999971, -22.760414899999933 ], [ -42.53194139999993, -22.760545799999932 ], [ -42.531727499999931, -22.760737099999972 ], [ -42.531350799999984, -22.760954 ], [ -42.531235799999941, -22.761361799999971 ], [ -42.531172599999934, -22.761519399999937 ], [ -42.53116289999997, -22.761543599999971 ], [ -42.531146099999944, -22.761585499999963 ], [ -42.53113639999998, -22.761609799999977 ], [ -42.531204899999985, -22.761668899999954 ], [ -42.531266899999942, -22.761720799999978 ], [ -42.531624399999949, -22.761973699999935 ], [ -42.531753199999969, -22.761957799999937 ], [ -42.532417, -22.761832499999965 ], [ -42.532573899999932, -22.762192199999962 ], [ -42.532783199999983, -22.762263199999953 ], [ -42.532894499999941, -22.76213469999993 ], [ -42.532975699999959, -22.762378099999978 ], [ -42.533221199999957, -22.762630199999922 ], [ -42.533477499999947, -22.762720199999922 ], [ -42.533755, -22.762583299999953 ], [ -42.53377, -22.762575899999938 ], [ -42.533814, -22.762554199999951 ], [ -42.533849099999948, -22.76253679999996 ], [ -42.534211899999939, -22.763392 ], [ -42.53425, -22.763621899999979 ], [ -42.534119, -22.764116399999978 ], [ -42.534057699999948, -22.764232599999957 ], [ -42.533895799999975, -22.764539799999962 ], [ -42.533692, -22.764926699999926 ], [ -42.533672699999954, -22.764963199999965 ], [ -42.533399799999977, -22.76575379999996 ], [ -42.533272099999976, -22.767100799999987 ] ] ], [ [ [ -42.590375299999948, -22.755323499999964 ], [ -42.5910507, -22.755062699999939 ], [ -42.591117599999968, -22.755276699999968 ], [ -42.591365, -22.755711399999939 ], [ -42.591793, -22.756393399999975 ], [ -42.591889, -22.756623499999932 ], [ -42.592091799999942, -22.757151 ], [ -42.592272199999968, -22.757466499999957 ], [ -42.592452499999986, -22.757691899999941 ], [ -42.592641799999974, -22.757890299999914 ], [ -42.592720099999958, -22.757944099999982 ], [ -42.59406759999996, -22.756715599999932 ], [ -42.59608239999995, -22.756410499999962 ], [ -42.595608499999976, -22.753999 ], [ -42.594042599999966, -22.75276069999995 ], [ -42.592705599999931, -22.752198599999929 ], [ -42.592249599999946, -22.752529 ], [ -42.591565199999941, -22.75315709999995 ], [ -42.590834, -22.753972699999959 ], [ -42.589758399999937, -22.755386199999986 ], [ -42.589794399999967, -22.755401099999965 ], [ -42.590121199999949, -22.755390399999946 ], [ -42.590375299999948, -22.755323499999964 ] ] ], [ [ [ -42.610651, -22.744067499999957 ], [ -42.610099199999979, -22.744085399999957 ], [ -42.609884599999937, -22.743931699999965 ], [ -42.609603299999947, -22.743621299999973 ], [ -42.609467499999937, -22.74334 ], [ -42.609312299999935, -22.743194499999959 ], [ -42.609147399999983, -22.743116899999958 ], [ -42.608710899999956, -22.742952 ], [ -42.60833249999996, -22.742748299999956 ], [ -42.60809, -22.742496 ], [ -42.607391599999964, -22.741574499999949 ], [ -42.6068193, -22.740691699999953 ], [ -42.604801499999951, -22.737162599999966 ], [ -42.60459369999996, -22.736539299999951 ], [ -42.604533799999956, -22.736474599999951 ], [ -42.605199299999981, -22.735851099999923 ], [ -42.606499099999951, -22.734658 ], [ -42.607197599999942, -22.733969199999933 ], [ -42.607993, -22.733154399999936 ], [ -42.608266699999952, -22.732908499999944 ], [ -42.606786199999931, -22.732295299999979 ], [ -42.606215299999974, -22.732540399999937 ], [ -42.605364, -22.732876 ], [ -42.605281099999956, -22.733753 ], [ -42.604238199999941, -22.734179599999937 ], [ -42.602140599999984, -22.734025499999969 ], [ -42.601014699999951, -22.734274399999943 ], [ -42.600885499999947, -22.735153 ], [ -42.601052599999946, -22.735166699999979 ], [ -42.601376099999982, -22.735199499999961 ], [ -42.601540099999966, -22.73522289999994 ], [ -42.601708899999949, -22.735340099999963 ], [ -42.601943299999959, -22.735551099999938 ], [ -42.602219799999943, -22.736165099999926 ], [ -42.602360399999952, -22.73643229999994 ], [ -42.602533899999976, -22.736690099999976 ], [ -42.602622899999972, -22.736760399999969 ], [ -42.60281979999997, -22.736858899999969 ], [ -42.602979199999936, -22.736905699999962 ], [ -42.603269799999964, -22.736966699999979 ], [ -42.603907299999953, -22.737055699999935 ], [ -42.603152599999937, -22.737772899999982 ], [ -42.601039599999986, -22.739779299999956 ], [ -42.604389299999987, -22.742432199999936 ], [ -42.60280309999996, -22.746511 ], [ -42.602932599999974, -22.749262599999955 ], [ -42.60665529999995, -22.75159339999993 ], [ -42.610669299999984, -22.753665099999974 ], [ -42.611931799999979, -22.751593399999937 ], [ -42.614579699999979, -22.748743199999971 ], [ -42.617356299999983, -22.746841799999977 ], [ -42.617102699999975, -22.746635 ], [ -42.615973699999984, -22.745487799999967 ], [ -42.614580699999983, -22.744613799999964 ], [ -42.612441199999985, -22.74394 ], [ -42.612234299999955, -22.744066099999937 ], [ -42.612160099999983, -22.744049099999923 ], [ -42.611869299999974, -22.744036199999982 ], [ -42.611771699999963, -22.744031899999982 ], [ -42.611436699999956, -22.744057799999954 ], [ -42.610651, -22.744067499999957 ] ] ], [ [ [ -42.687580599999933, -22.727448499999987 ], [ -42.687940399999945, -22.727581299999944 ], [ -42.688034499999958, -22.727830399999963 ], [ -42.688100899999938, -22.728129299999978 ], [ -42.688239299999978, -22.728450399999922 ], [ -42.688466299999959, -22.728749299999951 ], [ -42.688648899999976, -22.728965199999941 ], [ -42.689058499999931, -22.729313899999966 ], [ -42.689360099999938, -22.729486299999955 ], [ -42.697021099999972, -22.727746599999936 ], [ -42.698274599999934, -22.725564599999927 ], [ -42.699663699999967, -22.723117799999962 ], [ -42.698908899999942, -22.72272519999995 ], [ -42.69811859999993, -22.722314599999944 ], [ -42.69731569999994, -22.72193 ], [ -42.697196599999984, -22.721873 ], [ -42.696631, -22.721663799999934 ], [ -42.694829099999936, -22.721063099999981 ], [ -42.694748299999958, -22.721036199999954 ], [ -42.693587199999975, -22.720639099999968 ], [ -42.696032499999944, -22.717925599999944 ], [ -42.697609799999952, -22.7154834 ], [ -42.69647729999997, -22.71442919999993 ], [ -42.695687299999975, -22.713693799999927 ], [ -42.694333599999943, -22.71307089999992 ], [ -42.694093599999974, -22.71303249999994 ], [ -42.693119, -22.712576399999929 ], [ -42.692778099999941, -22.712605199999921 ], [ -42.692499699999985, -22.712086699999919 ], [ -42.692096399999976, -22.711832299999966 ], [ -42.691654699999951, -22.711673899999941 ], [ -42.691208299999971, -22.711606699999948 ], [ -42.690800199999956, -22.711477 ], [ -42.690637, -22.711534599999919 ], [ -42.690252899999962, -22.711525 ], [ -42.690032099999939, -22.711601899999945 ], [ -42.689619199999981, -22.711573099999956 ], [ -42.688759799999957, -22.711505799999944 ], [ -42.68829889999995, -22.711462599999951 ], [ -42.687886099999957, -22.711352199999968 ], [ -42.687772299999949, -22.711312599999925 ], [ -42.686150599999955, -22.710757599999969 ], [ -42.686052399999937, -22.71119809999993 ], [ -42.684854299999984, -22.710867199999949 ], [ -42.684793599999978, -22.711015099999933 ], [ -42.684616699999935, -22.710963299999943 ], [ -42.684328599999965, -22.710828899999964 ], [ -42.684175, -22.710699299999927 ], [ -42.68329429999995, -22.713255 ], [ -42.683287599999971, -22.71337689999995 ], [ -42.683213099999932, -22.713681599999976 ], [ -42.681906399999953, -22.716471 ], [ -42.681175199999977, -22.716193399999963 ], [ -42.680281399999956, -22.71581429999997 ], [ -42.680078299999941, -22.716254399999961 ], [ -42.67958409999995, -22.717202199999981 ], [ -42.678954099999935, -22.718412599999962 ], [ -42.678439899999944, -22.719362 ], [ -42.678074299999935, -22.720052599999978 ], [ -42.677850799999931, -22.720458899999983 ], [ -42.679137199999964, -22.721020799999959 ], [ -42.67907629999997, -22.72184 ], [ -42.679838399999937, -22.722147199999927 ], [ -42.679843699999942, -22.722149299999952 ], [ -42.679849599999955, -22.722151499999946 ], [ -42.682374799999934, -22.723084 ], [ -42.681590799999981, -22.724229299999934 ], [ -42.684413099999972, -22.725887099999962 ], [ -42.686030699999947, -22.726241799999954 ], [ -42.686152499999942, -22.726618199999962 ], [ -42.68629089999996, -22.726889399999937 ], [ -42.686556599999953, -22.727188299999973 ], [ -42.686800099999985, -22.727138499999967 ], [ -42.686949599999942, -22.727149599999969 ], [ -42.687298299999959, -22.727315599999937 ], [ -42.687580599999933, -22.727448499999987 ] ] ], [ [ [ -42.646526599999959, -22.726263899999935 ], [ -42.6494929, -22.724474 ], [ -42.649173299999973, -22.724188099999935 ], [ -42.64902619999998, -22.724066199999978 ], [ -42.648835399999932, -22.723916199999966 ], [ -42.648647799999928, -22.723700399999935 ], [ -42.64861419999994, -22.723486 ], [ -42.64861419999994, -22.723351499999971 ], [ -42.648635199999951, -22.723195899999947 ], [ -42.648643599999957, -22.723099199999975 ], [ -42.648626799999931, -22.722968899999952 ], [ -42.648596, -22.722818699999952 ], [ -42.648492299999937, -22.722687199999928 ], [ -42.648349299999957, -22.722582099999947 ], [ -42.648038199999974, -22.722376099999973 ], [ -42.647828, -22.722203799999935 ], [ -42.647651499999938, -22.722006199999935 ], [ -42.647584399999971, -22.721917499999957 ], [ -42.648651899999955, -22.721567399999962 ], [ -42.649080699999963, -22.721254299999934 ], [ -42.64937939999993, -22.72083989999993 ], [ -42.64961489999996, -22.720618299999945 ], [ -42.649589799999944, -22.720265699999963 ], [ -42.649778599999941, -22.720068099999924 ], [ -42.650270699999965, -22.71982579999996 ], [ -42.650690099999963, -22.719667299999958 ], [ -42.650962499999935, -22.719594199999953 ], [ -42.65229, -22.719261699999947 ], [ -42.652836699999966, -22.71914239999996 ], [ -42.65294549999993, -22.719126799999962 ], [ -42.653025599999985, -22.719138 ], [ -42.65321019999994, -22.719212499999969 ], [ -42.65379269999994, -22.719517299999943 ], [ -42.654499099999946, -22.720004699999951 ], [ -42.654814099999953, -22.720202299999979 ], [ -42.655679299999974, -22.720666899999966 ], [ -42.656167399999958, -22.72090319999996 ], [ -42.656659899999966, -22.721240099999935 ], [ -42.657242899999979, -22.721656199999934 ], [ -42.657807699999978, -22.722006599999933 ], [ -42.658314099999984, -22.722362899999954 ], [ -42.658614599999957, -22.722526599999981 ], [ -42.658732199999982, -22.722590799999971 ], [ -42.660002299999974, -22.723282799999943 ], [ -42.662042, -22.724539899999968 ], [ -42.662843299999963, -22.725556 ], [ -42.663009299999942, -22.726025599999957 ], [ -42.666892899999937, -22.728098799999934 ], [ -42.668866099999946, -22.728519399999978 ], [ -42.669221899999975, -22.727710699999925 ], [ -42.668704299999952, -22.726449099999972 ], [ -42.668526399999962, -22.725737499999976 ], [ -42.670014399999964, -22.724039199999925 ], [ -42.670928, -22.720813299999968 ], [ -42.668848099999934, -22.719743399999967 ], [ -42.6681574, -22.719078099999926 ], [ -42.667634599999985, -22.718530199999975 ], [ -42.667294599999934, -22.718822699999976 ], [ -42.667387699999949, -22.719836499999921 ], [ -42.667380099999939, -22.720111799999923 ], [ -42.667355, -22.719809599999959 ], [ -42.667310899999961, -22.7195326 ], [ -42.667145399999981, -22.719131499999957 ], [ -42.66710309999997, -22.719028899999955 ], [ -42.666668699999946, -22.718166399999966 ], [ -42.666398, -22.717650199999973 ], [ -42.666209199999969, -22.717335399999968 ], [ -42.66615249999996, -22.717209499999978 ], [ -42.666202899999981, -22.717102499999946 ], [ -42.666221399999984, -22.716975899999973 ], [ -42.6662343, -22.716844399999953 ], [ -42.666317199999973, -22.716808 ], [ -42.666341399999965, -22.716680699999927 ], [ -42.66641309999995, -22.716665499999966 ], [ -42.666454699999974, -22.716504399999959 ], [ -42.666473599999961, -22.716447799999955 ], [ -42.666486199999952, -22.716328099999934 ], [ -42.66649879999995, -22.71612669999995 ], [ -42.666624699999943, -22.716019699999947 ], [ -42.6666939, -22.715874899999953 ], [ -42.666643599999929, -22.71577409999998 ], [ -42.666738, -22.715585299999923 ], [ -42.666845, -22.715390099999965 ], [ -42.666908, -22.715283099999965 ], [ -42.667021299999924, -22.715276799999955 ], [ -42.667071699999951, -22.715157199999958 ], [ -42.667140899999936, -22.715031299999968 ], [ -42.667241599999954, -22.714911599999937 ], [ -42.667329799999955, -22.714861299999932 ], [ -42.667298299999977, -22.714785699999933 ], [ -42.667361199999959, -22.714703899999964 ], [ -42.667462, -22.71467239999992 ], [ -42.66760679999993, -22.714408 ], [ -42.667783, -22.714175099999974 ], [ -42.667946699999959, -22.713979899999966 ], [ -42.668110399999925, -22.713702899999937 ], [ -42.66828669999996, -22.713381799999976 ], [ -42.66843149999994, -22.713180399999938 ], [ -42.66857, -22.713023 ], [ -42.66874, -22.71292219999998 ], [ -42.668916199999963, -22.712815199999966 ], [ -42.669023299999928, -22.712746 ], [ -42.669212099999982, -22.712651499999932 ], [ -42.669526899999944, -22.712607499999944 ], [ -42.669722099999944, -22.712582299999951 ], [ -42.670011699999982, -22.712550799999967 ], [ -42.670080899999967, -22.712437499999957 ], [ -42.670301299999949, -22.712355599999952 ], [ -42.67055309999995, -22.712324199999962 ], [ -42.670789099999979, -22.712303799999962 ], [ -42.671080399999944, -22.71218209999995 ], [ -42.671332499999949, -22.712076699999965 ], [ -42.66913349999993, -22.711174399999944 ], [ -42.667950499999961, -22.710666499999942 ], [ -42.666172599999982, -22.709817599999944 ], [ -42.665827699999966, -22.709653799999963 ], [ -42.665632599999974, -22.709214 ], [ -42.665577399999961, -22.709056299999922 ], [ -42.665522199999941, -22.708914399999955 ], [ -42.66553289999996, -22.708598799999958 ], [ -42.665553699999975, -22.708228399999935 ], [ -42.665585299999982, -22.708094299999964 ], [ -42.665727199999942, -22.708015399999969 ], [ -42.665743, -22.707187499999971 ], [ -42.665812699999947, -22.706268599999927 ], [ -42.665876399999952, -22.705098599999925 ], [ -42.665882199999949, -22.704397799999978 ], [ -42.6658346, -22.703968 ], [ -42.665847499999984, -22.703604299999931 ], [ -42.665893799999928, -22.703164099999988 ], [ -42.665957499999934, -22.70281069999993 ], [ -42.665969099999984, -22.702526899999963 ], [ -42.665882199999942, -22.702243099999968 ], [ -42.665812699999954, -22.701994099999965 ], [ -42.665822299999952, -22.701802799999935 ], [ -42.665847499999977, -22.7016465 ], [ -42.665940199999966, -22.701090499999957 ], [ -42.665998099999968, -22.700789299999936 ], [ -42.666021199999939, -22.700453399999965 ], [ -42.666085, -22.700198499999928 ], [ -42.666013499999963, -22.699938299999932 ], [ -42.666166, -22.699769899999982 ], [ -42.66638039999998, -22.699636699999935 ], [ -42.666681499999974, -22.699538199999957 ], [ -42.666733699999952, -22.699451299999964 ], [ -42.666548299999931, -22.699045899999941 ], [ -42.666484599999933, -22.698953199999956 ], [ -42.666316599999959, -22.698814199999955 ], [ -42.666258699999958, -22.698750499999953 ], [ -42.666195, -22.69859989999998 ], [ -42.666032799999989, -22.698628799999941 ], [ -42.66584169999993, -22.698599899999966 ], [ -42.665639, -22.698443499999929 ], [ -42.6655, -22.698310299999953 ], [ -42.66542469999996, -22.698229199999961 ], [ -42.665320399999985, -22.69818859999998 ], [ -42.665262499999976, -22.698101799999954 ], [ -42.665233499999943, -22.697980099999938 ], [ -42.665065599999942, -22.697916399999933 ], [ -42.664926499999979, -22.697794799999951 ], [ -42.664700599999946, -22.697719499999941 ], [ -42.664555799999967, -22.697696299999965 ], [ -42.664428399999963, -22.697702099999947 ], [ -42.664283599999976, -22.697748399999963 ], [ -42.664214099999988, -22.697800599999926 ], [ -42.664086699999984, -22.697794799999947 ], [ -42.663965099999984, -22.697615199999973 ], [ -42.66378949999995, -22.697431799999958 ], [ -42.663808699999947, -22.697233 ], [ -42.663843399999962, -22.697065 ], [ -42.663889799999943, -22.696908599999976 ], [ -42.663849199999966, -22.696763799999925 ], [ -42.663426399999942, -22.696404699999963 ], [ -42.663136799999968, -22.696178799999924 ], [ -42.662945599999944, -22.695750199999967 ], [ -42.66282979999994, -22.695506899999945 ], [ -42.662603899999965, -22.695136199999983 ], [ -42.662520099999938, -22.695040699999925 ], [ -42.662453699999951, -22.695052799999928 ], [ -42.662224399999957, -22.695010499999963 ], [ -42.661886499999987, -22.694871699999958 ], [ -42.661548499999981, -22.694539799999966 ], [ -42.661192499999963, -22.69417169999997 ], [ -42.660800199999983, -22.693779399999983 ], [ -42.660558799999933, -22.693580299999951 ], [ -42.660395899999976, -22.693296699999955 ], [ -42.660275199999944, -22.693212199999948 ], [ -42.660184699999952, -22.693001 ], [ -42.660064, -22.692892299999976 ], [ -42.659901, -22.692699199999947 ], [ -42.659723299999939, -22.692504199999966 ], [ -42.65960529999996, -22.692494 ], [ -42.659460499999973, -22.692469899999928 ], [ -42.659225099999965, -22.692554399999942 ], [ -42.658826799999986, -22.692451799999958 ], [ -42.658525099999963, -22.69244579999997 ], [ -42.658114699999942, -22.692276799999942 ], [ -42.657740599999961, -22.691884499999951 ], [ -42.657414699999947, -22.69149229999994 ], [ -42.657052599999929, -22.691329299999957 ], [ -42.656533599999932, -22.691094 ], [ -42.656159499999944, -22.690876699999919 ], [ -42.655107499999978, -22.690254099999954 ], [ -42.645623799999953, -22.697161099999946 ], [ -42.6398832, -22.696840499999944 ], [ -42.63725809999994, -22.696687599999965 ], [ -42.629446799999982, -22.696520399999937 ], [ -42.629502899999977, -22.696684399999977 ], [ -42.629394899999966, -22.701399099999943 ], [ -42.623416699999957, -22.701111899999947 ], [ -42.622792299999958, -22.697194499999952 ], [ -42.618329399999936, -22.696822499999943 ], [ -42.618154199999942, -22.696792099999975 ], [ -42.61309179999995, -22.69541309999995 ], [ -42.595363299999974, -22.693326699999943 ], [ -42.593300599999971, -22.69299809999994 ], [ -42.591272199999935, -22.692665299999938 ], [ -42.59122009999993, -22.692705599999943 ], [ -42.591188899999963, -22.692698 ], [ -42.591185799999948, -22.692697199999948 ], [ -42.591182599999975, -22.692696399999924 ], [ -42.59112719999996, -22.692682599999941 ], [ -42.590653499999974, -22.692564199999936 ], [ -42.590834, -22.692333399999935 ], [ -42.590777699999933, -22.691788599999942 ], [ -42.590036399999974, -22.690774099999935 ], [ -42.589637399999958, -22.690448099999976 ], [ -42.589003799999944, -22.690408899999966 ], [ -42.588341899999932, -22.690581899999923 ], [ -42.587918299999956, -22.690898399999988 ], [ -42.587490399999979, -22.691367 ], [ -42.586861799999944, -22.69276379999997 ], [ -42.586579099999945, -22.69324029999996 ], [ -42.586007599999959, -22.693268499999931 ], [ -42.584970799999951, -22.693176099999956 ], [ -42.584504, -22.693196 ], [ -42.584084899999937, -22.692902899999986 ], [ -42.584118599999961, -22.692359 ], [ -42.584035299999989, -22.691911599999969 ], [ -42.583287199999972, -22.691144 ], [ -42.582944399999974, -22.691207199999951 ], [ -42.581485, -22.691889799999959 ], [ -42.581441099999957, -22.692153599999973 ], [ -42.582204699999984, -22.692567799999946 ], [ -42.582836099999952, -22.69269689999993 ], [ -42.583175599999947, -22.692729299999943 ], [ -42.583670699999978, -22.692512399999945 ], [ -42.583716299999935, -22.693166 ], [ -42.584804, -22.693819 ], [ -42.584953299999938, -22.693908699999955 ], [ -42.584996299999943, -22.693934499999955 ], [ -42.58521549999994, -22.69406609999994 ], [ -42.588777899999968, -22.696205 ], [ -42.592639299999973, -22.69823179999997 ], [ -42.593021399999941, -22.698478699999956 ], [ -42.592209599999933, -22.699782799999969 ], [ -42.59188, -22.700246099999958 ], [ -42.590893199999982, -22.702420599999989 ], [ -42.590871599999957, -22.702468099999965 ], [ -42.590865799999968, -22.702480899999948 ], [ -42.590857699999958, -22.702501499999979 ], [ -42.590835099999936, -22.702496099999969 ], [ -42.590794699999947, -22.70248639999993 ], [ -42.590498, -22.702415399999939 ], [ -42.590021899999947, -22.702301299999927 ], [ -42.589961199999941, -22.702286799999964 ], [ -42.589785099999972, -22.702244899999972 ], [ -42.589125599999932, -22.702088199999935 ], [ -42.588718399999948, -22.70199139999994 ], [ -42.588372299999953, -22.701909099999959 ], [ -42.588197099999952, -22.701867499999928 ], [ -42.588162199999942, -22.701859199999941 ], [ -42.588073399999985, -22.701837799999968 ], [ -42.587988499999938, -22.701817299999945 ], [ -42.587950699999965, -22.701808099999933 ], [ -42.586801299999934, -22.701530699999974 ], [ -42.586612899999977, -22.701459099999969 ], [ -42.586595799999948, -22.701452599999978 ], [ -42.586400799999979, -22.701378499999972 ], [ -42.58617739999994, -22.701293499999952 ], [ -42.586170299999935, -22.701290799999978 ], [ -42.585848899999974, -22.701111199999964 ], [ -42.585330799999952, -22.700821599999983 ], [ -42.584444399999938, -22.70020629999993 ], [ -42.584168799999937, -22.700031 ], [ -42.583541899999943, -22.699632399999931 ], [ -42.583485, -22.699596199999963 ], [ -42.583442499999926, -22.699575299999946 ], [ -42.582914399999936, -22.699315699999939 ], [ -42.582859199999973, -22.699288499999962 ], [ -42.582259599999936, -22.69908 ], [ -42.581722799999959, -22.698947399999955 ], [ -42.58141489999997, -22.698871399999966 ], [ -42.581003099999982, -22.698789 ], [ -42.580502399999936, -22.698688899999979 ], [ -42.580324699999942, -22.698651499999983 ], [ -42.580295399999962, -22.698645299999949 ], [ -42.579055899999965, -22.698384399999952 ], [ -42.578421899999967, -22.698250899999945 ], [ -42.577863599999951, -22.698132699999967 ], [ -42.576549899999982, -22.697854599999982 ], [ -42.576143, -22.697771599999946 ], [ -42.575322099999944, -22.697604 ], [ -42.57501689999998, -22.697541699999935 ], [ -42.574875899999938, -22.697510199999947 ], [ -42.574123599999957, -22.697342099999961 ], [ -42.57405719999997, -22.697327199999975 ], [ -42.573748599999931, -22.69725829999993 ], [ -42.573486099999968, -22.69719959999998 ], [ -42.573287499999928, -22.697585099999969 ], [ -42.573160499999979, -22.697964499999948 ], [ -42.572561199999946, -22.69952359999996 ], [ -42.572482, -22.699660099999953 ], [ -42.5723493, -22.699780699999959 ], [ -42.572066499999949, -22.69993239999997 ], [ -42.572032099999944, -22.700087599999954 ], [ -42.572158499999944, -22.700242799999955 ], [ -42.572831, -22.700685399999944 ], [ -42.573250599999938, -22.700972799999938 ], [ -42.57346329999995, -22.701265899999949 ], [ -42.573934699999938, -22.702070699999972 ], [ -42.574291, -22.702582199999949 ], [ -42.574733599999945, -22.703059299999946 ], [ -42.575377399999979, -22.703697399999946 ], [ -42.575521099999946, -22.703858299999968 ], [ -42.575578599999972, -22.704076699999973 ], [ -42.575567099999951, -22.704456099999955 ], [ -42.575521099999946, -22.705151599999969 ], [ -42.575584399999968, -22.705416 ], [ -42.575653299999942, -22.705502299999971 ], [ -42.576136199999951, -22.705841399999944 ], [ -42.576228099999987, -22.706036799999943 ], [ -42.576176399999952, -22.706519699999948 ], [ -42.576435099999969, -22.706663399999965 ], [ -42.576688, -22.706818599999959 ], [ -42.5768432, -22.707215199999943 ], [ -42.576762699999961, -22.707525599999929 ], [ -42.576498299999969, -22.707709499999961 ], [ -42.575532599999974, -22.708675199999963 ], [ -42.57549809999994, -22.708905099999985 ], [ -42.575544099999945, -22.709100599999942 ], [ -42.575641799999971, -22.709273 ], [ -42.575797, -22.709468399999931 ], [ -42.575900499999932, -22.709589099999956 ], [ -42.576107399999962, -22.709899499999942 ], [ -42.576184699999942, -22.709999699999972 ], [ -42.57646689999995, -22.710202899999953 ], [ -42.576715299999933, -22.710665799999951 ], [ -42.576816899999983, -22.710778699999945 ], [ -42.577353099999975, -22.711156799999959 ], [ -42.577686099999937, -22.711354399999941 ], [ -42.577827199999952, -22.711399499999978 ], [ -42.578041699999964, -22.711405199999938 ], [ -42.5783522, -22.711326199999977 ], [ -42.578752899999984, -22.711269699999956 ], [ -42.578967399999954, -22.711275399999977 ], [ -42.579306099999933, -22.711382599999975 ], [ -42.579396399999943, -22.711467299999981 ], [ -42.579413299999949, -22.711591399999975 ], [ -42.579153699999942, -22.712297 ], [ -42.579097199999971, -22.712624399999978 ], [ -42.579035099999949, -22.712793699999949 ], [ -42.578944799999924, -22.712917899999979 ], [ -42.578888399999983, -22.713081599999938 ], [ -42.578905299999974, -22.713205699999946 ], [ -42.578995599999978, -22.713392 ], [ -42.57921569999997, -22.713719399999935 ], [ -42.579249599999969, -22.713821 ], [ -42.579396399999951, -22.71422739999997 ], [ -42.579464099999939, -22.714306399999938 ], [ -42.579678599999966, -22.714385399999959 ], [ -42.57994389999994, -22.714583 ], [ -42.580202499999984, -22.714687499999968 ], [ -42.580540899999967, -22.714761599999964 ], [ -42.58084759999997, -22.714867299999984 ], [ -42.581291799999974, -22.715205699999959 ], [ -42.581450399999937, -22.71539609999996 ], [ -42.581714799999929, -22.715660499999959 ], [ -42.581841699999984, -22.715724 ], [ -42.581926299999964, -22.715840299999954 ], [ -42.582222499999951, -22.71604119999995 ], [ -42.58269839999997, -22.716538299999964 ], [ -42.583005299999968, -22.71685379999996 ], [ -42.583322299999956, -22.717003599999938 ], [ -42.583491599999952, -22.717088199999974 ], [ -42.583768899999939, -22.71717839999997 ], [ -42.584009799999933, -22.717289199999986 ], [ -42.584189599999938, -22.717257399999937 ], [ -42.584693299999977, -22.717257499999942 ], [ -42.584951, -22.71735259999997 ], [ -42.585035599999969, -22.717447799999949 ], [ -42.585437499999962, -22.717638199999953 ], [ -42.586093199999944, -22.717828499999932 ], [ -42.586696, -22.717775599999975 ], [ -42.587152099999969, -22.717762499999935 ], [ -42.587330599999973, -22.717648699999931 ], [ -42.587489199999936, -22.717384299999924 ], [ -42.588102599999964, -22.716887299999936 ], [ -42.588476299999968, -22.716475299999946 ], [ -42.588779399999964, -22.716147 ], [ -42.590006199999948, -22.715755699999942 ], [ -42.590186, -22.71573449999994 ], [ -42.59022489999996, -22.715754899999961 ], [ -42.590585799999985, -22.715944399999948 ], [ -42.591633199999933, -22.716466299999976 ], [ -42.592078899999933, -22.716727299999949 ], [ -42.592905199999961, -22.71564 ], [ -42.593014, -22.715495099999931 ], [ -42.593390899999982, -22.715216 ], [ -42.593593799999951, -22.715009399999936 ], [ -42.593865799999946, -22.71466949999996 ], [ -42.594083099999985, -22.714444099999969 ], [ -42.594191799999976, -22.714402399999983 ], [ -42.594300499999967, -22.714360699999933 ], [ -42.594644799999976, -22.714364299999936 ], [ -42.595087, -22.714400599999976 ], [ -42.59543489999993, -22.714494799999944 ], [ -42.595753799999954, -22.714599899999939 ], [ -42.596232199999982, -22.714650599999963 ], [ -42.596819299999943, -22.714647 ], [ -42.597312199999976, -22.714520199999967 ], [ -42.597877599999954, -22.714346199999962 ], [ -42.598061799999989, -22.71428039999995 ], [ -42.598451399999931, -22.714966599999975 ], [ -42.609961799999951, -22.727437399999939 ], [ -42.611574199999957, -22.72919249999995 ], [ -42.612169899999977, -22.729841 ], [ -42.612783, -22.729956399999942 ], [ -42.613341299999952, -22.730065099999926 ], [ -42.614934699999935, -22.730290399999937 ], [ -42.615379, -22.730323499999944 ], [ -42.62948869999996, -22.731373799999968 ], [ -42.631887699999943, -22.73163239999997 ], [ -42.632324099999956, -22.731679399999955 ], [ -42.632407499999943, -22.731675599999967 ], [ -42.63875239999993, -22.729271799999928 ], [ -42.63870339999994, -22.729289 ], [ -42.641105699999976, -22.728413199999977 ], [ -42.641374799999937, -22.728324899999954 ], [ -42.642345499999976, -22.727853099999933 ], [ -42.643473599999936, -22.727466399999965 ], [ -42.644817899999957, -22.726975 ], [ -42.646397099999945, -22.726317799999951 ], [ -42.646526599999959, -22.726263899999935 ] ], [ [ -42.655150099999958, -22.706952799999947 ], [ -42.655159799999979, -22.706937899999971 ], [ -42.65609939999996, -22.706622399999954 ], [ -42.656171099999931, -22.706684 ], [ -42.65620179999997, -22.706708899999956 ], [ -42.65626919999994, -22.706748099999967 ], [ -42.656330799999978, -22.706773699999914 ], [ -42.65637159999995, -22.706780499999983 ], [ -42.6564054, -22.706800399999967 ], [ -42.656449499999958, -22.706810499999953 ], [ -42.656506799999931, -22.706828099999946 ], [ -42.656566499999947, -22.70686289999998 ], [ -42.656609299999957, -22.706890499999929 ], [ -42.65665869999998, -22.706924699999952 ], [ -42.656698, -22.706952 ], [ -42.65672009999998, -22.706982299999936 ], [ -42.656755899999951, -22.707031399999934 ], [ -42.656813199999924, -22.707129499999947 ], [ -42.65683439999998, -22.707206799999931 ], [ -42.656835, -22.707327699999947 ], [ -42.656793799999946, -22.707403 ], [ -42.656773799999939, -22.70741529999998 ], [ -42.656739299999977, -22.70747189999997 ], [ -42.656719099999982, -22.707490599999968 ], [ -42.656692599999985, -22.707502699999974 ], [ -42.656665399999952, -22.707537 ], [ -42.656547399999972, -22.707605499999939 ], [ -42.656507599999948, -22.707660799999935 ], [ -42.656493699999942, -22.707729399999948 ], [ -42.656466899999941, -22.707772799999933 ], [ -42.656426599999982, -22.70781 ], [ -42.6564279, -22.707991299999936 ], [ -42.656437399999959, -22.708041099999942 ], [ -42.656437299999936, -22.708053499999949 ], [ -42.656457299999943, -22.708102899999965 ], [ -42.656464, -22.70814 ], [ -42.656503799999939, -22.708251199999953 ], [ -42.656520299999954, -22.708288299999939 ], [ -42.656563299999966, -22.708405499999966 ], [ -42.656589799999949, -22.708498 ], [ -42.65664239999996, -22.708605799999923 ], [ -42.656662, -22.708633399999936 ], [ -42.656681799999944, -22.708707199999932 ], [ -42.656705, -22.708747199999941 ], [ -42.656745299999955, -22.708796399999972 ], [ -42.656815199999976, -22.7088548 ], [ -42.656835599999958, -22.708885699999946 ], [ -42.656875899999932, -22.708928799999956 ], [ -42.656938599999933, -22.708968599999931 ], [ -42.657105399999978, -22.709044299999952 ], [ -42.657086299999953, -22.709207399999968 ], [ -42.656973199999982, -22.709175199999947 ], [ -42.656903299999961, -22.709166499999984 ], [ -42.656863399999963, -22.709160499999935 ], [ -42.656739699999953, -22.709151599999934 ], [ -42.656655899999976, -22.709123799999922 ], [ -42.656629099999975, -22.709123899999948 ], [ -42.656602299999975, -22.70911149999996 ], [ -42.656568799999938, -22.709111599999972 ], [ -42.656542, -22.709105499999964 ], [ -42.656421699999953, -22.709106099999925 ], [ -42.656348099999946, -22.709075399999964 ], [ -42.656254199999978, -22.709026099999949 ], [ -42.656223399999931, -22.709020599999974 ], [ -42.65609319999993, -22.709020799999951 ], [ -42.655964799999936, -22.70903289999994 ], [ -42.655870099999959, -22.709057199999958 ], [ -42.65580939999996, -22.70908159999993 ], [ -42.655688199999936, -22.709116599999948 ], [ -42.655642499999935, -22.709147699999956 ], [ -42.655601299999944, -22.709145599999928 ], [ -42.655554399999986, -22.708991799999961 ], [ -42.655504199999939, -22.708856199999946 ], [ -42.655467299999941, -22.708732899999973 ], [ -42.655324499999956, -22.708351 ], [ -42.655321199999946, -22.708314099999949 ], [ -42.655301299999969, -22.708271199999952 ], [ -42.655300599999983, -22.708018399999951 ], [ -42.655319499999962, -22.707887199999956 ], [ -42.655316899999953, -22.70741639999995 ], [ -42.6552842, -22.707315199999975 ], [ -42.655150099999958, -22.706952799999947 ] ] ], [ [ [ -42.527693299999953, -22.690856 ], [ -42.527852299999942, -22.690486699999948 ], [ -42.528093299999973, -22.689963599999952 ], [ -42.52824209999995, -22.689732799999938 ], [ -42.528411799999958, -22.689563099999926 ], [ -42.528424099999938, -22.689550699999916 ], [ -42.528488299999935, -22.689486599999952 ], [ -42.528541599999976, -22.689435499999949 ], [ -42.528824899999961, -22.689164299999959 ], [ -42.528847299999939, -22.689142899999972 ], [ -42.528946299999973, -22.68905629999994 ], [ -42.529005199999972, -22.689004199999946 ], [ -42.529185799999937, -22.688845499999953 ], [ -42.5293961, -22.688686499999957 ], [ -42.529816699999969, -22.688460799999984 ], [ -42.530334699999976, -22.688255599999938 ], [ -42.530383299999983, -22.688218899999978 ], [ -42.530524499999963, -22.688112 ], [ -42.530724499999963, -22.687901699999941 ], [ -42.531073299999953, -22.687712 ], [ -42.531422099999929, -22.687629899999934 ], [ -42.531728, -22.68761239999996 ], [ -42.531751399999962, -22.687611099999955 ], [ -42.531781099999932, -22.687609399999939 ], [ -42.532150399999978, -22.68766579999993 ], [ -42.532246699999973, -22.687689499999976 ], [ -42.532504299999978, -22.687753 ], [ -42.532735099999968, -22.687840199999968 ], [ -42.532950499999977, -22.68798379999993 ], [ -42.533217199999967, -22.688240199999928 ], [ -42.533437799999952, -22.688414599999934 ], [ -42.533551099999954, -22.688483 ], [ -42.533735299999925, -22.688594099999928 ], [ -42.533768499999944, -22.688600299999958 ], [ -42.533930199999929, -22.68863 ], [ -42.534412299999985, -22.68866079999998 ], [ -42.53461, -22.688690799999957 ], [ -42.5347508, -22.688712099999979 ], [ -42.534920099999972, -22.688650599999963 ], [ -42.53518679999997, -22.688599299999964 ], [ -42.535383899999943, -22.688678699999969 ], [ -42.535561499999979, -22.688800499999946 ], [ -42.535619099999963, -22.688873399999977 ], [ -42.535784299999939, -22.689082499999934 ], [ -42.535819599999968, -22.689152399999944 ], [ -42.535933899999982, -22.689378399999946 ], [ -42.536038399999946, -22.689573299999942 ], [ -42.536050199999977, -22.689588199999953 ], [ -42.536062, -22.689603 ], [ -42.536132399999978, -22.689691699999962 ], [ -42.53637249999997, -22.689904 ], [ -42.536769399999962, -22.690172 ], [ -42.536986799999966, -22.690327799999977 ], [ -42.537015, -22.690347899999963 ], [ -42.53729, -22.690420199999945 ], [ -42.53732279999997, -22.690426099999975 ], [ -42.537361199999971, -22.690437299999921 ], [ -42.537489899999976, -22.690474899999966 ], [ -42.537761399999965, -22.690534099999972 ], [ -42.538113, -22.690575799999987 ], [ -42.53841239999997, -22.690537499999945 ], [ -42.538548099999957, -22.690492299999949 ], [ -42.538683899999974, -22.690447 ], [ -42.538733299999933, -22.690418299999983 ], [ -42.538782799999979, -22.690389599999953 ], [ -42.538965799999978, -22.690283399999938 ], [ -42.539122499999969, -22.690046699999979 ], [ -42.53933829999994, -22.689618599999957 ], [ -42.539623699999943, -22.689162599999975 ], [ -42.539867399999927, -22.688786599999951 ], [ -42.540013599999952, -22.68863 ], [ -42.540074499999953, -22.688612599999935 ], [ -42.54013539999994, -22.688595199999956 ], [ -42.540431299999973, -22.688800499999946 ], [ -42.540567099999976, -22.688911899999926 ], [ -42.540601, -22.68893979999995 ], [ -42.540668899999964, -22.688995499999969 ], [ -42.540702799999963, -22.689023299999985 ], [ -42.541346799999985, -22.689312199999954 ], [ -42.541914199999944, -22.689548899999973 ], [ -42.542215299999953, -22.689683399999975 ], [ -42.542272699999948, -22.689709099999963 ], [ -42.542306599999968, -22.689724399999925 ], [ -42.542416699999933, -22.689774099999958 ], [ -42.542526799999962, -22.689823899999976 ], [ -42.542563, -22.689830299999986 ], [ -42.542979399999979, -22.689904 ], [ -42.543226499999946, -22.68991619999996 ], [ -42.543473699999936, -22.689928399999928 ], [ -42.543554099999938, -22.689929599999967 ], [ -42.543642299999931, -22.689931 ], [ -42.543763899999931, -22.689932799999955 ], [ -42.543335299999967, -22.689585899999937 ], [ -42.542682899999932, -22.689058 ], [ -42.541821199999958, -22.688336699999979 ], [ -42.541786, -22.68830719999993 ], [ -42.540129499999978, -22.686953899999921 ], [ -42.538955, -22.685995099999957 ], [ -42.538954599999954, -22.685997199999974 ], [ -42.538679599999973, -22.685770299999945 ], [ -42.537046199999963, -22.684422499999982 ], [ -42.536360499999951, -22.683859399999957 ], [ -42.535674799999981, -22.683296199999962 ], [ -42.534855099999959, -22.682675199999956 ], [ -42.534814499999975, -22.682644399999955 ], [ -42.534371299999975, -22.682373299999927 ], [ -42.533766399999934, -22.682091699999937 ], [ -42.533427499999959, -22.681966599999946 ], [ -42.53294249999994, -22.681825799999952 ], [ -42.532223, -22.681653699999963 ], [ -42.530971499999964, -22.681330399999972 ], [ -42.530859, -22.681300199999956 ], [ -42.530143199999941, -22.681108199999972 ], [ -42.530115799999976, -22.681100799999975 ], [ -42.530027299999972, -22.681077099999975 ], [ -42.529475, -22.68092889999998 ], [ -42.528597199999979, -22.68066849999996 ], [ -42.528385199999946, -22.680605599999978 ], [ -42.527827299999949, -22.680407499999944 ], [ -42.527726299999983, -22.680365599999952 ], [ -42.527572, -22.680301799999924 ], [ -42.527417699999951, -22.680237899999941 ], [ -42.527321899999947, -22.680198199999957 ], [ -42.527321499999971, -22.680226099999956 ], [ -42.527316299999939, -22.680597899999952 ], [ -42.526847699999955, -22.681513199999927 ], [ -42.526665699999974, -22.691679399999941 ], [ -42.52706139999998, -22.691462099999963 ], [ -42.527126, -22.691411599999988 ], [ -42.527225099999953, -22.691334199999975 ], [ -42.527226499999976, -22.691333 ], [ -42.527251299999932, -22.691312699999973 ], [ -42.527276, -22.691292299999926 ], [ -42.527357299999949, -22.691225299999921 ], [ -42.527488099999971, -22.691117599999927 ], [ -42.527693299999953, -22.690856 ] ] ] ] } }
]
}
