{
"type": "FeatureCollection",
"name": "3305752",
"crs": { "type": "name", "properties": { "name": "urn:ogc:def:crs:OGC:1.3:CRS84" } },
"features": [
{ "type": "Feature", "properties": { "CD_MUN": "3305752", "NM_MUN": "Tanguá" }, "geometry": { "type": "MultiPolygon", "coordinates": [ [ [ [ -42.714717699999937, -22.804806699999968 ], [ -42.715803299999955, -22.80523949999996 ], [ -42.715818299999967, -22.805216499999979 ], [ -42.715968799999985, -22.804979699999926 ], [ -42.716237799999931, -22.804690499999936 ], [ -42.716459699999973, -22.80446859999995 ], [ -42.716648, -22.804280299999963 ], [ -42.716890099999944, -22.804044899999958 ], [ -42.717098599999986, -22.803749 ], [ -42.71726, -22.803607799999956 ], [ -42.71742809999995, -22.803419499999961 ], [ -42.717529, -22.803325299999976 ], [ -42.717650099999958, -22.80313029999995 ], [ -42.71778819999998, -22.803069499999932 ], [ -42.717905599999938, -22.802787299999974 ], [ -42.71801319999998, -22.802652799999972 ], [ -42.718080499999985, -22.802518299999978 ], [ -42.718309099999942, -22.802504799999941 ], [ -42.718523199999943, -22.802421299999928 ], [ -42.718813499999953, -22.80249809999998 ], [ -42.719223799999952, -22.802410699999943 ], [ -42.719506199999962, -22.802356899999953 ], [ -42.719849199999935, -22.802296399999921 ], [ -42.720165299999962, -22.802256 ], [ -42.72035759999995, -22.80216229999996 ], [ -42.720535199999972, -22.802121499999942 ], [ -42.720723699999951, -22.802027699999929 ], [ -42.720864699999943, -22.802020599999921 ], [ -42.720952099999977, -22.801919699999932 ], [ -42.721127, -22.801892799999965 ], [ -42.721362399999975, -22.801859199999956 ], [ -42.721496899999977, -22.801872699999937 ], [ -42.721812899999975, -22.801839 ], [ -42.722075199999956, -22.801805399999974 ], [ -42.722229899999952, -22.801792 ], [ -42.722424899999965, -22.801812099999953 ], [ -42.722606499999983, -22.80175829999995 ], [ -42.722700699999962, -22.80174489999996 ], [ -42.722825699999937, -22.801645499999946 ], [ -42.722929299999976, -22.80165749999998 ], [ -42.723050399999984, -22.801697799999932 ], [ -42.72321629999994, -22.801546799999983 ], [ -42.723427, -22.801502799999973 ], [ -42.723595099999955, -22.801408599999935 ], [ -42.723682499999938, -22.801401899999977 ], [ -42.723796899999961, -22.801388499999966 ], [ -42.724025499999982, -22.801287599999963 ], [ -42.72416, -22.801193399999935 ], [ -42.72430119999995, -22.801106 ], [ -42.724482799999976, -22.800998399999969 ], [ -42.724617299999977, -22.800937899999941 ], [ -42.724778699999952, -22.800769699999936 ], [ -42.724933399999941, -22.800440199999969 ], [ -42.724893, -22.80033259999993 ], [ -42.725020799999982, -22.800090499999946 ], [ -42.725024, -22.800069899999976 ], [ -42.725027099999977, -22.800049299999948 ], [ -42.7250375, -22.799982199999928 ], [ -42.725045799999982, -22.799928099999931 ], [ -42.725049599999977, -22.799903 ], [ -42.725054099999973, -22.799873899999977 ], [ -42.725077399999968, -22.799851 ], [ -42.72510079999995, -22.799828 ], [ -42.725162099999977, -22.799767699999968 ], [ -42.725229299999967, -22.799539 ], [ -42.725316699999951, -22.799256599999982 ], [ -42.72539739999997, -22.799021199999956 ], [ -42.725538699999966, -22.799014499999945 ], [ -42.725612599999977, -22.79889339999994 ], [ -42.725693299999925, -22.798779099999937 ], [ -42.72574039999995, -22.798685 ], [ -42.72567319999996, -22.798577399999939 ], [ -42.725720199999962, -22.798442799999975 ], [ -42.725794199999939, -22.798355399999927 ], [ -42.725834599999978, -22.798281399999958 ], [ -42.725841299999956, -22.798099899999944 ], [ -42.7257135, -22.79795189999993 ], [ -42.725525199999936, -22.797817399999932 ], [ -42.725484899999969, -22.79773669999997 ], [ -42.725444499999988, -22.797656 ], [ -42.721463299999989, -22.796424399999985 ], [ -42.721422899999936, -22.79641189999996 ], [ -42.721362, -22.796422499999945 ], [ -42.714649, -22.797602099999942 ], [ -42.714610299999947, -22.797608899999936 ], [ -42.714597199999965, -22.797631399999936 ], [ -42.711554099999937, -22.802836699999943 ], [ -42.711543699999936, -22.80285449999996 ], [ -42.711832799999968, -22.803103399999937 ], [ -42.71204129999996, -22.803332 ], [ -42.71370909999996, -22.804078499999942 ], [ -42.714233699999973, -22.804280299999959 ], [ -42.714563, -22.804367599999978 ], [ -42.714418199999962, -22.804681099999986 ], [ -42.714717699999937, -22.804806699999968 ] ] ], [ [ [ -42.798722199999929, -22.755114899999963 ], [ -42.800110099999984, -22.752562499999943 ], [ -42.799291199999978, -22.751813 ], [ -42.79889049999997, -22.751710099999972 ], [ -42.79722, -22.751703299999978 ], [ -42.796370799999984, -22.751756499999935 ], [ -42.796257699999963, -22.751714399999972 ], [ -42.79609389999996, -22.751566099999934 ], [ -42.795974199999932, -22.75139409999996 ], [ -42.795592599999964, -22.750650599999979 ], [ -42.79546159999996, -22.749714399999952 ], [ -42.795370799999951, -22.749211699999936 ], [ -42.797080499999936, -22.747814299999963 ], [ -42.798684099999946, -22.746308 ], [ -42.798918799999967, -22.746056199999938 ], [ -42.800446499999964, -22.74441679999995 ], [ -42.800581399999942, -22.744315599999929 ], [ -42.800857899999983, -22.744268799999922 ], [ -42.802354199999975, -22.743852599999965 ], [ -42.802559099999932, -22.744084099999956 ], [ -42.802705799999956, -22.744063 ], [ -42.803218199999954, -22.744145099999965 ], [ -42.803400699999933, -22.743440099999933 ], [ -42.8031319, -22.743162199999968 ], [ -42.803238399999941, -22.735823199999974 ], [ -42.803243, -22.735505099999962 ], [ -42.801744799999938, -22.736011699999942 ], [ -42.801053099999933, -22.736269899999968 ], [ -42.800174899999952, -22.73650119999996 ], [ -42.799441, -22.736620199999944 ], [ -42.79742379999994, -22.736941 ], [ -42.7968274, -22.737036299999939 ], [ -42.796607, -22.73707149999996 ], [ -42.796064599999966, -22.737158499999964 ], [ -42.795604799999978, -22.737214699999967 ], [ -42.794758499999951, -22.737261 ], [ -42.79379849999998, -22.737324199999936 ], [ -42.79307, -22.73736209999992 ], [ -42.792130199999981, -22.737423499999981 ], [ -42.792077399999982, -22.737427199999953 ], [ -42.7815844, -22.738131899999928 ], [ -42.781573399999964, -22.738132599999965 ], [ -42.780502899999938, -22.73820179999996 ], [ -42.776698399999937, -22.738346399999948 ], [ -42.772758, -22.738432599999957 ], [ -42.77049419999998, -22.738288199999936 ], [ -42.768837299999966, -22.738236799999974 ], [ -42.767848799999967, -22.738237099999939 ], [ -42.766904199999935, -22.738336799999949 ], [ -42.765865899999937, -22.738590299999949 ], [ -42.763420899999971, -22.739303699999923 ], [ -42.76342029999995, -22.739162399999937 ], [ -42.763409599999939, -22.739030599999968 ], [ -42.763397399999981, -22.738880199999986 ], [ -42.764066, -22.736110499999942 ], [ -42.763982099999971, -22.735657899999978 ], [ -42.763020799999936, -22.73211769999995 ], [ -42.761993499999967, -22.729832099999953 ], [ -42.762025099999967, -22.729521899999956 ], [ -42.762084, -22.728944599999966 ], [ -42.762508499999967, -22.728379699999948 ], [ -42.762536799999964, -22.728326599999939 ], [ -42.762551, -22.728245199999943 ], [ -42.762558099999978, -22.727955099999978 ], [ -42.762582799999961, -22.727746299999968 ], [ -42.762589899999966, -22.727449 ], [ -42.762565199999983, -22.727204899999936 ], [ -42.762547499999989, -22.727112899999945 ], [ -42.762505, -22.726989 ], [ -42.762451899999974, -22.726872299999972 ], [ -42.762377599999986, -22.726759 ], [ -42.762267499999943, -22.726623 ], [ -42.762159599999961, -22.726569 ], [ -42.762097099999949, -22.726358299999955 ], [ -42.762087599999973, -22.726326099999923 ], [ -42.761977699999939, -22.726207 ], [ -42.761935299999948, -22.726175099999978 ], [ -42.76150709999996, -22.725718699999948 ], [ -42.761436299999957, -22.725623099999947 ], [ -42.761365599999976, -22.725531099999962 ], [ -42.76129479999998, -22.725460399999967 ], [ -42.761192199999989, -22.725386 ], [ -42.760091699999982, -22.72446949999993 ], [ -42.759854599999983, -22.724306799999958 ], [ -42.759723699999938, -22.724207699999965 ], [ -42.759564399999938, -22.724112099999953 ], [ -42.759422899999947, -22.724052 ], [ -42.758902699999972, -22.723832599999987 ], [ -42.758601899999967, -22.723737099999926 ], [ -42.7583188, -22.723641499999935 ], [ -42.758212699999945, -22.723595499999927 ], [ -42.75813839999995, -22.723528299999941 ], [ -42.758099399999942, -22.72348229999993 ], [ -42.758071099999931, -22.723400899999952 ], [ -42.758067599999947, -22.723036399999948 ], [ -42.758081699999934, -22.722976299999964 ], [ -42.75816669999994, -22.722894899999975 ], [ -42.758449799999937, -22.722693199999974 ], [ -42.758605499999931, -22.722611799999978 ], [ -42.758782399999973, -22.722526899999931 ], [ -42.758885, -22.722456099999935 ], [ -42.758941599999957, -22.722392399999933 ], [ -42.758973499999968, -22.722328699999938 ], [ -42.758987599999955, -22.722236699999939 ], [ -42.758987599999962, -22.722073899999945 ], [ -42.758980599999973, -22.721812099999958 ], [ -42.758987599999962, -22.72159969999996 ], [ -42.759047799999962, -22.721164499999929 ], [ -42.759104399999956, -22.720853099999935 ], [ -42.759132699999952, -22.720616 ], [ -42.759125599999948, -22.720474499999966 ], [ -42.759115, -22.720343499999956 ], [ -42.759115, -22.720248 ], [ -42.759129199999968, -22.720180799999969 ], [ -42.759150399999953, -22.720124099999964 ], [ -42.759189299999946, -22.720074599999982 ], [ -42.759256599999958, -22.720018 ], [ -42.759313199999958, -22.719979099999929 ], [ -42.759387499999946, -22.719950799999932 ], [ -42.759522, -22.719929499999971 ], [ -42.759713, -22.71989409999998 ], [ -42.759780299999932, -22.719865799999972 ], [ -42.759833399999927, -22.719809199999926 ], [ -42.75986869999997, -22.719742 ], [ -42.75988289999998, -22.719674699999921 ], [ -42.75988289999998, -22.719607499999931 ], [ -42.759865199999986, -22.719533199999951 ], [ -42.759829799999977, -22.719476599999947 ], [ -42.759776699999975, -22.719416399999936 ], [ -42.759716599999933, -22.71934919999995 ], [ -42.759614, -22.719253699999964 ], [ -42.759539699999955, -22.719172299999965 ], [ -42.759511299999986, -22.719126299999967 ], [ -42.759486599999946, -22.719055499999964 ], [ -42.759476, -22.719002399999965 ], [ -42.759486599999946, -22.718949299999959 ], [ -42.759518399999934, -22.718899799999971 ], [ -42.759557299999983, -22.71887149999997 ], [ -42.759603299999981, -22.718850299999925 ], [ -42.759702399999981, -22.718821899999959 ], [ -42.759875799999968, -22.718800699999964 ], [ -42.760061, -22.718772899999983 ], [ -42.760158899999972, -22.718758199999968 ], [ -42.760420799999963, -22.718722899999939 ], [ -42.760495099999957, -22.71870159999996 ], [ -42.760661399999947, -22.718613199999929 ], [ -42.760852499999935, -22.718485799999947 ], [ -42.761022299999986, -22.718383199999948 ], [ -42.761150599999951, -22.718285299999927 ], [ -42.761087299999986, -22.718289599999942 ], [ -42.761037699999974, -22.718294499999949 ], [ -42.760745099999959, -22.718283899999971 ], [ -42.760651, -22.718365599999967 ], [ -42.760494699999981, -22.71860079999994 ], [ -42.760415899999941, -22.718604599999932 ], [ -42.76040729999994, -22.718604899999942 ], [ -42.760200399999974, -22.718589399999921 ], [ -42.759889799999947, -22.718716099999934 ], [ -42.759502199999986, -22.718758099999953 ], [ -42.759487099999951, -22.718762499999976 ], [ -42.759328699999969, -22.718685299999954 ], [ -42.759223, -22.718647799999928 ], [ -42.759013099999947, -22.718507899999967 ], [ -42.758988399999971, -22.718494299999982 ], [ -42.758982299999964, -22.718491199999949 ], [ -42.75884449999996, -22.718599099999935 ], [ -42.758769699999966, -22.718852099999932 ], [ -42.758873199999982, -22.719122299999974 ], [ -42.75904, -22.719323599999942 ], [ -42.759057499999983, -22.719411 ], [ -42.759063, -22.719438599999933 ], [ -42.759035, -22.719453 ], [ -42.758892199999934, -22.719526799999979 ], [ -42.758764, -22.719691599999976 ], [ -42.758649, -22.719869799999952 ], [ -42.758620199999939, -22.720134299999923 ], [ -42.758677, -22.720456699999939 ], [ -42.758597199999954, -22.720766799999979 ], [ -42.758583499999929, -22.721084299999962 ], [ -42.758453499999973, -22.721508599999943 ], [ -42.758436199999956, -22.721916899999936 ], [ -42.75837869999998, -22.72214109999992 ], [ -42.758016499999933, -22.722405599999949 ], [ -42.757683, -22.722704599999922 ], [ -42.757332199999958, -22.722946099999948 ], [ -42.757131, -22.72322209999993 ], [ -42.757016, -22.723549899999966 ], [ -42.75694979999998, -22.724391399999956 ], [ -42.756958499999946, -22.724544599999938 ], [ -42.756888199999935, -22.72459519999995 ], [ -42.756848299999959, -22.724623899999976 ], [ -42.75681469999995, -22.72464809999996 ], [ -42.756636499999956, -22.724809099999966 ], [ -42.75656169999997, -22.725044899999929 ], [ -42.756579, -22.725280599999966 ], [ -42.756694, -22.725493399999948 ], [ -42.756814699999957, -22.72561989999997 ], [ -42.757004499999944, -22.725740699999964 ], [ -42.757378199999955, -22.725821199999917 ], [ -42.757924499999945, -22.725976399999986 ], [ -42.758245399999971, -22.726076799999923 ], [ -42.758453499999966, -22.726212199999964 ], [ -42.758488, -22.726367399999962 ], [ -42.758355699999981, -22.726499699999973 ], [ -42.758068899999955, -22.726549199999955 ], [ -42.757734699999958, -22.726775699999962 ], [ -42.757407, -22.727028699999938 ], [ -42.757159699999931, -22.727258699999922 ], [ -42.75710079999994, -22.727404699999962 ], [ -42.757073499999926, -22.727810699999967 ], [ -42.757062, -22.727937199999932 ], [ -42.756941199999964, -22.728000399999921 ], [ -42.756590499999966, -22.727960199999924 ], [ -42.756182199999955, -22.72787969999996 ], [ -42.755975199999973, -22.727787699999958 ], [ -42.755561199999939, -22.727402399999956 ], [ -42.755112699999984, -22.726988399999968 ], [ -42.754710199999984, -22.726729699999954 ], [ -42.754356, -22.726630699999927 ], [ -42.754043199999963, -22.726689399999941 ], [ -42.7535314, -22.727068899999946 ], [ -42.753266899999971, -22.727385199999951 ], [ -42.752801199999958, -22.727459899999936 ], [ -42.75238719999993, -22.727356399999955 ], [ -42.751886899999931, -22.727201199999975 ], [ -42.751697199999967, -22.72705169999994 ], [ -42.751495899999952, -22.72668369999997 ], [ -42.751426899999963, -22.726516899999975 ], [ -42.751438399999984, -22.726137399999967 ], [ -42.751340599999942, -22.72589019999997 ], [ -42.751260099999968, -22.725809699999953 ], [ -42.7509209, -22.725792399999932 ], [ -42.750765599999966, -22.725821199999938 ], [ -42.750426399999981, -22.725809699999942 ], [ -42.75023089999997, -22.725780899999961 ], [ -42.750185099999953, -22.725695099999939 ], [ -42.750155899999982, -22.725640399999975 ], [ -42.750138899999968, -22.725608399999928 ], [ -42.750046899999973, -22.725228899999927 ], [ -42.749915599999945, -22.725125699999978 ], [ -42.749862499999949, -22.725084 ], [ -42.74972489999994, -22.724975899999937 ], [ -42.74951939999994, -22.724916799999956 ], [ -42.74944469999997, -22.724895299999957 ], [ -42.749305099999958, -22.724855099999953 ], [ -42.749012499999935, -22.724892199999939 ], [ -42.748850899999972, -22.724912599999978 ], [ -42.748687499999967, -22.72493349999996 ], [ -42.74831039999998, -22.724981599999985 ], [ -42.747700799999954, -22.724981599999982 ], [ -42.74710529999993, -22.724792799999932 ], [ -42.746993599999939, -22.724797599999928 ], [ -42.7469172, -22.724846599999982 ], [ -42.746866699999941, -22.724879 ], [ -42.746545099999935, -22.725085099999944 ], [ -42.746389799999974, -22.725234599999965 ], [ -42.7462058, -22.725234599999965 ], [ -42.745751599999956, -22.724958599999962 ], [ -42.745234099999941, -22.724947099999948 ], [ -42.744717199999968, -22.725074599999978 ], [ -42.744314, -22.725303599999958 ], [ -42.744066699999969, -22.725667499999918 ], [ -42.743873, -22.726189299999916 ], [ -42.743787499999939, -22.726563499999941 ], [ -42.743584399999982, -22.726873499999947 ], [ -42.743081899999936, -22.727033899999974 ], [ -42.742964299999983, -22.727194299999944 ], [ -42.742814599999981, -22.727408099999931 ], [ -42.742568699999936, -22.727814299999974 ], [ -42.74213919999994, -22.728600199999953 ], [ -42.741841699999959, -22.728787199999942 ], [ -42.741491799999949, -22.728952499999931 ], [ -42.741029199999964, -22.729107899999967 ], [ -42.740783299999983, -22.729150699999941 ], [ -42.740430499999938, -22.72914 ], [ -42.740109799999971, -22.729097199999959 ], [ -42.739842499999952, -22.729022399999966 ], [ -42.739692899999959, -22.72883 ], [ -42.739511099999952, -22.728637499999945 ], [ -42.739393099999965, -22.728598199999976 ], [ -42.73933459999995, -22.728578699999954 ], [ -42.73928659999995, -22.728562699999941 ], [ -42.73912619999993, -22.728605499999951 ], [ -42.738944499999953, -22.728445099999924 ], [ -42.738730699999969, -22.728295399999983 ], [ -42.738495499999942, -22.728135099999967 ], [ -42.738271, -22.7280388 ], [ -42.737960899999969, -22.727942599999945 ], [ -42.737383599999923, -22.727835699999954 ], [ -42.737024399999946, -22.727783299999935 ], [ -42.736758699999939, -22.727744599999934 ], [ -42.736357299999952, -22.727686 ], [ -42.73615419999993, -22.727504299999971 ], [ -42.736036599999977, -22.727162199999945 ], [ -42.735956399999964, -22.726850499999962 ], [ -42.735769299999959, -22.726542099999957 ], [ -42.735555499999968, -22.726167899999947 ], [ -42.735363, -22.725847199999972 ], [ -42.735159899999985, -22.725451599999925 ], [ -42.735117199999941, -22.725152299999937 ], [ -42.735095799999961, -22.724831599999963 ], [ -42.735031599999957, -22.724553599999979 ], [ -42.734839199999961, -22.724222199999922 ], [ -42.73476439999996, -22.723933499999912 ], [ -42.734882, -22.723559399999946 ], [ -42.734940599999959, -22.723211699999979 ], [ -42.734992, -22.722925299999929 ], [ -42.73508019999997, -22.722389099999916 ], [ -42.73514629999994, -22.721794099999951 ], [ -42.735333899999951, -22.721411399999962 ], [ -42.735205799999967, -22.72096989999994 ], [ -42.734964299999952, -22.720765099999934 ], [ -42.734659899999947, -22.72056919999994 ], [ -42.734224899999958, -22.720639399999978 ], [ -42.733825, -22.720829499999986 ], [ -42.733589099999968, -22.721221199999942 ], [ -42.733431499999938, -22.721582399999921 ], [ -42.73327739999997, -22.721868399999938 ], [ -42.733067699999935, -22.722183399999935 ], [ -42.73278849999997, -22.722514 ], [ -42.732333199999971, -22.722558 ], [ -42.732032, -22.722491899999959 ], [ -42.731591299999934, -22.722374399999968 ], [ -42.731253499999987, -22.722293599999933 ], [ -42.730820099999967, -22.722183399999953 ], [ -42.730386699999947, -22.722007199999954 ], [ -42.730026799999969, -22.721720699999931 ], [ -42.729733, -22.721456299999936 ], [ -42.729461299999961, -22.721184499999932 ], [ -42.72920419999997, -22.720876 ], [ -42.729079299999967, -22.720714399999967 ], [ -42.728932399999962, -22.720516099999948 ], [ -42.728969199999938, -22.720354499999935 ], [ -42.729211499999963, -22.720141499999947 ], [ -42.729270299999932, -22.720009299999962 ], [ -42.729336399999966, -22.719833 ], [ -42.729390699999954, -22.71969919999998 ], [ -42.7294103, -22.719650799999947 ], [ -42.729446599999967, -22.719561299999953 ], [ -42.729666899999984, -22.719370299999976 ], [ -42.729916699999933, -22.719304199999957 ], [ -42.730137, -22.719172 ], [ -42.730445499999981, -22.718995699999937 ], [ -42.73079069999995, -22.718760699999962 ], [ -42.731161699999973, -22.718352 ], [ -42.731378299999967, -22.718092299999956 ], [ -42.731503199999963, -22.717871899999981 ], [ -42.73190059999996, -22.717521 ], [ -42.73223269999994, -22.717226299999933 ], [ -42.732441499999936, -22.71702 ], [ -42.732630799999988, -22.716822 ], [ -42.732709099999973, -22.716277299999938 ], [ -42.732683099999981, -22.715790699999953 ], [ -42.732447099999945, -22.715411 ], [ -42.73176349999995, -22.715608099999933 ], [ -42.731446099999971, -22.71566689999997 ], [ -42.731158, -22.715749199999959 ], [ -42.730746599999975, -22.715734499999932 ], [ -42.730078299999946, -22.715705199999938 ], [ -42.729918299999952, -22.715748 ], [ -42.729866299999969, -22.715761899999965 ], [ -42.729666899999984, -22.715815299999981 ], [ -42.729373099999975, -22.715925499999976 ], [ -42.729226199999971, -22.716094499999937 ], [ -42.729167499999967, -22.716292799999962 ], [ -42.72905, -22.716417599999946 ], [ -42.728873699999951, -22.71647639999998 ], [ -42.728694899999937, -22.71651009999994 ], [ -42.728506399999965, -22.716447 ], [ -42.728020899999926, -22.716616 ], [ -42.727917799999943, -22.716661799999933 ], [ -42.727796399999939, -22.71674569999994 ], [ -42.727741699999967, -22.716832199999956 ], [ -42.727691099999959, -22.717163499999973 ], [ -42.727742599999942, -22.717556099999978 ], [ -42.727779299999952, -22.717923299999939 ], [ -42.727749899999935, -22.718084899999951 ], [ -42.727607699999965, -22.718245 ], [ -42.727331199999981, -22.718327299999938 ], [ -42.727059499999946, -22.718452199999948 ], [ -42.726890499999968, -22.718540299999969 ], [ -42.726596699999966, -22.718716599999937 ], [ -42.726420499999961, -22.718841499999947 ], [ -42.726295599999958, -22.718981 ], [ -42.726200099999971, -22.719142599999934 ], [ -42.726097299999942, -22.719318899999948 ], [ -42.726038499999959, -22.719502499999976 ], [ -42.72593569999998, -22.719627399999986 ], [ -42.725818199999935, -22.719693499999945 ], [ -42.725227399999937, -22.720030499999954 ], [ -42.72476149999995, -22.71924649999993 ], [ -42.724073499999975, -22.719500299999932 ], [ -42.724478599999941, -22.720379899999941 ], [ -42.724194, -22.720553499999941 ], [ -42.723862899999972, -22.720724199999943 ], [ -42.723632599999974, -22.72064349999993 ], [ -42.723436799999945, -22.720274699999948 ], [ -42.722924299999931, -22.720254299999969 ], [ -42.722681899999941, -22.720274599999975 ], [ -42.722196399999973, -22.720278699999934 ], [ -42.721863399999961, -22.720322 ], [ -42.721526299999937, -22.720348899999976 ], [ -42.721183599999961, -22.720326899999971 ], [ -42.720748599999986, -22.720303199999929 ], [ -42.720188699999945, -22.720322 ], [ -42.719768399999971, -22.720325199999941 ], [ -42.719423099999972, -22.720453799999976 ], [ -42.719266499999939, -22.720494099999939 ], [ -42.719119599999949, -22.72054549999995 ], [ -42.718901699999947, -22.720589599999979 ], [ -42.718612, -22.720633099999922 ], [ -42.718301799999949, -22.720650899999949 ], [ -42.718049599999972, -22.720660599999974 ], [ -42.718371, -22.719585199999976 ], [ -42.717768, -22.718059499999971 ], [ -42.716464099999939, -22.717896199999917 ], [ -42.715751799999964, -22.718140099999971 ], [ -42.715555899999963, -22.718749499999944 ], [ -42.7152799, -22.719171299999974 ], [ -42.715037399999972, -22.719127199999939 ], [ -42.714768099999958, -22.719128799999961 ], [ -42.714499599999954, -22.719157299999942 ], [ -42.71404419999994, -22.718922299999978 ], [ -42.713715499999971, -22.718778299999943 ], [ -42.708897199999967, -22.723415399999965 ], [ -42.708861499999955, -22.72342759999998 ], [ -42.70882249999994, -22.723441 ], [ -42.708686599999965, -22.72350049999994 ], [ -42.708487499999933, -22.723570399999961 ], [ -42.708277199999948, -22.723632 ], [ -42.708061099999952, -22.723644799999921 ], [ -42.707862299999931, -22.723654299999964 ], [ -42.707743799999946, -22.723666099999949 ], [ -42.707718499999935, -22.723668899999957 ], [ -42.7075177, -22.723676 ], [ -42.707289699999933, -22.723687 ], [ -42.707070299999934, -22.723712699999957 ], [ -42.707038599999976, -22.723715499999962 ], [ -42.706835299999973, -22.723730899999971 ], [ -42.706635399999989, -22.72377419999998 ], [ -42.706445199999962, -22.723829099999925 ], [ -42.706233599999962, -22.723879499999949 ], [ -42.706125499999985, -22.723902699999933 ], [ -42.705917599999971, -22.723924599999965 ], [ -42.705759799999953, -22.723812799999958 ], [ -42.70571259999997, -22.723704499999929 ], [ -42.705672399999969, -22.723651399999927 ], [ -42.705542699999974, -22.723488699999962 ], [ -42.705446899999963, -22.723326599999954 ], [ -42.705372, -22.723253399999976 ], [ -42.705242199999923, -22.72323479999995 ], [ -42.7051264, -22.723299799999946 ], [ -42.704992599999969, -22.723392599999954 ], [ -42.704842399999961, -22.723514299999984 ], [ -42.70476529999997, -22.723614199999933 ], [ -42.704686299999935, -22.723708199999972 ], [ -42.704664, -22.723738 ], [ -42.704508299999937, -22.723848599999936 ], [ -42.704397099999937, -22.723961399999951 ], [ -42.704285299999974, -22.724099 ], [ -42.704272399999979, -22.724114299999929 ], [ -42.704133299999967, -22.724258499999959 ], [ -42.7040813, -22.724408699999973 ], [ -42.70398959999995, -22.724572799999972 ], [ -42.703956699999935, -22.72466559999997 ], [ -42.703925699999957, -22.724750599999933 ], [ -42.703873299999941, -22.724808899999964 ], [ -42.7037711, -22.724845 ], [ -42.703724499999971, -22.724912699999933 ], [ -42.703630399999952, -22.72499 ], [ -42.703543799999984, -22.72507 ], [ -42.703522899999939, -22.725157699999954 ], [ -42.703515099999947, -22.725190599999966 ], [ -42.703521399999943, -22.725272699999955 ], [ -42.703573199999937, -22.725365799999967 ], [ -42.703651399999963, -22.725486799999942 ], [ -42.703695499999988, -22.725624899999953 ], [ -42.703661499999953, -22.725722499999964 ], [ -42.703596399999988, -22.725871499999982 ], [ -42.703524699999946, -22.725967799999975 ], [ -42.703365399999939, -22.726073 ], [ -42.703271899999955, -22.726099499999968 ], [ -42.703082699999982, -22.726162599999949 ], [ -42.703060199999989, -22.726167 ], [ -42.702845599999932, -22.726195399999948 ], [ -42.702821, -22.72619809999998 ], [ -42.702620399999944, -22.726198199999939 ], [ -42.702460099999939, -22.726170199999945 ], [ -42.702259799999979, -22.726117399999961 ], [ -42.702157599999964, -22.726078 ], [ -42.701974099999973, -22.726016099999978 ], [ -42.701844799999947, -22.725988799999985 ], [ -42.701740599999937, -22.725984199999964 ], [ -42.701597199999988, -22.726008799999931 ], [ -42.701395699999985, -22.726084599999982 ], [ -42.701194099999952, -22.726187699999965 ], [ -42.701080199999979, -22.726264299999965 ], [ -42.700903299999943, -22.726366899999963 ], [ -42.7008211, -22.726421899999934 ], [ -42.700655499999982, -22.726529599999928 ], [ -42.700614899999948, -22.726560499999948 ], [ -42.700405, -22.726744199999924 ], [ -42.700311099999958, -22.72686009999995 ], [ -42.700228299999935, -22.726979699999951 ], [ -42.700142399999955, -22.727119699999943 ], [ -42.700124699999954, -22.727182099999922 ], [ -42.700103099999986, -22.727258099999968 ], [ -42.700042199999984, -22.727379799999941 ], [ -42.700028199999963, -22.727393899999974 ], [ -42.699904799999963, -22.727543499999957 ], [ -42.699846499999978, -22.727633799999982 ], [ -42.699793299999953, -22.727765699999953 ], [ -42.699772799999948, -22.72784079999996 ], [ -42.699736499999965, -22.728023 ], [ -42.699717299999975, -22.728121299999945 ], [ -42.699684299999944, -22.728266 ], [ -42.699661699999979, -22.72831129999998 ], [ -42.699593199999981, -22.728491599999934 ], [ -42.69958639999993, -22.728650299999966 ], [ -42.699591299999945, -22.728689199999959 ], [ -42.6996, -22.728757499999972 ], [ -42.699623899999949, -22.728825499999974 ], [ -42.699601799999982, -22.72890429999995 ], [ -42.699519399999986, -22.729094699999962 ], [ -42.699437399999972, -22.729174199999932 ], [ -42.699397699999963, -22.729212799999974 ], [ -42.699278799999952, -22.729350299999965 ], [ -42.699195899999943, -22.729463399999915 ], [ -42.699160499999941, -22.729518 ], [ -42.699065, -22.729694499999948 ], [ -42.698980699999936, -22.729869 ], [ -42.6989751, -22.729892099999972 ], [ -42.698935399999982, -22.730089399999947 ], [ -42.698893099999964, -22.73028829999992 ], [ -42.698887699999943, -22.730312 ], [ -42.698839499999963, -22.73049519999994 ], [ -42.698803599999962, -22.730624299999924 ], [ -42.698785299999948, -22.73069 ], [ -42.698748499999958, -22.730778599999955 ], [ -42.698678299999983, -22.730953899999964 ], [ -42.698637699999949, -22.731132199999934 ], [ -42.698586099999943, -22.731319099999943 ], [ -42.698569199999952, -22.731389299999936 ], [ -42.698568499999965, -22.731391699999968 ], [ -42.698518599999943, -22.731578599999981 ], [ -42.698459899999925, -22.731774299999934 ], [ -42.698404099999948, -22.731981399999924 ], [ -42.698362599999939, -22.732144699999935 ], [ -42.698326299999962, -22.732323899999972 ], [ -42.698273199999967, -22.732529 ], [ -42.698232499999961, -22.732720099999931 ], [ -42.698218599999954, -22.732921299999926 ], [ -42.698219599999959, -22.732947399999933 ], [ -42.698225899999954, -22.733138899999968 ], [ -42.698221899999972, -22.733257399999971 ], [ -42.698203799999931, -22.733327 ], [ -42.698132699999974, -22.733415399999952 ], [ -42.698080099999977, -22.73350049999992 ], [ -42.698033499999951, -22.733575799999976 ], [ -42.697982599999939, -22.733679799999937 ], [ -42.697995899999967, -22.733761 ], [ -42.698048599999936, -22.733905799999942 ], [ -42.698085299999946, -22.734044699999973 ], [ -42.69808629999995, -22.734213099999973 ], [ -42.698054299999967, -22.734318899999952 ], [ -42.698017, -22.734512499999941 ], [ -42.698025399999956, -22.734718599999944 ], [ -42.698025399999949, -22.734794499999971 ], [ -42.698016199999984, -22.734984199999925 ], [ -42.69800649999997, -22.735153899999943 ], [ -42.698004, -22.735220199999958 ], [ -42.698026599999935, -22.735411499999941 ], [ -42.698098899999941, -22.735523199999935 ], [ -42.698223299999945, -22.735596599999955 ], [ -42.698260699999942, -22.735672299999987 ], [ -42.698322299999973, -22.735852299999973 ], [ -42.698347499999954, -22.735959699999967 ], [ -42.69836609999993, -22.73607439999995 ], [ -42.698394, -22.736197899999972 ], [ -42.698408899999947, -22.736371199999958 ], [ -42.698369199999952, -22.736504899999954 ], [ -42.698318399999948, -22.736641099999929 ], [ -42.698291799999936, -22.736777699999948 ], [ -42.69827, -22.736955899999931 ], [ -42.698275499999966, -22.736994399999954 ], [ -42.698295, -22.737130899999958 ], [ -42.698313, -22.737266399999953 ], [ -42.698293899999953, -22.737422099999943 ], [ -42.698280199999942, -22.737488899999953 ], [ -42.698244599999953, -22.737687299999948 ], [ -42.698241199999984, -22.737858099999976 ], [ -42.698199699999975, -22.738047 ], [ -42.698120599999982, -22.738223399999981 ], [ -42.698066099999956, -22.738409699999977 ], [ -42.69799409999996, -22.738597599999935 ], [ -42.697920499999952, -22.738735199999955 ], [ -42.697867599999938, -22.738810599999965 ], [ -42.69774909999996, -22.738971 ], [ -42.697658199999978, -22.739142599999973 ], [ -42.697557699999948, -22.739301799999961 ], [ -42.697496899999969, -22.73944049999994 ], [ -42.69745, -22.739559399999955 ], [ -42.697379399999924, -22.739674099999938 ], [ -42.69730809999993, -22.739767 ], [ -42.697254, -22.739837499999961 ], [ -42.697152399999936, -22.73999689999993 ], [ -42.697068299999955, -22.740174199999963 ], [ -42.696964199999968, -22.740314299999969 ], [ -42.696855099999929, -22.740478299999943 ], [ -42.696774399999974, -22.740655099999966 ], [ -42.696700799999974, -22.740833199999937 ], [ -42.696576199999981, -22.740983899999954 ], [ -42.696488299999949, -22.741150899999973 ], [ -42.696466399999963, -22.741312899999972 ], [ -42.696455599999972, -22.741451099999946 ], [ -42.696432, -22.74154539999995 ], [ -42.696308399999964, -22.741619199999938 ], [ -42.696217899999958, -22.741598 ], [ -42.69612989999996, -22.741595299999979 ], [ -42.696054699999934, -22.741617599999934 ], [ -42.695982199999953, -22.741568099999942 ], [ -42.695858699999981, -22.74155449999995 ], [ -42.695816899999954, -22.741560399999972 ], [ -42.695610299999942, -22.741610099999935 ], [ -42.695472699999982, -22.741645299999956 ], [ -42.695381399999974, -22.741689499999943 ], [ -42.695332199999939, -22.741728499999969 ], [ -42.695265599999971, -22.741775899999926 ], [ -42.69519, -22.741869699999935 ], [ -42.695122499999968, -22.742004 ], [ -42.695099099999936, -22.742127699999969 ], [ -42.69508529999996, -22.742256 ], [ -42.695106499999952, -22.742382 ], [ -42.695200299999954, -22.742506599999952 ], [ -42.695212599999941, -22.742557699999963 ], [ -42.695253299999933, -22.742780799999931 ], [ -42.695338099999958, -22.742956 ], [ -42.695432699999969, -22.743054899999944 ], [ -42.695493399999975, -22.743178199999925 ], [ -42.695536699999934, -22.743310699999927 ], [ -42.695630699999981, -22.743456599999941 ], [ -42.695636499999978, -22.743550599999935 ], [ -42.695654699999977, -22.743697599999955 ], [ -42.695659099999943, -22.743733099999929 ], [ -42.695655, -22.743861799999937 ], [ -42.695636199999967, -22.744053799999946 ], [ -42.695632299999943, -22.744210699999943 ], [ -42.695619399999941, -22.744346 ], [ -42.695619299999969, -22.744347399999985 ], [ -42.695619099999931, -22.744375399999967 ], [ -42.695577299999968, -22.744561199999961 ], [ -42.695521699999972, -22.744656 ], [ -42.69541369999996, -22.744843 ], [ -42.69540429999995, -22.744867899999967 ], [ -42.695349899999947, -22.745045399999981 ], [ -42.695313, -22.74523 ], [ -42.6952821, -22.745400899999936 ], [ -42.695263099999977, -22.745566 ], [ -42.69521229999998, -22.745712199999954 ], [ -42.695117699999969, -22.745796599999956 ], [ -42.69503439999994, -22.74595439999996 ], [ -42.6950308, -22.745975 ], [ -42.694962499999981, -22.746164099999927 ], [ -42.694889599999954, -22.746317299999923 ], [ -42.694816399999979, -22.74644429999994 ], [ -42.694743699999947, -22.746616799999966 ], [ -42.694722, -22.746656699999949 ], [ -42.694615099999965, -22.746818499999954 ], [ -42.694569299999948, -22.746976799999974 ], [ -42.694566099999982, -22.747000399999934 ], [ -42.694530799999939, -22.747192199999972 ], [ -42.694528799999951, -22.747201299999972 ], [ -42.694490499999979, -22.747377099999937 ], [ -42.694477599999978, -22.747517199999944 ], [ -42.694477499999948, -22.747567199999935 ], [ -42.694458299999951, -22.74775179999995 ], [ -42.694441699999977, -22.747844399999966 ], [ -42.694421699999964, -22.748050299999925 ], [ -42.694420199999968, -22.748254699999958 ], [ -42.694437399999977, -22.748442599999979 ], [ -42.694438799999944, -22.748568399999961 ], [ -42.694453099999976, -22.748767399999966 ], [ -42.694479799999947, -22.748965699999921 ], [ -42.69452159999998, -22.749155899999945 ], [ -42.694573299999952, -22.749300299999959 ], [ -42.694582099999934, -22.74936 ], [ -42.696469099999945, -22.750173899999947 ], [ -42.69796029999997, -22.750834399999981 ], [ -42.698951099999924, -22.751314699999966 ], [ -42.699868599999945, -22.751654199999955 ], [ -42.699911399999962, -22.751670099999963 ], [ -42.699951799999958, -22.751685 ], [ -42.700942599999962, -22.752105399999948 ], [ -42.701953399999979, -22.752645799999975 ], [ -42.70392489999994, -22.753216199999944 ], [ -42.703784799999937, -22.753516399999974 ], [ -42.704655399999972, -22.753896699999924 ], [ -42.709289299999966, -22.756024699999962 ], [ -42.709319, -22.756038399999962 ], [ -42.709336899999975, -22.756090199999953 ], [ -42.709568899999965, -22.756764499999978 ], [ -42.709929599999953, -22.756648199999962 ], [ -42.710262199999924, -22.756523699999942 ], [ -42.710595799999965, -22.756298899999933 ], [ -42.710767, -22.756293299999978 ], [ -42.711384499999959, -22.756541699999957 ], [ -42.711831599999989, -22.756563 ], [ -42.712321199999963, -22.756414 ], [ -42.712978599999985, -22.756498599999926 ], [ -42.715288, -22.756823399999977 ], [ -42.715995799999973, -22.75709639999997 ], [ -42.716310199999953, -22.757439 ], [ -42.716721, -22.757799199999969 ], [ -42.717233199999953, -22.757908899999954 ], [ -42.717688799999962, -22.757986299999967 ], [ -42.718461899999973, -22.757354 ], [ -42.718779299999937, -22.757386199999925 ], [ -42.718824699999971, -22.757386199999935 ], [ -42.718928399999989, -22.757386199999928 ], [ -42.719070299999942, -22.757315299999945 ], [ -42.719198, -22.757201699999946 ], [ -42.719311599999976, -22.757152 ], [ -42.719391799999983, -22.757154 ], [ -42.719496099999958, -22.757109499999963 ], [ -42.719574199999954, -22.757095299999946 ], [ -42.71964509999998, -22.757095299999939 ], [ -42.719723199999983, -22.757123699999958 ], [ -42.719843799999985, -22.757066899999934 ], [ -42.719907699999965, -22.7569817 ], [ -42.719950299999937, -22.756928499999962 ], [ -42.719992899999966, -22.75687529999993 ], [ -42.720056799999952, -22.756825599999949 ], [ -42.720085099999949, -22.75679009999994 ], [ -42.720198699999969, -22.756612699999941 ], [ -42.720262599999955, -22.756406899999948 ], [ -42.720255499999951, -22.756186899999921 ], [ -42.720312199999974, -22.75591009999993 ], [ -42.72037609999996, -22.75579659999994 ], [ -42.720496799999971, -22.755612 ], [ -42.720581899999956, -22.755420399999927 ], [ -42.720702599999989, -22.755101099999919 ], [ -42.720809, -22.754795899999966 ], [ -42.72091579999995, -22.754342 ], [ -42.721050299999952, -22.754157199999952 ], [ -42.721114199999931, -22.753901699999965 ], [ -42.721241899999939, -22.753539799999942 ], [ -42.721440599999937, -22.752894 ], [ -42.72150449999998, -22.752780399999939 ], [ -42.721653499999945, -22.752368799999935 ], [ -42.721751199999972, -22.752098599999961 ], [ -42.721767299999961, -22.752054099999942 ], [ -42.721866399999954, -22.751779799999948 ], [ -42.722008399999943, -22.751432 ], [ -42.72216449999997, -22.750963599999974 ], [ -42.7222, -22.750878499999946 ], [ -42.722242599999959, -22.750722299999939 ], [ -42.722288199999987, -22.75056729999994 ], [ -42.722293499999971, -22.750549399999947 ], [ -42.722295799999984, -22.750541199999937 ], [ -42.722590299999979, -22.750481099999938 ], [ -42.722753499999953, -22.750481099999931 ], [ -42.722980599999971, -22.750516499999939 ], [ -42.723069299999956, -22.750584 ], [ -42.723158099999978, -22.750651399999978 ], [ -42.7233993, -22.750864299999925 ], [ -42.723803899999957, -22.751283 ], [ -42.725291299999988, -22.753336299999933 ], [ -42.725901799999974, -22.754046799999962 ], [ -42.726255199999976, -22.754701299999958 ], [ -42.726915399999946, -22.755770399999946 ], [ -42.727079, -22.756479699999947 ], [ -42.72723649999994, -22.756908199999934 ], [ -42.727270899999958, -22.756915299999953 ], [ -42.727664799999957, -22.756852599999952 ], [ -42.728183899999983, -22.756519 ], [ -42.728482399999969, -22.756397499999935 ], [ -42.72863509999997, -22.756302099999964 ], [ -42.728757699999967, -22.756122199999929 ], [ -42.728749399999977, -22.755951299999932 ], [ -42.728638499999931, -22.755658199999978 ], [ -42.728611299999962, -22.755422 ], [ -42.728633, -22.755224799999951 ], [ -42.728526699999982, -22.754892299999931 ], [ -42.728417699999966, -22.753221499999938 ], [ -42.728356899999937, -22.753214499999956 ], [ -42.728178899999939, -22.753129599999973 ], [ -42.728099899999968, -22.753091899999955 ], [ -42.727918599999953, -22.753005399999957 ], [ -42.727211599999983, -22.752668199999967 ], [ -42.726718899999987, -22.752338899999927 ], [ -42.726660399999957, -22.752304399999964 ], [ -42.725931799999969, -22.751875199999969 ], [ -42.725311399999953, -22.751494899999951 ], [ -42.72498109999998, -22.751254699999947 ], [ -42.724103499999963, -22.750698899999964 ], [ -42.724080399999927, -22.750684299999929 ], [ -42.724202399999967, -22.750556399999933 ], [ -42.724294799999939, -22.750348399999954 ], [ -42.724329499999946, -22.750094199999985 ], [ -42.724321899999943, -22.749232 ], [ -42.724293499999938, -22.748976499999966 ], [ -42.724208399999952, -22.748564899999966 ], [ -42.72419419999995, -22.748394599999969 ], [ -42.724187099999938, -22.748004299999934 ], [ -42.724229699999967, -22.747692 ], [ -42.724265199999941, -22.747429399999938 ], [ -42.724336099999967, -22.747237799999933 ], [ -42.724499299999934, -22.747003599999957 ], [ -42.724712299999965, -22.746627499999938 ], [ -42.724860399999962, -22.746341499999961 ], [ -42.7248982, -22.746349699999932 ], [ -42.725864599999966, -22.746559099999956 ], [ -42.725904499999949, -22.746567799999973 ], [ -42.726612399999965, -22.746721199999957 ], [ -42.727483, -22.747331699999961 ], [ -42.729834799999935, -22.746961399999964 ], [ -42.732336799999985, -22.748952899999942 ], [ -42.733627799999965, -22.750183899999971 ], [ -42.733933099999952, -22.750486199999958 ], [ -42.733962599999977, -22.750515299999957 ], [ -42.734036799999956, -22.750588799999942 ], [ -42.73401309999997, -22.75036759999994 ], [ -42.734251299999983, -22.749818799999947 ], [ -42.734474599999935, -22.749389299999969 ], [ -42.735712499999984, -22.747264599999941 ], [ -42.735841299999947, -22.747669599999927 ], [ -42.742978899999976, -22.748479399999944 ], [ -42.745373499999971, -22.74017619999994 ], [ -42.745877199999939, -22.740196199999957 ], [ -42.747318299999961, -22.740176199999951 ], [ -42.748330699999933, -22.740264599999925 ], [ -42.749344699999938, -22.740513099999919 ], [ -42.750262799999973, -22.741153499999939 ], [ -42.751270899999952, -22.741758 ], [ -42.752584199999944, -22.742147699999979 ], [ -42.754067699999958, -22.742299699999936 ], [ -42.754913599999952, -22.742627199999962 ], [ -42.755653699999982, -22.743276399999953 ], [ -42.756721099999943, -22.743444099999977 ], [ -42.758011799999963, -22.742630499999962 ], [ -42.758325, -22.740746799999961 ], [ -42.759948, -22.740836699999921 ], [ -42.76070859999993, -22.740736599999927 ], [ -42.761429199999945, -22.740516399999933 ], [ -42.762724199999987, -22.739904399999933 ], [ -42.76269469999994, -22.741482599999923 ], [ -42.761155199999969, -22.744454899999926 ], [ -42.762182799999948, -22.744866899999966 ], [ -42.763151599999965, -22.745293 ], [ -42.764083199999959, -22.745032099999936 ], [ -42.764136299999961, -22.745670399999927 ], [ -42.763870399999973, -22.746149099999968 ], [ -42.763781699999981, -22.746610099999938 ], [ -42.763817199999956, -22.74723059999997 ], [ -42.764012199999968, -22.747727099999963 ], [ -42.764295899999979, -22.748152599999965 ], [ -42.764906099999962, -22.748070099999939 ], [ -42.764951899999964, -22.748063899999966 ], [ -42.764938799999982, -22.74810449999995 ], [ -42.764774599999953, -22.748613599999945 ], [ -42.764951899999971, -22.748719899999958 ], [ -42.765508, -22.748638699999951 ], [ -42.765568899999948, -22.748629799999936 ], [ -42.765574899999933, -22.748664199999954 ], [ -42.765643399999931, -22.749056799999941 ], [ -42.765838399999957, -22.749234099999963 ], [ -42.766104399999968, -22.74926959999992 ], [ -42.766441199999981, -22.749180899999946 ], [ -42.766914099999958, -22.749475599999979 ], [ -42.767332199999942, -22.749775499999938 ], [ -42.76804379999993, -22.750039699999942 ], [ -42.768838599999981, -22.750681799999928 ], [ -42.769568699999986, -22.750291599999962 ], [ -42.769624599999936, -22.750269899999974 ], [ -42.769662199999978, -22.750296699999975 ], [ -42.769774299999938, -22.75044679999996 ], [ -42.770017899999964, -22.750609099999959 ], [ -42.770692799999956, -22.750946699999918 ], [ -42.770734399999981, -22.750971299999939 ], [ -42.770894899999981, -22.751122199999944 ], [ -42.771271, -22.751369299999965 ], [ -42.771582699999961, -22.75157239999993 ], [ -42.772876799999956, -22.752400499999975 ], [ -42.774172399999941, -22.753139799999929 ], [ -42.776087399999938, -22.754102399999969 ], [ -42.777557099999974, -22.754718 ], [ -42.779200899999985, -22.755541499999932 ], [ -42.77921689999993, -22.755882399999962 ], [ -42.779830599999976, -22.75617629999994 ], [ -42.781244, -22.756506699999935 ], [ -42.781449599999981, -22.756095399999932 ], [ -42.781471599999982, -22.756060899999966 ], [ -42.781521399999974, -22.755982599999985 ], [ -42.781615699999982, -22.755834399999955 ], [ -42.782715099999969, -22.753793699999953 ], [ -42.782897099999964, -22.753706699999945 ], [ -42.787643199999934, -22.755937399999929 ], [ -42.789047299999936, -22.756586799999972 ], [ -42.790091699999948, -22.754706299999949 ], [ -42.791116899999963, -22.752870199999968 ], [ -42.791512199999943, -22.752207 ], [ -42.791790299999946, -22.751740499999975 ], [ -42.798722199999929, -22.755114899999963 ] ] ] ] } }
]
}
