{
"type": "FeatureCollection",
"name": "3306008",
"crs": { "type": "name", "properties": { "name": "urn:ogc:def:crs:OGC:1.3:CRS84" } },
"features": [
{ "type": "Feature", "properties": { "CD_MUN": "3306008", "NM_MUN": "Três Rios" }, "geometry": { "type": "MultiPolygon", "coordinates": [ [ [ [ -43.099900699999978, -22.183092699999978 ], [ -43.099919699999937, -22.182712 ], [ -43.099955699999953, -22.181874599999954 ], [ -43.099967699999986, -22.181651199999976 ], [ -43.100013, -22.180804799999979 ], [ -43.097385, -22.180749599999942 ], [ -43.09679449999993, -22.183427499999937 ], [ -43.096661, -22.188738499999936 ], [ -43.097115, -22.188903099999948 ], [ -43.097434, -22.189207799999963 ], [ -43.09794619999996, -22.189284599999944 ], [ -43.098049699999933, -22.189266799999928 ], [ -43.098515399999947, -22.189186499999945 ], [ -43.098631399999938, -22.189166499999935 ], [ -43.099152599999961, -22.18887159999997 ], [ -43.099507099999983, -22.188951 ], [ -43.10057409999996, -22.188943499999937 ], [ -43.100974599999979, -22.188850799999948 ], [ -43.100992199999958, -22.188846699999925 ], [ -43.100800299999939, -22.187167799999933 ], [ -43.100707299999954, -22.186505399999927 ], [ -43.10063759999997, -22.185668699999944 ], [ -43.10066089999998, -22.184669299999936 ], [ -43.10063759999997, -22.184065099999945 ], [ -43.099811799999941, -22.18389349999995 ], [ -43.09982179999998, -22.18381259999995 ], [ -43.099894, -22.18322569999998 ], [ -43.099900699999978, -22.183092699999978 ] ] ], [ [ [ -43.100837099999978, -22.147116499999974 ], [ -43.100836199999954, -22.147081699999934 ], [ -43.100835199999949, -22.147046899999971 ], [ -43.100834, -22.147001499999938 ], [ -43.100833299999977, -22.146977199999977 ], [ -43.100728399999987, -22.146878399999927 ], [ -43.10054949999995, -22.146804099999937 ], [ -43.100454, -22.146764499999957 ], [ -43.100223399999948, -22.146671599999934 ], [ -43.10008129999995, -22.146614299999953 ], [ -43.099841099999935, -22.146472599999971 ], [ -43.099765499999926, -22.146428 ], [ -43.099558499999951, -22.146283 ], [ -43.099299599999945, -22.146200199999953 ], [ -43.099149499999953, -22.14613809999997 ], [ -43.099118399999952, -22.146055199999967 ], [ -43.099109099999964, -22.146039899999952 ], [ -43.099046, -22.14593619999993 ], [ -43.098958, -22.145822299999956 ], [ -43.098971699999943, -22.145706099999931 ], [ -43.09894809999998, -22.145618299999978 ], [ -43.09889579999998, -22.145423699999974 ], [ -43.098848899999957, -22.145220299999945 ], [ -43.098771599999964, -22.144885299999935 ], [ -43.0987545, -22.144841799999934 ], [ -43.09851279999998, -22.144227899999976 ], [ -43.098253899999975, -22.143818899999918 ], [ -43.098202399999941, -22.143712199999982 ], [ -43.098103799999933, -22.143508299999951 ], [ -43.098097699999983, -22.143480699999934 ], [ -43.098062399999954, -22.143321899999918 ], [ -43.098455799999961, -22.143529 ], [ -43.098776799999946, -22.143591099999988 ], [ -43.099315199999978, -22.143280499999939 ], [ -43.09954289999996, -22.143063099999946 ], [ -43.099718899999978, -22.142752499999979 ], [ -43.099701399999958, -22.142639499999966 ], [ -43.099646499999949, -22.142286599999977 ], [ -43.099398, -22.141634299999954 ], [ -43.099915699999933, -22.14149969999994 ], [ -43.101007899999956, -22.139684799999937 ], [ -43.101262099999985, -22.139262399999939 ], [ -43.101283399999943, -22.139226899999983 ], [ -43.101292699999938, -22.139211599999946 ], [ -43.101287, -22.139185299999944 ], [ -43.101283899999942, -22.13917089999995 ], [ -43.101279799999936, -22.139151799999983 ], [ -43.101096, -22.13830049999995 ], [ -43.100101299999949, -22.133960699999932 ], [ -43.100070899999942, -22.133828299999948 ], [ -43.09976179999996, -22.133929599999927 ], [ -43.096856899999985, -22.134881699999937 ], [ -43.096784799999966, -22.134936699999972 ], [ -43.096646299999968, -22.135000299999941 ], [ -43.096093499999931, -22.135254 ], [ -43.095212299999957, -22.135658399999947 ], [ -43.09463279999995, -22.13593319999995 ], [ -43.094379, -22.136053699999938 ], [ -43.093073499999953, -22.136672899999947 ], [ -43.09298339999998, -22.136715599999945 ], [ -43.092986799999956, -22.136761 ], [ -43.0930049, -22.137007299999937 ], [ -43.093093, -22.138203899999944 ], [ -43.093277199999932, -22.139086899999928 ], [ -43.093578, -22.141205 ], [ -43.093802699999969, -22.142786899999972 ], [ -43.094791199999975, -22.147570799999968 ], [ -43.09481569999997, -22.147689599999982 ], [ -43.095132899999946, -22.147509199999948 ], [ -43.095220899999966, -22.147459199999947 ], [ -43.096273, -22.146860699999937 ], [ -43.098194599999935, -22.145951699999966 ], [ -43.098216499999978, -22.145941399999963 ], [ -43.098238399999957, -22.145931 ], [ -43.100837099999978, -22.147116499999974 ] ] ], [ [ [ -43.220984599999959, -22.134342699999934 ], [ -43.222323299999964, -22.134097299999947 ], [ -43.225247499999966, -22.133217799999958 ], [ -43.22752689999993, -22.132063299999977 ], [ -43.22894789999998, -22.130760799999972 ], [ -43.229574499999956, -22.131549399999983 ], [ -43.230664899999965, -22.13292179999997 ], [ -43.236644699999943, -22.137954299999937 ], [ -43.236851399999978, -22.138059399999989 ], [ -43.238309199999946, -22.136473199999951 ], [ -43.238336599999968, -22.136443399999955 ], [ -43.238365299999941, -22.136412199999938 ], [ -43.238912599999935, -22.135816699999957 ], [ -43.239502299999963, -22.135175099999966 ], [ -43.241827699999924, -22.132645 ], [ -43.242587599999979, -22.131818099999979 ], [ -43.242655899999932, -22.131743799999981 ], [ -43.242682699999939, -22.131714599999956 ], [ -43.242696099999932, -22.131700099999929 ], [ -43.24274939999998, -22.131642 ], [ -43.242823399999956, -22.131561499999979 ], [ -43.242930799999961, -22.13137269999994 ], [ -43.242982299999944, -22.131282 ], [ -43.243003199999976, -22.131245199999974 ], [ -43.244684099999979, -22.128288499999943 ], [ -43.244693399999953, -22.128272099999943 ], [ -43.244712, -22.128239299999958 ], [ -43.245709199999965, -22.126485299999946 ], [ -43.24121039999995, -22.123643299999951 ], [ -43.239508399999977, -22.122622099999944 ], [ -43.238914099999931, -22.121461899999925 ], [ -43.238487099999929, -22.120628299999964 ], [ -43.234171899999978, -22.11472079999993 ], [ -43.23412449999995, -22.114655899999949 ], [ -43.23378629999997, -22.114192899999985 ], [ -43.23375759999994, -22.114114499999957 ], [ -43.233752599999953, -22.114100699999938 ], [ -43.232763599999942, -22.111392699999957 ], [ -43.232750699999947, -22.111357499999944 ], [ -43.232294099999933, -22.110107199999948 ], [ -43.232055799999955, -22.109454699999961 ], [ -43.231410199999964, -22.107687199999926 ], [ -43.231063, -22.106736399999932 ], [ -43.22903, -22.098469799999979 ], [ -43.228372099999945, -22.095794699999946 ], [ -43.227797299999963, -22.093852099999932 ], [ -43.226808099999971, -22.090509799999943 ], [ -43.226307399999939, -22.088817499999951 ], [ -43.22612369999996, -22.088196799999938 ], [ -43.225094499999962, -22.084927099999959 ], [ -43.224157599999955, -22.082356599999962 ], [ -43.224143599999934, -22.082335599999965 ], [ -43.224136299999941, -22.082324599999936 ], [ -43.223971099999972, -22.082275099999947 ], [ -43.223789499999953, -22.082257699999946 ], [ -43.223595099999962, -22.082281799999979 ], [ -43.223453199999938, -22.082322099999939 ], [ -43.223330799999978, -22.082303599999928 ], [ -43.223145299999942, -22.082231899999943 ], [ -43.2228947, -22.082118699999963 ], [ -43.222656499999971, -22.08202759999995 ], [ -43.222498499999972, -22.081965899999936 ], [ -43.222214399999984, -22.081810399999938 ], [ -43.2219942, -22.081689799999925 ], [ -43.221876499999951, -22.081611799999958 ], [ -43.221483599999942, -22.081198599999926 ], [ -43.22124359999998, -22.081083099999944 ], [ -43.220517799999975, -22.080814799999917 ], [ -43.220240399999966, -22.080750399999932 ], [ -43.219998699999962, -22.080755499999956 ], [ -43.219721799999945, -22.080832799999929 ], [ -43.219534499999959, -22.080856699999966 ], [ -43.219400199999939, -22.080814799999931 ], [ -43.219230699999969, -22.080718599999948 ], [ -43.219022399999979, -22.080539899999952 ], [ -43.218877299999974, -22.080435299999962 ], [ -43.218539899999939, -22.080342499999979 ], [ -43.218078099999957, -22.080298099999943 ], [ -43.218042199999957, -22.080275 ], [ -43.217855899999961, -22.0800733 ], [ -43.216313099999979, -22.078402499999978 ], [ -43.215554, -22.077592699999961 ], [ -43.215199699999971, -22.076816699999934 ], [ -43.215621499999948, -22.075484099999979 ], [ -43.216566099999966, -22.074691199999965 ], [ -43.217072199999969, -22.073847699999913 ], [ -43.217460199999948, -22.072818699999971 ], [ -43.217485299999957, -22.072644099999927 ], [ -43.215362899999946, -22.071068599999933 ], [ -43.215292599999941, -22.071016399999959 ], [ -43.215219599999962, -22.070962299999959 ], [ -43.215196599999956, -22.070953799999923 ], [ -43.21472319999998, -22.070780799999962 ], [ -43.214710599999933, -22.070776199999955 ], [ -43.21423539999995, -22.070602599999969 ], [ -43.214199299999969, -22.070589399999971 ], [ -43.214163199999973, -22.070576199999937 ], [ -43.213909799999954, -22.070483499999959 ], [ -43.213851699999971, -22.070462299999964 ], [ -43.212849599999963, -22.070096099999944 ], [ -43.212883099999942, -22.07121 ], [ -43.212730799999974, -22.071628799999928 ], [ -43.212293, -22.072028499999934 ], [ -43.210561, -22.074293399999924 ], [ -43.210180399999963, -22.075111799999942 ], [ -43.210150799999958, -22.075348299999973 ], [ -43.210144499999956, -22.075398699999933 ], [ -43.210131599999954, -22.075501699999961 ], [ -43.21008519999998, -22.075873099999967 ], [ -43.210313599999949, -22.07770029999995 ], [ -43.21092729999998, -22.079421699999955 ], [ -43.210982199999933, -22.07957569999996 ], [ -43.211045, -22.079751799999929 ], [ -43.211142299999949, -22.079964 ], [ -43.212052699999958, -22.08137359999996 ], [ -43.212263, -22.081699299999972 ], [ -43.212274, -22.081716299999975 ], [ -43.212349299999971, -22.081791599999985 ], [ -43.212469, -22.081911299999948 ], [ -43.212711799999965, -22.082154 ], [ -43.205111099999954, -22.082080699999942 ], [ -43.20378419999998, -22.088813099999982 ], [ -43.203113099999939, -22.090849 ], [ -43.20256709999996, -22.091213799999924 ], [ -43.202205499999934, -22.09092829999998 ], [ -43.201729699999937, -22.090757 ], [ -43.201539399999945, -22.090661799999967 ], [ -43.201158699999951, -22.090338299999935 ], [ -43.200778, -22.090224099999944 ], [ -43.200282399999935, -22.090167399999917 ], [ -43.199788299999966, -22.090281199999932 ], [ -43.199445699999963, -22.089938599999979 ], [ -43.198961299999951, -22.089644599999922 ], [ -43.198265699999979, -22.089481799999938 ], [ -43.197285499999964, -22.089510299999972 ], [ -43.196305299999956, -22.089538899999976 ], [ -43.194554199999978, -22.089691099999978 ], [ -43.193583499999932, -22.089995699999985 ], [ -43.192955399999967, -22.089234299999934 ], [ -43.192232199999978, -22.088910799999944 ], [ -43.191642199999933, -22.088796599999956 ], [ -43.190995, -22.087711699999943 ], [ -43.190271799999955, -22.087083599999982 ], [ -43.189110799999973, -22.086436499999923 ], [ -43.186878299999925, -22.085463899999986 ], [ -43.183800499999961, -22.083372199999918 ], [ -43.182239799999934, -22.082363399999956 ], [ -43.181535599999954, -22.082230199999977 ], [ -43.178784299999954, -22.082431899999964 ], [ -43.17868059999995, -22.08243949999996 ], [ -43.177629899999943, -22.082390899999943 ], [ -43.177258599999959, -22.082373699999948 ], [ -43.17636559999994, -22.082682799999933 ], [ -43.175403899999935, -22.083816199999941 ], [ -43.174858199999967, -22.085068099999951 ], [ -43.174167499999946, -22.086426499999956 ], [ -43.173549199999968, -22.087182099999957 ], [ -43.171110699999986, -22.088109399999951 ], [ -43.169874299999947, -22.088899399999946 ], [ -43.169668199999926, -22.089294299999942 ], [ -43.169501, -22.089614799999946 ], [ -43.169153, -22.090444899999969 ], [ -43.16890079999996, -22.091612199999922 ], [ -43.163043, -22.091979599999945 ], [ -43.159575699999948, -22.092347899999936 ], [ -43.154333, -22.092833399999961 ], [ -43.149166599999944, -22.093302099999953 ], [ -43.147960099999978, -22.092741799999946 ], [ -43.147289099999966, -22.092395799999959 ], [ -43.147035399999936, -22.0922649 ], [ -43.146907499999941, -22.092199 ], [ -43.146700799999962, -22.092092399999945 ], [ -43.146482299999946, -22.09200739999994 ], [ -43.146381799999972, -22.091975199999979 ], [ -43.146308499999982, -22.091951699999981 ], [ -43.145759099999964, -22.09350819999997 ], [ -43.145736599999964, -22.093540799999985 ], [ -43.145709499999953, -22.093579899999952 ], [ -43.145695799999949, -22.093599699999974 ], [ -43.145347099999981, -22.094103399999934 ], [ -43.145278399999931, -22.094744299999942 ], [ -43.14533739999996, -22.095202899999943 ], [ -43.145410899999952, -22.095774699999939 ], [ -43.145499, -22.09601349999997 ], [ -43.145700199999965, -22.096183199999938 ], [ -43.146230499999945, -22.09663039999997 ], [ -43.146506599999952, -22.096863299999942 ], [ -43.146707299999946, -22.096953899999964 ], [ -43.14838819999995, -22.097713 ], [ -43.15178729999996, -22.099424699999929 ], [ -43.156121199999973, -22.101197099999979 ], [ -43.160236499999939, -22.103078799999935 ], [ -43.1604569, -22.103196799999978 ], [ -43.160529, -22.103235399999953 ], [ -43.161166899999948, -22.103577199999972 ], [ -43.16230939999997, -22.104189199999951 ], [ -43.162615899999935, -22.104353399999969 ], [ -43.161730099999943, -22.105094399999924 ], [ -43.160294299999983, -22.106295499999927 ], [ -43.158392, -22.107324299999959 ], [ -43.157864599999975, -22.107609499999967 ], [ -43.1563738, -22.108941 ], [ -43.156212899999957, -22.109088299999936 ], [ -43.152469899999971, -22.110105099999927 ], [ -43.147932, -22.111744099999939 ], [ -43.146544199999937, -22.113106299999973 ], [ -43.146081599999953, -22.113286199999948 ], [ -43.145336199999974, -22.113132 ], [ -43.143297499999953, -22.112073099999964 ], [ -43.142020799999955, -22.11141 ], [ -43.140761399999981, -22.110986 ], [ -43.139502, -22.110561899999933 ], [ -43.138799899999988, -22.11062719999995 ], [ -43.138008, -22.11070089999993 ], [ -43.138292899999961, -22.112001399999944 ], [ -43.138757299999959, -22.112613199999934 ], [ -43.139765599999976, -22.113338199999934 ], [ -43.14076259999996, -22.114006599999978 ], [ -43.142450599999961, -22.114527699999947 ], [ -43.143141599999979, -22.114663699999944 ], [ -43.144205399999969, -22.115342299999948 ], [ -43.147455, -22.115407799999961 ], [ -43.149724799999944, -22.116178399999963 ], [ -43.15206459999996, -22.116458699999949 ], [ -43.154627, -22.116968499999931 ], [ -43.154859099999953, -22.118641599999936 ], [ -43.155314, -22.120140099999958 ], [ -43.154725699999972, -22.121684499999954 ], [ -43.154216499999968, -22.122792699999938 ], [ -43.153788, -22.123725299999933 ], [ -43.153585799999973, -22.123982699999946 ], [ -43.153022699999951, -22.124232199999927 ], [ -43.150345399999942, -22.125162 ], [ -43.147886599999936, -22.125278399999953 ], [ -43.147260899999942, -22.125205599999948 ], [ -43.146009699999979, -22.124856499999972 ], [ -43.144598499999979, -22.124856499999968 ], [ -43.143351499999937, -22.125053 ], [ -43.143323499999951, -22.125057499999961 ], [ -43.143387399999931, -22.125329099999931 ], [ -43.143444199999983, -22.125570499999984 ], [ -43.14366629999995, -22.126514599999936 ], [ -43.14367869999996, -22.126565099999926 ], [ -43.1436978, -22.126614799999963 ], [ -43.1437926, -22.126860299999972 ], [ -43.144033499999985, -22.127382199999943 ], [ -43.144298399999975, -22.127904099999963 ], [ -43.144852399999934, -22.128763099999961 ], [ -43.145430499999975, -22.129397399999963 ], [ -43.145944299999947, -22.129855099999936 ], [ -43.146393899999971, -22.130160099999959 ], [ -43.147285099999969, -22.130802499999955 ], [ -43.147734699999944, -22.131310699999982 ], [ -43.147831099999969, -22.131419599999958 ], [ -43.148373499999927, -22.13194359999995 ], [ -43.148575699999988, -22.132173499999961 ], [ -43.148658399999931, -22.132623899999938 ], [ -43.148787099999936, -22.133138699999947 ], [ -43.148952599999966, -22.133488 ], [ -43.149540899999977, -22.13387409999995 ], [ -43.149917799999976, -22.134195899999945 ], [ -43.150019, -22.134343 ], [ -43.150165, -22.134762199999965 ], [ -43.150497699999967, -22.135464499999951 ], [ -43.150781, -22.136092799999975 ], [ -43.150965799999945, -22.136585599999929 ], [ -43.151015099999938, -22.137250899999973 ], [ -43.151015099999945, -22.137977699999968 ], [ -43.151039799999985, -22.138618399999924 ], [ -43.151089, -22.139086599999935 ], [ -43.15136009999997, -22.139296 ], [ -43.151877499999948, -22.139530099999956 ], [ -43.152321, -22.13965329999996 ], [ -43.152690599999971, -22.139764199999945 ], [ -43.153011, -22.139912 ], [ -43.153368199999932, -22.140035199999932 ], [ -43.15436619999997, -22.140466399999976 ], [ -43.155302499999948, -22.140811399999947 ], [ -43.156029399999966, -22.14113169999996 ], [ -43.157187399999941, -22.141612199999944 ], [ -43.158125899999959, -22.141903399999929 ], [ -43.158259299999941, -22.141944799999976 ], [ -43.158865199999973, -22.141884199999936 ], [ -43.159244899999983, -22.141846199999982 ], [ -43.159250799999946, -22.142119899999951 ], [ -43.159269499999944, -22.142979699999955 ], [ -43.159257199999956, -22.14373119999993 ], [ -43.159109399999977, -22.144137799999953 ], [ -43.158912199999975, -22.144445799999961 ], [ -43.158490899999954, -22.144889899999946 ], [ -43.158456399999977, -22.144926199999933 ], [ -43.158123799999942, -22.145320499999968 ], [ -43.157975899999947, -22.145665399999931 ], [ -43.157926599999939, -22.145998099999932 ], [ -43.157939, -22.146355399999937 ], [ -43.158136099999979, -22.147279399999949 ], [ -43.158370199999979, -22.148425099999944 ], [ -43.158579599999939, -22.149447699999939 ], [ -43.158653499999957, -22.150026699999945 ], [ -43.158665799999945, -22.151197099999926 ], [ -43.158653499999957, -22.152503099999944 ], [ -43.158591899999983, -22.153057499999921 ], [ -43.158468699999958, -22.153328499999919 ], [ -43.158118299999956, -22.153752599999965 ], [ -43.15800059999998, -22.153895199999969 ], [ -43.157618599999978, -22.154486599999938 ], [ -43.157495399999966, -22.155004 ], [ -43.157495399999952, -22.155829499999989 ], [ -43.1574897, -22.156541399999984 ], [ -43.15748949999994, -22.156569599999944 ], [ -43.157483099999979, -22.157357099999956 ], [ -43.157487199999935, -22.157591399999951 ], [ -43.157544699999967, -22.160929899999921 ], [ -43.157594, -22.161829299999958 ], [ -43.15754469999996, -22.162322099999987 ], [ -43.157273699999962, -22.16328309999993 ], [ -43.1570493, -22.163977299999939 ], [ -43.156620699999969, -22.165303599999969 ], [ -43.156485199999963, -22.166042799999946 ], [ -43.156460599999946, -22.166646399999919 ], [ -43.156546799999951, -22.167237799999956 ], [ -43.156793199999981, -22.16796469999997 ], [ -43.157372199999948, -22.168691599999928 ], [ -43.157914299999966, -22.16904 ], [ -43.158062199999961, -22.169135099999952 ], [ -43.158216799999941, -22.169194299999955 ], [ -43.159220199999936, -22.169578599999955 ], [ -43.160624699999978, -22.17012069999992 ], [ -43.162620599999968, -22.171303399999946 ], [ -43.164025099999947, -22.172116499999962 ], [ -43.164443899999981, -22.172436799999961 ], [ -43.16483819999997, -22.172905 ], [ -43.165491499999973, -22.173863199999968 ], [ -43.16400509999994, -22.175273499999946 ], [ -43.165151799999933, -22.176960399999928 ], [ -43.165340499999957, -22.177238 ], [ -43.165578, -22.177661699999927 ], [ -43.165815499999951, -22.178085399999929 ], [ -43.16589259999995, -22.178611899999968 ], [ -43.165879699999948, -22.179485 ], [ -43.165687099999957, -22.181012899999921 ], [ -43.167514199999978, -22.181158099999948 ], [ -43.167824399999972, -22.18118279999992 ], [ -43.167918199999981, -22.18119019999995 ], [ -43.167868899999974, -22.181294899999941 ], [ -43.167487, -22.181972499999969 ], [ -43.167142, -22.182625499999972 ], [ -43.166969499999929, -22.183463299999971 ], [ -43.166871, -22.184350299999938 ], [ -43.166636899999958, -22.185865699999962 ], [ -43.166464399999931, -22.186383099999944 ], [ -43.166348399999947, -22.186588199999967 ], [ -43.16600219999998, -22.187002199999938 ], [ -43.165211499999948, -22.187574 ], [ -43.164366, -22.188188399999952 ], [ -43.163940199999963, -22.188602 ], [ -43.163772399999971, -22.189011 ], [ -43.163252899999975, -22.190067899999985 ], [ -43.162967, -22.190621399999937 ], [ -43.162273599999935, -22.191679799999982 ], [ -43.161993799999948, -22.191947399999947 ], [ -43.161627299999964, -22.19217939999993 ], [ -43.161322299999938, -22.192308599999929 ], [ -43.160774, -22.192357199999957 ], [ -43.160537399999953, -22.192377499999967 ], [ -43.160300699999937, -22.192397899999953 ], [ -43.159932199999957, -22.192423499999958 ], [ -43.159616699999958, -22.192470599999979 ], [ -43.159314699999982, -22.192528799999938 ], [ -43.15926909999996, -22.192547799999939 ], [ -43.158928199999934, -22.192719699999934 ], [ -43.159000299999946, -22.192734399999946 ], [ -43.159072299999941, -22.192749 ], [ -43.159629499999937, -22.192862399999971 ], [ -43.163649899999939, -22.19368019999996 ], [ -43.163664599999947, -22.193620399999929 ], [ -43.163709199999971, -22.193446299999952 ], [ -43.163744299999955, -22.193039299999942 ], [ -43.163849, -22.192741799999961 ], [ -43.164011, -22.192470799999974 ], [ -43.164340899999956, -22.191881299999981 ], [ -43.164772399999947, -22.191156499999973 ], [ -43.164900499999931, -22.190968 ], [ -43.165028599999971, -22.190779499999966 ], [ -43.165421599999952, -22.190351399999937 ], [ -43.16552919999998, -22.190238199999946 ], [ -43.165814099999977, -22.189938199999968 ], [ -43.166088399999978, -22.189649599999942 ], [ -43.166439299999979, -22.189214399999972 ], [ -43.166783099999975, -22.188695099999965 ], [ -43.166870399999937, -22.188562 ], [ -43.167035299999959, -22.188310599999962 ], [ -43.167099299999968, -22.188213 ], [ -43.167526099999975, -22.187266599999926 ], [ -43.167597899999983, -22.186900499999972 ], [ -43.167596199999934, -22.186858299999983 ], [ -43.167573199999929, -22.18628449999995 ], [ -43.167689399999979, -22.186041599999964 ], [ -43.167708699999942, -22.186001199999964 ], [ -43.168004399999973, -22.185606899999986 ], [ -43.168337099999967, -22.185225 ], [ -43.168460299999943, -22.184830799999929 ], [ -43.168445199999951, -22.184619699999935 ], [ -43.168435599999953, -22.184485799999951 ], [ -43.168263099999933, -22.184165499999949 ], [ -43.167976599999974, -22.18366119999996 ], [ -43.167955099999972, -22.183623399999931 ], [ -43.167819599999973, -22.183106 ], [ -43.167922799999985, -22.18263139999992 ], [ -43.167942799999928, -22.182539299999977 ], [ -43.168324699999971, -22.18209569999993 ], [ -43.168681899999967, -22.181794399999948 ], [ -43.168719, -22.181763099999955 ], [ -43.169298, -22.181504399999945 ], [ -43.170000299999977, -22.18144279999995 ], [ -43.170603899999954, -22.181381199999961 ], [ -43.171183, -22.181147099999965 ], [ -43.171725099999946, -22.180715899999935 ], [ -43.171855699999981, -22.180553699999972 ], [ -43.172082299999943, -22.180272399999978 ], [ -43.172109399999954, -22.180258399999961 ], [ -43.17251349999998, -22.180050599999955 ], [ -43.172994, -22.179989 ], [ -43.173622299999977, -22.179976699999948 ], [ -43.174090499999977, -22.179878099999943 ], [ -43.17414, -22.179842099999973 ], [ -43.174361499999975, -22.179681 ], [ -43.174380699999972, -22.179641299999947 ], [ -43.174484599999978, -22.179426799999931 ], [ -43.174546299999982, -22.179299099999984 ], [ -43.174718799999937, -22.178806299999966 ], [ -43.175193399999955, -22.178078599999939 ], [ -43.175273199999943, -22.177956199999986 ], [ -43.175864599999954, -22.177081499999918 ], [ -43.176345099999935, -22.176403899999965 ], [ -43.177059599999957, -22.175677 ], [ -43.177416899999976, -22.175147199999955 ], [ -43.177404599999939, -22.174839199999944 ], [ -43.177244399999942, -22.174629799999934 ], [ -43.17683789999996, -22.17438339999995 ], [ -43.176123299999979, -22.174001499999971 ], [ -43.175113099999983, -22.173582599999964 ], [ -43.174299899999937, -22.173237599999936 ], [ -43.173560699999939, -22.172707899999967 ], [ -43.17274759999998, -22.171636 ], [ -43.171934499999971, -22.170379399999938 ], [ -43.171712699999944, -22.169566299999921 ], [ -43.171626499999952, -22.16898719999995 ], [ -43.171281499999964, -22.16834659999995 ], [ -43.171072099999947, -22.167632 ], [ -43.170825699999966, -22.16648629999996 ], [ -43.170813399999936, -22.165451399999945 ], [ -43.170813399999929, -22.164638299999979 ], [ -43.170542299999973, -22.164071499999977 ], [ -43.170259, -22.163147499999972 ], [ -43.170086499999961, -22.162026399999938 ], [ -43.170088399999948, -22.161901399999973 ], [ -43.170098799999955, -22.161213299999929 ], [ -43.170048899999983, -22.161008399999954 ], [ -43.16997559999993, -22.160708199999934 ], [ -43.169692299999952, -22.160375499999926 ], [ -43.16912549999995, -22.160104499999932 ], [ -43.168349399999954, -22.159845799999967 ], [ -43.167597899999983, -22.159685599999928 ], [ -43.167260799999951, -22.159626799999952 ], [ -43.166821699999957, -22.15955009999993 ], [ -43.166241699999937, -22.159298299999922 ], [ -43.165885399999979, -22.159143499999978 ], [ -43.165772599999968, -22.159101 ], [ -43.165232399999979, -22.158897099999933 ], [ -43.164764299999938, -22.158934099999954 ], [ -43.164160599999946, -22.158995699999934 ], [ -43.163776299999945, -22.15898969999995 ], [ -43.163372099999947, -22.158983399999947 ], [ -43.162398799999956, -22.158897099999926 ], [ -43.161388599999952, -22.158515199999943 ], [ -43.159663799999983, -22.157997799999972 ], [ -43.158739799999971, -22.157578899999983 ], [ -43.15873809999993, -22.157576399999982 ], [ -43.158456399999977, -22.157147699999932 ], [ -43.158037499999978, -22.156371499999988 ], [ -43.157939, -22.155595399999985 ], [ -43.157988199999977, -22.155041 ], [ -43.15819769999996, -22.15465909999994 ], [ -43.158518, -22.154351099999932 ], [ -43.159047799999932, -22.154252499999927 ], [ -43.159602199999938, -22.153981499999919 ], [ -43.159811599999955, -22.153513299999929 ], [ -43.159823899999942, -22.152848 ], [ -43.15997179999993, -22.151800799999933 ], [ -43.159996399999962, -22.150408599999935 ], [ -43.16031129999994, -22.150227299999976 ], [ -43.160834, -22.149926199999978 ], [ -43.162266499999937, -22.149101199999958 ], [ -43.165899399999944, -22.147008699999965 ], [ -43.166969499999936, -22.146392299999956 ], [ -43.169103899999982, -22.1451767 ], [ -43.169803099999967, -22.144778399999957 ], [ -43.174236199999946, -22.142087199999931 ], [ -43.175729099999963, -22.141181 ], [ -43.177657399999937, -22.139836399999975 ], [ -43.178206799999934, -22.13945329999995 ], [ -43.178221599999972, -22.139443 ], [ -43.179351199999985, -22.138655399999944 ], [ -43.179154, -22.138273399999949 ], [ -43.178870699999948, -22.137903799999943 ], [ -43.178525699999966, -22.13755889999992 ], [ -43.17793439999997, -22.137250899999966 ], [ -43.177294199999949, -22.137070199999986 ], [ -43.176776299999979, -22.13706609999997 ], [ -43.176529899999935, -22.136905899999931 ], [ -43.176665399999933, -22.135760099999974 ], [ -43.176776299999972, -22.134257099999946 ], [ -43.176739299999952, -22.133234499999958 ], [ -43.176617, -22.132408799999951 ], [ -43.176591499999972, -22.132236599999931 ], [ -43.176423599999971, -22.131186299999975 ], [ -43.176155599999959, -22.1295095 ], [ -43.178291599999966, -22.129316799999966 ], [ -43.183262699999943, -22.128971 ], [ -43.183958799999978, -22.128811699999964 ], [ -43.184944399999949, -22.128220299999942 ], [ -43.186028599999936, -22.127148499999983 ], [ -43.18710039999997, -22.126101299999949 ], [ -43.187716399999942, -22.125891799999977 ], [ -43.188147599999986, -22.126002699999958 ], [ -43.18883759999995, -22.126581699999981 ], [ -43.189564399999931, -22.126951299999963 ], [ -43.190722499999943, -22.127099199999986 ], [ -43.193630099999957, -22.127345599999956 ], [ -43.196512899999952, -22.127481099999965 ], [ -43.197175899999927, -22.12744919999993 ], [ -43.199237, -22.12735019999997 ], [ -43.201921399999939, -22.126914399999972 ], [ -43.203742599999948, -22.125971299999954 ], [ -43.204939799999984, -22.125497599999953 ], [ -43.206442899999956, -22.126039699999975 ], [ -43.213317399999937, -22.130997599999937 ], [ -43.21814269999993, -22.133839499999969 ], [ -43.220984599999959, -22.134342699999934 ] ] ] ] } }
]
}
