{
"type": "FeatureCollection",
"name": "3501905",
"crs": { "type": "name", "properties": { "name": "urn:ogc:def:crs:OGC:1.3:CRS84" } },
"features": [
{ "type": "Feature", "properties": { "CD_MUN": "3501905", "NM_MUN": "Amparo" }, "geometry": { "type": "MultiPolygon", "coordinates": [ [ [ [ -46.765225799999939, -22.849048599999939 ], [ -46.764992799999959, -22.849057399999939 ], [ -46.764977199999976, -22.849073599999937 ], [ -46.764761299999982, -22.849296899999956 ], [ -46.764482899999962, -22.850015399999965 ], [ -46.764650299999971, -22.85025 ], [ -46.765769499999983, -22.851265799999958 ], [ -46.767420799999968, -22.852399199999976 ], [ -46.768671499999989, -22.850909199999936 ], [ -46.766420799999935, -22.848835399999931 ], [ -46.766405, -22.848820799999949 ], [ -46.766243299999978, -22.848869 ], [ -46.765991299999946, -22.848934699999969 ], [ -46.765734499999958, -22.848974099999964 ], [ -46.765430199999969, -22.849026699999975 ], [ -46.765340399999957, -22.84903629999997 ], [ -46.765225799999939, -22.849048599999939 ] ] ], [ [ [ -46.771443499999975, -22.841193 ], [ -46.7712504, -22.841277299999948 ], [ -46.770690899999977, -22.841881799999946 ], [ -46.770702299999989, -22.841898699999945 ], [ -46.770714799999951, -22.841917099999936 ], [ -46.773682299999962, -22.846300699999976 ], [ -46.774122199999965, -22.845886699999944 ], [ -46.774571, -22.845716499999973 ], [ -46.775010099999974, -22.845716 ], [ -46.775419299999946, -22.845836799999972 ], [ -46.775990199999967, -22.846330899999934 ], [ -46.77626719999995, -22.846929 ], [ -46.776833699999941, -22.846614099999954 ], [ -46.776875499999967, -22.846126299999973 ], [ -46.77685089999995, -22.845445899999955 ], [ -46.776642799999927, -22.845198799999935 ], [ -46.776295199999936, -22.844792499999983 ], [ -46.776007599999957, -22.844489099999976 ], [ -46.77577169999995, -22.844133599999964 ], [ -46.775404099999946, -22.843902699999948 ], [ -46.775133799999935, -22.843886299999955 ], [ -46.774792199999986, -22.843875699999952 ], [ -46.77448469999996, -22.843927599999965 ], [ -46.774204199999986, -22.843996499999935 ], [ -46.774107799999967, -22.842876799999953 ], [ -46.774077199999965, -22.842506399999934 ], [ -46.774030699999969, -22.842090299999942 ], [ -46.773996699999941, -22.841889199999972 ], [ -46.773922899999945, -22.841727499999941 ], [ -46.773852499999975, -22.841580599999936 ], [ -46.773327699999982, -22.841099299999932 ], [ -46.7731055, -22.841012799999937 ], [ -46.772989, -22.840984299999946 ], [ -46.772896199999934, -22.840978299999957 ], [ -46.772735599999976, -22.840975799999967 ], [ -46.77242049999996, -22.841029699999986 ], [ -46.772136799999949, -22.841086599999976 ], [ -46.771831799999973, -22.841125 ], [ -46.771643, -22.841143599999956 ], [ -46.771443499999975, -22.841193 ] ] ], [ [ [ -46.856968299999949, -22.735728399999971 ], [ -46.858673099999983, -22.736179799999938 ], [ -46.858732699999962, -22.736197 ], [ -46.85877059999995, -22.736207099999945 ], [ -46.858829199999953, -22.73621339999994 ], [ -46.859095699999962, -22.736241599999971 ], [ -46.85972529999998, -22.736307699999944 ], [ -46.85996959999995, -22.736336499999926 ], [ -46.860136399999931, -22.736354199999948 ], [ -46.860611699999936, -22.735893 ], [ -46.860691899999949, -22.735552599999952 ], [ -46.860521899999988, -22.734787199999968 ], [ -46.860519799999963, -22.734778 ], [ -46.860694299999977, -22.734086099999942 ], [ -46.861691099999966, -22.732261399999967 ], [ -46.861949199999962, -22.731616899999946 ], [ -46.861980199999948, -22.731539599999962 ], [ -46.862754499999937, -22.729979899999929 ], [ -46.863064099999967, -22.729125199999945 ], [ -46.863623599999983, -22.728096499999943 ], [ -46.864612599999937, -22.727091399999956 ], [ -46.865736899999945, -22.726799099999937 ], [ -46.865848599999936, -22.726720199999935 ], [ -46.866616099999931, -22.726178 ], [ -46.867262599999954, -22.725312199999969 ], [ -46.867389, -22.72483219999998 ], [ -46.867680899999982, -22.723724699999941 ], [ -46.867682899999984, -22.723717 ], [ -46.867867099999955, -22.723294699999936 ], [ -46.864123299999953, -22.721512699999941 ], [ -46.86395379999994, -22.721332 ], [ -46.863552799999979, -22.720818499999957 ], [ -46.863441799999976, -22.720636299999974 ], [ -46.863191399999948, -22.720400099999946 ], [ -46.862765099999926, -22.720178299999933 ], [ -46.86247979999996, -22.719962699999925 ], [ -46.861975799999982, -22.719501499999982 ], [ -46.861738099999961, -22.719303399999941 ], [ -46.861253099999935, -22.718989599999919 ], [ -46.86103119999995, -22.718883399999974 ], [ -46.860617, -22.718657 ], [ -46.860564, -22.71864 ], [ -46.860273, -22.718619 ], [ -46.859754, -22.718673 ], [ -46.859151, -22.718656 ], [ -46.858684, -22.718668 ], [ -46.858123, -22.71871 ], [ -46.857801, -22.718619 ], [ -46.857531, -22.718536 ], [ -46.857377, -22.71869 ], [ -46.857066, -22.718936 ], [ -46.856856, -22.719087 ], [ -46.856474, -22.719326 ], [ -46.85628, -22.719535 ], [ -46.856046, -22.719725 ], [ -46.855882, -22.719905 ], [ -46.855813, -22.719997 ], [ -46.855379, -22.72002 ], [ -46.855234199999977, -22.720008799999963 ], [ -46.853586, -22.720061599999944 ], [ -46.853171, -22.720566199999954 ], [ -46.852366, -22.720157 ], [ -46.852328, -22.720173 ], [ -46.85228909999995, -22.720189699999931 ], [ -46.848547, -22.721791 ], [ -46.84759, -22.720611 ], [ -46.844719, -22.717075 ], [ -46.844695599999966, -22.717046199999974 ], [ -46.843919899999939, -22.716092499999959 ], [ -46.843859099999975, -22.716017699999949 ], [ -46.843843599999957, -22.715998599999985 ], [ -46.843346, -22.715383 ], [ -46.842663, -22.715125199999939 ], [ -46.842639399999946, -22.71511629999998 ], [ -46.842616299999975, -22.715107599999961 ], [ -46.839755299999979, -22.714027699999974 ], [ -46.83968, -22.713999299999958 ], [ -46.839611699999978, -22.714025799999956 ], [ -46.833967, -22.716216 ], [ -46.837046, -22.718741 ], [ -46.836427399999934, -22.720880099999928 ], [ -46.836420399999952, -22.720904099999931 ], [ -46.836409099999969, -22.720943 ], [ -46.835814199999959, -22.722999799999972 ], [ -46.835798, -22.723056 ], [ -46.835810099999954, -22.723092 ], [ -46.836309899999947, -22.724582899999969 ], [ -46.836323, -22.724622 ], [ -46.836338799999972, -22.724660299999982 ], [ -46.836531, -22.725126 ], [ -46.838053, -22.725644 ], [ -46.849634399999957, -22.726812399999975 ], [ -46.84966, -22.726815 ], [ -46.849683399999947, -22.726817299999929 ], [ -46.850275, -22.726877 ], [ -46.851926299999953, -22.724872099999967 ], [ -46.852003899999943, -22.724777799999959 ], [ -46.852064699999978, -22.725074399999976 ], [ -46.852152199999978, -22.725376399999959 ], [ -46.85216649999996, -22.725439599999955 ], [ -46.852282499999944, -22.725897099999937 ], [ -46.852394299999965, -22.726250299999936 ], [ -46.852549499999952, -22.72653629999996 ], [ -46.852759399999968, -22.726885 ], [ -46.853155799999968, -22.727549399999923 ], [ -46.853422599999931, -22.727973 ], [ -46.853784699999956, -22.728559299999976 ], [ -46.854008, -22.728816599999952 ], [ -46.854259599999978, -22.729071699999967 ], [ -46.85481, -22.729580299999945 ], [ -46.855412799999954, -22.730072199999942 ], [ -46.855867399999958, -22.730501399999973 ], [ -46.856050799999934, -22.730690199999962 ], [ -46.856454699999972, -22.731213499999967 ], [ -46.856663199999964, -22.731552099999927 ], [ -46.856983099999979, -22.73202 ], [ -46.857180399999955, -22.732163299999968 ], [ -46.856989899999981, -22.732241599999956 ], [ -46.856379299999965, -22.732638399999928 ], [ -46.8559226, -22.732915899999963 ], [ -46.855773899999974, -22.733068 ], [ -46.855569599999974, -22.733502399999953 ], [ -46.855009199999984, -22.734560399999964 ], [ -46.854690099999964, -22.735119699999935 ], [ -46.856246699999986, -22.735532899999949 ], [ -46.856968299999949, -22.735728399999971 ] ] ], [ [ [ -46.803184599999952, -22.732718399999953 ], [ -46.801622899999984, -22.735582299999972 ], [ -46.808507199999958, -22.734200199999972 ], [ -46.810712, -22.733504899999954 ], [ -46.811783, -22.73316559999995 ], [ -46.812315099999978, -22.732541399999942 ], [ -46.812842499999931, -22.732269299999917 ], [ -46.812887499999938, -22.732246 ], [ -46.81292579999996, -22.732226299999983 ], [ -46.813340399999966, -22.732012399999974 ], [ -46.81371739999998, -22.731161799999931 ], [ -46.814457699999942, -22.730445899999946 ], [ -46.81454059999993, -22.729925199999968 ], [ -46.815251499999938, -22.72936059999995 ], [ -46.815867399999945, -22.72839579999993 ], [ -46.815872599999977, -22.728368699999972 ], [ -46.815881, -22.728328899999944 ], [ -46.816121, -22.727185799999976 ], [ -46.816778699999986, -22.726242899999924 ], [ -46.816764599999949, -22.725946799999967 ], [ -46.81675869999998, -22.725913699999975 ], [ -46.8167261, -22.72573269999998 ], [ -46.816679199999953, -22.725277299999959 ], [ -46.816788899999956, -22.72504379999997 ], [ -46.816805, -22.725009399999983 ], [ -46.816820799999952, -22.724976 ], [ -46.816911799999957, -22.72478209999996 ], [ -46.817753799999934, -22.724295099999946 ], [ -46.817784799999977, -22.724277199999957 ], [ -46.817823699999963, -22.724254499999972 ], [ -46.817928599999966, -22.724193399999933 ], [ -46.817968899999983, -22.72417 ], [ -46.817998699999976, -22.724152799999956 ], [ -46.818160099999943, -22.724060099999967 ], [ -46.81822139999997, -22.723807399999938 ], [ -46.818230699999958, -22.723769399999984 ], [ -46.818239699999936, -22.723732299999934 ], [ -46.81827329999993, -22.723593699999981 ], [ -46.818131599999958, -22.722863099999927 ], [ -46.81812709999997, -22.722839799999964 ], [ -46.818121499999954, -22.722811 ], [ -46.818112199999973, -22.722763 ], [ -46.818301199999958, -22.722336799999933 ], [ -46.817617799999937, -22.721375 ], [ -46.817614599999956, -22.720990499999978 ], [ -46.817855699999939, -22.720643699999975 ], [ -46.817874899999936, -22.720616099999972 ], [ -46.817896499999968, -22.720585099999933 ], [ -46.818082599999968, -22.720317299999973 ], [ -46.818157299999939, -22.72002689999993 ], [ -46.8180268, -22.719320599999936 ], [ -46.8175993, -22.718670299999914 ], [ -46.818252499999971, -22.719290299999955 ], [ -46.821144799999949, -22.719532099999967 ], [ -46.821622599999955, -22.716475299999946 ], [ -46.822645599999937, -22.715914599999955 ], [ -46.822678799999949, -22.715747699999959 ], [ -46.82267319999994, -22.715728499999948 ], [ -46.82322489999995, -22.71528009999998 ], [ -46.823409799999979, -22.715127299999953 ], [ -46.823789899999952, -22.714814599999958 ], [ -46.823897199999983, -22.714726299999949 ], [ -46.824214799999936, -22.714484499999962 ], [ -46.824116199999935, -22.714189 ], [ -46.82399989999994, -22.713906099999971 ], [ -46.823865699999949, -22.713582099999932 ], [ -46.823857499999974, -22.713563799999967 ], [ -46.823845199999944, -22.713496899999932 ], [ -46.823839699999951, -22.713441299999939 ], [ -46.823841699999946, -22.713270499999961 ], [ -46.823832199999977, -22.713083599999941 ], [ -46.823810199999961, -22.712942699999925 ], [ -46.823752699999943, -22.712798799999973 ], [ -46.823629499999981, -22.712634599999941 ], [ -46.823407699999969, -22.712374399999923 ], [ -46.823257099999978, -22.71221909999997 ], [ -46.823139399999953, -22.712105399999928 ], [ -46.822895699999954, -22.711898299999977 ], [ -46.822753299999931, -22.711799799999937 ], [ -46.822550599999943, -22.711701299999955 ], [ -46.822454799999946, -22.711648199999967 ], [ -46.822389099999953, -22.711585099999976 ], [ -46.822279399999957, -22.711433099999969 ], [ -46.823664, -22.711468 ], [ -46.823899, -22.711484 ], [ -46.82402, -22.711492 ], [ -46.824049099999968, -22.711485 ], [ -46.825045, -22.711511 ], [ -46.826254, -22.711535 ], [ -46.826671, -22.711541 ], [ -46.827131699999939, -22.711407099999978 ], [ -46.827302, -22.711366 ], [ -46.827244, -22.711281 ], [ -46.827318499999933, -22.711209199999924 ], [ -46.827934, -22.710616 ], [ -46.827643, -22.710705 ], [ -46.827349, -22.710674 ], [ -46.827175, -22.710599 ], [ -46.827052199999969, -22.710516 ], [ -46.82699, -22.710474 ], [ -46.826896, -22.71028 ], [ -46.826867299999947, -22.710201 ], [ -46.82681, -22.710043 ], [ -46.826727499999947, -22.709868099999937 ], [ -46.826688, -22.709781 ], [ -46.826493, -22.709614 ], [ -46.826340399999935, -22.709545099999964 ], [ -46.826181, -22.709473 ], [ -46.826050799999962, -22.709452199999923 ], [ -46.825787, -22.70941 ], [ -46.825750799999973, -22.709412499999921 ], [ -46.82533, -22.709441 ], [ -46.824965, -22.709444 ], [ -46.824735, -22.709371 ], [ -46.824641, -22.709176 ], [ -46.824648299999978, -22.709078699999967 ], [ -46.824653, -22.709017 ], [ -46.824658299999953, -22.708954699999932 ], [ -46.824664, -22.708887 ], [ -46.82479, -22.708657 ], [ -46.824848, -22.708558099999941 ], [ -46.824986, -22.708323 ], [ -46.825108, -22.707915 ], [ -46.825286, -22.707522 ], [ -46.825430399999959, -22.707303899999943 ], [ -46.825564, -22.707102 ], [ -46.825607, -22.706876 ], [ -46.825631, -22.706684799999941 ], [ -46.82564, -22.706613 ], [ -46.82562489999998, -22.706537899999947 ], [ -46.825611, -22.706469 ], [ -46.825562799999943, -22.706418099999965 ], [ -46.825537, -22.706391 ], [ -46.825491, -22.706342 ], [ -46.825458499999968, -22.706338899999935 ], [ -46.825421499999948, -22.706334399999946 ], [ -46.825334, -22.706327 ], [ -46.82516, -22.706287 ], [ -46.824895, -22.706307 ], [ -46.824523, -22.706489 ], [ -46.824052, -22.706851 ], [ -46.824009, -22.705217099999963 ], [ -46.824007699999981, -22.705167499999959 ], [ -46.824006299999951, -22.705114 ], [ -46.823761499999932, -22.695807799999962 ], [ -46.823760299999954, -22.69576259999997 ], [ -46.823713299999959, -22.695771599999937 ], [ -46.809633799999972, -22.698454399999942 ], [ -46.803521099999955, -22.699619099999946 ], [ -46.804788, -22.703587 ], [ -46.804420799999953, -22.703689299999944 ], [ -46.80473029999996, -22.704968799999957 ], [ -46.804874799999943, -22.70557959999995 ], [ -46.805002699999939, -22.7061409 ], [ -46.804973799999978, -22.706351399999964 ], [ -46.804878899999949, -22.70686319999993 ], [ -46.804987299999944, -22.706885099999962 ], [ -46.804088, -22.708851 ], [ -46.802461, -22.710067 ], [ -46.802508, -22.710628 ], [ -46.801342, -22.712041 ], [ -46.801306899999986, -22.712091599999958 ], [ -46.800990899999938, -22.711646799999983 ], [ -46.800809299999969, -22.711989399999933 ], [ -46.80117249999995, -22.712451699999967 ], [ -46.801028099999947, -22.712550699999948 ], [ -46.800957899999965, -22.712711699999936 ], [ -46.801420199999939, -22.713231699999948 ], [ -46.80117759999996, -22.713891599999968 ], [ -46.800658099999964, -22.713970399999937 ], [ -46.799983799999957, -22.713652699999951 ], [ -46.799579399999971, -22.713793099999975 ], [ -46.798489699999948, -22.713050099999972 ], [ -46.79751569999997, -22.712728199999955 ], [ -46.79687179999997, -22.712786 ], [ -46.795199199999956, -22.712307199999934 ], [ -46.795389499999942, -22.708330599999961 ], [ -46.795390599999962, -22.708308699999979 ], [ -46.795339499999962, -22.708307599999948 ], [ -46.792619499999944, -22.708239199999976 ], [ -46.788219799999986, -22.708382099999934 ], [ -46.787195499999946, -22.711243699999955 ], [ -46.785150599999952, -22.708813699999947 ], [ -46.785255899999974, -22.708744499999963 ], [ -46.784353099999976, -22.708026 ], [ -46.786597699999966, -22.705510699999934 ], [ -46.78711629999998, -22.704893199999947 ], [ -46.787187299999971, -22.704808 ], [ -46.787590799999982, -22.70432709999994 ], [ -46.787230199999954, -22.700144 ], [ -46.787221899999963, -22.700047599999941 ], [ -46.787160799999981, -22.699339099999978 ], [ -46.78715439999997, -22.69926549999996 ], [ -46.787075799999975, -22.698353199999918 ], [ -46.787069599999938, -22.698281899999937 ], [ -46.78705709999997, -22.698136299999945 ], [ -46.787053, -22.698089 ], [ -46.787248, -22.698219 ], [ -46.787503, -22.69817 ], [ -46.787726, -22.698102 ], [ -46.787989, -22.698013 ], [ -46.787986699999976, -22.697978499999973 ], [ -46.787793199999953, -22.696086199999968 ], [ -46.789711699999941, -22.695515 ], [ -46.790003399999939, -22.692008 ], [ -46.781849599999937, -22.688992099999943 ], [ -46.781102, -22.68879829999997 ], [ -46.781061799999982, -22.688787899999955 ], [ -46.781015099999941, -22.688775799999977 ], [ -46.7805216, -22.688647899999975 ], [ -46.780372199999931, -22.688609099999944 ], [ -46.780186699999945, -22.688561 ], [ -46.780112, -22.68854169999998 ], [ -46.779255099999943, -22.68831949999997 ], [ -46.779214299999978, -22.688309 ], [ -46.777047899999957, -22.687749699999916 ], [ -46.776973699999985, -22.687730599999945 ], [ -46.776911, -22.687827 ], [ -46.776332, -22.687883 ], [ -46.775939, -22.687865 ], [ -46.775675, -22.687861 ], [ -46.775455, -22.687899 ], [ -46.77513, -22.688057 ], [ -46.774889, -22.688284 ], [ -46.774773, -22.688464 ], [ -46.774717, -22.688571 ], [ -46.77463, -22.68885 ], [ -46.774563, -22.689074 ], [ -46.774372, -22.689307 ], [ -46.774018, -22.689432 ], [ -46.773621, -22.689411 ], [ -46.77333, -22.689331 ], [ -46.773105, -22.689244 ], [ -46.772867, -22.689198 ], [ -46.772469, -22.689242 ], [ -46.772247, -22.689411 ], [ -46.771991, -22.689666 ], [ -46.771788, -22.68991 ], [ -46.771635, -22.690072 ], [ -46.77153, -22.690139 ], [ -46.771385599999981, -22.690320099999951 ], [ -46.771317, -22.690406 ], [ -46.771101, -22.690627 ], [ -46.77085, -22.691011 ], [ -46.7708, -22.691373 ], [ -46.770809, -22.691736 ], [ -46.770805, -22.692082 ], [ -46.770838, -22.692396 ], [ -46.770824, -22.692631 ], [ -46.770744, -22.692784 ], [ -46.77064, -22.692918 ], [ -46.770593, -22.692972 ], [ -46.770487, -22.693102 ], [ -46.770287, -22.693306 ], [ -46.770142, -22.693463 ], [ -46.770051, -22.69357 ], [ -46.770019, -22.693643 ], [ -46.769906, -22.693998 ], [ -46.769774, -22.694333 ], [ -46.769723, -22.69455 ], [ -46.769671, -22.69473 ], [ -46.769601, -22.694891 ], [ -46.769496, -22.695335 ], [ -46.769353, -22.695977 ], [ -46.769285, -22.696147 ], [ -46.768888, -22.696013 ], [ -46.768809, -22.695622 ], [ -46.768729, -22.695124 ], [ -46.768694, -22.694843 ], [ -46.768701, -22.694605 ], [ -46.768706, -22.69446 ], [ -46.768704, -22.694331 ], [ -46.768684, -22.694158 ], [ -46.768658, -22.694054 ], [ -46.768629, -22.693978 ], [ -46.768645, -22.693842 ], [ -46.768562, -22.69369 ], [ -46.768464199999983, -22.693536499999933 ], [ -46.767992, -22.693531199999935 ], [ -46.767846299999967, -22.693669699999937 ], [ -46.767597099999932, -22.69365669999997 ], [ -46.766917699999972, -22.693621599999965 ], [ -46.766687899999965, -22.693595499999955 ], [ -46.766456099999978, -22.693585699999971 ], [ -46.766240799999927, -22.693656699999973 ], [ -46.765838, -22.693695199999972 ], [ -46.765530199999944, -22.693509599999974 ], [ -46.765266699999984, -22.693546 ], [ -46.765174, -22.693654 ], [ -46.765183, -22.693675 ], [ -46.765292, -22.693849 ], [ -46.765377, -22.693958 ], [ -46.765478, -22.694093 ], [ -46.765562, -22.694286 ], [ -46.765711, -22.694648 ], [ -46.765673699999979, -22.694658199999939 ], [ -46.765037599999971, -22.694832699999949 ], [ -46.765, -22.694843 ], [ -46.764955, -22.694986 ], [ -46.764879, -22.695295 ], [ -46.764865, -22.695997 ], [ -46.764876, -22.696752 ], [ -46.764763, -22.696909 ], [ -46.764747899999968, -22.696942299999922 ], [ -46.764564, -22.697347 ], [ -46.764123, -22.697023 ], [ -46.763802, -22.696899 ], [ -46.763574, -22.69686 ], [ -46.763337, -22.696879 ], [ -46.76268, -22.696968 ], [ -46.762346, -22.697038 ], [ -46.76151, -22.697136 ], [ -46.761117, -22.697218 ], [ -46.760283, -22.69746 ], [ -46.759891, -22.697653 ], [ -46.75963, -22.6978 ], [ -46.759358, -22.698014 ], [ -46.759263, -22.698115 ], [ -46.759021, -22.698325 ], [ -46.758579, -22.698643 ], [ -46.758195, -22.698955 ], [ -46.757851, -22.698994 ], [ -46.757392, -22.698922 ], [ -46.756805, -22.698905 ], [ -46.756414, -22.69896239999996 ], [ -46.756376, -22.698968 ], [ -46.756333399999967, -22.698977399999936 ], [ -46.7550897, -22.699931799999938 ], [ -46.754579699999965, -22.700289299999948 ], [ -46.753917299999955, -22.700373399999936 ], [ -46.753176, -22.700236699999952 ], [ -46.752329499999966, -22.70022089999997 ], [ -46.751609199999962, -22.700047399999956 ], [ -46.750915199999952, -22.69997379999996 ], [ -46.750410499999923, -22.699984299999983 ], [ -46.749853199999961, -22.700136799999942 ], [ -46.749732199999983, -22.700625799999965 ], [ -46.749753299999952, -22.701062099999955 ], [ -46.749674399999954, -22.701304 ], [ -46.749953, -22.701819199999932 ], [ -46.750079199999959, -22.702050599999943 ], [ -46.749957299999949, -22.702142299999931 ], [ -46.749920599999939, -22.702169899999937 ], [ -46.749744599999985, -22.702066599999974 ], [ -46.749612099999986, -22.701988799999985 ], [ -46.749525, -22.701559699999962 ], [ -46.749451199999953, -22.701220599999939 ], [ -46.749404299999981, -22.701012699999978 ], [ -46.749384199999959, -22.700905499999973 ], [ -46.74933719999995, -22.700818299999977 ], [ -46.74923, -22.700905499999973 ], [ -46.749116, -22.700939 ], [ -46.749022099999941, -22.700945699999984 ], [ -46.748921499999938, -22.700898799999951 ], [ -46.748720399999968, -22.70077809999998 ], [ -46.748626499999943, -22.70074459999994 ], [ -46.748465599999975, -22.700724399999949 ], [ -46.748244399999976, -22.700690899999927 ], [ -46.747982899999954, -22.700644 ], [ -46.747560499999963, -22.700556799999958 ], [ -46.747453199999939, -22.700543399999951 ], [ -46.747352599999942, -22.700550099999933 ], [ -46.747265499999969, -22.700590399999953 ], [ -46.746869899999979, -22.701097099999966 ], [ -46.746363699999961, -22.701187599999969 ], [ -46.745794, -22.701237 ], [ -46.74555909999998, -22.701214399999962 ], [ -46.744992599999932, -22.701120599999971 ], [ -46.744543399999941, -22.701043499999976 ], [ -46.744312099999945, -22.701003199999938 ], [ -46.744040499999983, -22.700969699999977 ], [ -46.743842699999959, -22.700966399999967 ], [ -46.743534299999965, -22.700963 ], [ -46.743266099999971, -22.700936199999955 ], [ -46.743018, -22.700885899999935 ], [ -46.742518499999953, -22.700714899999983 ], [ -46.74135529999996, -22.700275799999922 ], [ -46.741147399999939, -22.700222099999955 ], [ -46.740966399999934, -22.700202 ], [ -46.740772, -22.700188599999933 ], [ -46.740590899999965, -22.700202 ], [ -46.740376399999946, -22.700232199999956 ], [ -46.740198699999951, -22.700259 ], [ -46.739622099999963, -22.700312699999916 ], [ -46.73932039999994, -22.70034279999993 ], [ -46.739012, -22.700396499999954 ], [ -46.73808, -22.700637799999985 ], [ -46.737412899999981, -22.700792099999944 ], [ -46.736906699999963, -22.700882599999947 ], [ -46.736574299999965, -22.700939899999973 ], [ -46.736437399999943, -22.700983099999966 ], [ -46.735747, -22.701228 ], [ -46.735590399999978, -22.701302499999944 ], [ -46.735450399999934, -22.701372199999973 ], [ -46.73528, -22.701452 ], [ -46.735076299999946, -22.70156639999993 ], [ -46.734756599999969, -22.701718199999959 ], [ -46.734647199999984, -22.701730699999931 ], [ -46.734685, -22.701794199999931 ], [ -46.736005699999957, -22.70392309999993 ], [ -46.736029599999938, -22.703962399999956 ], [ -46.7360556, -22.704001299999955 ], [ -46.740093, -22.710108099999953 ], [ -46.740136099999972, -22.710173299999944 ], [ -46.740862399999976, -22.711269699999939 ], [ -46.740883899999972, -22.711304699999967 ], [ -46.740973099999962, -22.711204499999951 ], [ -46.741087099999952, -22.711050299999958 ], [ -46.741174199999925, -22.710909499999957 ], [ -46.741234599999984, -22.710721699999965 ], [ -46.741268099999964, -22.710601099999966 ], [ -46.741383, -22.710458 ], [ -46.74151279999996, -22.71030879999994 ], [ -46.741583199999987, -22.710198199999986 ], [ -46.741630199999975, -22.710114399999952 ], [ -46.741690499999955, -22.710024499999978 ], [ -46.741771, -22.709870199999944 ], [ -46.741878199999974, -22.709729399999961 ], [ -46.741972099999948, -22.709608799999955 ], [ -46.742099499999931, -22.709441099999939 ], [ -46.742280499999943, -22.709260099999945 ], [ -46.742468299999985, -22.709099199999969 ], [ -46.742776, -22.708877 ], [ -46.742938, -22.708744 ], [ -46.74322589999997, -22.70845549999996 ], [ -46.743460599999928, -22.708254399999934 ], [ -46.743708599999934, -22.708100199999933 ], [ -46.744113, -22.707884 ], [ -46.744246, -22.707811 ], [ -46.744419299999947, -22.707785099999967 ], [ -46.744674099999941, -22.70778509999996 ], [ -46.744781399999958, -22.707758299999963 ], [ -46.744861799999967, -22.707697899999975 ], [ -46.744955699999934, -22.707557099999974 ], [ -46.745049599999959, -22.707423 ], [ -46.745143399999968, -22.70728889999997 ], [ -46.745394899999951, -22.706947 ], [ -46.745599399999954, -22.706806199999956 ], [ -46.745800499999973, -22.706598299999932 ], [ -46.74595469999997, -22.706471 ], [ -46.746202799999942, -22.706216199999968 ], [ -46.746589, -22.705821 ], [ -46.746999799999976, -22.705643699999936 ], [ -46.747069, -22.705615 ], [ -46.74707269999994, -22.705657899999945 ], [ -46.747126699999974, -22.706287899999946 ], [ -46.747295399999985, -22.706790399999932 ], [ -46.747498699999944, -22.707028099999949 ], [ -46.747855399999942, -22.707442299999972 ], [ -46.748166, -22.707829699999944 ], [ -46.748933, -22.708351299999933 ], [ -46.749132499999973, -22.708673399999949 ], [ -46.749508299999952, -22.709010899999956 ], [ -46.74985, -22.709359 ], [ -46.750316, -22.709525 ], [ -46.750616699999973, -22.709593899999945 ], [ -46.751115299999981, -22.709540199999939 ], [ -46.751326199999937, -22.70947879999995 ], [ -46.75159, -22.709344699999964 ], [ -46.752047299999965, -22.709154299999952 ], [ -46.753383699999979, -22.708843599999962 ], [ -46.75347249999993, -22.70875979999995 ], [ -46.753516099999963, -22.708750099999982 ], [ -46.753562099999954, -22.709256399999951 ], [ -46.753880399999957, -22.709724299999955 ], [ -46.754302299999949, -22.710284199999933 ], [ -46.754658, -22.710769 ], [ -46.754824, -22.710903 ], [ -46.754933, -22.710986 ], [ -46.755078, -22.710946 ], [ -46.755325, -22.710557 ], [ -46.755472, -22.71049319999997 ], [ -46.755913, -22.71072 ], [ -46.756277, -22.71068 ], [ -46.756413, -22.710579 ], [ -46.756632099999933, -22.710426099999946 ], [ -46.756806599999955, -22.710337899999949 ], [ -46.757117299999948, -22.710439499999943 ], [ -46.75737619999996, -22.710577599999962 ], [ -46.757491199999954, -22.710732899999979 ], [ -46.757615899999962, -22.711037799999925 ], [ -46.757768, -22.711581 ], [ -46.757863, -22.711705399999964 ], [ -46.758331099999964, -22.711555899999951 ], [ -46.760103499999957, -22.71055889999996 ], [ -46.763316, -22.711201399999933 ], [ -46.763005799999974, -22.711999 ], [ -46.761466, -22.712364499999971 ], [ -46.760269599999958, -22.712840899999954 ], [ -46.760136699999983, -22.713948599999984 ], [ -46.760003799999936, -22.715665599999969 ], [ -46.760070299999938, -22.716839899999972 ], [ -46.759876399999946, -22.717316199999964 ], [ -46.760014899999923, -22.717698399999964 ], [ -46.76164, -22.717842 ], [ -46.761668, -22.717866799999957 ], [ -46.761294, -22.718355 ], [ -46.76059, -22.719259 ], [ -46.760152, -22.719766 ], [ -46.760078, -22.719894 ], [ -46.760029, -22.719978 ], [ -46.759823, -22.720172 ], [ -46.759632, -22.720361 ], [ -46.759539, -22.720452 ], [ -46.759388, -22.720639 ], [ -46.759292, -22.720843 ], [ -46.759235, -22.721051 ], [ -46.759197, -22.721146 ], [ -46.759113, -22.721376 ], [ -46.759087, -22.721496 ], [ -46.759098, -22.721679 ], [ -46.759135, -22.721874 ], [ -46.759102, -22.72225 ], [ -46.759071, -22.722425 ], [ -46.759035, -22.722608 ], [ -46.758939, -22.722843 ], [ -46.758868, -22.723021 ], [ -46.758729, -22.723225 ], [ -46.758572, -22.723485 ], [ -46.758528, -22.723576 ], [ -46.758394, -22.723893 ], [ -46.758246, -22.724195 ], [ -46.758036, -22.724351 ], [ -46.757838, -22.724532 ], [ -46.757523, -22.724596 ], [ -46.757325, -22.724504 ], [ -46.757125, -22.724403 ], [ -46.756952, -22.724385 ], [ -46.756835, -22.724433 ], [ -46.756711, -22.724567 ], [ -46.756633, -22.724718 ], [ -46.755999, -22.725673 ], [ -46.755901, -22.725763 ], [ -46.755811, -22.725876 ], [ -46.755699, -22.726034 ], [ -46.755582, -22.726204 ], [ -46.75554, -22.72626 ], [ -46.755457, -22.726424 ], [ -46.755373, -22.726553 ], [ -46.755295, -22.726713 ], [ -46.755222, -22.726892 ], [ -46.755146799999977, -22.727151899999971 ], [ -46.755180299999957, -22.727170399999977 ], [ -46.756947, -22.728144 ], [ -46.764458199999979, -22.731755299999968 ], [ -46.764544799999946, -22.731797 ], [ -46.7646228, -22.73181 ], [ -46.773860099999972, -22.733394 ], [ -46.782798699999944, -22.734891499999947 ], [ -46.782849, -22.7349 ], [ -46.782900199999979, -22.734908799999964 ], [ -46.783352, -22.734986 ], [ -46.784331899999984, -22.735152 ], [ -46.784379, -22.73516 ], [ -46.784420799999971, -22.735167099999956 ], [ -46.78490979999998, -22.73525009999997 ], [ -46.784992, -22.735264 ], [ -46.785041899999953, -22.735259099999951 ], [ -46.789097599999934, -22.73486 ], [ -46.789150499999948, -22.734854799999944 ], [ -46.78919819999993, -22.734826899999973 ], [ -46.797685, -22.729863699999942 ], [ -46.797715, -22.729846199999937 ], [ -46.797750899999983, -22.729825199999944 ], [ -46.80126, -22.727773 ], [ -46.802087599999936, -22.727301599999972 ], [ -46.802122, -22.727282 ], [ -46.802155199999966, -22.727263099999956 ], [ -46.80375429999998, -22.726354 ], [ -46.803531599999985, -22.726604499999951 ], [ -46.802987899999948, -22.728768299999945 ], [ -46.802641699999988, -22.730198599999941 ], [ -46.802576599999945, -22.730899699999942 ], [ -46.802672899999948, -22.731255099999942 ], [ -46.803102899999949, -22.73203049999994 ], [ -46.803184599999952, -22.732718399999953 ] ] ], [ [ [ -46.718298699999927, -22.689985699999973 ], [ -46.717427299999947, -22.690207799999939 ], [ -46.716862399999968, -22.690260599999938 ], [ -46.716702699999978, -22.690541599999975 ], [ -46.716736799999971, -22.691256899999939 ], [ -46.717183699999964, -22.69144689999996 ], [ -46.718194099999948, -22.691317499999965 ], [ -46.718509899999965, -22.691444 ], [ -46.719052, -22.69186 ], [ -46.72021749999994, -22.691911799999954 ], [ -46.720689, -22.6920785 ], [ -46.720899, -22.692252299999957 ], [ -46.720928599999979, -22.692759199999955 ], [ -46.720836399999939, -22.692891099999937 ], [ -46.720744099999933, -22.693022899999963 ], [ -46.720699799999977, -22.693032699999947 ], [ -46.720389699999949, -22.693101199999937 ], [ -46.7200352, -22.693179399999959 ], [ -46.719780899999932, -22.693498799999922 ], [ -46.719783, -22.693621 ], [ -46.719852499999945, -22.693756299999958 ], [ -46.72001, -22.694063 ], [ -46.720329, -22.694503 ], [ -46.720719, -22.694956 ], [ -46.720838, -22.695138 ], [ -46.720852, -22.695279 ], [ -46.720856, -22.695625 ], [ -46.720849599999951, -22.695693799999951 ], [ -46.720827199999981, -22.695934099999945 ], [ -46.720783399999966, -22.695982599999983 ], [ -46.720739599999945, -22.696031099999971 ], [ -46.72063779999997, -22.696143799999952 ], [ -46.720147099999963, -22.696687199999928 ], [ -46.7200845, -22.697131499999951 ], [ -46.7199682, -22.697285199999953 ], [ -46.718782099999942, -22.697856499999951 ], [ -46.718429099999987, -22.698027299999975 ], [ -46.71830749999998, -22.698482399999932 ], [ -46.718291699999952, -22.699036599999946 ], [ -46.718209099999967, -22.699135299999963 ], [ -46.718126599999948, -22.699234 ], [ -46.717358299999951, -22.700152599999978 ], [ -46.717075399999949, -22.700258799999968 ], [ -46.716792599999962, -22.700365 ], [ -46.71662989999993, -22.70037189999994 ], [ -46.716454599999963, -22.700379299999952 ], [ -46.717214799999958, -22.70083859999994 ], [ -46.717243499999938, -22.700856 ], [ -46.717268099999956, -22.700870799999965 ], [ -46.717278699999952, -22.700877199999976 ], [ -46.717301, -22.700890699999935 ], [ -46.717330199999935, -22.700908399999957 ], [ -46.721245599999975, -22.703275499999958 ], [ -46.7212914, -22.703303199999937 ], [ -46.721332399999945, -22.703328 ], [ -46.721488299999976, -22.703422199999984 ], [ -46.721537499999954, -22.703452 ], [ -46.721586199999933, -22.70348139999993 ], [ -46.727113, -22.706822399999965 ], [ -46.727374299999951, -22.706672599999937 ], [ -46.726948599999965, -22.706375 ], [ -46.726482799999985, -22.705733499999955 ], [ -46.726418299999978, -22.705002399999966 ], [ -46.726832199999933, -22.704402399999932 ], [ -46.727705499999956, -22.703865399999927 ], [ -46.728453899999984, -22.70353469999997 ], [ -46.729256499999963, -22.703322199999953 ], [ -46.729747599999946, -22.703027399999936 ], [ -46.730091099999981, -22.702614599999958 ], [ -46.730122399999971, -22.702189499999985 ], [ -46.729779199999946, -22.701036399999968 ], [ -46.729774299999981, -22.700885099999933 ], [ -46.729773299999984, -22.70085289999998 ], [ -46.729772, -22.70081139999996 ], [ -46.729769599999941, -22.700739599999974 ], [ -46.729822599999977, -22.700568699999955 ], [ -46.73043819999998, -22.699984099999938 ], [ -46.730531299999939, -22.699404699999945 ], [ -46.730899, -22.69873709999996 ], [ -46.730968299999979, -22.698387299999975 ], [ -46.730111099999938, -22.697352899999945 ], [ -46.729611899999952, -22.696917299999939 ], [ -46.728512899999934, -22.696272299999972 ], [ -46.728353699999957, -22.695985 ], [ -46.728485399999961, -22.695524 ], [ -46.728425399999942, -22.695184599999944 ], [ -46.72858279999997, -22.694661099999966 ], [ -46.72886219999998, -22.694206799999964 ], [ -46.729036299999962, -22.693422699999921 ], [ -46.729324399999932, -22.693060399999979 ], [ -46.729431, -22.692779199999961 ], [ -46.729724, -22.691592 ], [ -46.729919399999979, -22.691608599999924 ], [ -46.730093, -22.691643 ], [ -46.730301, -22.691748 ], [ -46.730673, -22.69199 ], [ -46.73084, -22.692131 ], [ -46.730936, -22.692211 ], [ -46.731051, -22.692267 ], [ -46.731206, -22.692344 ], [ -46.731442699999953, -22.692417099999943 ], [ -46.731452, -22.69242 ], [ -46.731638, -22.692434 ], [ -46.731832, -22.692449 ], [ -46.732069, -22.692499 ], [ -46.732219799999946, -22.692526299999944 ], [ -46.732429, -22.692647 ], [ -46.732747299999971, -22.69305839999992 ], [ -46.7334628, -22.693475599999942 ], [ -46.733583399999929, -22.693524199999949 ], [ -46.735299599999969, -22.694279 ], [ -46.735364199999928, -22.694259299999938 ], [ -46.735426799999971, -22.694259299999938 ], [ -46.736012299999977, -22.694128399999943 ], [ -46.736473399999959, -22.694004 ], [ -46.737204799999965, -22.693535399999963 ], [ -46.737574699999982, -22.69337029999997 ], [ -46.737741099999937, -22.693157099999951 ], [ -46.737943599999937, -22.692987399999922 ], [ -46.738223299999959, -22.692836299999943 ], [ -46.738389799999936, -22.692691799999967 ], [ -46.738410499999929, -22.692656299999957 ], [ -46.739019299999946, -22.692878799999956 ], [ -46.741563699999972, -22.69293829999998 ], [ -46.741607, -22.692938 ], [ -46.741664199999953, -22.692916199999953 ], [ -46.744114199999956, -22.691997399999938 ], [ -46.744375699999985, -22.691928599999979 ], [ -46.74456269999996, -22.691876599999937 ], [ -46.744625499999977, -22.691812299999981 ], [ -46.744483199999934, -22.691598899999967 ], [ -46.743986, -22.69123 ], [ -46.745186, -22.688679 ], [ -46.744969, -22.688627 ], [ -46.744697, -22.688536 ], [ -46.74443, -22.688414 ], [ -46.744169, -22.688318 ], [ -46.743961, -22.688284 ], [ -46.74372, -22.68831 ], [ -46.743474, -22.688361 ], [ -46.743223, -22.68836 ], [ -46.742996, -22.688322 ], [ -46.742788, -22.688253 ], [ -46.742565, -22.688201 ], [ -46.742304, -22.688119 ], [ -46.742076, -22.688077 ], [ -46.741945, -22.688015 ], [ -46.741828, -22.687932 ], [ -46.741726, -22.687807 ], [ -46.741608, -22.687692 ], [ -46.741476, -22.687564 ], [ -46.74136, -22.687485 ], [ -46.741146, -22.687406 ], [ -46.740928, -22.687274 ], [ -46.740743, -22.687155 ], [ -46.740635, -22.687009 ], [ -46.740522, -22.686889 ], [ -46.740468, -22.686796 ], [ -46.740443, -22.686693 ], [ -46.740436, -22.68659 ], [ -46.740457399999968, -22.686504899999925 ], [ -46.740467, -22.686467 ], [ -46.740475299999957, -22.686432 ], [ -46.740491, -22.686366 ], [ -46.740574, -22.686007 ], [ -46.740666, -22.685701 ], [ -46.740554, -22.685586 ], [ -46.740357, -22.685646 ], [ -46.74006, -22.685811 ], [ -46.739505, -22.686193 ], [ -46.739102, -22.686394 ], [ -46.738799, -22.686456 ], [ -46.738558, -22.686467 ], [ -46.738235, -22.686466 ], [ -46.737965, -22.686483 ], [ -46.737613, -22.686505 ], [ -46.737411, -22.686547 ], [ -46.737276, -22.686625 ], [ -46.737167, -22.686782 ], [ -46.736546, -22.687595 ], [ -46.736373, -22.687704 ], [ -46.736147, -22.687743 ], [ -46.735867, -22.687714 ], [ -46.735742, -22.687725 ], [ -46.735612, -22.68778 ], [ -46.735454, -22.687907 ], [ -46.734988, -22.688431 ], [ -46.734816, -22.688563 ], [ -46.734518, -22.688692 ], [ -46.733531, -22.689172 ], [ -46.733088, -22.689282 ], [ -46.73275579999995, -22.689350099999956 ], [ -46.732645, -22.689257599999973 ], [ -46.732409299999972, -22.688678399999961 ], [ -46.732395399999973, -22.688644 ], [ -46.73238089999996, -22.688608399999964 ], [ -46.732306699999988, -22.688426199999967 ], [ -46.732293, -22.688392499999967 ], [ -46.732279499999947, -22.688359199999976 ], [ -46.732096799999972, -22.687910299999945 ], [ -46.731900799999949, -22.687673299999965 ], [ -46.731107799999968, -22.687231699999934 ], [ -46.730699899999934, -22.686912499999949 ], [ -46.730481399999974, -22.686603599999945 ], [ -46.730448799999976, -22.686539599999961 ], [ -46.730432699999938, -22.686508 ], [ -46.730415599999958, -22.686474399999945 ], [ -46.730322399999977, -22.686291499999978 ], [ -46.730299799999948, -22.686247199999965 ], [ -46.730281599999955, -22.686211399999934 ], [ -46.729782899999975, -22.685232599999942 ], [ -46.727754799999964, -22.686184 ], [ -46.727736799999953, -22.686192399999975 ], [ -46.727708499999949, -22.686141299999974 ], [ -46.727620499999944, -22.686098099999985 ], [ -46.72751169999998, -22.686075099999986 ], [ -46.727229, -22.686051 ], [ -46.727170599999965, -22.686037899999977 ], [ -46.727052799999974, -22.685982699999947 ], [ -46.72698649999996, -22.685963699999935 ], [ -46.726828799999971, -22.685947599999956 ], [ -46.726749599999948, -22.685920499999956 ], [ -46.72671129999997, -22.685859299999951 ], [ -46.726658, -22.685786099999966 ], [ -46.726545199999983, -22.685703099999955 ], [ -46.726469399999985, -22.685708299999938 ], [ -46.725703799999962, -22.685672199999946 ], [ -46.725468899999953, -22.685638099999945 ], [ -46.725377499999979, -22.685581899999924 ], [ -46.725279199999939, -22.685494499999944 ], [ -46.72514259999997, -22.685343099999958 ], [ -46.725118699999939, -22.685325099999947 ], [ -46.725073, -22.685323 ], [ -46.724942499999933, -22.68532509999994 ], [ -46.724779399999932, -22.68535519999995 ], [ -46.72472, -22.685402 ], [ -46.724696199999983, -22.685431899999966 ], [ -46.724650599999968, -22.685435899999952 ], [ -46.724544, -22.685399799999967 ], [ -46.724480199999967, -22.685317499999943 ], [ -46.724393899999939, -22.685169 ], [ -46.724322099999945, -22.685072699999974 ], [ -46.72421769999994, -22.685002499999939 ], [ -46.724015499999958, -22.684918199999967 ], [ -46.723804499999972, -22.684862 ], [ -46.723628, -22.68484 ], [ -46.723359, -22.684946 ], [ -46.723167, -22.68509 ], [ -46.722862, -22.685354 ], [ -46.722574, -22.685635 ], [ -46.722404, -22.685928 ], [ -46.722441, -22.686226 ], [ -46.722465, -22.686446 ], [ -46.722296, -22.686428 ], [ -46.721968, -22.686538 ], [ -46.72167, -22.686721 ], [ -46.721471, -22.686905 ], [ -46.721233, -22.686993 ], [ -46.721025, -22.687078 ], [ -46.720745, -22.687154 ], [ -46.720555, -22.687202 ], [ -46.72046, -22.687249 ], [ -46.720448, -22.687355 ], [ -46.720768, -22.688156 ], [ -46.720812599999931, -22.68864549999995 ], [ -46.720843, -22.688673 ], [ -46.720894, -22.688722 ], [ -46.720895, -22.688772 ], [ -46.720826, -22.688788 ], [ -46.720667, -22.688825 ], [ -46.719978, -22.689027 ], [ -46.719454, -22.689263 ], [ -46.719328, -22.689339 ], [ -46.718993799999964, -22.689592299999948 ], [ -46.718856699999947, -22.68966979999993 ], [ -46.718298699999927, -22.689985699999973 ] ] ], [ [ [ -46.741155099999951, -22.684258499999935 ], [ -46.741108399999973, -22.68465579999998 ], [ -46.741054799999972, -22.685111099999972 ], [ -46.741002699999974, -22.685555 ], [ -46.740966399999934, -22.685906899999964 ], [ -46.740922799999971, -22.686235399999944 ], [ -46.740922799999971, -22.686480099999983 ], [ -46.74097, -22.686634299999969 ], [ -46.741046299999937, -22.686738199999976 ], [ -46.741166199999952, -22.686868899999975 ], [ -46.741366, -22.687039899999942 ], [ -46.74150039999995, -22.687123699999976 ], [ -46.741634799999986, -22.687173899999944 ], [ -46.741762, -22.687214199999964 ], [ -46.742383199999949, -22.687287899999948 ], [ -46.742760099999948, -22.687364199999926 ], [ -46.743061599999976, -22.687458 ], [ -46.743330499999956, -22.687572 ], [ -46.743711899999944, -22.687716099999928 ], [ -46.744002599999938, -22.68783 ], [ -46.744195099999963, -22.687880299999957 ], [ -46.74455839999996, -22.687954099999956 ], [ -46.7447691, -22.68797079999996 ], [ -46.74504879999995, -22.687970799999963 ], [ -46.745561099999975, -22.687930599999955 ], [ -46.746004199999966, -22.687888899999969 ], [ -46.746000599999952, -22.687839299999951 ], [ -46.745998599999957, -22.687811799999956 ], [ -46.745756, -22.685269 ], [ -46.745544, -22.684865 ], [ -46.745347, -22.684533 ], [ -46.745234, -22.684049 ], [ -46.745181, -22.683414 ], [ -46.74525, -22.683259 ], [ -46.745539, -22.682838 ], [ -46.745726899999966, -22.682559499999964 ], [ -46.74581249999995, -22.682374499999984 ], [ -46.746144099999981, -22.681585399999971 ], [ -46.745465, -22.681328399999931 ], [ -46.743917099999969, -22.68083589999997 ], [ -46.743874399999982, -22.681291199999968 ], [ -46.743870099999981, -22.681337399999958 ], [ -46.743553499999962, -22.681385399999961 ], [ -46.743087499999952, -22.681374399999982 ], [ -46.742640499999943, -22.681296299999932 ], [ -46.742209499999937, -22.681214399999927 ], [ -46.74201359999995, -22.681148299999968 ], [ -46.741934, -22.681198 ], [ -46.741648, -22.681507599999975 ], [ -46.741649299999949, -22.681579699999926 ], [ -46.741613, -22.681790799999934 ], [ -46.741581499999938, -22.681933299999979 ], [ -46.741544, -22.68210259999994 ], [ -46.74140959999994, -22.682769599999972 ], [ -46.741297, -22.683322699999952 ], [ -46.741224299999942, -22.683688 ], [ -46.741198899999972, -22.683875699999927 ], [ -46.74118069999998, -22.68405 ], [ -46.741155099999951, -22.684258499999935 ] ] ], [ [ [ -46.779954, -22.685912 ], [ -46.77992, -22.68607 ], [ -46.77989, -22.686347 ], [ -46.779988499999945, -22.686677199999959 ], [ -46.780110499999971, -22.686844699999934 ], [ -46.780214299999955, -22.686963199999976 ], [ -46.780338599999943, -22.687072699999938 ], [ -46.780418099999963, -22.687178299999971 ], [ -46.780472499999973, -22.687185099999976 ], [ -46.78327, -22.687538 ], [ -46.783309, -22.687543 ], [ -46.783467, -22.687563 ], [ -46.783541, -22.686375 ], [ -46.783896, -22.686219 ], [ -46.783999, -22.685916 ], [ -46.784067, -22.685719 ], [ -46.784165, -22.685416 ], [ -46.784209, -22.685183 ], [ -46.784346, -22.684802 ], [ -46.78434, -22.684568 ], [ -46.784285, -22.684335 ], [ -46.78421, -22.684101 ], [ -46.78422, -22.6839 ], [ -46.784392, -22.68372 ], [ -46.784357, -22.683556 ], [ -46.784441, -22.683436 ], [ -46.784578, -22.683312 ], [ -46.784672, -22.683234 ], [ -46.78476, -22.68306 ], [ -46.784918, -22.682995 ], [ -46.785091, -22.682967 ], [ -46.785422, -22.682916 ], [ -46.785575, -22.682888 ], [ -46.785693, -22.682851 ], [ -46.785895, -22.682791 ], [ -46.786186, -22.682735 ], [ -46.786315, -22.682735 ], [ -46.786351299999978, -22.682165599999966 ], [ -46.786352699999952, -22.682145 ], [ -46.786354, -22.682124499999922 ], [ -46.786418, -22.681121 ], [ -46.783578, -22.681524 ], [ -46.78142059999994, -22.681630699999964 ], [ -46.781333599999982, -22.681635 ], [ -46.781339299999956, -22.681615699999945 ], [ -46.78200389999995, -22.679347599999975 ], [ -46.782009799999969, -22.679327499999943 ], [ -46.781996499999934, -22.679307699999978 ], [ -46.781694, -22.678861 ], [ -46.78027, -22.675784 ], [ -46.779701299999942, -22.674789099999934 ], [ -46.779658199999972, -22.674687699999936 ], [ -46.77960939999997, -22.674667099999972 ], [ -46.777861299999984, -22.673929399999949 ], [ -46.7749798, -22.674208899999925 ], [ -46.774941, -22.674212699999938 ], [ -46.774901799999952, -22.674216499999943 ], [ -46.773652699999957, -22.674337699999956 ], [ -46.773602, -22.674515399999962 ], [ -46.773584799999988, -22.674805099999958 ], [ -46.773537699999956, -22.675808799999974 ], [ -46.773336299999983, -22.676087599999946 ], [ -46.773152, -22.676376 ], [ -46.773156099999937, -22.676816299999921 ], [ -46.773172599999953, -22.677116699999949 ], [ -46.773208499999953, -22.677367499999946 ], [ -46.773203699999954, -22.677525399999979 ], [ -46.773168399999975, -22.677706199999935 ], [ -46.773037, -22.678383199999928 ], [ -46.773030099999971, -22.678418699999941 ], [ -46.773022299999987, -22.678459099999944 ], [ -46.772952199999963, -22.678820399999953 ], [ -46.772855599999957, -22.679156399999954 ], [ -46.772752099999934, -22.679507 ], [ -46.77248, -22.680249 ], [ -46.774351299999978, -22.68039919999995 ], [ -46.774398, -22.680403 ], [ -46.774477, -22.680512 ], [ -46.774553, -22.680546 ], [ -46.774676, -22.680665 ], [ -46.774729, -22.680707 ], [ -46.774837, -22.680792 ], [ -46.775085, -22.681034 ], [ -46.775166, -22.681104 ], [ -46.775363, -22.681292 ], [ -46.775529, -22.681445 ], [ -46.775719, -22.681668 ], [ -46.775749, -22.681729 ], [ -46.775786, -22.681839 ], [ -46.775798, -22.681903 ], [ -46.775808, -22.682042 ], [ -46.775834, -22.682303 ], [ -46.775856, -22.682417 ], [ -46.775885, -22.682598 ], [ -46.775905, -22.682855 ], [ -46.776005, -22.683066 ], [ -46.775966, -22.683176 ], [ -46.775875, -22.68338 ], [ -46.775797, -22.683569 ], [ -46.775766, -22.683792 ], [ -46.775732, -22.684148 ], [ -46.775698, -22.684459 ], [ -46.775651699999969, -22.684750099999974 ], [ -46.775642, -22.684811 ], [ -46.775579, -22.684957 ], [ -46.775063, -22.685651 ], [ -46.774832, -22.685931 ], [ -46.774638, -22.686262 ], [ -46.774614, -22.686372 ], [ -46.774613, -22.686481 ], [ -46.774687, -22.686632 ], [ -46.774863, -22.686841 ], [ -46.775247, -22.686879 ], [ -46.77551, -22.686894 ], [ -46.7758, -22.686892 ], [ -46.77621, -22.686874 ], [ -46.776584, -22.686842 ], [ -46.776876, -22.686979 ], [ -46.777105, -22.687228 ], [ -46.77713, -22.68749 ], [ -46.776973699999985, -22.687730599999945 ], [ -46.77725, -22.687657 ], [ -46.777562, -22.687471 ], [ -46.777838, -22.687338 ], [ -46.778056, -22.68715 ], [ -46.778279, -22.686876 ], [ -46.778475, -22.686577 ], [ -46.778594, -22.686289 ], [ -46.778659, -22.685956 ], [ -46.778686, -22.685677 ], [ -46.778613, -22.685196 ], [ -46.778654, -22.685205099999962 ], [ -46.779677899999967, -22.685432899999977 ], [ -46.779741, -22.685447 ], [ -46.779772, -22.685481 ], [ -46.779852, -22.685509 ], [ -46.779923, -22.68552 ], [ -46.779993, -22.685503 ], [ -46.779981, -22.685845 ], [ -46.779954, -22.685912 ] ] ], [ [ [ -46.742797799999956, -22.652167899999938 ], [ -46.742805099999934, -22.652273499999971 ], [ -46.742810499999962, -22.652365699999962 ], [ -46.742837799999954, -22.652479699999954 ], [ -46.742957599999954, -22.652828399999979 ], [ -46.74307029999995, -22.653022799999967 ], [ -46.743161099999952, -22.653160299999971 ], [ -46.743266399999989, -22.653274299999971 ], [ -46.743382699999984, -22.653398299999932 ], [ -46.743437199999967, -22.653498899999931 ], [ -46.743466199999951, -22.653576 ], [ -46.743488, -22.653696699999962 ], [ -46.74350259999995, -22.653975 ], [ -46.74355369999995, -22.654011599999929 ], [ -46.74364259999993, -22.654075299999931 ], [ -46.744457099999977, -22.654658599999937 ], [ -46.744809599999947, -22.656360499999945 ], [ -46.745152499999961, -22.657243099999963 ], [ -46.747752099999957, -22.657606599999959 ], [ -46.748165099999937, -22.657359699999976 ], [ -46.748206399999965, -22.657335 ], [ -46.748240699999933, -22.657314499999927 ], [ -46.748820599999931, -22.656967699999932 ], [ -46.748302899999949, -22.655987299999939 ], [ -46.749316299999975, -22.654566299999935 ], [ -46.748457099999932, -22.651272699999929 ], [ -46.748369, -22.648001099999931 ], [ -46.74378779999995, -22.649945099999968 ], [ -46.743342599999949, -22.650843599999973 ], [ -46.742970499999956, -22.650993899999943 ], [ -46.742752099999954, -22.65108209999994 ], [ -46.742859599999974, -22.65121239999997 ], [ -46.742914, -22.651334799999969 ], [ -46.742928599999971, -22.651440399999956 ], [ -46.742910399999978, -22.65159959999994 ], [ -46.742863199999924, -22.651784 ], [ -46.742825, -22.651953299999946 ], [ -46.742803199999969, -22.652055599999976 ], [ -46.742797799999956, -22.652167899999938 ] ] ], [ [ [ -46.787909799999966, -22.594315599999952 ], [ -46.788466299999989, -22.597312699999968 ], [ -46.791173599999979, -22.596258899999935 ], [ -46.791732599999932, -22.595030399999931 ], [ -46.793214, -22.595162 ], [ -46.7964899, -22.595125399999986 ], [ -46.796519899999957, -22.595125 ], [ -46.796550299999979, -22.595124699999925 ], [ -46.796971, -22.59512 ], [ -46.797995, -22.594774 ], [ -46.798143, -22.594295 ], [ -46.798105, -22.593292 ], [ -46.798219, -22.592191 ], [ -46.798256, -22.591068 ], [ -46.798269, -22.590112 ], [ -46.798133, -22.589492 ], [ -46.797869, -22.588993 ], [ -46.797173, -22.588953 ], [ -46.796016, -22.589014 ], [ -46.793959, -22.589133 ], [ -46.792314, -22.589247 ], [ -46.790967399999943, -22.589349199999962 ], [ -46.790917499999978, -22.589353 ], [ -46.791028499999975, -22.590235299999957 ], [ -46.791126599999984, -22.59109119999993 ], [ -46.791122099999932, -22.591515 ], [ -46.791059699999948, -22.591901699999937 ], [ -46.790823499999931, -22.592440699999944 ], [ -46.790409099999977, -22.592959199999935 ], [ -46.790273699999943, -22.593052599999968 ], [ -46.790034699999978, -22.593218399999962 ], [ -46.788791399999972, -22.593831399999935 ], [ -46.787900099999945, -22.594263399999932 ], [ -46.787909799999966, -22.594315599999952 ] ] ] ] } }
]
}
