{
"type": "FeatureCollection",
"name": "3503505",
"crs": { "type": "name", "properties": { "name": "urn:ogc:def:crs:OGC:1.3:CRS84" } },
"features": [
{ "type": "Feature", "properties": { "CD_MUN": "3503505", "NM_MUN": "Areias" }, "geometry": { "type": "Polygon", "coordinates": [ [ [ -44.694817699999938, -22.590279299999963 ], [ -44.694796499999939, -22.590325099999976 ], [ -44.694645699999967, -22.590459399999929 ], [ -44.695205399999963, -22.590479199999944 ], [ -44.695580099999972, -22.590505199999942 ], [ -44.695637799999986, -22.590508199999928 ], [ -44.695685199999957, -22.590511 ], [ -44.697026599999958, -22.588751899999984 ], [ -44.697039199999949, -22.588737399999957 ], [ -44.697072, -22.58874179999998 ], [ -44.697108699999944, -22.588763199999967 ], [ -44.697251699999981, -22.588868499999926 ], [ -44.697251799999947, -22.588872899999952 ], [ -44.697254099999959, -22.588870299999936 ], [ -44.697267799999963, -22.588854899999944 ], [ -44.697955799999932, -22.588081699999975 ], [ -44.696525099999974, -22.585592399999943 ], [ -44.695708, -22.584169899999964 ], [ -44.696095499999956, -22.58197179999997 ], [ -44.699369599999962, -22.582510899999935 ], [ -44.699384499999944, -22.582513299999956 ], [ -44.699399299999975, -22.582515799999953 ], [ -44.701319499999961, -22.582832 ], [ -44.701791099999987, -22.583468599999946 ], [ -44.702168299999983, -22.584212099999945 ], [ -44.701773299999957, -22.585141799999981 ], [ -44.701644399999964, -22.585485699999939 ], [ -44.701725, -22.585692599999948 ], [ -44.701698099999938, -22.585869899999974 ], [ -44.701805599999943, -22.585937099999963 ], [ -44.701996299999962, -22.586227199999946 ], [ -44.702391299999931, -22.586246 ], [ -44.702547099999954, -22.586356199999944 ], [ -44.702764799999954, -22.585923599999941 ], [ -44.70283459999996, -22.585590499999974 ], [ -44.702539099999967, -22.585431899999939 ], [ -44.702574, -22.5849 ], [ -44.702787199999932, -22.584536799999963 ], [ -44.706449099999929, -22.58637589999994 ], [ -44.70793249999997, -22.586211099999961 ], [ -44.707956599999939, -22.586208399999983 ], [ -44.707971099999952, -22.586206799999946 ], [ -44.707987699999933, -22.586204899999931 ], [ -44.708714699999973, -22.586124299999952 ], [ -44.708618799999954, -22.585312699999974 ], [ -44.708616699999936, -22.585292099999954 ], [ -44.708613699999951, -22.585268599999953 ], [ -44.708611599999983, -22.585249599999944 ], [ -44.708557299999939, -22.584755799999979 ], [ -44.708258899999983, -22.584816099999951 ], [ -44.707866399999943, -22.584941899999944 ], [ -44.707607, -22.58507789999992 ], [ -44.707403499999941, -22.585087499999933 ], [ -44.707295199999976, -22.58512659999997 ], [ -44.707233799999976, -22.585123199999945 ], [ -44.707182, -22.585077399999932 ], [ -44.7072, -22.585004599999941 ], [ -44.707084, -22.584938399999924 ], [ -44.706938499999985, -22.584874299999967 ], [ -44.706807199999957, -22.584847599999939 ], [ -44.706676399999935, -22.584843899999957 ], [ -44.706500399999975, -22.584811799999954 ], [ -44.70631479999998, -22.584735599999931 ], [ -44.706174099999942, -22.584742599999984 ], [ -44.706046599999986, -22.58469429999996 ], [ -44.70595359999993, -22.584704699999975 ], [ -44.705810499999984, -22.584748599999958 ], [ -44.705675799999938, -22.584770699999975 ], [ -44.705573799999961, -22.584765299999951 ], [ -44.705501099999935, -22.584614599999956 ], [ -44.70546539999998, -22.584401899999929 ], [ -44.705358199999978, -22.584351299999977 ], [ -44.70520259999995, -22.584263899999939 ], [ -44.705157799999938, -22.584195599999937 ], [ -44.705181499999981, -22.584104 ], [ -44.705222899999967, -22.583943799999929 ], [ -44.705212399999937, -22.583834199999959 ], [ -44.705166199999944, -22.583717399999951 ], [ -44.705124199999943, -22.583623599999946 ], [ -44.70506679999994, -22.583537599999946 ], [ -44.704966299999974, -22.583498299999977 ], [ -44.704854, -22.583505099999957 ], [ -44.702059699999957, -22.578594 ], [ -44.702095, -22.578486 ], [ -44.7021544, -22.578395099999977 ], [ -44.702204399999971, -22.578325299999968 ], [ -44.702264899999932, -22.578288799999935 ], [ -44.702341, -22.578275099999924 ], [ -44.70251369999994, -22.57827 ], [ -44.702747699999975, -22.578263099999976 ], [ -44.702905499999986, -22.578254499999947 ], [ -44.703003, -22.578237 ], [ -44.703203499999979, -22.578175199999986 ], [ -44.703313099999946, -22.578120399999928 ], [ -44.703494399999961, -22.5780056 ], [ -44.703555699999981, -22.577941 ], [ -44.703599, -22.577847299999974 ], [ -44.703652899999952, -22.577737599999971 ], [ -44.703664, -22.577715299999966 ], [ -44.703682599999979, -22.577662099999941 ], [ -44.70368069999995, -22.577619299999977 ], [ -44.703669599999955, -22.57750609999993 ], [ -44.703657099999937, -22.57718409999995 ], [ -44.703641799999957, -22.576849 ], [ -44.703651, -22.576761099999949 ], [ -44.703677, -22.576685699999928 ], [ -44.703726299999971, -22.576636 ], [ -44.703601299999953, -22.576609799999972 ], [ -44.703444499999939, -22.57653519999996 ], [ -44.703292399999953, -22.576451799999976 ], [ -44.703135199999963, -22.576359399999951 ], [ -44.702976199999966, -22.576254299999963 ], [ -44.702855, -22.576177499999968 ], [ -44.699697899999933, -22.578686 ], [ -44.699312899999946, -22.577929599999948 ], [ -44.698473199999967, -22.576877399999944 ], [ -44.698060599999963, -22.57649059999995 ], [ -44.697787, -22.576183 ], [ -44.697932399999956, -22.574994699999937 ], [ -44.698275899999942, -22.572863699999971 ], [ -44.697832099999978, -22.572800499999964 ], [ -44.697314099999971, -22.572733899999946 ], [ -44.693776199999945, -22.577582199999938 ], [ -44.691639699999946, -22.577898199999929 ], [ -44.691440099999966, -22.577708699999956 ], [ -44.691421299999938, -22.577734499999966 ], [ -44.6913335, -22.577854499999951 ], [ -44.691296499999964, -22.577893599999989 ], [ -44.691212299999961, -22.577982499999962 ], [ -44.690688699999953, -22.578468599999958 ], [ -44.690678299999952, -22.57845979999998 ], [ -44.690415399999956, -22.578372199999926 ], [ -44.690063099999975, -22.578418499999945 ], [ -44.689691599999939, -22.5785203 ], [ -44.68959689999997, -22.578518299999924 ], [ -44.689517299999984, -22.578467899999964 ], [ -44.689167399999974, -22.578488 ], [ -44.689022299999976, -22.578415499999949 ], [ -44.688787299999944, -22.578177699999966 ], [ -44.688691299999952, -22.57833989999995 ], [ -44.688711499999954, -22.578410499999958 ], [ -44.688753799999979, -22.578442699999975 ], [ -44.688275199999964, -22.578747 ], [ -44.687709199999972, -22.579077099999949 ], [ -44.687627199999952, -22.57913539999992 ], [ -44.687580199999964, -22.579253599999962 ], [ -44.687480799999946, -22.579345 ], [ -44.687484799999929, -22.579514199999956 ], [ -44.68758, -22.579472499999952 ], [ -44.687760199999964, -22.579393299999932 ], [ -44.687823399999957, -22.579385299999949 ], [ -44.687858299999959, -22.579428299999964 ], [ -44.687881199999929, -22.579508899999958 ], [ -44.687780399999944, -22.579678099999974 ], [ -44.687814, -22.579983099999936 ], [ -44.687784399999948, -22.580057 ], [ -44.687621899999954, -22.580126799999956 ], [ -44.687439199999965, -22.580125499999948 ], [ -44.687346099999957, -22.580187899999931 ], [ -44.687333, -22.580196699999931 ], [ -44.687315599999977, -22.580257099999972 ], [ -44.687315799999965, -22.580280399999932 ], [ -44.687318299999966, -22.580496299999947 ], [ -44.687224599999972, -22.580559599999962 ], [ -44.687218899999955, -22.58056339999996 ], [ -44.687088499999966, -22.580699099999947 ], [ -44.687131299999976, -22.580845 ], [ -44.687157099999972, -22.580932899999933 ], [ -44.687236299999938, -22.58104979999996 ], [ -44.687249799999961, -22.581288899999954 ], [ -44.687111399999935, -22.581556199999962 ], [ -44.687037499999974, -22.58161529999996 ], [ -44.686970299999984, -22.58163009999992 ], [ -44.686900099999946, -22.581552299999931 ], [ -44.686858799999975, -22.581506499999936 ], [ -44.686795699999948, -22.581544099999967 ], [ -44.686789, -22.581849099999939 ], [ -44.686678799999981, -22.581943099999929 ], [ -44.686649199999977, -22.582017 ], [ -44.686697199999969, -22.582173 ], [ -44.686701599999935, -22.582187599999948 ], [ -44.686889699999931, -22.58233 ], [ -44.686729899999932, -22.582387799999939 ], [ -44.686608799999931, -22.582443399999931 ], [ -44.68656859999993, -22.58256629999995 ], [ -44.686637499999961, -22.582625499999963 ], [ -44.686666, -22.582672699999932 ], [ -44.686723099999938, -22.582738499999941 ], [ -44.686737299999947, -22.582797799999977 ], [ -44.686763499999984, -22.582900899999974 ], [ -44.686775399999931, -22.582988699999927 ], [ -44.686782499999943, -22.583074299999954 ], [ -44.686770599999925, -22.58318619999995 ], [ -44.686777699999929, -22.58333759999994 ], [ -44.686796699999945, -22.583401299999935 ], [ -44.686803899999973, -22.583546099999985 ], [ -44.686811, -22.583688799999944 ], [ -44.686815499999959, -22.583753599999969 ], [ -44.687045699999942, -22.584020499999955 ], [ -44.687053799999944, -22.584049699999984 ], [ -44.687417, -22.584052799999935 ], [ -44.687540899999931, -22.58402249999995 ], [ -44.687741699999947, -22.583942899999954 ], [ -44.688165899999944, -22.583740399999961 ], [ -44.688295799999935, -22.583699099999926 ], [ -44.68836739999994, -22.583694099999942 ], [ -44.688530599999986, -22.583711199999982 ], [ -44.688597099999981, -22.583741399999955 ], [ -44.688653499999923, -22.583792799999969 ], [ -44.688688799999966, -22.583859299999968 ], [ -44.688723, -22.58396409999995 ], [ -44.68875079999998, -22.584231599999953 ], [ -44.688738699999931, -22.584552 ], [ -44.688594099999939, -22.584984299999977 ], [ -44.688581, -22.585086499999935 ], [ -44.688589, -22.585175699999979 ], [ -44.688602599999967, -22.585250799999987 ], [ -44.688660099999943, -22.585310199999981 ], [ -44.688786799999946, -22.585363799999982 ], [ -44.689562299999984, -22.583262299999941 ], [ -44.689792799999971, -22.582882699999967 ], [ -44.689838799999961, -22.582813699999974 ], [ -44.689887399999975, -22.582761299999959 ], [ -44.690060099999982, -22.582579499999955 ], [ -44.690352, -22.5822813 ], [ -44.690869699999958, -22.582941299999959 ], [ -44.692248899999981, -22.582477 ], [ -44.692962099999939, -22.587566799999937 ], [ -44.695075699999961, -22.588582399999954 ], [ -44.695111599999962, -22.58860419999997 ], [ -44.694971299999963, -22.589410499999918 ], [ -44.694839699999925, -22.590199699999971 ], [ -44.694817699999938, -22.590279299999963 ] ] ] } }
]
}
