{
"type": "FeatureCollection",
"name": "3510609",
"crs": { "type": "name", "properties": { "name": "urn:ogc:def:crs:OGC:1.3:CRS84" } },
"features": [
{ "type": "Feature", "properties": { "CD_MUN": "3510609", "NM_MUN": "Carapicuíba" }, "geometry": { "type": "Polygon", "coordinates": [ [ [ -46.852753, -23.582496 ], [ -46.852986, -23.582701 ], [ -46.853121, -23.582783 ], [ -46.853236, -23.582839 ], [ -46.853394, -23.582855 ], [ -46.85354209999997, -23.582857 ], [ -46.853667, -23.582825 ], [ -46.853731, -23.582789 ], [ -46.853795, -23.582753 ], [ -46.853842, -23.582708 ], [ -46.854016, -23.582459 ], [ -46.854193, -23.582126 ], [ -46.854315, -23.581975 ], [ -46.854438, -23.581868 ], [ -46.854488, -23.581845 ], [ -46.854706799999974, -23.58181279999997 ], [ -46.854935399999931, -23.581779199999975 ], [ -46.855329899999965, -23.581877899999927 ], [ -46.855546, -23.581932 ], [ -46.855707, -23.581927 ], [ -46.855957199999985, -23.581854299999975 ], [ -46.85602, -23.581836 ], [ -46.856248, -23.581638 ], [ -46.856385699999969, -23.581351199999983 ], [ -46.85652349999998, -23.581064499999965 ], [ -46.856578, -23.580951 ], [ -46.856742, -23.580683 ], [ -46.85702, -23.580489 ], [ -46.857221, -23.580396 ], [ -46.857395299999958, -23.5803802 ], [ -46.857509199999988, -23.58036989999993 ], [ -46.85798089999998, -23.580327199999942 ], [ -46.858204, -23.580307 ], [ -46.858309299999974, -23.580279399999945 ], [ -46.858669, -23.580185 ], [ -46.85874709999996, -23.580157299999932 ], [ -46.859111, -23.580028 ], [ -46.860154, -23.578999 ], [ -46.860488799999985, -23.578765799999939 ], [ -46.860538899999938, -23.578730899999986 ], [ -46.860589, -23.578696 ], [ -46.860605499999963, -23.578669799999943 ], [ -46.860622, -23.578643499999941 ], [ -46.860655, -23.578591 ], [ -46.860625899999945, -23.578165599999984 ], [ -46.860565099999981, -23.577884299999923 ], [ -46.860494, -23.57765 ], [ -46.860492, -23.577487 ], [ -46.86048, -23.577342 ], [ -46.860508, -23.577249 ], [ -46.860559, -23.577177 ], [ -46.860779, -23.577122 ], [ -46.861001599999952, -23.577181699999969 ], [ -46.861014, -23.577185 ], [ -46.861197, -23.57732 ], [ -46.861279399999951, -23.577339299999952 ], [ -46.861312499999947, -23.577347 ], [ -46.861426799999947, -23.577373699999949 ], [ -46.861509, -23.577378 ], [ -46.861578499999958, -23.577386 ], [ -46.861647699999928, -23.57739319999996 ], [ -46.861706, -23.577415 ], [ -46.861793, -23.577511 ], [ -46.861924, -23.577664 ], [ -46.862051, -23.577804 ], [ -46.862122199999931, -23.577847699999953 ], [ -46.86228019999993, -23.577865399999958 ], [ -46.862348, -23.577853 ], [ -46.862443, -23.577825 ], [ -46.862515, -23.577824 ], [ -46.862525799999958, -23.577828499999953 ], [ -46.862567799999965, -23.577846199999946 ], [ -46.862678, -23.577858 ], [ -46.86282639999996, -23.577851899999921 ], [ -46.862922, -23.577833 ], [ -46.86316, -23.577742 ], [ -46.863298, -23.577705 ], [ -46.863391, -23.577697 ], [ -46.863484, -23.577689 ], [ -46.863619, -23.577714 ], [ -46.863642399999939, -23.57772389999996 ], [ -46.8636767, -23.577738499999963 ], [ -46.863772, -23.577779 ], [ -46.863945, -23.577821 ], [ -46.864084, -23.577823 ], [ -46.864232, -23.577791 ], [ -46.864327, -23.577759 ], [ -46.864432, -23.577749 ], [ -46.864538, -23.577765 ], [ -46.864653, -23.577803 ], [ -46.864748799999973, -23.577807 ], [ -46.864859, -23.577783499999949 ], [ -46.864939, -23.577738 ], [ -46.865015, -23.577667 ], [ -46.865122, -23.577493 ], [ -46.865197, -23.577343 ], [ -46.865345, -23.577019 ], [ -46.865537, -23.576664 ], [ -46.865687, -23.576442 ], [ -46.8658, -23.576295 ], [ -46.865899, -23.576232 ], [ -46.866023, -23.576177 ], [ -46.866079499999955, -23.576172 ], [ -46.866137, -23.576167 ], [ -46.866233799999982, -23.576180499999968 ], [ -46.866402, -23.576243 ], [ -46.866566, -23.576365 ], [ -46.86673, -23.576447 ], [ -46.866864, -23.576476 ], [ -46.866969, -23.576484 ], [ -46.867151, -23.576468 ], [ -46.867304, -23.576444 ], [ -46.867455, -23.576354 ], [ -46.867564, -23.57626 ], [ -46.867681, -23.576091 ], [ -46.867737, -23.575932 ], [ -46.867744, -23.575795 ], [ -46.86774249999997, -23.575680799999933 ], [ -46.867741, -23.575566 ], [ -46.86771, -23.575368 ], [ -46.867645, -23.575148 ], [ -46.86758, -23.574994 ], [ -46.867428, -23.574701 ], [ -46.867373, -23.57456 ], [ -46.867358, -23.574463 ], [ -46.867379, -23.574265 ], [ -46.867376, -23.574027 ], [ -46.867293, -23.573547 ], [ -46.867328, -23.573352 ], [ -46.867388, -23.573206 ], [ -46.867464, -23.573108 ], [ -46.86762, -23.573005 ], [ -46.867787, -23.572941 ], [ -46.867953, -23.5729 ], [ -46.868158, -23.572804 ], [ -46.868281, -23.572728 ], [ -46.868389, -23.572599 ], [ -46.868512, -23.572474 ], [ -46.868593, -23.572438 ], [ -46.868674, -23.572423 ], [ -46.868784, -23.572427 ], [ -46.869143, -23.572418 ], [ -46.869334, -23.572394 ], [ -46.869525, -23.572378 ], [ -46.869654, -23.572412 ], [ -46.869746, -23.572442 ], [ -46.86974749999996, -23.572443099999933 ], [ -46.869929, -23.572572 ], [ -46.8702, -23.572811 ], [ -46.870374, -23.572932 ], [ -46.870485, -23.572971 ], [ -46.87054, -23.572977 ], [ -46.870595, -23.572983 ], [ -46.870705, -23.572968 ], [ -46.870745, -23.572943499999951 ], [ -46.870785, -23.572919 ], [ -46.870899, -23.572811 ], [ -46.870998, -23.572696 ], [ -46.871116, -23.572615 ], [ -46.871259, -23.572551 ], [ -46.871482, -23.57246 ], [ -46.871491099999965, -23.572454599999958 ], [ -46.871599, -23.572391 ], [ -46.8717, -23.572286 ], [ -46.871737, -23.572188 ], [ -46.871768, -23.572051 ], [ -46.871767699999964, -23.572018399999937 ], [ -46.871766, -23.571862 ], [ -46.871784, -23.57176 ], [ -46.871806, -23.571689 ], [ -46.871898, -23.571589 ], [ -46.87199, -23.571489 ], [ -46.872044, -23.571417499999946 ], [ -46.872098, -23.571346 ], [ -46.872168, -23.571231 ], [ -46.872205, -23.571115 ], [ -46.872251, -23.570987 ], [ -46.872316, -23.570819 ], [ -46.872353, -23.570712 ], [ -46.872423, -23.570597 ], [ -46.872587, -23.570374 ], [ -46.87277, -23.57009 ], [ -46.872981, -23.569827 ], [ -46.873104299999966, -23.569723799999959 ], [ -46.87327, -23.569599 ], [ -46.873417, -23.569522 ], [ -46.873618, -23.569471 ], [ -46.87379, -23.569469 ], [ -46.873929, -23.569503 ], [ -46.874088, -23.569571 ], [ -46.874203, -23.56961 ], [ -46.874315299999985, -23.569638499999936 ], [ -46.8744, -23.56966 ], [ -46.874544, -23.56972 ], [ -46.874636, -23.569812 ], [ -46.874689499999938, -23.569882 ], [ -46.874743, -23.569952 ], [ -46.874788, -23.570066 ], [ -46.87492229999998, -23.570383 ], [ -46.874994, -23.570509 ], [ -46.875135, -23.570661 ], [ -46.875304, -23.570818 ], [ -46.875406, -23.570883 ], [ -46.87549249999995, -23.570903899999955 ], [ -46.875593, -23.570894 ], [ -46.875688, -23.570858 ], [ -46.875736, -23.5708 ], [ -46.875763, -23.570707 ], [ -46.875769499999933, -23.570636 ], [ -46.875776, -23.570565 ], [ -46.875635, -23.570435 ], [ -46.875514, -23.57033 ], [ -46.875441, -23.570226 ], [ -46.875415, -23.570107 ], [ -46.875428, -23.569979 ], [ -46.875455, -23.569864 ], [ -46.87552619999996, -23.569691 ], [ -46.875551899999941, -23.569643699999965 ], [ -46.875669, -23.569429 ], [ -46.875776, -23.569198 ], [ -46.875817199999965, -23.56900039999994 ], [ -46.875833, -23.568801 ], [ -46.875816, -23.568611 ], [ -46.8758, -23.568519 ], [ -46.875804799999976, -23.568481399999932 ], [ -46.875809, -23.568448 ], [ -46.875882499999932, -23.568294 ], [ -46.87627, -23.567556 ], [ -46.87632439999993, -23.567457099999952 ], [ -46.876587, -23.566984 ], [ -46.876727, -23.566695 ], [ -46.876762, -23.566518 ], [ -46.876765, -23.566377 ], [ -46.876754, -23.566227 ], [ -46.876714, -23.566118 ], [ -46.876641, -23.566004 ], [ -46.876567, -23.565894 ], [ -46.876417, -23.56572 ], [ -46.876121, -23.56545 ], [ -46.875956, -23.56528 ], [ -46.875858, -23.565109 ], [ -46.875764, -23.56489 ], [ -46.875689, -23.564644 ], [ -46.875643, -23.564424 ], [ -46.875583, -23.563908 ], [ -46.87556, -23.563234 ], [ -46.875558, -23.562758 ], [ -46.875569, -23.562537 ], [ -46.87561, -23.562365 ], [ -46.875702, -23.561773 ], [ -46.875728, -23.561596 ], [ -46.875722, -23.561446 ], [ -46.875701, -23.56131 ], [ -46.875661, -23.561209 ], [ -46.875588, -23.561117 ], [ -46.875477, -23.561048 ], [ -46.875347, -23.561005 ], [ -46.875140499999929, -23.560977 ], [ -46.874873, -23.56098 ], [ -46.874338, -23.561035 ], [ -46.873909, -23.561106 ], [ -46.873508, -23.561173 ], [ -46.873112, -23.561257 ], [ -46.872902, -23.561281 ], [ -46.872568, -23.561307 ], [ -46.87229, -23.561311 ], [ -46.872147, -23.561339 ], [ -46.871795, -23.561449 ], [ -46.871618, -23.561478 ], [ -46.871450699999976, -23.561497 ], [ -46.871327, -23.56149 ], [ -46.871245, -23.561469 ], [ -46.871172, -23.561408 ], [ -46.871129, -23.56136 ], [ -46.871099, -23.56129 ], [ -46.871078, -23.56114 ], [ -46.871057, -23.561043 ], [ -46.871008, -23.560964 ], [ -46.87094, -23.560881 ], [ -46.87092, -23.560798 ], [ -46.870915, -23.560754 ], [ -46.870943, -23.560705 ], [ -46.871004, -23.560656 ], [ -46.871076, -23.560646 ], [ -46.871516, -23.560641 ], [ -46.871602, -23.560631 ], [ -46.871659, -23.560591 ], [ -46.871687, -23.560537 ], [ -46.871691, -23.560493 ], [ -46.871676, -23.560458 ], [ -46.871642, -23.560432 ], [ -46.87157, -23.560402 ], [ -46.871373, -23.56036 ], [ -46.87132, -23.560321 ], [ -46.8713, -23.560269 ], [ -46.871309, -23.560216 ], [ -46.87137, -23.560144 ], [ -46.871381799999938, -23.560134899999973 ], [ -46.871585599999953, -23.559976499999944 ], [ -46.871612, -23.559956 ], [ -46.871663, -23.559885 ], [ -46.871686, -23.559788 ], [ -46.871724299999983, -23.559497899999929 ], [ -46.87175, -23.559303 ], [ -46.871749, -23.55913 ], [ -46.87178, -23.558988 ], [ -46.871826, -23.558864 ], [ -46.871902, -23.558784 ], [ -46.872006, -23.558721 ], [ -46.872092, -23.558707 ], [ -46.872306, -23.558664 ], [ -46.872454, -23.558614 ], [ -46.87253, -23.558556 ], [ -46.872591, -23.558467 ], [ -46.872623, -23.558348 ], [ -46.872623399999952, -23.558337499999944 ], [ -46.872632599999974, -23.558085799999947 ], [ -46.872633, -23.558074 ], [ -46.872625, -23.557989 ], [ -46.872582399999942, -23.557921199999956 ], [ -46.872561699999942, -23.557888299999945 ], [ -46.872505, -23.557798 ], [ -46.872423, -23.557719 ], [ -46.872317, -23.557654 ], [ -46.872182, -23.557607 ], [ -46.872, -23.557574 ], [ -46.87163, -23.557557 ], [ -46.871465, -23.557556 ], [ -46.871158, -23.557495 ], [ -46.871104099999975, -23.557462099999945 ], [ -46.871016699999977, -23.557396499999985 ], [ -46.871005199999964, -23.557377499999966 ], [ -46.870958, -23.5573 ], [ -46.870942, -23.55719 ], [ -46.870945, -23.557071 ], [ -46.870977, -23.556969 ], [ -46.871062, -23.556884 ], [ -46.871328, -23.556727 ], [ -46.871974, -23.556375 ], [ -46.872121, -23.556294 ], [ -46.872248, -23.556165 ], [ -46.872283, -23.556111499999929 ], [ -46.872318, -23.556058 ], [ -46.872397, -23.555863 ], [ -46.872455599999967, -23.555634599999962 ], [ -46.872473, -23.555439 ], [ -46.87246, -23.555249 ], [ -46.872439, -23.555113 ], [ -46.87236, -23.55492 ], [ -46.87231, -23.554761 ], [ -46.872295, -23.554665 ], [ -46.872322, -23.554567 ], [ -46.872359, -23.554492 ], [ -46.87242, -23.55439 ], [ -46.872418, -23.554284 ], [ -46.872379, -23.554214 ], [ -46.872277, -23.554122 ], [ -46.872113, -23.554005 ], [ -46.872007, -23.553923 ], [ -46.871904, -23.553883 ], [ -46.871791, -23.553881 ], [ -46.871686, -23.553913 ], [ -46.871611, -23.55398 ], [ -46.871483, -23.554097 ], [ -46.871389, -23.55419 ], [ -46.87116, -23.554259 ], [ -46.870855, -23.554303 ], [ -46.870487, -23.554369 ], [ -46.870196, -23.554399 ], [ -46.869977, -23.55437 ], [ -46.86984, -23.554262 ], [ -46.869733, -23.554144 ], [ -46.869618, -23.554088 ], [ -46.869422, -23.554073 ], [ -46.869345, -23.5541 ], [ -46.869213, -23.554177 ], [ -46.869018, -23.554267 ], [ -46.868808, -23.554314 ], [ -46.868656, -23.554324 ], [ -46.868475, -23.554341 ], [ -46.86833, -23.55435 ], [ -46.86828, -23.554373 ], [ -46.86823, -23.554396 ], [ -46.868199499999946, -23.554436 ], [ -46.868169, -23.554476 ], [ -46.868128, -23.554587 ], [ -46.868092, -23.554768 ], [ -46.868064, -23.554847 ], [ -46.868013, -23.55491 ], [ -46.867946, -23.554955 ], [ -46.867851, -23.554987 ], [ -46.867589, -23.555052 ], [ -46.86741139999998, -23.555084799999978 ], [ -46.867307, -23.555104 ], [ -46.86728869999996, -23.555103199999959 ], [ -46.866886, -23.555086 ], [ -46.86679, -23.555019 ], [ -46.866775, -23.555017 ], [ -46.866712, -23.554947 ], [ -46.866692, -23.554873 ], [ -46.866682, -23.554498 ], [ -46.866658, -23.554137 ], [ -46.866623, -23.554058 ], [ -46.866551, -23.553988 ], [ -46.866484, -23.553971 ], [ -46.866407, -23.553972 ], [ -46.866345, -23.55399 ], [ -46.866151, -23.554138 ], [ -46.865995, -23.554237 ], [ -46.86589, -23.554265 ], [ -46.865718, -23.554276 ], [ -46.865622, -23.554272 ], [ -46.865569, -23.554238 ], [ -46.865544, -23.554185 ], [ -46.865534, -23.554137 ], [ -46.865543, -23.554079 ], [ -46.865571, -23.554039 ], [ -46.86568, -23.553972 ], [ -46.865751, -23.55394 ], [ -46.865775, -23.553909 ], [ -46.865774, -23.553852 ], [ -46.865754, -23.553821 ], [ -46.865716, -23.553799 ], [ -46.86562, -23.553792 ], [ -46.865406, -23.553847 ], [ -46.865301, -23.553875 ], [ -46.865229, -23.553867 ], [ -46.865181, -23.55385 ], [ -46.865104, -23.553802 ], [ -46.864998, -23.553746 ], [ -46.864907, -23.553734 ], [ -46.864816, -23.553748 ], [ -46.864769, -23.55378 ], [ -46.864722, -23.553855 ], [ -46.864737, -23.55393 ], [ -46.864777, -23.554005 ], [ -46.864902, -23.554113 ], [ -46.864985, -23.554205 ], [ -46.865005, -23.554289 ], [ -46.865001, -23.554364 ], [ -46.864979, -23.554435 ], [ -46.864927, -23.554488 ], [ -46.864789099999932, -23.554502199999941 ], [ -46.864635, -23.554518 ], [ -46.864539, -23.554506 ], [ -46.864443, -23.554463 ], [ -46.864308, -23.554368 ], [ -46.864181, -23.554184 ], [ -46.864088, -23.554039 ], [ -46.864011, -23.553974 ], [ -46.86391, -23.553949 ], [ -46.8638, -23.55395 ], [ -46.863734, -23.553986 ], [ -46.863696, -23.554035 ], [ -46.863687, -23.554093 ], [ -46.863703, -23.554181 ], [ -46.863747, -23.554255 ], [ -46.863868, -23.554377 ], [ -46.863908, -23.554465 ], [ -46.863914, -23.554557 ], [ -46.863881, -23.554646 ], [ -46.86381, -23.554695 ], [ -46.8637, -23.554706 ], [ -46.86359, -23.554689 ], [ -46.863479, -23.554607 ], [ -46.863416, -23.554528 ], [ -46.863366, -23.554383 ], [ -46.863317, -23.5543 ], [ -46.86322, -23.554208 ], [ -46.863128, -23.554143 ], [ -46.863094, -23.554047 ], [ -46.863092, -23.553959 ], [ -46.863124, -23.553839 ], [ -46.863133, -23.553746 ], [ -46.863117, -23.553676 ], [ -46.863087, -23.553593 ], [ -46.862898, -23.55337 ], [ -46.862834, -23.553274 ], [ -46.862828, -23.55319 ], [ -46.862807, -23.552992 ], [ -46.862809, -23.552802 ], [ -46.862788, -23.552692 ], [ -46.862744, -23.552591 ], [ -46.862685, -23.552521 ], [ -46.862613, -23.552469 ], [ -46.862142, -23.552285 ], [ -46.862069, -23.552233 ], [ -46.861899, -23.552019 ], [ -46.861768, -23.551884 ], [ -46.861705, -23.551836 ], [ -46.861614, -23.551806 ], [ -46.861531899999932, -23.551803 ], [ -46.861323, -23.551854 ], [ -46.861266, -23.551881 ], [ -46.861213, -23.551869 ], [ -46.861174, -23.551829 ], [ -46.861154, -23.551777 ], [ -46.861163, -23.551706 ], [ -46.861186, -23.551648499999942 ], [ -46.861209, -23.551591 ], [ -46.86135, -23.551421 ], [ -46.861402, -23.551328 ], [ -46.861458, -23.55127 ], [ -46.86162, -23.551215 ], [ -46.861689599999977, -23.551169399999942 ], [ -46.861701, -23.551162 ], [ -46.861748, -23.551104 ], [ -46.86178, -23.55105 ], [ -46.861803499999951, -23.550988 ], [ -46.861827, -23.550926 ], [ -46.861892, -23.550842 ], [ -46.861967, -23.550682 ], [ -46.861975, -23.550572 ], [ -46.861954, -23.550488 ], [ -46.861921, -23.550453 ], [ -46.861853, -23.550436 ], [ -46.861762, -23.550438 ], [ -46.861736, -23.550451499999951 ], [ -46.86171, -23.550465 ], [ -46.861654, -23.550549 ], [ -46.861567, -23.550837 ], [ -46.861516, -23.550926 ], [ -46.861378, -23.550993 ], [ -46.861268, -23.551008 ], [ -46.861187, -23.550996 ], [ -46.861081, -23.550948 ], [ -46.861032, -23.550874 ], [ -46.86102649999998, -23.550832 ], [ -46.861021, -23.55079 ], [ -46.86103, -23.550715 ], [ -46.861067, -23.550622 ], [ -46.861163499999982, -23.550519499999947 ], [ -46.86126, -23.550417 ], [ -46.861269, -23.550338 ], [ -46.861258499999963, -23.550296 ], [ -46.861248, -23.550254 ], [ -46.861181, -23.550206 ], [ -46.861075, -23.550177 ], [ -46.86098, -23.550195 ], [ -46.86079, -23.55033 ], [ -46.86074, -23.550351 ], [ -46.86069, -23.550371 ], [ -46.860633, -23.550367 ], [ -46.860589, -23.550332 ], [ -46.860584, -23.550293 ], [ -46.860594499999934, -23.550277599999955 ], [ -46.860720799999967, -23.550092099999965 ], [ -46.860804599999938, -23.549969 ], [ -46.860823, -23.549942 ], [ -46.860869, -23.5498 ], [ -46.860892, -23.549698 ], [ -46.86088, -23.549584 ], [ -46.860893, -23.549473 ], [ -46.86093, -23.549367 ], [ -46.860967, -23.549252 ], [ -46.860978, -23.549036 ], [ -46.86095, -23.548763 ], [ -46.86094, -23.548383 ], [ -46.860909, -23.548194 ], [ -46.860922, -23.548084 ], [ -46.860973, -23.547986 ], [ -46.861082, -23.547923 ], [ -46.861197, -23.547904 ], [ -46.861393, -23.547902 ], [ -46.861732, -23.547858 ], [ -46.861999, -23.547811 ], [ -46.862208, -23.547702 ], [ -46.862302, -23.547565 ], [ -46.862315499999966, -23.547500499999945 ], [ -46.862329, -23.547436 ], [ -46.862317, -23.547264 ], [ -46.862282, -23.547181 ], [ -46.862205, -23.547116 ], [ -46.862114, -23.547086 ], [ -46.86197, -23.54707 ], [ -46.861831, -23.547036 ], [ -46.861804499999955, -23.547014499999928 ], [ -46.861778, -23.546993 ], [ -46.861748, -23.546918 ], [ -46.861747799999932, -23.546847299999978 ], [ -46.861747499999979, -23.546730399999937 ], [ -46.861747199999975, -23.546613499999982 ], [ -46.861747, -23.546521 ], [ -46.861722, -23.54642 ], [ -46.861659, -23.546337 ], [ -46.861514, -23.546224 ], [ -46.861368, -23.546094 ], [ -46.861186, -23.545859 ], [ -46.86109, -23.5457 ], [ -46.860873, -23.545518 ], [ -46.860664, -23.545317 ], [ -46.860562, -23.54516 ], [ -46.860535, -23.545029 ], [ -46.860538199999944, -23.544957599999979 ], [ -46.860539, -23.544939 ], [ -46.860572099999956, -23.544873799999937 ], [ -46.860577, -23.544864 ], [ -46.860628, -23.544837 ], [ -46.860805, -23.544835 ], [ -46.860964, -23.544859 ], [ -46.861219, -23.544993 ], [ -46.861426, -23.545096 ], [ -46.861718, -23.545111 ], [ -46.861828, -23.545065 ], [ -46.861941, -23.544971 ], [ -46.861997, -23.544838 ], [ -46.862007, -23.544775 ], [ -46.862128, -23.543798 ], [ -46.862147, -23.54365 ], [ -46.862147799999953, -23.543621699999953 ], [ -46.862149, -23.543581 ], [ -46.862155099999946, -23.543406299999951 ], [ -46.862165, -23.543121 ], [ -46.862208, -23.542829 ], [ -46.862287, -23.542647 ], [ -46.862386, -23.542487 ], [ -46.862527, -23.542362 ], [ -46.862694, -23.542299 ], [ -46.862807, -23.542205 ], [ -46.862873, -23.542124 ], [ -46.862901, -23.542031 ], [ -46.862904, -23.54193 ], [ -46.862879, -23.54182 ], [ -46.862787, -23.541737 ], [ -46.862685, -23.541677 ], [ -46.862409699999944, -23.541602499999961 ], [ -46.862267, -23.541541 ], [ -46.862205199999948, -23.541502 ], [ -46.862123, -23.54145 ], [ -46.862099199999932, -23.541415399999959 ], [ -46.86205, -23.541344 ], [ -46.862013, -23.541233 ], [ -46.861993199999972, -23.541173599999969 ], [ -46.861961, -23.541075 ], [ -46.861888699999959, -23.540949399999928 ], [ -46.861846499999956, -23.540876299999969 ], [ -46.861798, -23.540792 ], [ -46.861716, -23.540414 ], [ -46.861724, -23.540264 ], [ -46.861775, -23.540171 ], [ -46.861865, -23.540086 ], [ -46.862036, -23.540035 ], [ -46.862428, -23.540035 ], [ -46.862470899999948, -23.540028899999974 ], [ -46.862557, -23.540016 ], [ -46.862638, -23.539953 ], [ -46.86267, -23.539873 ], [ -46.862688, -23.539758 ], [ -46.862686, -23.539644 ], [ -46.862598, -23.539508 ], [ -46.862326, -23.53918 ], [ -46.862228, -23.539041 ], [ -46.862155, -23.538891 ], [ -46.862114, -23.538751 ], [ -46.862061, -23.538346 ], [ -46.861987, -23.538197 ], [ -46.861948, -23.538091 ], [ -46.861951, -23.537963 ], [ -46.861992, -23.537857 ], [ -46.862044, -23.537783 ], [ -46.862122, -23.537608 ], [ -46.862121, -23.537511 ], [ -46.862091, -23.537428 ], [ -46.862014, -23.537354 ], [ -46.861826, -23.537303 ], [ -46.861710899999935, -23.537313 ], [ -46.861564, -23.537377 ], [ -46.861186, -23.537375 ], [ -46.860807, -23.537188 ], [ -46.860781, -23.537073 ], [ -46.860803, -23.536927 ], [ -46.860836, -23.536809 ], [ -46.860996899999975, -23.536287899999934 ], [ -46.861108099999967, -23.536209399999965 ], [ -46.861345, -23.536037 ], [ -46.861435299999989, -23.535944399999941 ], [ -46.861470599999961, -23.535843599999961 ], [ -46.86148119999995, -23.535813499999957 ], [ -46.861428799999942, -23.535699 ], [ -46.861350299999962, -23.535594299999957 ], [ -46.861278299999981, -23.535473199999966 ], [ -46.861291399999971, -23.535394699999983 ], [ -46.8613405, -23.535348899999974 ], [ -46.861454, -23.535313 ], [ -46.861639499999967, -23.535170099999949 ], [ -46.861775, -23.535017 ], [ -46.861801799999974, -23.534920199999931 ], [ -46.861874399999977, -23.534810399999969 ], [ -46.861949, -23.534671599999967 ], [ -46.861936, -23.534586499999921 ], [ -46.861887899999942, -23.534513199999932 ], [ -46.861867199999956, -23.534481799999984 ], [ -46.861811599999953, -23.534391399999951 ], [ -46.861725399999955, -23.53427059999995 ], [ -46.861646199999939, -23.534174799999956 ], [ -46.861595699999953, -23.533991 ], [ -46.861556399999984, -23.533915699999955 ], [ -46.861554299999966, -23.533867499999936 ], [ -46.861549899999943, -23.533765199999937 ], [ -46.861386299999936, -23.533735799999931 ], [ -46.861291399999978, -23.533729199999982 ], [ -46.861222, -23.533663 ], [ -46.861062299999958, -23.533519799999969 ], [ -46.860926, -23.533318 ], [ -46.86091179999994, -23.533299299999953 ], [ -46.860862, -23.533234 ], [ -46.860854399999944, -23.533218399999949 ], [ -46.860769, -23.533042 ], [ -46.860753, -23.532901 ], [ -46.860718799999972, -23.532826199999924 ], [ -46.860787499999965, -23.53264949999993 ], [ -46.860836599999971, -23.532580799999955 ], [ -46.860918399999946, -23.532528399999929 ], [ -46.861046, -23.53251529999994 ], [ -46.861300699999958, -23.532483499999952 ], [ -46.861314299999947, -23.532394299999968 ], [ -46.861493, -23.532399399999971 ], [ -46.861651299999956, -23.532292799999937 ], [ -46.861785, -23.532131 ], [ -46.861915199999949, -23.532001099999935 ], [ -46.861976099999936, -23.531792 ], [ -46.862036199999977, -23.53165949999994 ], [ -46.862135599999938, -23.53158279999996 ], [ -46.862253299999963, -23.531455199999986 ], [ -46.862341699999938, -23.531268699999945 ], [ -46.862328199999979, -23.531146299999929 ], [ -46.862376, -23.530990899999949 ], [ -46.862418899999966, -23.530879299999977 ], [ -46.86247039999995, -23.530756199999928 ], [ -46.862490499999979, -23.530613099999982 ], [ -46.862460699999986, -23.530481899999927 ], [ -46.862396, -23.530330299999932 ], [ -46.862313, -23.53019189999997 ], [ -46.862268099999945, -23.530144099999966 ], [ -46.862187099999971, -23.530057899999974 ], [ -46.862089899999944, -23.530017899999955 ], [ -46.861991599999953, -23.529977 ], [ -46.861913299999976, -23.529985899999925 ], [ -46.86188379999993, -23.529976699999963 ], [ -46.861828899999985, -23.52995959999992 ], [ -46.861728, -23.529876799999954 ], [ -46.861581, -23.529755799999972 ], [ -46.861533099999981, -23.52971939999998 ], [ -46.861494099999959, -23.529689899999934 ], [ -46.861399099999979, -23.52968089999996 ], [ -46.861375699999947, -23.529672699999924 ], [ -46.861227, -23.529621 ], [ -46.860870899999952, -23.52941989999993 ], [ -46.860735499999976, -23.529284799999967 ], [ -46.860581, -23.529273 ], [ -46.860409499999946, -23.529217599999978 ], [ -46.860265899999938, -23.529140699999971 ], [ -46.860169099999951, -23.529055 ], [ -46.860116499999954, -23.528911099999956 ], [ -46.860130699999957, -23.528739 ], [ -46.860138699999936, -23.528623899999957 ], [ -46.860143099999959, -23.528527599999954 ], [ -46.860115, -23.528392 ], [ -46.860106, -23.528183 ], [ -46.860058, -23.52798 ], [ -46.860030699999982, -23.527910399999936 ], [ -46.860017099999936, -23.527875599999959 ], [ -46.860004, -23.527842 ], [ -46.859978, -23.52777559999992 ], [ -46.860000299999975, -23.52752409999994 ], [ -46.860005799999954, -23.527400699999937 ], [ -46.860036, -23.527236 ], [ -46.860036, -23.527116 ], [ -46.860046599999976, -23.527069 ], [ -46.860057599999941, -23.527020499999928 ], [ -46.860066499999967, -23.526980899999959 ], [ -46.86007509999996, -23.526968799999963 ], [ -46.860125399999966, -23.526898 ], [ -46.860200299999981, -23.52674009999993 ], [ -46.860294899999985, -23.526631399999925 ], [ -46.860296799999951, -23.526629199999945 ], [ -46.860342099999968, -23.52660359999993 ], [ -46.860384899999985, -23.526560799999963 ], [ -46.860425899999946, -23.526486099999932 ], [ -46.860454499999939, -23.526405599999983 ], [ -46.860478599999965, -23.526309299999983 ], [ -46.860494599999988, -23.526237099999943 ], [ -46.8605, -23.526175499999955 ], [ -46.860529399999962, -23.52612739999995 ], [ -46.860585599999979, -23.52608719999996 ], [ -46.860644499999978, -23.526017599999928 ], [ -46.860684599999956, -23.525980199999935 ], [ -46.860767599999981, -23.525932 ], [ -46.860853199999951, -23.525902599999927 ], [ -46.860957499999984, -23.525913299999957 ], [ -46.861144899999942, -23.525942699999959 ], [ -46.861225099999949, -23.525974799999968 ], [ -46.861523, -23.525937 ], [ -46.861757599999976, -23.52574739999994 ], [ -46.861856599999953, -23.525613599999918 ], [ -46.861947599999951, -23.525485199999942 ], [ -46.862162, -23.525409 ], [ -46.862418, -23.525296 ], [ -46.862532, -23.525198 ], [ -46.862607, -23.525104 ], [ -46.862625, -23.524985 ], [ -46.862613, -23.524818 ], [ -46.862563, -23.524717 ], [ -46.862437, -23.524604 ], [ -46.86232, -23.524442 ], [ -46.862275, -23.524341 ], [ -46.862269, -23.524222 ], [ -46.862301, -23.524111 ], [ -46.862423, -23.523938 ], [ -46.862521, -23.523791 ], [ -46.862543, -23.523663 ], [ -46.862537, -23.523526 ], [ -46.862501, -23.523364 ], [ -46.862427, -23.523206 ], [ -46.862407, -23.5231 ], [ -46.862424, -23.523012 ], [ -46.862545099999977, -23.522814699999969 ], [ -46.86263839999998, -23.522858499999924 ], [ -46.86276, -23.522898199999922 ], [ -46.862774499999944, -23.52289739999997 ], [ -46.862804399999959, -23.522895799999954 ], [ -46.862891, -23.522891 ], [ -46.862895499999979, -23.522878 ], [ -46.862914, -23.522825 ], [ -46.862927799999973, -23.522748699999962 ], [ -46.862893299999946, -23.522687399999928 ], [ -46.862862099999973, -23.522631899999951 ], [ -46.862789599999985, -23.522586099999948 ], [ -46.862753599999962, -23.522563399999971 ], [ -46.862723499999959, -23.522544399999962 ], [ -46.862625799999932, -23.522503399999934 ], [ -46.862610399999944, -23.522497 ], [ -46.862475, -23.522504 ], [ -46.862325899999973, -23.52242769999997 ], [ -46.862172699999974, -23.522321899999955 ], [ -46.861983, -23.522179 ], [ -46.861834399999964, -23.522027699999963 ], [ -46.861735, -23.521949799999959 ], [ -46.861621899999932, -23.521938899999949 ], [ -46.861528299999975, -23.521971599999965 ], [ -46.861365, -23.522191 ], [ -46.860917899999947, -23.522656599999948 ], [ -46.860637, -23.522891799999961 ], [ -46.860445499999969, -23.523045099999933 ], [ -46.860286799999983, -23.523198299999933 ], [ -46.860208099999966, -23.523246199999964 ], [ -46.8601609, -23.523254599999962 ], [ -46.860097799999949, -23.523246199999956 ], [ -46.860079, -23.523203 ], [ -46.860054, -23.523124 ], [ -46.860053, -23.523044 ], [ -46.860071, -23.522956 ], [ -46.860109, -23.522854 ], [ -46.860176, -23.522553 ], [ -46.860155, -23.522448 ], [ -46.860092, -23.522351 ], [ -46.85998, -23.52226 ], [ -46.85973, -23.522113 ], [ -46.859667, -23.522043 ], [ -46.859578899999974, -23.521947799999971 ], [ -46.859513, -23.521803799999919 ], [ -46.859412899999938, -23.52164509999994 ], [ -46.859256699999946, -23.521486399999951 ], [ -46.859200599999959, -23.521398599999944 ], [ -46.859122699999944, -23.521312699999957 ], [ -46.85907849999996, -23.521222799999975 ], [ -46.859017499999936, -23.521142199999929 ], [ -46.85893939999994, -23.52099579999998 ], [ -46.858861199999978, -23.520851799999949 ], [ -46.858751399999953, -23.520741899999962 ], [ -46.858647699999949, -23.520683 ], [ -46.858517099999972, -23.520627199999979 ], [ -46.858485799999983, -23.520637 ], [ -46.85846209999994, -23.520639399999929 ], [ -46.858410899999974, -23.520621099999975 ], [ -46.858391699999963, -23.520608099999958 ], [ -46.858371799999986, -23.520605199999974 ], [ -46.85834669999997, -23.52062149999994 ], [ -46.85833029999997, -23.520621099999968 ], [ -46.858301, -23.520602799999956 ], [ -46.858269299999961, -23.52058809999993 ], [ -46.85824759999997, -23.520598 ], [ -46.85823019999998, -23.520599099999973 ], [ -46.858192399999957, -23.520571 ], [ -46.858178299999963, -23.520549399999943 ], [ -46.858155799999956, -23.520541699999967 ], [ -46.85813329999997, -23.520546599999932 ], [ -46.858111799999968, -23.520557599999954 ], [ -46.858082499999959, -23.520544199999964 ], [ -46.858053199999979, -23.520525899999935 ], [ -46.858014199999964, -23.520489299999948 ], [ -46.857976499999957, -23.52048 ], [ -46.857934799999953, -23.520484399999919 ], [ -46.857917099999952, -23.520477299999989 ], [ -46.857899499999974, -23.520458699999953 ], [ -46.85787769999996, -23.520455299999977 ], [ -46.857848199999978, -23.52046 ], [ -46.857824399999977, -23.520441099999978 ], [ -46.857811599999941, -23.520419699999934 ], [ -46.857752, -23.520372799999965 ], [ -46.857731, -23.52036229999992 ], [ -46.857621199999983, -23.520340299999933 ], [ -46.857589199999957, -23.520321 ], [ -46.857567499999966, -23.520301299999968 ], [ -46.857537099999952, -23.520297899999942 ], [ -46.857526399999983, -23.520300699999961 ], [ -46.857515599999942, -23.520303599999966 ], [ -46.857476499999954, -23.520285499999947 ], [ -46.857461699999931, -23.520268799999933 ], [ -46.85740149999998, -23.520213399999928 ], [ -46.857328199999984, -23.520176799999938 ], [ -46.857276399999932, -23.520171199999933 ], [ -46.857245199999966, -23.520162099999933 ], [ -46.857196299999949, -23.520121199999938 ], [ -46.857132799999924, -23.520068 ], [ -46.857103799999955, -23.520066499999928 ], [ -46.857074399999931, -23.520057199999936 ], [ -46.857064799999932, -23.520045 ], [ -46.857063, -23.520027099999933 ], [ -46.857054799999965, -23.52000959999997 ], [ -46.857040499999982, -23.520006899999942 ], [ -46.857016099999953, -23.520017199999927 ], [ -46.856989099999964, -23.520005 ], [ -46.856975499999983, -23.51999249999994 ], [ -46.856948099999961, -23.519934699999965 ], [ -46.856921799999952, -23.519866799999935 ], [ -46.856884, -23.519799599999946 ], [ -46.856849799999964, -23.519766699999934 ], [ -46.856807, -23.519762 ], [ -46.856738, -23.519679 ], [ -46.856689, -23.519588 ], [ -46.85663, -23.519465 ], [ -46.856571, -23.519341 ], [ -46.856535199999946, -23.519148299999976 ], [ -46.856531099999984, -23.519126299999979 ], [ -46.856524499999985, -23.51909049999994 ], [ -46.856518, -23.519055199999961 ], [ -46.856513099999972, -23.519028799999923 ], [ -46.856509, -23.519007 ], [ -46.856506799999977, -23.518996399999931 ], [ -46.856505599999942, -23.518990599999928 ], [ -46.856497699999984, -23.518953 ], [ -46.856473, -23.518835 ], [ -46.856399, -23.518686 ], [ -46.856297, -23.518529 ], [ -46.85616, -23.518433 ], [ -46.85607, -23.518412 ], [ -46.855893, -23.51841 ], [ -46.855763, -23.518385 ], [ -46.855633, -23.51836 ], [ -46.855492, -23.518226 ], [ -46.855368, -23.518122 ], [ -46.855341, -23.517978 ], [ -46.855322, -23.517767 ], [ -46.855262, -23.517492 ], [ -46.855235, -23.517368 ], [ -46.854984, -23.517002 ], [ -46.85466, -23.516673 ], [ -46.854429, -23.516555 ], [ -46.854154, -23.516515 ], [ -46.854117899999949, -23.516509599999946 ], [ -46.853737, -23.516453 ], [ -46.853325, -23.516393 ], [ -46.852694, -23.516417 ], [ -46.852569, -23.516422 ], [ -46.851297, -23.516296 ], [ -46.851128, -23.516289 ], [ -46.85078649999997, -23.516275499999942 ], [ -46.850445, -23.516262 ], [ -46.849271, -23.516219 ], [ -46.848721, -23.516205 ], [ -46.848434, -23.516198 ], [ -46.848358, -23.516196 ], [ -46.848243, -23.516193 ], [ -46.847425499999986, -23.516173 ], [ -46.847098, -23.516165 ], [ -46.846992, -23.516161 ], [ -46.846391099999948, -23.516089299999972 ], [ -46.84592, -23.515996 ], [ -46.845719, -23.515956 ], [ -46.845062399999961, -23.515772099999943 ], [ -46.844844, -23.515711 ], [ -46.844593699999962, -23.51560749999993 ], [ -46.844549, -23.515589 ], [ -46.844511299999965, -23.515565699999975 ], [ -46.844416599999938, -23.515507199999949 ], [ -46.843675, -23.515049 ], [ -46.842254899999944, -23.514124699999964 ], [ -46.842251799999985, -23.514122599999943 ], [ -46.842222499999934, -23.514103499999983 ], [ -46.842177899999974, -23.514074499999928 ], [ -46.842013499999943, -23.513967499999971 ], [ -46.841601199999957, -23.51394 ], [ -46.841344699999972, -23.513860599999941 ], [ -46.841312599999981, -23.513850699999971 ], [ -46.841303, -23.513842299999965 ], [ -46.841251899999975, -23.513797799999956 ], [ -46.840295699999956, -23.512964299999965 ], [ -46.840131599999943, -23.512716899999941 ], [ -46.840100199999945, -23.51266969999994 ], [ -46.840077299999962, -23.512635199999973 ], [ -46.839821599999937, -23.51224979999995 ], [ -46.839499899999964, -23.511928 ], [ -46.839466699999953, -23.511894799999933 ], [ -46.839450599999964, -23.511878699999951 ], [ -46.839413599999943, -23.511759 ], [ -46.839299499999989, -23.511389499999954 ], [ -46.839286799999968, -23.511348199999922 ], [ -46.839275799999939, -23.511312599999947 ], [ -46.839264899999939, -23.511277299999954 ], [ -46.839212, -23.511106 ], [ -46.839000699999985, -23.510966899999968 ], [ -46.838974, -23.511005 ], [ -46.837432299999932, -23.511002699999953 ], [ -46.836312, -23.511093 ], [ -46.835233699999947, -23.511388299999961 ], [ -46.8347869, -23.511564799999981 ], [ -46.834193499999969, -23.51181349999996 ], [ -46.83390749999996, -23.511947 ], [ -46.833805799999936, -23.511994499999957 ], [ -46.833578199999977, -23.51213829999995 ], [ -46.833301599999977, -23.512335599999979 ], [ -46.832885799999985, -23.512696799999958 ], [ -46.832421199999949, -23.51312919999998 ], [ -46.832349899999947, -23.513225299999931 ], [ -46.83224, -23.513198 ], [ -46.832298, -23.513273 ], [ -46.832315, -23.51333 ], [ -46.832341, -23.51341 ], [ -46.832341, -23.513424299999933 ], [ -46.832341, -23.513509099999968 ], [ -46.832341, -23.513594 ], [ -46.832336, -23.513724 ], [ -46.832319, -23.513822 ], [ -46.832283, -23.513924 ], [ -46.832239, -23.513988 ], [ -46.832211799999989, -23.514008099999955 ], [ -46.832185299999942, -23.514028099999955 ], [ -46.832172, -23.514038 ], [ -46.832044, -23.514107 ], [ -46.831914, -23.514153 ], [ -46.831812, -23.514209 ], [ -46.831691, -23.514304 ], [ -46.831466, -23.514496 ], [ -46.831377, -23.514557 ], [ -46.831287, -23.514618 ], [ -46.831134, -23.514726 ], [ -46.830924, -23.514848 ], [ -46.830726, -23.514988 ], [ -46.8305764, -23.51511759999994 ], [ -46.830407, -23.515255 ], [ -46.83016, -23.515476 ], [ -46.829637, -23.515915 ], [ -46.828842499999958, -23.516701599999969 ], [ -46.828176, -23.517213 ], [ -46.827598, -23.517469 ], [ -46.827092, -23.51762 ], [ -46.826586, -23.517771 ], [ -46.825808399999978, -23.517924499999936 ], [ -46.82575, -23.517936 ], [ -46.825474, -23.51799 ], [ -46.824319, -23.518288 ], [ -46.823864, -23.518449 ], [ -46.823476, -23.518626 ], [ -46.823247, -23.518814 ], [ -46.822996, -23.519149 ], [ -46.822802, -23.519546 ], [ -46.82271, -23.519975 ], [ -46.822662, -23.520177 ], [ -46.822590099999964, -23.52044449999995 ], [ -46.822507, -23.520676 ], [ -46.822419499999967, -23.520845499999954 ], [ -46.822332, -23.521015 ], [ -46.822075, -23.521306 ], [ -46.821834, -23.521509 ], [ -46.821448, -23.521739 ], [ -46.821053, -23.521861 ], [ -46.820622199999946, -23.52192609999998 ], [ -46.820343, -23.521922 ], [ -46.820127, -23.521913 ], [ -46.819999, -23.521889 ], [ -46.81987, -23.521865 ], [ -46.819521, -23.52179 ], [ -46.819177, -23.521662 ], [ -46.818874, -23.521492 ], [ -46.818684, -23.521332 ], [ -46.818631699999969, -23.521259799999935 ], [ -46.818620699999947, -23.521244699999954 ], [ -46.818551, -23.521148 ], [ -46.818402, -23.52088 ], [ -46.818268, -23.520691 ], [ -46.818126, -23.52054 ], [ -46.818044, -23.520448 ], [ -46.817971599999964, -23.520528 ], [ -46.817939, -23.520564 ], [ -46.817826, -23.520645 ], [ -46.817674, -23.520735 ], [ -46.81739, -23.520717 ], [ -46.817336799999964, -23.520842499999947 ], [ -46.817313, -23.520922 ], [ -46.817297, -23.521018 ], [ -46.817289, -23.521103099999959 ], [ -46.817247, -23.521521 ], [ -46.817229, -23.521721 ], [ -46.817229, -23.521783499999962 ], [ -46.817229, -23.521794 ], [ -46.817231, -23.521879 ], [ -46.817238, -23.521987 ], [ -46.817257, -23.522224 ], [ -46.817259, -23.522243499999945 ], [ -46.817276, -23.522413 ], [ -46.817286, -23.522555 ], [ -46.817299, -23.522657 ], [ -46.817322, -23.522756 ], [ -46.817401, -23.522988 ], [ -46.81746, -23.523154 ], [ -46.817478899999969, -23.523227799999972 ], [ -46.817504, -23.523326 ], [ -46.817515, -23.52341 ], [ -46.817508, -23.523455 ], [ -46.817501799999945, -23.523476299999967 ], [ -46.817500799999948, -23.523479799999965 ], [ -46.817499, -23.523486 ], [ -46.817492099999981, -23.523497199999959 ], [ -46.817469899999935, -23.523533599999951 ], [ -46.81741489999996, -23.523623399999952 ], [ -46.817385699999932, -23.523671 ], [ -46.817346699999966, -23.523719399999951 ], [ -46.817274699999984, -23.523808699999964 ], [ -46.817233399999971, -23.523859799999972 ], [ -46.816949599999937, -23.524211499999975 ], [ -46.81692919999994, -23.524236799999979 ], [ -46.816783, -23.524418 ], [ -46.816766699999953, -23.524445599999982 ], [ -46.816688099999958, -23.524579199999945 ], [ -46.816644399999973, -23.524653199999928 ], [ -46.816612299999981, -23.524721199999931 ], [ -46.816562299999937, -23.524827099999989 ], [ -46.81652269999995, -23.524910899999959 ], [ -46.816492, -23.524976 ], [ -46.816487799999948, -23.525124799999961 ], [ -46.816481899999985, -23.525337799999939 ], [ -46.816476899999948, -23.525515399999946 ], [ -46.816471, -23.525726 ], [ -46.816471499999977, -23.525765199999963 ], [ -46.816474399999947, -23.525973099999934 ], [ -46.81647959999998, -23.526339799999967 ], [ -46.81648, -23.526371 ], [ -46.816490499999986, -23.526659099999961 ], [ -46.816489799999943, -23.526671899999926 ], [ -46.816487, -23.526718 ], [ -46.816504, -23.527313 ], [ -46.816514099999949, -23.527448399999965 ], [ -46.816521, -23.527886 ], [ -46.816541, -23.528416 ], [ -46.816557, -23.528612 ], [ -46.816584, -23.528754 ], [ -46.816621, -23.528883 ], [ -46.816651, -23.528963 ], [ -46.816712, -23.529101 ], [ -46.816791, -23.529274 ], [ -46.816905, -23.529504 ], [ -46.817051, -23.529764 ], [ -46.817188, -23.53002 ], [ -46.817256, -23.530163 ], [ -46.817298, -23.530272 ], [ -46.817326, -23.530367 ], [ -46.817339, -23.530463 ], [ -46.817349, -23.530606 ], [ -46.817365, -23.530945 ], [ -46.817374, -23.531418899999956 ], [ -46.817378, -23.531687 ], [ -46.81738009999998, -23.53173709999993 ], [ -46.817394899999954, -23.532096699999954 ], [ -46.817411799999945, -23.532506499999947 ], [ -46.817414, -23.532563 ], [ -46.817419099999945, -23.532774099999983 ], [ -46.81742, -23.532809 ], [ -46.817423599999984, -23.532936299999967 ], [ -46.817435, -23.53334 ], [ -46.817443, -23.533629 ], [ -46.817448, -23.533809 ], [ -46.817444499999972, -23.534165099999932 ], [ -46.817444, -23.534212 ], [ -46.817423099999985, -23.534660699999964 ], [ -46.817403, -23.535331 ], [ -46.817387, -23.535802 ], [ -46.817375, -23.536159 ], [ -46.817359, -23.536426 ], [ -46.817342, -23.537526 ], [ -46.817325, -23.53784 ], [ -46.817314399999923, -23.538025 ], [ -46.817307, -23.538153 ], [ -46.817305199999964, -23.538371399999967 ], [ -46.817298, -23.539265 ], [ -46.817304, -23.539604 ], [ -46.817314, -23.539804 ], [ -46.817331, -23.539973 ], [ -46.817384, -23.540302 ], [ -46.817471, -23.540689 ], [ -46.817523, -23.540872 ], [ -46.817584, -23.541117 ], [ -46.817645, -23.541395 ], [ -46.8177, -23.541662 ], [ -46.817722, -23.541729 ], [ -46.81774, -23.541776 ], [ -46.817767, -23.541802 ], [ -46.818243099999968, -23.542120399999934 ], [ -46.818345799999975, -23.542189099999973 ], [ -46.818445899999965, -23.542256 ], [ -46.818599899999981, -23.542359 ], [ -46.818766499999981, -23.542470399999953 ], [ -46.819087, -23.542684699999935 ], [ -46.819391, -23.542888 ], [ -46.819529699999975, -23.542969399999954 ], [ -46.819784, -23.543105 ], [ -46.82007, -23.543251 ], [ -46.820114699999976, -23.54327459999995 ], [ -46.820326, -23.543386 ], [ -46.820471, -23.543458 ], [ -46.820542, -23.54351 ], [ -46.820607, -23.543568 ], [ -46.820659, -23.543642 ], [ -46.820706, -23.543716 ], [ -46.82071029999998, -23.543725099999957 ], [ -46.82075459999993, -23.543820099999941 ], [ -46.820808, -23.543956 ], [ -46.820861, -23.544118 ], [ -46.82093, -23.544345 ], [ -46.820972, -23.544471 ], [ -46.82102, -23.544593 ], [ -46.821096, -23.544758 ], [ -46.821226899999935, -23.545033 ], [ -46.821264, -23.545123 ], [ -46.821285, -23.545192 ], [ -46.821286199999975, -23.54529169999995 ], [ -46.821286, -23.545301 ], [ -46.821282, -23.545343 ], [ -46.821263, -23.545407 ], [ -46.821236, -23.545486 ], [ -46.821202, -23.545584 ], [ -46.821133699999962, -23.545695599999924 ], [ -46.821085499999981, -23.545766 ], [ -46.821054099999969, -23.545854799999979 ], [ -46.82093, -23.54593079999994 ], [ -46.820868799999971, -23.54599009999998 ], [ -46.820786699999985, -23.54607889999993 ], [ -46.8207781, -23.546088199999922 ], [ -46.820717, -23.546182699999978 ], [ -46.820652099999961, -23.546323399999942 ], [ -46.820622499999956, -23.546401199999927 ], [ -46.820604, -23.54647719999997 ], [ -46.820594699999965, -23.546551199999953 ], [ -46.82060249999995, -23.546676899999959 ], [ -46.820607, -23.54675 ], [ -46.820594, -23.546887 ], [ -46.820594199999952, -23.546891099999979 ], [ -46.820595299999979, -23.546915599999981 ], [ -46.820597099999979, -23.546955499999971 ], [ -46.820598, -23.546975 ], [ -46.820611, -23.547055 ], [ -46.820644399999928, -23.547138399999945 ], [ -46.820699299999951, -23.54723219999995 ], [ -46.820729399999948, -23.547308199999968 ], [ -46.820800099999985, -23.547412699999938 ], [ -46.820855, -23.547476399999923 ], [ -46.820939899999985, -23.547555099999958 ], [ -46.821024899999934, -23.547633799999979 ], [ -46.821144, -23.547751 ], [ -46.821311, -23.547914 ], [ -46.821448, -23.548053 ], [ -46.821543, -23.548162 ], [ -46.821613, -23.548271 ], [ -46.821674, -23.548337 ], [ -46.821731, -23.548407 ], [ -46.821769, -23.548472 ], [ -46.821795, -23.548547 ], [ -46.821812399999942, -23.548632899999976 ], [ -46.821822, -23.548738 ], [ -46.821825, -23.548803 ], [ -46.821827, -23.548869 ], [ -46.821816, -23.548943 ], [ -46.821794, -23.549046 ], [ -46.821734699999986, -23.549152399999961 ], [ -46.821688399999971, -23.549274199999953 ], [ -46.82163, -23.549408699999955 ], [ -46.821578699999982, -23.549491799999938 ], [ -46.821527499999945, -23.54956859999993 ], [ -46.821476099999984, -23.549644 ], [ -46.821440699999982, -23.549706 ], [ -46.821448099999941, -23.549793799999978 ], [ -46.821396499999935, -23.549861699999948 ], [ -46.821373499999936, -23.549909499999949 ], [ -46.821352199999978, -23.54999969999994 ], [ -46.821341599999982, -23.550051 ], [ -46.821309799999938, -23.550107599999933 ], [ -46.821237199999985, -23.55019609999993 ], [ -46.821193, -23.550288099999943 ], [ -46.821158, -23.550385 ], [ -46.821109, -23.550455 ], [ -46.821068, -23.55053 ], [ -46.821057099999962, -23.550562599999974 ], [ -46.821021, -23.550673 ], [ -46.82101, -23.550743 ], [ -46.82101, -23.550752 ], [ -46.821008, -23.550844 ], [ -46.821, -23.550918 ], [ -46.820981, -23.551007 ], [ -46.820945, -23.551115 ], [ -46.820918, -23.551197 ], [ -46.820897, -23.551243 ], [ -46.820879, -23.551286 ], [ -46.820856799999945, -23.551399499999942 ], [ -46.820803699999949, -23.551539199999986 ], [ -46.820780699999943, -23.551703699999969 ], [ -46.82074, -23.551811699999973 ], [ -46.820718299999953, -23.551889899999924 ], [ -46.820674499999946, -23.551949699999962 ], [ -46.820649699999933, -23.552052299999968 ], [ -46.820617899999945, -23.552149699999973 ], [ -46.820600199999944, -23.552247 ], [ -46.820580699999937, -23.552316 ], [ -46.820596599999931, -23.552397399999951 ], [ -46.820619599999937, -23.552471699999959 ], [ -46.820662, -23.552548 ], [ -46.820682, -23.552619 ], [ -46.820698, -23.552672 ], [ -46.82072, -23.552719 ], [ -46.820755, -23.552784 ], [ -46.820766, -23.552802 ], [ -46.82077419999996, -23.552815599999985 ], [ -46.820559, -23.553189 ], [ -46.820249, -23.553646 ], [ -46.820072, -23.553893 ], [ -46.819983, -23.554021 ], [ -46.819977, -23.554034 ], [ -46.819957, -23.554564 ], [ -46.819955899999968, -23.554595499999945 ], [ -46.819927799999959, -23.555375799999982 ], [ -46.819908, -23.555924 ], [ -46.819918, -23.555938 ], [ -46.819931, -23.555953 ], [ -46.819959, -23.555988 ], [ -46.81999, -23.556022 ], [ -46.820018, -23.556069 ], [ -46.820028, -23.556116 ], [ -46.820024, -23.556161 ], [ -46.820012, -23.556214 ], [ -46.820009899999945, -23.556241499999931 ], [ -46.820009, -23.556253599999934 ], [ -46.820008, -23.556266 ], [ -46.820008, -23.556344799999973 ], [ -46.820008, -23.556367 ], [ -46.820024699999976, -23.55677089999995 ], [ -46.820033, -23.556982 ], [ -46.820033599999931, -23.557001399999933 ], [ -46.820036, -23.557087 ], [ -46.820046, -23.557143 ], [ -46.82007, -23.557194 ], [ -46.820109, -23.557233 ], [ -46.820156, -23.557266 ], [ -46.820223, -23.5573 ], [ -46.820245499999942, -23.557316299999975 ], [ -46.820263, -23.557329 ], [ -46.82029, -23.557364 ], [ -46.820295299999941, -23.557372099999945 ], [ -46.820354199999947, -23.557434299999947 ], [ -46.820476299999946, -23.557598899999956 ], [ -46.820556, -23.557714 ], [ -46.820592, -23.557781 ], [ -46.820625, -23.557858 ], [ -46.820656, -23.55794 ], [ -46.82069, -23.558012 ], [ -46.820721, -23.558073 ], [ -46.820764, -23.55812 ], [ -46.820802, -23.558169 ], [ -46.82081, -23.558212 ], [ -46.82081, -23.558254 ], [ -46.820781599999982, -23.558309399999928 ], [ -46.820739099999976, -23.558426199999918 ], [ -46.820686, -23.558528799999973 ], [ -46.820625799999959, -23.558737599999972 ], [ -46.820614, -23.558823 ], [ -46.820574499999957, -23.558860599999946 ], [ -46.820494, -23.55893049999996 ], [ -46.820317899999964, -23.559114499999968 ], [ -46.81963769999993, -23.559947899999944 ], [ -46.819133099999931, -23.560509099999926 ], [ -46.818897, -23.560771 ], [ -46.818728, -23.560958 ], [ -46.818578, -23.56111 ], [ -46.818408, -23.561304 ], [ -46.818263, -23.561474 ], [ -46.818208099999936, -23.561546 ], [ -46.818176, -23.561588 ], [ -46.818005099999937, -23.561867599999971 ], [ -46.817873, -23.562107 ], [ -46.817822, -23.562227 ], [ -46.817804, -23.562299 ], [ -46.81781, -23.5624 ], [ -46.817831, -23.562593 ], [ -46.817871, -23.562855 ], [ -46.817914, -23.563214 ], [ -46.817974, -23.563626 ], [ -46.818019199999981, -23.563978499999958 ], [ -46.81803309999998, -23.564085199999965 ], [ -46.818078, -23.564429 ], [ -46.818179, -23.565272 ], [ -46.818185, -23.565419 ], [ -46.818165, -23.565545 ], [ -46.818118, -23.565686 ], [ -46.818034, -23.565855 ], [ -46.817922899999985, -23.56599 ], [ -46.817745099999968, -23.566259399999979 ], [ -46.817682199999979, -23.566354499999932 ], [ -46.817519399999981, -23.566623499999928 ], [ -46.817406199999944, -23.566782699999976 ], [ -46.817328299999986, -23.566920799999938 ], [ -46.81669439999996, -23.567816799999949 ], [ -46.816491499999984, -23.568081 ], [ -46.816476399999949, -23.568100599999983 ], [ -46.816469499999982, -23.568108099999961 ], [ -46.816440199999931, -23.568139899999956 ], [ -46.816352499999944, -23.56823519999994 ], [ -46.816074199999946, -23.568537699999982 ], [ -46.816014, -23.568521699999962 ], [ -46.815745099999958, -23.568654499999973 ], [ -46.815658299999939, -23.56870489999994 ], [ -46.815571599999942, -23.56875529999996 ], [ -46.815421199999953, -23.568811899999965 ], [ -46.815274399999964, -23.568907499999963 ], [ -46.815246699999932, -23.568920699999985 ], [ -46.815106399999934, -23.568987499999917 ], [ -46.815067399999975, -23.569008299999954 ], [ -46.814989599999933, -23.569049799999966 ], [ -46.81491149999993, -23.569091499999953 ], [ -46.814881499999956, -23.569107499999966 ], [ -46.814866799999947, -23.569116899999976 ], [ -46.814690399999961, -23.569229599999971 ], [ -46.814629699999955, -23.569273799999948 ], [ -46.814569, -23.569318 ], [ -46.814506399999971, -23.569374699999965 ], [ -46.814452299999964, -23.569422099999937 ], [ -46.814433799999954, -23.569438399999957 ], [ -46.814402, -23.569514399999942 ], [ -46.814389599999963, -23.569601199999969 ], [ -46.814391399999984, -23.569702 ], [ -46.814400199999966, -23.569755 ], [ -46.814409, -23.569808 ], [ -46.814419, -23.569838 ], [ -46.814429, -23.569868 ], [ -46.814455, -23.569923 ], [ -46.814508, -23.57001 ], [ -46.814535, -23.570054499999976 ], [ -46.814562, -23.570099 ], [ -46.814606, -23.570202 ], [ -46.814659, -23.570329 ], [ -46.814676799999972, -23.570359499999942 ], [ -46.814772, -23.570522699999948 ], [ -46.814801599999953, -23.57057339999994 ], [ -46.814886, -23.570732 ], [ -46.814971, -23.57088 ], [ -46.814998, -23.57094 ], [ -46.815004799999947, -23.570992 ], [ -46.814984599999946, -23.571074 ], [ -46.814965799999982, -23.57112219999993 ], [ -46.814889599999958, -23.571229199999944 ], [ -46.814849399999957, -23.571284099999957 ], [ -46.814814599999977, -23.571344299999971 ], [ -46.814757099999952, -23.571408499999965 ], [ -46.814725, -23.571435299999965 ], [ -46.814684799999959, -23.571460699999925 ], [ -46.814662099999964, -23.571515499999975 ], [ -46.814626, -23.57158109999995 ], [ -46.81460119999997, -23.571652 ], [ -46.81459719999998, -23.571724299999971 ], [ -46.814614599999977, -23.571812599999934 ], [ -46.814613299999969, -23.571875499999983 ], [ -46.814613299999969, -23.571958399999971 ], [ -46.814617, -23.572084 ], [ -46.81461, -23.572198 ], [ -46.814611099999979, -23.572216 ], [ -46.814617, -23.572316 ], [ -46.814632, -23.572401 ], [ -46.814675, -23.572575 ], [ -46.814703599999973, -23.572656599999956 ], [ -46.814739, -23.572712 ], [ -46.814791, -23.572765 ], [ -46.81487, -23.572814 ], [ -46.814949299999974, -23.572855699999931 ], [ -46.814986, -23.572875 ], [ -46.815175, -23.572963 ], [ -46.815252, -23.573004 ], [ -46.815302, -23.573045 ], [ -46.815330699999947, -23.573085699999975 ], [ -46.81534, -23.573099 ], [ -46.81537, -23.57316 ], [ -46.815385299999953, -23.573219799999954 ], [ -46.815401, -23.573281 ], [ -46.815441, -23.573455 ], [ -46.815478199999973, -23.573621699999936 ], [ -46.815491, -23.573679 ], [ -46.815506, -23.573816899999944 ], [ -46.815506, -23.5739 ], [ -46.815491, -23.573998 ], [ -46.815471299999963, -23.574040199999963 ], [ -46.815390699999966, -23.574110299999973 ], [ -46.815343799999944, -23.574189199999974 ], [ -46.815295699999986, -23.574260199999966 ], [ -46.815263499999965, -23.57430029999994 ], [ -46.815187299999934, -23.574360499999955 ], [ -46.815140399999962, -23.574389899999971 ], [ -46.815108299999963, -23.574432799999954 ], [ -46.815104299999973, -23.574493 ], [ -46.81512169999997, -23.574531799999917 ], [ -46.81513839999996, -23.574583299999972 ], [ -46.815171, -23.574645 ], [ -46.815209, -23.574726 ], [ -46.815306, -23.57487 ], [ -46.815387, -23.575 ], [ -46.815422, -23.575044 ], [ -46.815461, -23.575103 ], [ -46.815493799999963, -23.575192299999959 ], [ -46.815534, -23.575301 ], [ -46.815578, -23.575462 ], [ -46.815615, -23.575593 ], [ -46.815701, -23.575775 ], [ -46.815769, -23.575901 ], [ -46.815799, -23.575987 ], [ -46.815813, -23.576043 ], [ -46.815806, -23.576095 ], [ -46.815783, -23.576144 ], [ -46.815722, -23.576229 ], [ -46.815635, -23.576343 ], [ -46.81559, -23.576404 ], [ -46.815583, -23.576424499999973 ], [ -46.815576, -23.576445 ], [ -46.815576, -23.57648 ], [ -46.815589, -23.576524 ], [ -46.815631, -23.576572 ], [ -46.815685199999962, -23.576645099999951 ], [ -46.815777, -23.576735 ], [ -46.81598, -23.576919 ], [ -46.816061, -23.577028 ], [ -46.816112699999962, -23.577109699999934 ], [ -46.816182, -23.57728 ], [ -46.816186, -23.577319 ], [ -46.816187, -23.577412 ], [ -46.816287, -23.577546 ], [ -46.816502499999963, -23.577804899999936 ], [ -46.816578799999938, -23.577896599999963 ], [ -46.816709, -23.578053 ], [ -46.816781, -23.578113 ], [ -46.816861, -23.578168 ], [ -46.816971, -23.578223 ], [ -46.817026699999985, -23.578266 ], [ -46.817083, -23.578339899999946 ], [ -46.817090599999979, -23.578349899999971 ], [ -46.817140799999947, -23.578415799999966 ], [ -46.817233, -23.578537 ], [ -46.817268, -23.578625 ], [ -46.817289, -23.578701 ], [ -46.817293, -23.578775 ], [ -46.817282, -23.578939 ], [ -46.81729, -23.579265 ], [ -46.817283, -23.579525 ], [ -46.81729, -23.579734 ], [ -46.817291299999965, -23.579884499999931 ], [ -46.817301, -23.580043 ], [ -46.81732, -23.580095 ], [ -46.817354, -23.580148 ], [ -46.817370899999958, -23.580160499999966 ], [ -46.8174, -23.580182 ], [ -46.817458, -23.580214 ], [ -46.817575, -23.580267 ], [ -46.817642, -23.580315 ], [ -46.817688499999974, -23.580374699999929 ], [ -46.817695, -23.580383 ], [ -46.817727, -23.580465 ], [ -46.817744499999954, -23.580506499999952 ], [ -46.817762, -23.580548 ], [ -46.817799, -23.580605 ], [ -46.817865, -23.580668 ], [ -46.817944, -23.580725 ], [ -46.817994, -23.580757 ], [ -46.818004, -23.580782 ], [ -46.818006, -23.580814 ], [ -46.81799, -23.580843 ], [ -46.817964, -23.580879 ], [ -46.817803, -23.581031 ], [ -46.81769, -23.581138 ], [ -46.817664, -23.581183 ], [ -46.81765, -23.581231 ], [ -46.81765, -23.581282 ], [ -46.81765, -23.5814 ], [ -46.817643, -23.581466 ], [ -46.817613, -23.581525 ], [ -46.817574, -23.581567 ], [ -46.817516699999942, -23.581611299999967 ], [ -46.817445, -23.58166 ], [ -46.81736, -23.581782 ], [ -46.817335599999986, -23.581846899999956 ], [ -46.817332299999983, -23.58185589999993 ], [ -46.817343, -23.581932 ], [ -46.817443, -23.582147 ], [ -46.81752, -23.582268 ], [ -46.817626299999972, -23.582431199999977 ], [ -46.817632, -23.58244 ], [ -46.817758599999941, -23.582584699999924 ], [ -46.817827, -23.582663 ], [ -46.818048, -23.582838 ], [ -46.818304599999976, -23.582989599999966 ], [ -46.818337699999972, -23.583009199999935 ], [ -46.8183868, -23.583031799999965 ], [ -46.81899, -23.583307 ], [ -46.819300799999958, -23.583449199999958 ], [ -46.81938759999997, -23.583489 ], [ -46.819722, -23.583642 ], [ -46.820193099999983, -23.583864099999978 ], [ -46.820443, -23.583982 ], [ -46.820904, -23.584149 ], [ -46.821247299999989, -23.584254799999936 ], [ -46.821388, -23.584286 ], [ -46.821485099999961, -23.584310699999943 ], [ -46.821495499999976, -23.584169499999966 ], [ -46.821633599999984, -23.584062099999972 ], [ -46.821807899999953, -23.584000099999962 ], [ -46.822005399999966, -23.583914899999968 ], [ -46.822226199999932, -23.583938099999948 ], [ -46.822551499999975, -23.583930399999932 ], [ -46.82271419999995, -23.583969099999933 ], [ -46.822907899999962, -23.583984599999958 ], [ -46.823403699999979, -23.583992299999984 ], [ -46.823853099999951, -23.583918499999978 ], [ -46.824009799999942, -23.583901299999965 ], [ -46.824131, -23.583899099999933 ], [ -46.824358699999948, -23.583889499999938 ], [ -46.824497899999983, -23.583885199999941 ], [ -46.824553, -23.583861299999967 ], [ -46.824608099999978, -23.583837399999926 ], [ -46.824717499999963, -23.583865699999933 ], [ -46.824814699999941, -23.583854599999935 ], [ -46.824856399999931, -23.583724 ], [ -46.824872599999928, -23.583698699999953 ], [ -46.824920399999939, -23.583623899999974 ], [ -46.824962399999947, -23.583529599999967 ], [ -46.824983499999973, -23.583427099999934 ], [ -46.825122, -23.583364 ], [ -46.82523139999995, -23.583316699999955 ], [ -46.82527, -23.5833 ], [ -46.825351, -23.58324349999998 ], [ -46.825432, -23.583187 ], [ -46.82556, -23.583067 ], [ -46.825701, -23.582893 ], [ -46.825878699999976, -23.582745199999973 ], [ -46.825851599999972, -23.582365599999953 ], [ -46.82585279999995, -23.582365 ], [ -46.826248699999951, -23.582172699999933 ], [ -46.826258299999949, -23.582168 ], [ -46.826280499999932, -23.582154299999953 ], [ -46.826519, -23.582007 ], [ -46.826595199999979, -23.581974399999979 ], [ -46.827213299999983, -23.581837799999963 ], [ -46.827288099999976, -23.581821299999937 ], [ -46.827312, -23.581816 ], [ -46.827424199999932, -23.581800099999946 ], [ -46.827463499999972, -23.581794599999963 ], [ -46.827479499999981, -23.581792299999961 ], [ -46.8281487, -23.581697699999943 ], [ -46.82815039999997, -23.581697499999954 ], [ -46.828173, -23.581694199999959 ], [ -46.829021, -23.581571 ], [ -46.829569, -23.581415 ], [ -46.829979, -23.581273 ], [ -46.830226, -23.581143 ], [ -46.830397, -23.581017 ], [ -46.8305, -23.580879 ], [ -46.830593, -23.580671 ], [ -46.830708, -23.580374 ], [ -46.830792, -23.580153 ], [ -46.830861, -23.579993 ], [ -46.830983, -23.579789 ], [ -46.831166, -23.579557 ], [ -46.831429, -23.579206 ], [ -46.831641, -23.578934 ], [ -46.831806, -23.578765 ], [ -46.832024, -23.578568 ], [ -46.832203, -23.578399 ], [ -46.832402, -23.578255 ], [ -46.832423099999971, -23.578238899999977 ], [ -46.832749, -23.57799 ], [ -46.8328, -23.577951 ], [ -46.83325, -23.577641 ], [ -46.833706, -23.577367 ], [ -46.833905, -23.577241 ], [ -46.834117, -23.577136 ], [ -46.834362, -23.577024 ], [ -46.834466, -23.576939 ], [ -46.834513, -23.576874499999974 ], [ -46.834536499999956, -23.576842199999927 ], [ -46.83456, -23.57681 ], [ -46.83456259999997, -23.576806399999949 ], [ -46.834621, -23.576725 ], [ -46.834606, -23.576629 ], [ -46.83489, -23.576766 ], [ -46.835168199999941, -23.57690859999996 ], [ -46.835553699999934, -23.577062399999928 ], [ -46.835658099999939, -23.577104 ], [ -46.83566459999998, -23.577105199999956 ], [ -46.835696299999945, -23.577111199999937 ], [ -46.835713599999956, -23.577114399999974 ], [ -46.835753799999956, -23.577121899999945 ], [ -46.836058199999968, -23.577178799999967 ], [ -46.836134, -23.577193 ], [ -46.83671, -23.577274 ], [ -46.837409, -23.577367 ], [ -46.83808, -23.57743 ], [ -46.838451, -23.577443499999955 ], [ -46.838822, -23.577457 ], [ -46.839166, -23.577453 ], [ -46.839609, -23.577381 ], [ -46.83971269999995, -23.577368699999969 ], [ -46.839816499999984, -23.577356499999954 ], [ -46.840024, -23.577332 ], [ -46.840316599999944, -23.57732 ], [ -46.840468, -23.577323 ], [ -46.840619, -23.577326 ], [ -46.841059, -23.577342 ], [ -46.841321, -23.577280899999948 ], [ -46.841770099999962, -23.577172099999924 ], [ -46.842192, -23.57716529999993 ], [ -46.842581899999963, -23.577181099999969 ], [ -46.842654, -23.577184 ], [ -46.842695499999934, -23.577185699999969 ], [ -46.842901199999972, -23.577167 ], [ -46.842934, -23.577164 ], [ -46.842951099999937, -23.577168299999986 ], [ -46.843224199999959, -23.577235799999983 ], [ -46.843377099999948, -23.577341799999935 ], [ -46.84341679999995, -23.577369399999949 ], [ -46.843426, -23.577387699999971 ], [ -46.843432599999971, -23.577400799999964 ], [ -46.843439199999978, -23.577414 ], [ -46.843491699999952, -23.57751909999995 ], [ -46.843548099999964, -23.577688299999977 ], [ -46.843588699999941, -23.577810099999962 ], [ -46.843771, -23.578408 ], [ -46.843732, -23.57853 ], [ -46.843693, -23.578652 ], [ -46.843635, -23.578935 ], [ -46.843487, -23.579405 ], [ -46.84335, -23.579763 ], [ -46.843299, -23.5799 ], [ -46.843235, -23.580139 ], [ -46.843155, -23.580559 ], [ -46.843148399999961, -23.580604 ], [ -46.843133299999977, -23.580706299999974 ], [ -46.843128899999961, -23.580736 ], [ -46.84311, -23.580864 ], [ -46.843104, -23.580957799999958 ], [ -46.843103, -23.580974 ], [ -46.843088, -23.581327 ], [ -46.843111, -23.581587 ], [ -46.843206, -23.58189 ], [ -46.843398, -23.582276 ], [ -46.84352, -23.582442 ], [ -46.8436, -23.582525 ], [ -46.843922, -23.582658 ], [ -46.844021, -23.582593499999962 ], [ -46.84412, -23.582529 ], [ -46.844313, -23.582443 ], [ -46.844409499999983, -23.5824 ], [ -46.844506, -23.582357 ], [ -46.845022, -23.582252 ], [ -46.845231, -23.582237499999959 ], [ -46.84544, -23.582223 ], [ -46.845951, -23.582276 ], [ -46.846563, -23.582393 ], [ -46.847016, -23.582514 ], [ -46.847841, -23.582796 ], [ -46.847973499999974, -23.582794 ], [ -46.848106, -23.582792 ], [ -46.848389, -23.58272 ], [ -46.84864, -23.582455 ], [ -46.848741, -23.581951 ], [ -46.848839, -23.581818 ], [ -46.848900499999964, -23.581768 ], [ -46.848962, -23.581718 ], [ -46.849715, -23.581892 ], [ -46.849963, -23.581912 ], [ -46.850166, -23.581884 ], [ -46.850294499999961, -23.581845399999963 ], [ -46.850582, -23.581759 ], [ -46.850703299999964, -23.581735199999958 ], [ -46.850824599999946, -23.581711399999964 ], [ -46.850893, -23.581698 ], [ -46.851337299999955, -23.581694699999954 ], [ -46.85142519999993, -23.581729099999954 ], [ -46.851668, -23.581824 ], [ -46.851814, -23.581881 ], [ -46.851951, -23.581928 ], [ -46.852265, -23.582118 ], [ -46.852753, -23.582496 ] ] ] } }
]
}
