{
"type": "FeatureCollection",
"name": "3514809",
"crs": { "type": "name", "properties": { "name": "urn:ogc:def:crs:OGC:1.3:CRS84" } },
"features": [
{ "type": "Feature", "properties": { "CD_MUN": "3514809", "NM_MUN": "Eldorado" }, "geometry": { "type": "MultiPolygon", "coordinates": [ [ [ [ -48.295910799999945, -24.643504099999969 ], [ -48.2959408, -24.643483799999959 ], [ -48.298521499999929, -24.641738899999943 ], [ -48.299043599999948, -24.641551399999983 ], [ -48.299013399999978, -24.641413299999954 ], [ -48.298978899999952, -24.641311799999976 ], [ -48.298923199999933, -24.641231399999988 ], [ -48.298840599999942, -24.641164199999935 ], [ -48.29873189999995, -24.641120699999931 ], [ -48.298623199999952, -24.641097 ], [ -48.298518899999976, -24.641104799999948 ], [ -48.298436299999935, -24.64114829999993 ], [ -48.298349299999984, -24.641164099999962 ], [ -48.298271, -24.641124599999959 ], [ -48.298197099999982, -24.641081099999955 ], [ -48.298171099999934, -24.641002 ], [ -48.298149299999984, -24.640938799999962 ], [ -48.29811019999994, -24.640887399999922 ], [ -48.298053699999969, -24.640820199999947 ], [ -48.298036299999971, -24.640729299999986 ], [ -48.298014599999931, -24.640654199999965 ], [ -48.298001599999971, -24.64057519999994 ], [ -48.298023299999961, -24.640500099999951 ], [ -48.298075499999982, -24.6404606 ], [ -48.298145099999942, -24.640444799999958 ], [ -48.298219, -24.640468499999937 ], [ -48.298266799999972, -24.640527799999969 ], [ -48.298323299999936, -24.64057919999993 ], [ -48.298410299999944, -24.640591099999945 ], [ -48.298514599999976, -24.640571299999973 ], [ -48.29859289999996, -24.640547599999934 ], [ -48.298662499999985, -24.640531799999955 ], [ -48.2987581, -24.640523899999952 ], [ -48.298853799999961, -24.640527899999942 ], [ -48.298958099999936, -24.640567399999949 ], [ -48.299062499999934, -24.640571399999953 ], [ -48.2991234, -24.640531899999917 ], [ -48.299192899999987, -24.640468699999921 ], [ -48.299236399999984, -24.64040939999996 ], [ -48.299253799999974, -24.640342199999964 ], [ -48.29925819999994, -24.640282899999921 ], [ -48.2992278, -24.640231599999947 ], [ -48.299149499999942, -24.640176199999928 ], [ -48.299032099999984, -24.640124799999956 ], [ -48.298901699999931, -24.64006549999992 ], [ -48.298736499999961, -24.64001809999996 ], [ -48.298636499999986, -24.639986399999952 ], [ -48.298566899999962, -24.639939 ], [ -48.298519099999965, -24.639879699999938 ], [ -48.298527799999931, -24.639796699999984 ], [ -48.298558299999968, -24.639717699999956 ], [ -48.298623499999955, -24.639650499999959 ], [ -48.298714799999978, -24.639599099999938 ], [ -48.298814899999968, -24.639547799999935 ], [ -48.29888009999997, -24.63948059999996 ], [ -48.29891489999995, -24.639389699999988 ], [ -48.298897499999953, -24.639287 ], [ -48.298849699999948, -24.639180299999961 ], [ -48.29877149999993, -24.639041899999942 ], [ -48.298706299999942, -24.63891539999997 ], [ -48.298628, -24.638836399999946 ], [ -48.298515, -24.638788899999955 ], [ -48.298410699999977, -24.638761299999945 ], [ -48.298280199999965, -24.638757299999938 ], [ -48.298184599999956, -24.63879279999998 ], [ -48.298088899999975, -24.638840199999954 ], [ -48.298036699999962, -24.638903499999966 ], [ -48.297980199999984, -24.638954799999965 ], [ -48.297867099999969, -24.638966699999962 ], [ -48.297723699999949, -24.638942899999957 ], [ -48.297523699999942, -24.638923099999943 ], [ -48.297367099999981, -24.638915199999936 ], [ -48.297262799999935, -24.638883599999936 ], [ -48.297158499999973, -24.638804499999942 ], [ -48.297080199999982, -24.638713599999956 ], [ -48.297019399999947, -24.638618699999938 ], [ -48.296923699999979, -24.638527799999967 ], [ -48.296819399999947, -24.638500099999924 ], [ -48.296736799999962, -24.638508 ], [ -48.296658499999978, -24.638555399999973 ], [ -48.296584599999967, -24.638642399999981 ], [ -48.296467199999945, -24.638757 ], [ -48.296319299999944, -24.638863599999976 ], [ -48.296197499999948, -24.638966399999969 ], [ -48.296036599999979, -24.63904929999995 ], [ -48.295888799999943, -24.639096699999985 ], [ -48.295754, -24.639084799999964 ], [ -48.295562699999948, -24.639100599999946 ], [ -48.295441, -24.639120299999956 ], [ -48.295369199999989, -24.639138099999968 ], [ -48.295283699999978, -24.63924749999995 ], [ -48.295279099999952, -24.639247399999931 ], [ -48.295082599999951, -24.639241799999979 ], [ -48.294987799999944, -24.639217799999987 ], [ -48.294892899999979, -24.639193699999957 ], [ -48.294775399999935, -24.639084799999974 ], [ -48.294736299999954, -24.638995799999979 ], [ -48.294747, -24.638860599999937 ], [ -48.294839499999966, -24.638739599999951 ], [ -48.294917799999943, -24.638607899999954 ], [ -48.294999699999956, -24.638497499999964 ], [ -48.295060199999966, -24.638405 ], [ -48.295093299999962, -24.638248 ], [ -48.295182299999965, -24.638116299999975 ], [ -48.295162, -24.637937799999985 ], [ -48.295139499999948, -24.637813 ], [ -48.295042199999962, -24.637591299999933 ], [ -48.294922299999939, -24.63750129999994 ], [ -48.29471819999997, -24.637368 ], [ -48.294555599999967, -24.637234699999954 ], [ -48.294262699999933, -24.636990599999937 ], [ -48.294053799999979, -24.636835 ], [ -48.29404779999993, -24.636626599999939 ], [ -48.294119, -24.6365 ], [ -48.294094099999946, -24.636361199999953 ], [ -48.294125099999974, -24.636225699999947 ], [ -48.29412769999994, -24.636085099999946 ], [ -48.294201699999974, -24.635999199999947 ], [ -48.294347399999943, -24.635947799999936 ], [ -48.294522299999983, -24.636030199999944 ], [ -48.294611799999977, -24.636162399999947 ], [ -48.294812099999952, -24.636361499999957 ], [ -48.295004499999941, -24.636344099999977 ], [ -48.295208699999932, -24.636268199999964 ], [ -48.295420799999931, -24.636150499999932 ], [ -48.295484299999949, -24.6360208 ], [ -48.295341899999976, -24.635845099999983 ], [ -48.295044399999938, -24.635642399999938 ], [ -48.294931199999951, -24.635563699999977 ], [ -48.294792399999949, -24.635473599999958 ], [ -48.294611899999957, -24.63535069999994 ], [ -48.294237, -24.635342299999948 ], [ -48.294099499999966, -24.635256499999961 ], [ -48.293955299999936, -24.63516639999995 ], [ -48.293774699999979, -24.635024299999944 ], [ -48.293673599999977, -24.634820799999943 ], [ -48.29376079999998, -24.634639 ], [ -48.293850799999973, -24.63443129999996 ], [ -48.293837799999949, -24.634324 ], [ -48.293810499999957, -24.634319899999976 ], [ -48.293642499999976, -24.63429449999996 ], [ -48.293445699999957, -24.634241099999937 ], [ -48.293310399999939, -24.633998799999961 ], [ -48.293163499999942, -24.633923099999944 ], [ -48.293069299999956, -24.633903299999929 ], [ -48.292864699999939, -24.633929799999972 ], [ -48.292472099999934, -24.633961099999969 ], [ -48.292387699999949, -24.633967599999952 ], [ -48.292033299999957, -24.633994599999948 ], [ -48.291678599999955, -24.634063299999987 ], [ -48.291425599999968, -24.634146 ], [ -48.289495299999942, -24.633897299999944 ], [ -48.289420099999973, -24.641378899999957 ], [ -48.293219699999952, -24.643130299999928 ], [ -48.293247799999968, -24.643143199999951 ], [ -48.293274099999962, -24.64315529999994 ], [ -48.293915099999928, -24.643450799999979 ], [ -48.293943, -24.643460099999981 ], [ -48.29397119999993, -24.643469399999947 ], [ -48.295230799999956, -24.643963899999957 ], [ -48.2958814, -24.643524 ], [ -48.295910799999945, -24.643504099999969 ] ] ], [ [ [ -48.213671099999935, -24.59691429999998 ], [ -48.213555099999944, -24.597232899999941 ], [ -48.213804499999981, -24.597452399999941 ], [ -48.213693299999932, -24.59763909999997 ], [ -48.213616299999956, -24.597747099999925 ], [ -48.2135593, -24.597863099999977 ], [ -48.213520299999971, -24.597952099999937 ], [ -48.213633299999977, -24.598047099999974 ], [ -48.213848299999931, -24.598139099999965 ], [ -48.214107299999966, -24.598211099999947 ], [ -48.214367299999942, -24.598279099999964 ], [ -48.214624299999969, -24.598356099999936 ], [ -48.214857299999949, -24.598421099999936 ], [ -48.215121299999971, -24.598505099999958 ], [ -48.215355299999949, -24.598558099999941 ], [ -48.215578899999969, -24.598617199999982 ], [ -48.215684499999952, -24.598645499999972 ], [ -48.21576529999993, -24.598667099999947 ], [ -48.215911299999959, -24.598698099999972 ], [ -48.216319299999945, -24.598851099999941 ], [ -48.216615299999944, -24.59901009999993 ], [ -48.216832299999965, -24.599129099999974 ], [ -48.217038299999963, -24.599229099999938 ], [ -48.217259299999967, -24.599323099999928 ], [ -48.217451299999937, -24.599378099999967 ], [ -48.217688299999971, -24.599424099999961 ], [ -48.217968299999939, -24.599501099999948 ], [ -48.218191299999944, -24.599539099999948 ], [ -48.218477299999961, -24.599581099999959 ], [ -48.21877529999994, -24.599666099999979 ], [ -48.219010299999987, -24.599737099999967 ], [ -48.21924329999996, -24.599791099999933 ], [ -48.219509299999963, -24.599841099999932 ], [ -48.219716299999959, -24.599884099999944 ], [ -48.219992299999944, -24.599968099999952 ], [ -48.220207299999977, -24.600033099999965 ], [ -48.220401299999942, -24.600105099999961 ], [ -48.220604299999934, -24.600210099999973 ], [ -48.220801299999955, -24.600313099999926 ], [ -48.220977299999966, -24.600430099999983 ], [ -48.221173299999975, -24.600582099999937 ], [ -48.221330299999977, -24.600713099999954 ], [ -48.221494299999961, -24.600898099999931 ], [ -48.221559299999967, -24.600998099999966 ], [ -48.221747599999965, -24.601064099999984 ], [ -48.221756699999965, -24.600621 ], [ -48.221925599999963, -24.600277899999977 ], [ -48.222119299999981, -24.59992839999995 ], [ -48.222108, -24.599677699999983 ], [ -48.222258, -24.599172699999933 ], [ -48.22239459999998, -24.598846599999948 ], [ -48.222616699999953, -24.598327499999986 ], [ -48.2227324, -24.598062099999932 ], [ -48.222910499999955, -24.597470799999936 ], [ -48.223208799999945, -24.59673609999993 ], [ -48.223556599999945, -24.596198499999954 ], [ -48.222941899999967, -24.595382 ], [ -48.222692299999949, -24.59473109999993 ], [ -48.222258299999972, -24.594290099999967 ], [ -48.221859299999949, -24.593841099999974 ], [ -48.221146699999963, -24.593553599999943 ], [ -48.22062649999998, -24.593052 ], [ -48.220197799999937, -24.592744 ], [ -48.219747, -24.592317799999929 ], [ -48.21930709999998, -24.591789099999961 ], [ -48.218786099999932, -24.591444 ], [ -48.218384299999968, -24.591 ], [ -48.218197399999951, -24.590698 ], [ -48.216362, -24.589337599999965 ], [ -48.21627929999994, -24.589512099999979 ], [ -48.21618129999996, -24.589935099999927 ], [ -48.216123299999936, -24.59058709999994 ], [ -48.216155299999976, -24.591089099999984 ], [ -48.215938299999948, -24.591573099999948 ], [ -48.215975, -24.592026699999952 ], [ -48.216015099999936, -24.592378399999966 ], [ -48.215747799999974, -24.592554199999931 ], [ -48.215094299999983, -24.592443099999965 ], [ -48.214801199999954, -24.5924 ], [ -48.214515899999988, -24.592363399999954 ], [ -48.214199299999962, -24.592662199999946 ], [ -48.214499199999985, -24.592936099999978 ], [ -48.21494, -24.593116099999982 ], [ -48.215278599999969, -24.593302299999944 ], [ -48.215605699999962, -24.593695599999933 ], [ -48.215499699999953, -24.594098299999921 ], [ -48.215322399999934, -24.594384399999964 ], [ -48.215187399999934, -24.5946077 ], [ -48.2149955, -24.595108899999953 ], [ -48.214625799999965, -24.595179199999954 ], [ -48.214356099999975, -24.595383299999984 ], [ -48.214318499999933, -24.595412599999978 ], [ -48.214166799999937, -24.595635499999954 ], [ -48.214163199999973, -24.595838899999936 ], [ -48.214081699999952, -24.596080699999955 ], [ -48.213928399999986, -24.596609199999925 ], [ -48.213671099999935, -24.59691429999998 ] ] ], [ [ [ -48.114401699999974, -24.530424699999973 ], [ -48.117051299999957, -24.528726499999955 ], [ -48.118383599999966, -24.526764699999951 ], [ -48.118981099999985, -24.525864299999981 ], [ -48.11861, -24.52562469999997 ], [ -48.1182879, -24.525384499999955 ], [ -48.118144699999959, -24.525278799999974 ], [ -48.117780099999948, -24.52505049999996 ], [ -48.117736199999975, -24.525023 ], [ -48.117732799999942, -24.524971399999966 ], [ -48.117711099999951, -24.52443529999994 ], [ -48.117684599999961, -24.524056099999946 ], [ -48.117331299999933, -24.523551199999925 ], [ -48.117079199999985, -24.522961499999951 ], [ -48.11706, -24.522646699999928 ], [ -48.117548499999941, -24.522714099999973 ], [ -48.118112499999938, -24.522573299999969 ], [ -48.118401699999936, -24.522311499999937 ], [ -48.118481899999956, -24.522074399999944 ], [ -48.118491499999948, -24.521851499999975 ], [ -48.1183109, -24.521505399999963 ], [ -48.117998299999961, -24.521193799999939 ], [ -48.118155699999939, -24.520943699999972 ], [ -48.117961399999963, -24.520879799999925 ], [ -48.11767489999994, -24.52102809999996 ], [ -48.117268399999936, -24.520688599999978 ], [ -48.117226299999977, -24.520392099999984 ], [ -48.117358399999951, -24.51998749999996 ], [ -48.117662699999983, -24.519177099999983 ], [ -48.115823499999983, -24.518894699999965 ], [ -48.114665199999941, -24.518740099999949 ], [ -48.114061099999958, -24.518663299999957 ], [ -48.112776399999973, -24.518381299999923 ], [ -48.112939199999971, -24.515825599999967 ], [ -48.112948699999947, -24.515422 ], [ -48.113029, -24.511991199999951 ], [ -48.112545499999953, -24.511991199999954 ], [ -48.112191, -24.511959 ], [ -48.111643099999988, -24.511991199999947 ], [ -48.11113869999997, -24.512138099999955 ], [ -48.110589699999935, -24.512386299999935 ], [ -48.109733499999948, -24.512895 ], [ -48.109119899999939, -24.51292049999995 ], [ -48.108521799999956, -24.513060699999983 ], [ -48.108215199999961, -24.512745699999968 ], [ -48.107740799999931, -24.512496399999982 ], [ -48.107453299999982, -24.512120099999937 ], [ -48.106809699999985, -24.512007899999965 ], [ -48.10642189999993, -24.512410199999977 ], [ -48.106067399999972, -24.512571299999927 ], [ -48.1058096, -24.512700299999949 ], [ -48.105317499999956, -24.513085299999947 ], [ -48.105436099999963, -24.513186 ], [ -48.105565699999943, -24.513280799999947 ], [ -48.105757599999947, -24.513444699999976 ], [ -48.105946899999935, -24.513651499999984 ], [ -48.106090299999941, -24.513851799999944 ], [ -48.106127599999979, -24.513979299999964 ], [ -48.106191699999954, -24.514156899999925 ], [ -48.106209399999955, -24.514346599999953 ], [ -48.106163299999942, -24.514486799999922 ], [ -48.106063799999959, -24.514616199999974 ], [ -48.105765099999985, -24.514810299999958 ], [ -48.105637099999967, -24.51488789999997 ], [ -48.105487, -24.514985399999937 ], [ -48.105388299999959, -24.515049599999944 ], [ -48.105230799999958, -24.515289299999946 ], [ -48.105159699999945, -24.515478399999953 ], [ -48.105078699999979, -24.515671899999973 ], [ -48.10502079999997, -24.515974399999955 ], [ -48.104909699999951, -24.516251 ], [ -48.104865499999967, -24.51646959999994 ], [ -48.104608399999954, -24.51684459999996 ], [ -48.104486099999974, -24.517001499999928 ], [ -48.104251599999934, -24.517267299999954 ], [ -48.103594199999975, -24.518433899999938 ], [ -48.103243699999958, -24.518611899999936 ], [ -48.102981299999954, -24.518573499999949 ], [ -48.102597399999986, -24.51835559999995 ], [ -48.10236789999994, -24.518157799999972 ], [ -48.102248399999951, -24.518266699999973 ], [ -48.102287099999963, -24.518551 ], [ -48.10256, -24.518936199999921 ], [ -48.1007173, -24.520628699999975 ], [ -48.100830099999939, -24.520730699999952 ], [ -48.100827599999938, -24.520923099999941 ], [ -48.101132299999961, -24.520975099999927 ], [ -48.101246599999961, -24.520966099999956 ], [ -48.1012765, -24.52112929999992 ], [ -48.101385699999987, -24.521524699999937 ], [ -48.101581199999941, -24.521642799999935 ], [ -48.101868199999956, -24.521691099999938 ], [ -48.102358599999945, -24.522268199999928 ], [ -48.102022699999971, -24.522983599999979 ], [ -48.101686399999949, -24.524154 ], [ -48.101587699999989, -24.524754499999961 ], [ -48.102009399999986, -24.525392099999976 ], [ -48.102580399999965, -24.526198599999933 ], [ -48.102793799999979, -24.527527899999932 ], [ -48.102642599999974, -24.529130899999938 ], [ -48.102272099999944, -24.530119499999966 ], [ -48.103052699999978, -24.530765699999961 ], [ -48.103340699999933, -24.531005199999985 ], [ -48.103752099999951, -24.531254499999921 ], [ -48.104438699999953, -24.531605 ], [ -48.104609499999981, -24.531641899999958 ], [ -48.104833099999958, -24.531574099999943 ], [ -48.105478199999943, -24.531126299999986 ], [ -48.106437099999937, -24.530400299999936 ], [ -48.10668359999994, -24.530019899999953 ], [ -48.106832399999981, -24.529667599999986 ], [ -48.107287399999969, -24.52968559999994 ], [ -48.107755499999946, -24.529694399999986 ], [ -48.107635199999947, -24.530288599999952 ], [ -48.107789799999978, -24.530428 ], [ -48.107873499999982, -24.530556 ], [ -48.108031099999955, -24.53060029999995 ], [ -48.108154199999944, -24.530560899999962 ], [ -48.108311799999967, -24.530437799999948 ], [ -48.108238799999988, -24.53088189999993 ], [ -48.108178499999951, -24.531448699999931 ], [ -48.108845499999973, -24.531852699999948 ], [ -48.109406299999932, -24.531953599999952 ], [ -48.109932799999967, -24.53174979999995 ], [ -48.110341599999977, -24.531744099999965 ], [ -48.110783, -24.531660099999947 ], [ -48.111275399999954, -24.53137989999993 ], [ -48.111595899999941, -24.531088599999979 ], [ -48.112023, -24.530904 ], [ -48.112271699999951, -24.530646599999951 ], [ -48.113155499999948, -24.531025199999924 ], [ -48.113566499999934, -24.530834 ], [ -48.114032299999963, -24.530616499999947 ], [ -48.114401699999974, -24.530424699999973 ] ] ] ] } }
]
}
