{
"type": "FeatureCollection",
"name": "3522109",
"crs": { "type": "name", "properties": { "name": "urn:ogc:def:crs:OGC:1.3:CRS84" } },
"features": [
{ "type": "Feature", "properties": { "CD_MUN": "3522109", "NM_MUN": "Itanhaém" }, "geometry": { "type": "MultiPolygon", "coordinates": [ [ [ [ -46.905476299999975, -24.247119599999966 ], [ -46.90601479999998, -24.246722099999946 ], [ -46.906037, -24.246705699999943 ], [ -46.90605579999994, -24.246691799999951 ], [ -46.906501799999944, -24.246362499999968 ], [ -46.906519899999978, -24.246349099999971 ], [ -46.906539, -24.246335 ], [ -46.90700929999997, -24.245987799999959 ], [ -46.907034, -24.245969599999963 ], [ -46.907053099999985, -24.245955499999969 ], [ -46.907479499999972, -24.245640699999964 ], [ -46.907568199999965, -24.245575199999958 ], [ -46.908285099999944, -24.245046 ], [ -46.90837229999994, -24.244981499999941 ], [ -46.909372299999973, -24.24424179999993 ], [ -46.909725699999974, -24.243980399999938 ], [ -46.909733699999954, -24.243974499999982 ], [ -46.912532499999948, -24.241926299999921 ], [ -46.912537099999959, -24.241923 ], [ -46.912710899999979, -24.241795699999951 ], [ -46.913052499999935, -24.241545699999964 ], [ -46.913534099999936, -24.241193299999967 ], [ -46.914220099999959, -24.240683499999925 ], [ -46.917707199999938, -24.238092499999926 ], [ -46.922321699999941, -24.234663799999964 ], [ -46.924189699999943, -24.233275799999948 ], [ -46.926593299999986, -24.231489899999936 ], [ -46.925962, -24.230765 ], [ -46.92588, -24.230639 ], [ -46.925553, -24.230138 ], [ -46.925507, -24.230016 ], [ -46.925444, -24.229845 ], [ -46.925325, -24.229275 ], [ -46.925269, -24.228708 ], [ -46.925298, -24.227549 ], [ -46.925387399999977, -24.226993599999957 ], [ -46.925392, -24.226964899999921 ], [ -46.925415, -24.226822 ], [ -46.925461, -24.226126 ], [ -46.925366, -24.22548 ], [ -46.925277, -24.225094 ], [ -46.925258, -24.224823 ], [ -46.925303, -24.224535 ], [ -46.925564, -24.223949 ], [ -46.925645, -24.22366 ], [ -46.925578, -24.222874 ], [ -46.925578, -24.222531699999934 ], [ -46.925578, -24.222508699999938 ], [ -46.925578, -24.22247579999992 ], [ -46.925578, -24.222381 ], [ -46.925578, -24.222307 ], [ -46.925593899999967, -24.222279099999987 ], [ -46.92560919999994, -24.222252399999945 ], [ -46.925624899999946, -24.222225 ], [ -46.925698, -24.222097 ], [ -46.925746, -24.221928 ], [ -46.925852, -24.22177 ], [ -46.925911, -24.221743499999949 ], [ -46.92597, -24.221717 ], [ -46.926347399999941, -24.221909 ], [ -46.926369, -24.22192 ], [ -46.926372599999986, -24.22191969999994 ], [ -46.926416899999936, -24.221916499999956 ], [ -46.926533, -24.221908 ], [ -46.926705, -24.221785 ], [ -46.926781, -24.221782 ], [ -46.927031, -24.221932 ], [ -46.927188, -24.221934 ], [ -46.927302, -24.22184 ], [ -46.92755039999998, -24.221504899999953 ], [ -46.927679599999976, -24.221411899999968 ], [ -46.927881399999926, -24.221348499999973 ], [ -46.928067399999975, -24.221266799999963 ], [ -46.928253299999938, -24.221185199999976 ], [ -46.928382499999934, -24.221065 ], [ -46.92876119999994, -24.220926699999954 ], [ -46.929151199999986, -24.22081559999998 ], [ -46.929443699999979, -24.220715799999937 ], [ -46.929596, -24.220483 ], [ -46.929743, -24.220402 ], [ -46.929774699999939, -24.220271399999948 ], [ -46.929788299999984, -24.220198899999957 ], [ -46.92984279999996, -24.220099099999974 ], [ -46.93004, -24.219923 ], [ -46.930371099999945, -24.219684099999931 ], [ -46.930549, -24.21947 ], [ -46.930781, -24.218801 ], [ -46.930947099999969, -24.218539599999929 ], [ -46.930982799999981, -24.218483399999968 ], [ -46.93101779999995, -24.218428299999978 ], [ -46.931058, -24.218365 ], [ -46.931272, -24.218143 ], [ -46.93138, -24.218132 ], [ -46.931410599999936, -24.218138599999975 ], [ -46.93144129999996, -24.218145199999977 ], [ -46.93147189999997, -24.218151799999927 ], [ -46.931695, -24.2182 ], [ -46.931854, -24.218198 ], [ -46.932064, -24.218116 ], [ -46.932336, -24.217748 ], [ -46.932611, -24.217771 ], [ -46.932979, -24.217879 ], [ -46.933249, -24.217879 ], [ -46.933667, -24.217588 ], [ -46.934187, -24.217406 ], [ -46.934324, -24.217308 ], [ -46.934499, -24.217058 ], [ -46.934961, -24.216964 ], [ -46.935165, -24.216811 ], [ -46.935178, -24.216687 ], [ -46.935129, -24.216522 ], [ -46.93505, -24.21644 ], [ -46.935033, -24.216353 ], [ -46.935079, -24.216222 ], [ -46.935208, -24.216134 ], [ -46.935271, -24.216025 ], [ -46.935114, -24.215918 ], [ -46.934898, -24.215823 ], [ -46.934834, -24.215742 ], [ -46.934825, -24.21566 ], [ -46.934912, -24.215539 ], [ -46.935334, -24.215356 ], [ -46.935387, -24.215177 ], [ -46.935347, -24.214968 ], [ -46.93511, -24.214828 ], [ -46.934842499999945, -24.214561599999964 ], [ -46.934668499999937, -24.214459299999927 ], [ -46.934381899999948, -24.214182899999972 ], [ -46.93404419999996, -24.214049899999964 ], [ -46.933645, -24.213916799999943 ], [ -46.933471, -24.213834899999931 ], [ -46.933297, -24.213783799999931 ], [ -46.933286799999962, -24.213425499999961 ], [ -46.933307299999974, -24.213087799999975 ], [ -46.933645, -24.212801199999952 ], [ -46.933962299999969, -24.212473699999972 ], [ -46.934341, -24.211900599999971 ], [ -46.934443299999941, -24.211552599999948 ], [ -46.934453499999961, -24.211286499999964 ], [ -46.934310299999936, -24.210999899999933 ], [ -46.93425909999997, -24.210733799999957 ], [ -46.934381899999948, -24.210467699999988 ], [ -46.934749, -24.210044 ], [ -46.934891, -24.209767 ], [ -46.935129, -24.209515899999932 ], [ -46.935251899999976, -24.209075799999933 ], [ -46.935262099999932, -24.208625399999953 ], [ -46.935292799999949, -24.208011399999979 ], [ -46.935958099999937, -24.207540599999955 ], [ -46.936797299999967, -24.207069799999942 ], [ -46.937083899999948, -24.206813899999936 ], [ -46.937295, -24.206257 ], [ -46.937391, -24.205929 ], [ -46.937766, -24.205031 ], [ -46.937892, -24.204424 ], [ -46.93822, -24.203587 ], [ -46.938371, -24.202935 ], [ -46.93861, -24.202326 ], [ -46.938957, -24.201796 ], [ -46.939696, -24.201428 ], [ -46.940422, -24.2012 ], [ -46.940995, -24.200966 ], [ -46.941903, -24.200325 ], [ -46.94254, -24.199967 ], [ -46.942642, -24.199809 ], [ -46.942683, -24.199306 ], [ -46.942803, -24.199115 ], [ -46.943163, -24.198782 ], [ -46.943517, -24.198516 ], [ -46.943909, -24.198135 ], [ -46.944066, -24.198027 ], [ -46.944441, -24.197696 ], [ -46.944816499999952, -24.197457099999937 ], [ -46.945430599999945, -24.197226799999953 ], [ -46.945742799999948, -24.197124499999969 ], [ -46.946083099999953, -24.197127 ], [ -46.946344099999983, -24.19726779999996 ], [ -46.94669209999995, -24.197377799999963 ], [ -46.94685839999994, -24.197290799999958 ], [ -46.947175, -24.197028 ], [ -46.947456, -24.196867 ], [ -46.947761599999978, -24.196612699999946 ], [ -46.948833699999966, -24.196034499999943 ], [ -46.9489258, -24.19588859999994 ], [ -46.948813199999961, -24.195543199999971 ], [ -46.948672499999937, -24.195044299999957 ], [ -46.948529199999939, -24.194379 ], [ -46.948544499999969, -24.194105199999957 ], [ -46.948608, -24.193971 ], [ -46.948831099999957, -24.193721399999962 ], [ -46.948892699999931, -24.193709599999963 ], [ -46.949017899999951, -24.193685599999974 ], [ -46.949488699999961, -24.193788 ], [ -46.949729199999986, -24.19369579999994 ], [ -46.94996969999994, -24.19344759999996 ], [ -46.950115599999947, -24.193314099999945 ], [ -46.950542899999959, -24.19292309999997 ], [ -46.950678599999954, -24.192879 ], [ -46.950936899999931, -24.192795199999974 ], [ -46.951305399999967, -24.192611 ], [ -46.951471699999956, -24.192324399999958 ], [ -46.951548, -24.192011 ], [ -46.951692, -24.191793 ], [ -46.951812, -24.191477 ], [ -46.95194249999998, -24.190904299999943 ], [ -46.951927099999985, -24.190699599999959 ], [ -46.951791499999963, -24.190303 ], [ -46.951781, -24.189952199999944 ], [ -46.950051599999938, -24.19073369999996 ], [ -46.947998299999938, -24.191999399999926 ], [ -46.946212299999956, -24.193416899999928 ], [ -46.941985399999965, -24.196507799999939 ], [ -46.94071809999997, -24.197529599999946 ], [ -46.938702599999942, -24.199048599999969 ], [ -46.937865899999956, -24.199672899999946 ], [ -46.935201899999988, -24.201620499999933 ], [ -46.934284699999978, -24.202307 ], [ -46.932392799999946, -24.20369519999997 ], [ -46.927938199999971, -24.207013799999974 ], [ -46.926937699999939, -24.207763499999952 ], [ -46.924274099999941, -24.209733699999962 ], [ -46.923099699999966, -24.210601099999959 ], [ -46.922905899999932, -24.210743299999933 ], [ -46.918596399999963, -24.213904299999967 ], [ -46.917381199999966, -24.212457099999934 ], [ -46.917119899999932, -24.212146099999927 ], [ -46.916939399999926, -24.211934299999935 ], [ -46.916651099999974, -24.211633099999972 ], [ -46.914909699999953, -24.20281789999995 ], [ -46.914907199999959, -24.202790799999949 ], [ -46.902007599999934, -24.195223799999955 ], [ -46.901298499999946, -24.194327399999956 ], [ -46.900782599999957, -24.193729 ], [ -46.899896699999942, -24.1926157 ], [ -46.899239599999937, -24.19308489999997 ], [ -46.898139299999976, -24.191864099999989 ], [ -46.897519199999977, -24.192294699999927 ], [ -46.896301599999966, -24.193132699999978 ], [ -46.89530479999997, -24.191949299999973 ], [ -46.895143, -24.191757099999961 ], [ -46.883260099999973, -24.190547699999968 ], [ -46.882993299999953, -24.190244199999935 ], [ -46.8825308, -24.189718099999929 ], [ -46.882309099999979, -24.18946579999994 ], [ -46.878490499999941, -24.184593399999979 ], [ -46.878613499999979, -24.184504799999949 ], [ -46.87834189999996, -24.18423069999994 ], [ -46.87446, -24.179373099999967 ], [ -46.874422599999946, -24.179327199999932 ], [ -46.871934, -24.176271 ], [ -46.871448499999985, -24.176605799999951 ], [ -46.870013699999966, -24.177672199999961 ], [ -46.869471299999923, -24.178010399999955 ], [ -46.869056499999935, -24.178310799999959 ], [ -46.868531099999984, -24.178674199999932 ], [ -46.868024599999956, -24.179048499999958 ], [ -46.868714599999983, -24.179879 ], [ -46.868420799999967, -24.180067099999974 ], [ -46.86836959999993, -24.180172799999976 ], [ -46.867346099999963, -24.180851399999934 ], [ -46.865899799999966, -24.181840299999976 ], [ -46.86588219999993, -24.181923099999949 ], [ -46.865327199999967, -24.182256899999981 ], [ -46.864813799999979, -24.18259639999998 ], [ -46.864846699999937, -24.182646 ], [ -46.866618199999941, -24.184852799999931 ], [ -46.867604299999982, -24.18607279999998 ], [ -46.867805399999959, -24.186322499999942 ], [ -46.868867299999984, -24.187642099999952 ], [ -46.870012399999958, -24.18906519999997 ], [ -46.870730299999934, -24.190026 ], [ -46.863054299999931, -24.195688299999976 ], [ -46.862082599999951, -24.196419 ], [ -46.861615, -24.19673389999998 ], [ -46.861126399999932, -24.197050799999943 ], [ -46.858740499999946, -24.198844899999987 ], [ -46.857812, -24.19951789999994 ], [ -46.85727049999997, -24.199895199999947 ], [ -46.856826699999942, -24.200214199999944 ], [ -46.856533099999979, -24.200425199999927 ], [ -46.851576299999977, -24.203884 ], [ -46.851536399999986, -24.203911799999954 ], [ -46.849607099999965, -24.202779399999933 ], [ -46.848487299999924, -24.202097099999946 ], [ -46.848424, -24.202058499999954 ], [ -46.848247499999964, -24.201951 ], [ -46.848175599999941, -24.201907199999919 ], [ -46.846774599999954, -24.201053599999966 ], [ -46.846077499999978, -24.200620899999929 ], [ -46.84462069999995, -24.199729799999943 ], [ -46.84186619999997, -24.198072499999963 ], [ -46.839032599999939, -24.196373 ], [ -46.839007099999947, -24.196357599999931 ], [ -46.835066299999937, -24.193976199999963 ], [ -46.833453299999974, -24.193003199999971 ], [ -46.832787499999945, -24.192596799999929 ], [ -46.831639899999971, -24.191915799999954 ], [ -46.831582899999951, -24.191881399999954 ], [ -46.831590899999981, -24.191873799999929 ], [ -46.831611299999963, -24.191856199999975 ], [ -46.831772699999931, -24.191717199999964 ], [ -46.832420799999973, -24.191173199999977 ], [ -46.833286799999946, -24.190447699999936 ], [ -46.834073699999976, -24.189764599999936 ], [ -46.83495929999998, -24.189058299999946 ], [ -46.835738099999958, -24.188340699999973 ], [ -46.83654359999997, -24.187661199999969 ], [ -46.837377, -24.186942199999987 ], [ -46.838156399999946, -24.186244899999966 ], [ -46.838986699999964, -24.185550199999959 ], [ -46.841334399999944, -24.18354979999997 ], [ -46.849928199999972, -24.176194099999964 ], [ -46.851009899999958, -24.174797299999966 ], [ -46.85404049999994, -24.178534 ], [ -46.858448499999945, -24.17542839999993 ], [ -46.852374599999962, -24.168679499999939 ], [ -46.852336, -24.168657099999972 ], [ -46.853828299999975, -24.167559299999937 ], [ -46.857540799999988, -24.164953199999953 ], [ -46.857557099999958, -24.16498 ], [ -46.863521099999957, -24.172066699999952 ], [ -46.864324, -24.171476499999979 ], [ -46.866036099999974, -24.170242899999948 ], [ -46.867080299999941, -24.169528799999952 ], [ -46.868963299999969, -24.168181399999984 ], [ -46.869177099999952, -24.168083299999964 ], [ -46.869204699999962, -24.168080099999944 ], [ -46.869657199999949, -24.167767099999935 ], [ -46.869656699999958, -24.167721 ], [ -46.86968209999997, -24.167666499999942 ], [ -46.869741199999972, -24.167604399999952 ], [ -46.869803399999967, -24.167539099999942 ], [ -46.869806499999981, -24.167461399999972 ], [ -46.8692923, -24.166813499999929 ], [ -46.869276799999966, -24.166794 ], [ -46.868606299999954, -24.166015399999928 ], [ -46.868162299999945, -24.165472799999971 ], [ -46.8681, -24.165404699999957 ], [ -46.867934499999933, -24.165180799999973 ], [ -46.86788649999994, -24.16512229999995 ], [ -46.867257, -24.164398899999981 ], [ -46.866522599999946, -24.163598199999964 ], [ -46.866205499999978, -24.163181199999944 ], [ -46.866079799999966, -24.163016 ], [ -46.865961799999987, -24.162907399999941 ], [ -46.865843399999953, -24.162985299999949 ], [ -46.86385, -24.160533599999962 ], [ -46.865905199999986, -24.155570699999942 ], [ -46.86748689999996, -24.154640399999941 ], [ -46.867010099999959, -24.154653599999964 ], [ -46.866555199999944, -24.154549399999947 ], [ -46.866035399999937, -24.154143199999968 ], [ -46.865808199999947, -24.153641 ], [ -46.865951799999948, -24.153382 ], [ -46.866741399999967, -24.153326199999974 ], [ -46.867293599999982, -24.15338139999994 ], [ -46.867790599999978, -24.153226799999956 ], [ -46.867950699999938, -24.153011399999965 ], [ -46.86782919999996, -24.152647 ], [ -46.867428299999979, -24.152314799999939 ], [ -46.86705569999998, -24.152138099999945 ], [ -46.86640139999998, -24.152026499999966 ], [ -46.865806499999962, -24.151856099999975 ], [ -46.865492199999949, -24.151597399999961 ], [ -46.865206299999954, -24.15105109999995 ], [ -46.86479769999994, -24.150272599999937 ], [ -46.864278599999984, -24.14957129999992 ], [ -46.86358249999995, -24.148322599999972 ], [ -46.863290199999938, -24.147373599999977 ], [ -46.86311349999994, -24.146385099999979 ], [ -46.863038, -24.145296499999965 ], [ -46.863135599999964, -24.144413799999935 ], [ -46.863351, -24.143502699999939 ], [ -46.863711099999932, -24.142794099999946 ], [ -46.863825799999979, -24.142160899999961 ], [ -46.863743, -24.141669499999974 ], [ -46.863444799999975, -24.140951599999937 ], [ -46.863102499999968, -24.140476699999962 ], [ -46.862693899999954, -24.140222699999974 ], [ -46.86219049999994, -24.139896199999949 ], [ -46.861985, -24.139708399999957 ], [ -46.861674899999969, -24.139195599999933 ], [ -46.860427199999947, -24.137072599999957 ], [ -46.859819699999946, -24.13621089999998 ], [ -46.859204, -24.135628499999935 ], [ -46.8583316, -24.135109499999938 ], [ -46.856724699999972, -24.134590399999976 ], [ -46.854703699999959, -24.133563299999931 ], [ -46.85418459999994, -24.133381099999934 ], [ -46.853767299999959, -24.133365 ], [ -46.853416199999963, -24.133358099999953 ], [ -46.853060899999946, -24.133514599999941 ], [ -46.852621899999981, -24.134121 ], [ -46.852257499999943, -24.134463399999959 ], [ -46.851617, -24.134734 ], [ -46.851164099999949, -24.134802899999944 ], [ -46.849977, -24.135051399999952 ], [ -46.849292199999987, -24.135305499999959 ], [ -46.849043799999954, -24.135611899999947 ], [ -46.849060299999962, -24.136053699999934 ], [ -46.849375099999975, -24.136434699999935 ], [ -46.849665899999934, -24.136872 ], [ -46.849724699999967, -24.137283699999948 ], [ -46.849818099999936, -24.137928899999963 ], [ -46.850016599999947, -24.13887769999997 ], [ -46.850095499999959, -24.139155 ], [ -46.850221, -24.13954909999994 ], [ -46.850399099999947, -24.140042499999936 ], [ -46.850492499999973, -24.140620499999958 ], [ -46.850489599999946, -24.141076 ], [ -46.850372799999953, -24.141627699999955 ], [ -46.850206399999927, -24.141875899999949 ], [ -46.849861899999951, -24.141887499999939 ], [ -46.849578699999938, -24.141762 ], [ -46.849304299999972, -24.141560599999938 ], [ -46.849091199999968, -24.141329899999967 ], [ -46.848790499999957, -24.141055499999926 ], [ -46.848475199999939, -24.140892 ], [ -46.84810449999997, -24.140839499999966 ], [ -46.847757, -24.140906599999937 ], [ -46.847411699999952, -24.141176 ], [ -46.847388899999949, -24.141604399999945 ], [ -46.847441099999969, -24.142176099999979 ], [ -46.847015499999941, -24.142900599999965 ], [ -46.846472499999955, -24.143250899999931 ], [ -46.845579199999975, -24.143367699999935 ], [ -46.844586599999964, -24.143624599999953 ], [ -46.844055299999972, -24.143846399999969 ], [ -46.843582399999939, -24.14409169999993 ], [ -46.8432787, -24.144418599999934 ], [ -46.843337099999985, -24.144973299999947 ], [ -46.843786699999953, -24.145498799999928 ], [ -46.844312199999941, -24.146094399999988 ], [ -46.84460409999997, -24.146614 ], [ -46.844650799999954, -24.147279599999926 ], [ -46.844423099999972, -24.147606599999964 ], [ -46.843903499999954, -24.147933599999934 ], [ -46.843693299999977, -24.148126199999972 ], [ -46.843488899999961, -24.14864 ], [ -46.843226199999947, -24.149235599999937 ], [ -46.842852499999935, -24.149802 ], [ -46.842572199999957, -24.150035499999937 ], [ -46.842064299999947, -24.150000499999976 ], [ -46.841836599999965, -24.149603399999933 ], [ -46.841778199999965, -24.148680899999935 ], [ -46.841708099999948, -24.148027 ], [ -46.841538799999967, -24.147705799999976 ], [ -46.841264399999936, -24.147665 ], [ -46.840423599999951, -24.147986099999969 ], [ -46.839658699999966, -24.14817289999996 ], [ -46.838566899999933, -24.14804449999998 ], [ -46.83780779999995, -24.147682499999974 ], [ -46.837451699999981, -24.147285499999935 ], [ -46.837580099999968, -24.14700519999996 ], [ -46.837942099999964, -24.146771599999965 ], [ -46.839612, -24.146532299999937 ], [ -46.840131699999972, -24.146146899999962 ], [ -46.840096599999988, -24.145849099999968 ], [ -46.839822199999958, -24.145679799999979 ], [ -46.838806299999931, -24.145253599999933 ], [ -46.838146299999941, -24.144881499999936 ], [ -46.837632099999951, -24.144556399999939 ], [ -46.837118399999952, -24.143950599999979 ], [ -46.837176599999964, -24.143368799999966 ], [ -46.837739, -24.142573699999954 ], [ -46.838146299999956, -24.14148769999996 ], [ -46.83815229999994, -24.141090599999913 ], [ -46.837638499999969, -24.140857 ], [ -46.836633599999971, -24.140615 ], [ -46.835174599999959, -24.139992899999964 ], [ -46.834158599999967, -24.139350599999936 ], [ -46.833726599999977, -24.139082 ], [ -46.833224399999949, -24.13887179999994 ], [ -46.831145799999945, -24.13819449999994 ], [ -46.828565099999942, -24.137260299999973 ], [ -46.827864499999976, -24.137137699999982 ], [ -46.82649239999995, -24.136799099999969 ], [ -46.825803399999984, -24.13670569999994 ], [ -46.824956799999946, -24.136688099999958 ], [ -46.8242269, -24.136676499999965 ], [ -46.823789, -24.136781599999949 ], [ -46.823187599999983, -24.137032599999937 ], [ -46.822691299999974, -24.137371299999931 ], [ -46.822370199999966, -24.137721599999953 ], [ -46.822136699999938, -24.138060299999953 ], [ -46.821979, -24.13832879999995 ], [ -46.821984899999961, -24.138574099999975 ], [ -46.822206699999988, -24.138819299999966 ], [ -46.822656299999949, -24.139193 ], [ -46.822889899999957, -24.139917 ], [ -46.822784799999958, -24.140559199999924 ], [ -46.822586299999955, -24.141032199999923 ], [ -46.822107499999966, -24.141359099999931 ], [ -46.821745499999963, -24.141289099999938 ], [ -46.821401, -24.140582599999959 ], [ -46.821074, -24.139992899999971 ], [ -46.82067109999997, -24.139403199999958 ], [ -46.820367499999982, -24.139082 ], [ -46.820157299999948, -24.139035299999925 ], [ -46.819865399999969, -24.139006099999964 ], [ -46.8194041, -24.139263 ], [ -46.819199799999978, -24.139613399999973 ], [ -46.819118, -24.140238099999973 ], [ -46.818890299999964, -24.140699399999967 ], [ -46.81854, -24.14109639999997 ], [ -46.817716699999949, -24.141727 ], [ -46.816432199999952, -24.142059799999974 ], [ -46.815568099999943, -24.14227 ], [ -46.814785699999959, -24.142585299999951 ], [ -46.814184299999965, -24.142906399999962 ], [ -46.813653, -24.143262599999964 ], [ -46.813115799999935, -24.143875599999944 ], [ -46.812821799999931, -24.144440699999954 ], [ -46.812402, -24.144606299999978 ], [ -46.811308, -24.143997199999944 ], [ -46.810645699999952, -24.14377839999997 ], [ -46.808463699999947, -24.143778399999981 ], [ -46.807807299999979, -24.144014899999952 ], [ -46.807718599999923, -24.144464399999944 ], [ -46.808528699999954, -24.145073399999944 ], [ -46.80940389999995, -24.145487399999979 ], [ -46.810225799999955, -24.146279799999945 ], [ -46.810267199999942, -24.146746899999982 ], [ -46.81017259999993, -24.1470308 ], [ -46.809877, -24.147208199999959 ], [ -46.80950439999998, -24.147089899999969 ], [ -46.808469599999967, -24.146575399999954 ], [ -46.807554699999969, -24.145963 ], [ -46.80693609999998, -24.148141099999968 ], [ -46.80591869999995, -24.147904599999951 ], [ -46.805609399999987, -24.147846599999976 ], [ -46.805074499999925, -24.147885299999935 ], [ -46.804624899999965, -24.147991099999949 ], [ -46.804076699999939, -24.148269899999939 ], [ -46.803922199999931, -24.148369899999977 ], [ -46.803647799999965, -24.148638699999932 ], [ -46.803553699999959, -24.148826099999955 ], [ -46.803321, -24.149292299999946 ], [ -46.803134299999954, -24.150132599999946 ], [ -46.802854199999963, -24.150755099999973 ], [ -46.802516199999957, -24.151004199999928 ], [ -46.80199829999998, -24.151128499999956 ], [ -46.801562499999932, -24.151068699999936 ], [ -46.801142399999954, -24.150832899999944 ], [ -46.800718299999971, -24.150392099999976 ], [ -46.800457699999981, -24.149883599999949 ], [ -46.79979679999996, -24.148323499999947 ], [ -46.799094399999952, -24.147402 ], [ -46.798211599999952, -24.146667399999952 ], [ -46.797206299999971, -24.145971399999951 ], [ -46.79634949999997, -24.145448699999967 ], [ -46.795698399999928, -24.14517879999995 ], [ -46.795086199999957, -24.14502409999994 ], [ -46.794680299999982, -24.144959699999955 ], [ -46.794233199999958, -24.144935099999941 ], [ -46.793784499999958, -24.145069299999928 ], [ -46.793424, -24.145246399999955 ], [ -46.793191699999966, -24.145507499999947 ], [ -46.793081699999966, -24.145744299999933 ], [ -46.793075699999974, -24.146190499999932 ], [ -46.793175, -24.14661579999995 ], [ -46.793307699999957, -24.147054 ], [ -46.793533199999963, -24.1474085 ], [ -46.793733, -24.147814399999962 ], [ -46.79395309999996, -24.148514199999966 ], [ -46.794119599999931, -24.149264299999967 ], [ -46.79408059999998, -24.149516399999989 ], [ -46.793919899999935, -24.149728299999943 ], [ -46.793739399999936, -24.149844299999934 ], [ -46.7935677, -24.149886499999973 ], [ -46.793174199999953, -24.149956 ], [ -46.792166399999985, -24.150052 ], [ -46.79149689999997, -24.150024699999964 ], [ -46.791026499999937, -24.149934499999972 ], [ -46.7905047, -24.149620099999929 ], [ -46.790105, -24.149219199999955 ], [ -46.789826799999965, -24.148906199999942 ], [ -46.789563699999981, -24.148748799999964 ], [ -46.789501399999949, -24.148512899999954 ], [ -46.789286599999976, -24.148284799999931 ], [ -46.788932199999984, -24.14785309999996 ], [ -46.788706599999955, -24.147653299999945 ], [ -46.788436, -24.147576 ], [ -46.788113799999962, -24.147279599999926 ], [ -46.787720699999966, -24.147015399999919 ], [ -46.78709559999993, -24.146744699999942 ], [ -46.78659939999995, -24.146300099999959 ], [ -46.78615479999997, -24.145874799999941 ], [ -46.786025899999977, -24.145559 ], [ -46.786019399999937, -24.145230399999939 ], [ -46.786045199999926, -24.144940399999935 ], [ -46.786122499999976, -24.144586 ], [ -46.786212799999937, -24.144257299999929 ], [ -46.786313599999978, -24.144102599999936 ], [ -46.786549099999945, -24.143638799999973 ], [ -46.786776499999974, -24.143256299999958 ], [ -46.787121399999933, -24.142813799999942 ], [ -46.787730499999959, -24.142537199999929 ], [ -46.788427199999944, -24.142369799999976 ], [ -46.789235, -24.142317599999963 ], [ -46.790036699999973, -24.142384299999939 ], [ -46.79128419999995, -24.142607599999966 ], [ -46.792218599999956, -24.142646299999971 ], [ -46.792877, -24.142556399999922 ], [ -46.793662099999949, -24.142279 ], [ -46.794368799999972, -24.14189649999998 ], [ -46.795200899999948, -24.14103579999993 ], [ -46.79632079999994, -24.139811399999939 ], [ -46.796814099999949, -24.139325399999958 ], [ -46.797135799999978, -24.139051299999938 ], [ -46.79749, -24.138980199999935 ], [ -46.797969899999941, -24.138944399999954 ], [ -46.798359799999957, -24.138982899999977 ], [ -46.798694, -24.139104799999924 ], [ -46.799307099999972, -24.1393212 ], [ -46.799307499999948, -24.138872699999979 ], [ -46.799307499999941, -24.138532 ], [ -46.799333899999965, -24.138270499999976 ], [ -46.799301799999967, -24.13794379999996 ], [ -46.799278099999981, -24.137708799999924 ], [ -46.799121099999972, -24.13736259999996 ], [ -46.798898799999968, -24.13693509999996 ], [ -46.798745, -24.13662729999993 ], [ -46.798828299999968, -24.136285399999952 ], [ -46.798955299999939, -24.136074599999965 ], [ -46.799088599999948, -24.135954899999948 ], [ -46.799360499999977, -24.1358408 ], [ -46.799666799999947, -24.135812799999943 ], [ -46.799993199999967, -24.135823699999943 ], [ -46.800489, -24.135892099999975 ], [ -46.800895299999972, -24.135993299999932 ], [ -46.801335099999953, -24.136012899999969 ], [ -46.801955, -24.135999199999961 ], [ -46.802497499999951, -24.135687199999957 ], [ -46.802901199999958, -24.135246599999963 ], [ -46.803213, -24.134692899999937 ], [ -46.803449699999923, -24.133984399999978 ], [ -46.803483899999954, -24.133414399999932 ], [ -46.803457, -24.132952699999983 ], [ -46.803241899999932, -24.132575 ], [ -46.802959299999941, -24.132290199999947 ], [ -46.802683199999933, -24.132102099999948 ], [ -46.801897299999958, -24.131876099999943 ], [ -46.801373299999966, -24.131836799999974 ], [ -46.80084979999998, -24.131854499999971 ], [ -46.800464499999975, -24.131949199999944 ], [ -46.800058099999944, -24.13203789999994 ], [ -46.79926439999997, -24.132214499999957 ], [ -46.798385899999971, -24.132181699999919 ], [ -46.797633499999961, -24.1320449 ], [ -46.797206099999983, -24.131925199999959 ], [ -46.796798199999955, -24.131571699999931 ], [ -46.795667199999968, -24.130540199999931 ], [ -46.795068799999974, -24.130488899999939 ], [ -46.794521599999946, -24.130540199999921 ], [ -46.79412009999993, -24.130881799999948 ], [ -46.793633899999975, -24.131458599999977 ], [ -46.793147299999937, -24.131747099999927 ], [ -46.792674899999945, -24.13199359999993 ], [ -46.792230399999937, -24.132113299999961 ], [ -46.79182, -24.13230139999996 ], [ -46.7904008, -24.132489499999959 ], [ -46.790041799999983, -24.132472399999976 ], [ -46.789853699999981, -24.132335599999969 ], [ -46.789665599999978, -24.132044899999986 ], [ -46.789613199999955, -24.131439499999953 ], [ -46.789829199999986, -24.131171199999976 ], [ -46.790041799999983, -24.131001899999948 ], [ -46.790452099999982, -24.130796699999948 ], [ -46.790822299999952, -24.130752499999968 ], [ -46.791330799999976, -24.130404699999922 ], [ -46.792042899999956, -24.130026899999965 ], [ -46.792384299999981, -24.129086799999978 ], [ -46.792264599999953, -24.12842 ], [ -46.792082799999946, -24.127648499999957 ], [ -46.792166199999947, -24.127029899999975 ], [ -46.792392099999972, -24.126138799999978 ], [ -46.792534399999965, -24.125677199999927 ], [ -46.792347899999974, -24.125073299999951 ], [ -46.792229699999957, -24.124788699999957 ], [ -46.792161299999982, -24.124624099999952 ], [ -46.791933, -24.124390899999984 ], [ -46.791822499999974, -24.124268199999953 ], [ -46.791714499999962, -24.124152799999923 ], [ -46.791508299999968, -24.123882699999971 ], [ -46.791309499999961, -24.123821399999937 ], [ -46.791088499999944, -24.123912199999943 ], [ -46.790722599999981, -24.124195399999955 ], [ -46.790377899999946, -24.124533699999972 ], [ -46.790003099999979, -24.124712299999938 ], [ -46.789705, -24.12480069999998 ], [ -46.789434, -24.124734599999943 ], [ -46.789223599999957, -24.124669899999965 ], [ -46.789130899999975, -24.124453299999967 ], [ -46.789151499999953, -24.124260299999953 ], [ -46.789286699999941, -24.124118399999929 ], [ -46.789866, -24.123724299999932 ], [ -46.790134399999943, -24.123366799999935 ], [ -46.790005899999983, -24.123192899999928 ], [ -46.789706499999966, -24.122952399999967 ], [ -46.789403599999957, -24.122841599999948 ], [ -46.788849899999946, -24.122720899999937 ], [ -46.788459399999958, -24.122508 ], [ -46.788317, -24.122208499999942 ], [ -46.788400499999973, -24.121938499999938 ], [ -46.78869009999994, -24.121629199999973 ], [ -46.789122199999959, -24.121221699999975 ], [ -46.789755599999978, -24.120858399999971 ], [ -46.790231799999958, -24.120490099999984 ], [ -46.790384, -24.120121899999958 ], [ -46.790560699999958, -24.119886199999932 ], [ -46.790839, -24.119841199999932 ], [ -46.791191299999973, -24.119760599999939 ], [ -46.791488399999935, -24.119730099999963 ], [ -46.79185559999997, -24.11967449999997 ], [ -46.792042099999946, -24.119525399999922 ], [ -46.791923599999969, -24.119283899999964 ], [ -46.79178329999997, -24.11908109999996 ], [ -46.791694899999982, -24.118845399999941 ], [ -46.791424899999988, -24.118653899999959 ], [ -46.791066399999984, -24.118462399999945 ], [ -46.790742399999949, -24.118310199999925 ], [ -46.790531299999948, -24.1181089 ], [ -46.790484799999952, -24.117902399999924 ], [ -46.790538799999986, -24.117755099999957 ], [ -46.790703099999973, -24.11761279999995 ], [ -46.791078299999981, -24.11741319999993 ], [ -46.791636, -24.117139799999975 ], [ -46.792141099999981, -24.116750199999952 ], [ -46.792294599999927, -24.11650109999994 ], [ -46.792339799999979, -24.116287899999975 ], [ -46.792293299999983, -24.116089 ], [ -46.792213799999963, -24.115899599999977 ], [ -46.792089199999964, -24.115627 ], [ -46.791893299999977, -24.115254199999981 ], [ -46.791677, -24.114947099999942 ], [ -46.791411699999976, -24.114816599999973 ], [ -46.791120499999984, -24.11479 ], [ -46.79088679999996, -24.114939799999938 ], [ -46.790557399999955, -24.115366 ], [ -46.790272899999941, -24.115742499999939 ], [ -46.789905699999963, -24.115867 ], [ -46.78964649999994, -24.115765699999947 ], [ -46.789525599999941, -24.115578399999951 ], [ -46.789453699999967, -24.11543649999993 ], [ -46.789435099999935, -24.115258199999975 ], [ -46.789279299999976, -24.11503059999994 ], [ -46.789128099999971, -24.114950699999948 ], [ -46.789035399999932, -24.114929299999982 ], [ -46.788935399999957, -24.11488479999996 ], [ -46.788594899999964, -24.114775 ], [ -46.788082699999961, -24.114834799999986 ], [ -46.787698499999983, -24.115014 ], [ -46.78736559999993, -24.115031099999957 ], [ -46.7871095, -24.114954299999955 ], [ -46.787058299999963, -24.114783499999923 ], [ -46.787177799999938, -24.114484799999964 ], [ -46.787587499999979, -24.114066499999968 ], [ -46.787971699999957, -24.113836 ], [ -46.788594899999964, -24.113827399999931 ], [ -46.788961899999947, -24.113673799999958 ], [ -46.789166799999968, -24.113306699999953 ], [ -46.789149699999939, -24.112948199999952 ], [ -46.788868, -24.112845699999966 ], [ -46.788202199999944, -24.113042099999973 ], [ -46.78734, -24.113170099999934 ], [ -46.787066799999934, -24.113101799999974 ], [ -46.786921699999937, -24.112948199999945 ], [ -46.786930199999972, -24.112700599999982 ], [ -46.78734849999995, -24.112265199999957 ], [ -46.787818, -24.111983499999958 ], [ -46.788057, -24.111753 ], [ -46.788005799999951, -24.111360299999941 ], [ -46.787707, -24.110788399999933 ], [ -46.78761309999993, -24.110259099999958 ], [ -46.787536299999942, -24.109985899999973 ], [ -46.787331399999978, -24.109900599999936 ], [ -46.787109499999985, -24.109943299999934 ], [ -46.787007, -24.110148099999947 ], [ -46.786998499999982, -24.11050669999997 ], [ -46.787041199999983, -24.110993299999969 ], [ -46.786870499999964, -24.111189599999939 ], [ -46.786665599999935, -24.111121299999983 ], [ -46.786474799999951, -24.110786399999931 ], [ -46.786179, -24.110626199999952 ], [ -46.785649699999965, -24.110592 ], [ -46.785069199999953, -24.110626199999952 ], [ -46.78443749999996, -24.110506699999966 ], [ -46.783985099999938, -24.110370099999962 ], [ -46.7839082, -24.110173699999955 ], [ -46.784189899999951, -24.109909099999982 ], [ -46.78475339999995, -24.109687199999929 ], [ -46.785359499999977, -24.109584699999974 ], [ -46.785530199999982, -24.109448099999952 ], [ -46.785555799999941, -24.109123699999934 ], [ -46.785350899999976, -24.108953 ], [ -46.784181399999966, -24.108876199999937 ], [ -46.78395949999998, -24.10873109999994 ], [ -46.783839899999975, -24.108483499999974 ], [ -46.783848499999984, -24.108210299999932 ], [ -46.783985099999946, -24.108065199999931 ], [ -46.784787499999936, -24.107911499999947 ], [ -46.785069199999953, -24.107681 ], [ -46.785103399999961, -24.107459099999971 ], [ -46.785009499999951, -24.107305399999955 ], [ -46.784744799999942, -24.107296899999945 ], [ -46.783822899999969, -24.107407899999934 ], [ -46.783558199999966, -24.107373699999989 ], [ -46.783353399999953, -24.107177399999951 ], [ -46.783413099999969, -24.106887099999934 ], [ -46.783771599999966, -24.106434699999962 ], [ -46.783805799999982, -24.106170099999922 ], [ -46.783618, -24.105990799999969 ], [ -46.783430199999941, -24.106024899999959 ], [ -46.783216799999941, -24.106357899999971 ], [ -46.78301189999997, -24.106417599999933 ], [ -46.781815199999983, -24.105720199999944 ], [ -46.781355799999979, -24.105546899999972 ], [ -46.780630199999962, -24.105427399999929 ], [ -46.779955799999982, -24.10542739999994 ], [ -46.779546, -24.105564 ], [ -46.77925579999993, -24.10547009999992 ], [ -46.779092299999952, -24.105204199999939 ], [ -46.779025299999944, -24.104923699999972 ], [ -46.779153299999962, -24.104479799999989 ], [ -46.779230199999979, -24.104104199999938 ], [ -46.779129799999964, -24.103978299999937 ], [ -46.778901499999961, -24.103756299999933 ], [ -46.7787436, -24.103688 ], [ -46.778632599999987, -24.103735 ], [ -46.778523699999937, -24.103767 ], [ -46.778434099999977, -24.103762699999947 ], [ -46.778276199999937, -24.103619699999971 ], [ -46.778143899999975, -24.10349379999996 ], [ -46.774320299999943, -24.108395699999967 ], [ -46.769488199999955, -24.113992799999945 ], [ -46.768030499999952, -24.11562559999993 ], [ -46.768316899999945, -24.115773899999958 ], [ -46.768409799999972, -24.115784799999975 ], [ -46.769706, -24.116443799999949 ], [ -46.773414, -24.11834349999998 ], [ -46.775367199999955, -24.119372799999947 ], [ -46.774792699999978, -24.120168499999977 ], [ -46.774430299999942, -24.120652599999957 ], [ -46.773125499999942, -24.122251 ], [ -46.772986799999948, -24.122852299999977 ], [ -46.773282099999967, -24.123319399999961 ], [ -46.77378669999996, -24.123743499999946 ], [ -46.773534399999953, -24.124285799999935 ], [ -46.774994799999945, -24.124930099999968 ], [ -46.781084499999963, -24.127953899999955 ], [ -46.780668, -24.129005799999963 ], [ -46.779561899999976, -24.131688599999958 ], [ -46.779334899999988, -24.132373399999945 ], [ -46.778840699999932, -24.133708599999967 ], [ -46.778109099999945, -24.135537599999967 ], [ -46.777384199999972, -24.13745549999993 ], [ -46.776514199999951, -24.139623799999988 ], [ -46.776508099999951, -24.139781 ], [ -46.776563599999974, -24.141136399999933 ], [ -46.776571899999972, -24.142339199999974 ], [ -46.776586699999939, -24.142589599999948 ], [ -46.776586699999939, -24.142731299999983 ], [ -46.776563599999974, -24.14310039999998 ], [ -46.776481199999978, -24.143558499999983 ], [ -46.776487799999984, -24.143858299999966 ], [ -46.776521799999955, -24.144087899999931 ], [ -46.776719299999975, -24.144680399999974 ], [ -46.777077399999939, -24.145709299999961 ], [ -46.777541799999938, -24.147041 ], [ -46.778121699999986, -24.148751699999938 ], [ -46.777327599999985, -24.149358399999976 ], [ -46.776838899999973, -24.149731699999965 ], [ -46.776366699999983, -24.150092399999942 ], [ -46.775869599999957, -24.150455799999978 ], [ -46.775332, -24.150847799999941 ], [ -46.774859699999986, -24.151192099999953 ], [ -46.774359799999957, -24.151556599999925 ], [ -46.77386649999994, -24.151916199999967 ], [ -46.773349899999971, -24.152292899999964 ], [ -46.772879599999953, -24.152635799999931 ], [ -46.772393899999948, -24.152984 ], [ -46.771877799999977, -24.153354099999941 ], [ -46.771390899999979, -24.1537125 ], [ -46.770876, -24.154070799999939 ], [ -46.77035, -24.154445699999933 ], [ -46.769872499999963, -24.154784299999957 ], [ -46.769354899999946, -24.155148 ], [ -46.768862099999986, -24.155505399999988 ], [ -46.768350099999964, -24.155873599999961 ], [ -46.767872199999935, -24.15622 ], [ -46.767394399999944, -24.156578399999937 ], [ -46.766905099999981, -24.156924 ], [ -46.766356, -24.157311799999942 ], [ -46.765911399999936, -24.157633899999951 ], [ -46.765367399999946, -24.158028099999971 ], [ -46.764918299999977, -24.158353499999969 ], [ -46.764367299999954, -24.158769599999971 ], [ -46.763935, -24.159077299999986 ], [ -46.7634, -24.159458199999953 ], [ -46.762904699999986, -24.15981059999995 ], [ -46.762385399999978, -24.160180299999972 ], [ -46.761861899999985, -24.16055289999996 ], [ -46.761857099999986, -24.160556299999932 ], [ -46.76012309999993, -24.159626899999978 ], [ -46.758095799999978, -24.158482499999938 ], [ -46.758265299999948, -24.157325099999984 ], [ -46.7587511, -24.153918099999935 ], [ -46.759130099999936, -24.153923699999954 ], [ -46.759621699999968, -24.152252499999964 ], [ -46.75991659999994, -24.15236589999996 ], [ -46.760060299999971, -24.152086099999977 ], [ -46.76022659999996, -24.152123899999939 ], [ -46.76068789999993, -24.151655099999974 ], [ -46.762170099999935, -24.147019499999946 ], [ -46.759905899999978, -24.146063099999932 ], [ -46.7598584, -24.14605489999996 ], [ -46.759744099999985, -24.146892199999964 ], [ -46.759583899999946, -24.148049 ], [ -46.759527, -24.148455399999932 ], [ -46.759476699999944, -24.148535799999927 ], [ -46.756472099999947, -24.153282299999955 ], [ -46.756455799999969, -24.153308199999969 ], [ -46.756168599999967, -24.153772599999972 ], [ -46.755661, -24.153510599999954 ], [ -46.755233599999933, -24.153291399999937 ], [ -46.753845099999985, -24.155248699999955 ], [ -46.752145699999971, -24.155931599999963 ], [ -46.751840199999947, -24.156436899999967 ], [ -46.751562399999955, -24.156903299999954 ], [ -46.750665399999953, -24.156468499999963 ], [ -46.75008269999995, -24.157389799999962 ], [ -46.743142499999976, -24.154313799999951 ], [ -46.744638199999947, -24.153872799999927 ], [ -46.744928499999965, -24.153367499999941 ], [ -46.74523059999995, -24.152884699999952 ], [ -46.745477499999936, -24.152399599999963 ], [ -46.745508199999961, -24.15145839999996 ], [ -46.747059199999967, -24.150329499999952 ], [ -46.748545699999966, -24.149272499999942 ], [ -46.750325499999981, -24.147995899999962 ], [ -46.750817699999978, -24.147642199999961 ], [ -46.756961899999965, -24.143024799999974 ], [ -46.756883, -24.142971499999927 ], [ -46.756607199999962, -24.143249599999933 ], [ -46.756442, -24.14333009999995 ], [ -46.75631889999994, -24.143401 ], [ -46.756178299999938, -24.143390199999939 ], [ -46.756055799999963, -24.143431 ], [ -46.755912799999976, -24.143522899999944 ], [ -46.755800499999964, -24.143584199999967 ], [ -46.755647299999964, -24.14359439999998 ], [ -46.755514499999947, -24.143625099999955 ], [ -46.755340899999965, -24.143553599999962 ], [ -46.755177499999945, -24.143349299999961 ], [ -46.754901799999978, -24.143308499999925 ], [ -46.754677099999981, -24.143257399999985 ], [ -46.754554599999956, -24.143094 ], [ -46.754084199999966, -24.143033399999975 ], [ -46.753982699999945, -24.142838699999963 ], [ -46.753737599999972, -24.142940799999959 ], [ -46.753482299999973, -24.142951099999948 ], [ -46.753267899999969, -24.142726399999965 ], [ -46.753084, -24.142501699999961 ], [ -46.752981899999952, -24.14230769999995 ], [ -46.752716399999947, -24.142277099999944 ], [ -46.752461099999941, -24.142174899999922 ], [ -46.752277299999946, -24.142042199999935 ], [ -46.752052599999963, -24.141889 ], [ -46.751858599999935, -24.141858399999933 ], [ -46.75152159999994, -24.141919599999934 ], [ -46.751317299999982, -24.141940099999939 ], [ -46.751169299999965, -24.141924699999947 ], [ -46.751031399999924, -24.141746 ], [ -46.750939499999959, -24.141613299999968 ], [ -46.750776099999939, -24.141582599999943 ], [ -46.750582099999974, -24.141592799999952 ], [ -46.750439099999937, -24.141562199999949 ], [ -46.750285299999966, -24.141531599999951 ], [ -46.75010229999998, -24.141541799999967 ], [ -46.749897899999951, -24.141541799999967 ], [ -46.749754899999978, -24.14154179999997 ], [ -46.749591499999958, -24.141552 ], [ -46.749438299999952, -24.141531599999951 ], [ -46.749231499999951, -24.141508599999941 ], [ -46.749078299999951, -24.141503499999935 ], [ -46.748945599999956, -24.141472899999943 ], [ -46.748779599999985, -24.141480499999943 ], [ -46.748585599999956, -24.141490699999952 ], [ -46.748473299999944, -24.141490699999956 ], [ -46.748299699999954, -24.1414703 ], [ -46.748156699999981, -24.141500899999983 ], [ -46.748013699999944, -24.141531599999947 ], [ -46.747860499999945, -24.141562199999957 ], [ -46.747816499999942, -24.141695299999981 ], [ -46.747692599999937, -24.141671899999945 ], [ -46.747576199999969, -24.141630599999932 ], [ -46.747538899999945, -24.141624499999974 ], [ -46.747436099999966, -24.141589599999985 ], [ -46.747379099999932, -24.141567699999936 ], [ -46.747336, -24.141565299999968 ], [ -46.747159299999964, -24.141528899999965 ], [ -46.746969799999938, -24.141569099999984 ], [ -46.746816799999984, -24.141538699999959 ], [ -46.746706599999982, -24.141439699999985 ], [ -46.746584, -24.141368199999921 ], [ -46.746420599999965, -24.141296699999938 ], [ -46.746247, -24.141215 ], [ -46.746083599999963, -24.141112899999943 ], [ -46.745960099999934, -24.141103599999955 ], [ -46.745797699999969, -24.141040399999955 ], [ -46.745623099999932, -24.141041399999946 ], [ -46.74540669999994, -24.141010799999947 ], [ -46.745246199999947, -24.141002499999967 ], [ -46.745103299999975, -24.140949499999984 ], [ -46.744919399999958, -24.14086779999996 ], [ -46.744796899999983, -24.140755499999951 ], [ -46.744516099999942, -24.140770799999931 ], [ -46.744296499999962, -24.140837099999949 ], [ -46.744010599999967, -24.140857599999947 ], [ -46.743765499999938, -24.14085759999994 ], [ -46.743510199999946, -24.140765699999971 ], [ -46.743316099999959, -24.140755499999958 ], [ -46.743152699999939, -24.140704399999951 ], [ -46.742917899999959, -24.140704399999954 ], [ -46.742652299999975, -24.140775899999923 ], [ -46.742397, -24.140918799999955 ], [ -46.742131499999971, -24.141041399999953 ], [ -46.741927299999986, -24.141112899999936 ], [ -46.741723, -24.14124559999993 ], [ -46.741498399999962, -24.141347799999952 ], [ -46.741345199999948, -24.141460099999964 ], [ -46.741181799999936, -24.141490699999974 ], [ -46.741008199999953, -24.141511099999946 ], [ -46.740844799999941, -24.141521399999913 ], [ -46.740620099999951, -24.141490699999956 ], [ -46.740415899999959, -24.141439699999975 ], [ -46.740221799999972, -24.141398799999934 ], [ -46.740038, -24.141337499999953 ], [ -46.739874599999951, -24.141296699999934 ], [ -46.739731699999936, -24.141276299999962 ], [ -46.739629499999978, -24.141204799999961 ], [ -46.739486599999964, -24.141163899999984 ], [ -46.739333399999957, -24.141112899999936 ], [ -46.739139399999949, -24.141061799999921 ], [ -46.738935099999935, -24.141041399999953 ], [ -46.73881259999996, -24.141041399999946 ], [ -46.738639, -24.141061799999932 ], [ -46.73851639999998, -24.141072 ], [ -46.738291799999963, -24.141051599999965 ], [ -46.738128399999937, -24.141051599999962 ], [ -46.737965, -24.141061799999939 ], [ -46.737801599999948, -24.141072 ], [ -46.737628, -24.141000499999965 ], [ -46.737505399999982, -24.140969899999952 ], [ -46.737403299999983, -24.140990299999942 ], [ -46.737250099999983, -24.140969899999956 ], [ -46.736932599999939, -24.141018 ], [ -46.736925799999938, -24.141014299999938 ], [ -46.736834899999963, -24.140949 ], [ -46.73678909999996, -24.140920399999963 ], [ -46.7366555, -24.140864099999924 ], [ -46.736632099999952, -24.140858299999927 ], [ -46.736571799999979, -24.140859 ], [ -46.736565299999938, -24.140858599999955 ], [ -46.736336299999955, -24.140819 ], [ -46.736213199999959, -24.140774199999953 ], [ -46.736082099999976, -24.140722799999935 ], [ -46.735943499999955, -24.140666899999928 ], [ -46.735806399999937, -24.140556299999957 ], [ -46.735802099999944, -24.140552799999963 ], [ -46.735704, -24.140492799999954 ], [ -46.735576699999967, -24.140371499999954 ], [ -46.735502199999985, -24.140298899999937 ], [ -46.735418099999947, -24.140213899999932 ], [ -46.735388699999923, -24.140163 ], [ -46.735332699999965, -24.140107899999983 ], [ -46.735193299999935, -24.140005699999968 ], [ -46.73517319999997, -24.139995299999953 ], [ -46.735113499999962, -24.139984199999962 ], [ -46.734994399999948, -24.139994199999933 ], [ -46.734919199999979, -24.140025399999953 ], [ -46.734743099999946, -24.140118099999942 ], [ -46.734591899999948, -24.140203699999965 ], [ -46.734432899999952, -24.140316199999976 ], [ -46.734311599999963, -24.140371299999973 ], [ -46.734218899999973, -24.14044419999993 ], [ -46.734053199999948, -24.140542199999977 ], [ -46.733774399999959, -24.1407321 ], [ -46.733661799999936, -24.140827699999928 ], [ -46.733562499999955, -24.140857399999959 ], [ -46.733458599999949, -24.140942099999954 ], [ -46.733295099999971, -24.141022 ], [ -46.733196799999973, -24.141047899999926 ], [ -46.7330841, -24.141064599999936 ], [ -46.732954899999989, -24.141065099999935 ], [ -46.732875299999932, -24.141040199999953 ], [ -46.732764799999984, -24.141015799999934 ], [ -46.732701499999962, -24.140976699999946 ], [ -46.732637, -24.140872799999951 ], [ -46.732614699999949, -24.140801099999969 ], [ -46.73260259999995, -24.140765599999948 ], [ -46.73257209999997, -24.140731599999977 ], [ -46.732530299999951, -24.140721399999965 ], [ -46.732451799999986, -24.140733399999942 ], [ -46.732281299999954, -24.14070369999996 ], [ -46.732173899999964, -24.140641599999974 ], [ -46.732126099999967, -24.140598799999953 ], [ -46.732092699999953, -24.140560399999966 ], [ -46.732053899999975, -24.140542899999947 ], [ -46.73200769999994, -24.140525499999971 ], [ -46.731983899999932, -24.140521199999959 ], [ -46.731969299999946, -24.140522099999945 ], [ -46.731945, -24.140528799999959 ], [ -46.73157469999996, -24.140669699999936 ], [ -46.73150389999995, -24.140714499999937 ], [ -46.731391699999968, -24.140742199999977 ], [ -46.731207799999943, -24.14073529999996 ], [ -46.731124099999938, -24.140689399999932 ], [ -46.731018, -24.140606699999978 ], [ -46.730921499999965, -24.140457599999923 ], [ -46.730880499999962, -24.140386 ], [ -46.730858699999942, -24.140246499999932 ], [ -46.730828499999973, -24.140114899999947 ], [ -46.730812, -24.14000539999995 ], [ -46.730791499999953, -24.13990229999996 ], [ -46.730792, -24.139811199999944 ], [ -46.73076309999994, -24.139762799999968 ], [ -46.730754199999978, -24.139693499999961 ], [ -46.730677299999968, -24.139604199999948 ], [ -46.730582799999979, -24.139319099999973 ], [ -46.730461599999963, -24.139109 ], [ -46.7303778, -24.138990699999976 ], [ -46.730266099999938, -24.138897399999962 ], [ -46.730131899999947, -24.138696699999972 ], [ -46.730046799999968, -24.138597899999986 ], [ -46.729980799999964, -24.138476399999938 ], [ -46.729911699999946, -24.138400099999959 ], [ -46.729825799999965, -24.138321299999959 ], [ -46.729725499999972, -24.138276499999964 ], [ -46.729484799999966, -24.138228699999964 ], [ -46.729243099999962, -24.138112 ], [ -46.729082699999935, -24.138081399999972 ], [ -46.72894, -24.138054099999973 ], [ -46.728761799999972, -24.138003099999935 ], [ -46.728662799999938, -24.137956399999936 ], [ -46.728549, -24.137907099999946 ], [ -46.728458299999943, -24.137861299999933 ], [ -46.728406699999944, -24.137836599999943 ], [ -46.728286099999934, -24.137788099999963 ], [ -46.728208599999959, -24.137743699999938 ], [ -46.728135599999973, -24.137725299999943 ], [ -46.727950699999958, -24.137603199999937 ], [ -46.727875099999949, -24.137483199999963 ], [ -46.727818099999986, -24.137404699999934 ], [ -46.727748, -24.137258299999928 ], [ -46.727679099999939, -24.137137099999968 ], [ -46.727626399999963, -24.137036799999958 ], [ -46.727581499999985, -24.136987599999927 ], [ -46.727488599999958, -24.136883899999926 ], [ -46.727412199999947, -24.136818399999981 ], [ -46.727001399999949, -24.136610799999978 ], [ -46.726804599999987, -24.136366499999959 ], [ -46.72679369999998, -24.136358399999949 ], [ -46.726750099999954, -24.136306 ], [ -46.726614799999936, -24.136214799999937 ], [ -46.726469699999939, -24.136117099999979 ], [ -46.725945, -24.134780799999927 ], [ -46.725168399999973, -24.132302799999941 ], [ -46.725023299999975, -24.132403399999919 ], [ -46.724924, -24.132477499999933 ], [ -46.720611499999961, -24.135697599999965 ], [ -46.713854499999968, -24.140755899999927 ], [ -46.71371419999997, -24.140861099999942 ], [ -46.713574799999947, -24.140965299999948 ], [ -46.712427799999944, -24.141790299999961 ], [ -46.7119881, -24.14210659999997 ], [ -46.710348699999948, -24.143377199999971 ], [ -46.710321299999983, -24.143399799999937 ], [ -46.709385899999972, -24.144136299999953 ], [ -46.712478899999958, -24.14591889999997 ], [ -46.715817199999947, -24.147802299999967 ], [ -46.720409899999936, -24.150393499999954 ], [ -46.722268299999939, -24.151442 ], [ -46.726849799999968, -24.154026799999933 ], [ -46.728398199999965, -24.154900399999971 ], [ -46.733562899999988, -24.157786399999953 ], [ -46.736894699999944, -24.159648199999939 ], [ -46.738494099999976, -24.160541899999942 ], [ -46.740912599999945, -24.161893299999971 ], [ -46.742040199999963, -24.162528699999942 ], [ -46.74508579999997, -24.164245 ], [ -46.745562699999944, -24.164513699999933 ], [ -46.74839749999996, -24.166111099999974 ], [ -46.748971, -24.166434299999928 ], [ -46.751207699999952, -24.16761709999998 ], [ -46.754028, -24.169108699999985 ], [ -46.755860899999959, -24.170078 ], [ -46.756117199999949, -24.170218 ], [ -46.757753699999959, -24.171112199999975 ], [ -46.759265199999966, -24.171938099999984 ], [ -46.762572299999931, -24.173745 ], [ -46.762901599999964, -24.1739214 ], [ -46.763436699999943, -24.174208 ], [ -46.765209699999964, -24.175157299999977 ], [ -46.766841499999948, -24.176031199999951 ], [ -46.768819699999938, -24.177050799999961 ], [ -46.769119299999936, -24.177214599999949 ], [ -46.770364599999937, -24.177895799999934 ], [ -46.773043499999979, -24.179361099999923 ], [ -46.773677899999946, -24.179688499999934 ], [ -46.77508069999994, -24.180412499999928 ], [ -46.778794399999981, -24.182329099999954 ], [ -46.779298799999935, -24.182605399999943 ], [ -46.780283299999958, -24.183144799999987 ], [ -46.783325899999966, -24.184823199999972 ], [ -46.783396799999942, -24.184862299999953 ], [ -46.784880299999941, -24.185601099999918 ], [ -46.785892, -24.186075399999947 ], [ -46.786955599999935, -24.186492799999932 ], [ -46.787803699999984, -24.186811299999924 ], [ -46.787938599999968, -24.186867499999938 ], [ -46.788846399999962, -24.187245799999953 ], [ -46.78900079999994, -24.188285399999923 ], [ -46.789102599999985, -24.188970299999944 ], [ -46.789109699999976, -24.189017099999951 ], [ -46.789161, -24.189050799999968 ], [ -46.789258699999941, -24.189100199999928 ], [ -46.789339299999938, -24.189087399999945 ], [ -46.789424899999972, -24.189061199999973 ], [ -46.789520399999958, -24.189060199999982 ], [ -46.789593699999955, -24.189045699999948 ], [ -46.789673799999953, -24.18909549999994 ], [ -46.789712399999985, -24.18914459999996 ], [ -46.789751399999936, -24.18918819999994 ], [ -46.78978, -24.189257599999955 ], [ -46.78980619999993, -24.189369799999959 ], [ -46.789856899999968, -24.189422199999967 ], [ -46.78998839999997, -24.189456599999964 ], [ -46.790075899999977, -24.189539599999936 ], [ -46.790249399999936, -24.189623199999964 ], [ -46.790315799999966, -24.189724799999961 ], [ -46.790351599999951, -24.189790799999979 ], [ -46.790441599999951, -24.189855 ], [ -46.790570699999932, -24.189991599999932 ], [ -46.790611699999943, -24.190113799999949 ], [ -46.790671499999981, -24.190246299999956 ], [ -46.79079059999998, -24.190326 ], [ -46.790859499999961, -24.190398199999937 ], [ -46.790916499999987, -24.190519899999963 ], [ -46.790990099999931, -24.190559899999982 ], [ -46.791093499999931, -24.190621099999937 ], [ -46.791183199999985, -24.190673 ], [ -46.791305599999937, -24.190671299999956 ], [ -46.791387899999968, -24.190740599999973 ], [ -46.791444199999951, -24.190830699999939 ], [ -46.791546899999958, -24.190887799999928 ], [ -46.79166539999995, -24.190958599999927 ], [ -46.79172669999997, -24.190975399999953 ], [ -46.791789799999947, -24.190987599999975 ], [ -46.791840499999978, -24.19098149999996 ], [ -46.791901499999938, -24.191012699999938 ], [ -46.791994799999941, -24.191050799999974 ], [ -46.792057599999964, -24.191031799999966 ], [ -46.792173099999957, -24.191092199999961 ], [ -46.792259499999943, -24.191119 ], [ -46.792301799999962, -24.191092599999937 ], [ -46.79234629999997, -24.19111039999995 ], [ -46.792407199999964, -24.191130499999925 ], [ -46.792500899999936, -24.191097499999952 ], [ -46.792615699999949, -24.191181199999949 ], [ -46.792837, -24.1914341 ], [ -46.793055299999935, -24.191736699999982 ], [ -46.79329359999997, -24.192149699999952 ], [ -46.793539, -24.192755 ], [ -46.793752499999982, -24.193647799999958 ], [ -46.793893199999957, -24.193876499999924 ], [ -46.794008, -24.193933799999972 ], [ -46.794116699999961, -24.193962699999936 ], [ -46.794254099999925, -24.193992899999962 ], [ -46.794341699999961, -24.194043 ], [ -46.794430599999941, -24.194086199999965 ], [ -46.794526699999949, -24.194134099999928 ], [ -46.794609299999934, -24.194187899999974 ], [ -46.794692199999986, -24.194248199999937 ], [ -46.794807599999949, -24.194310899999941 ], [ -46.79494649999998, -24.194402199999949 ], [ -46.795013499999982, -24.19447069999995 ], [ -46.795130699999966, -24.194532699999964 ], [ -46.79521809999995, -24.194594699999985 ], [ -46.795270399999943, -24.194677299999956 ], [ -46.795373099999949, -24.194787799999979 ], [ -46.795481199999983, -24.194836599999967 ], [ -46.795561699999951, -24.194876099999934 ], [ -46.795621, -24.19485549999996 ], [ -46.795629, -24.194801099999953 ], [ -46.795591299999955, -24.194755799999939 ], [ -46.795547599999971, -24.194717799999964 ], [ -46.795484199999976, -24.194701499999951 ], [ -46.795436699999982, -24.19467439999994 ], [ -46.795379299999979, -24.194641299999947 ], [ -46.795313799999974, -24.194592499999953 ], [ -46.795278499999931, -24.194509499999974 ], [ -46.795230799999963, -24.194445 ], [ -46.795145599999955, -24.194385 ], [ -46.795075599999954, -24.194352699999957 ], [ -46.795028099999975, -24.194322799999952 ], [ -46.795005799999956, -24.194265599999927 ], [ -46.79495849999995, -24.194213 ], [ -46.794928699999957, -24.194167399999969 ], [ -46.794933899999933, -24.194117399999985 ], [ -46.795011199999976, -24.194076799999937 ], [ -46.795051, -24.194113199999958 ], [ -46.795063399999954, -24.194174699999952 ], [ -46.795115799999962, -24.194209099999963 ], [ -46.795158199999939, -24.194259399999954 ], [ -46.79520579999997, -24.194284699999969 ], [ -46.795274699999936, -24.194276699999929 ], [ -46.795319099999979, -24.194229099999959 ], [ -46.795306699999969, -24.194188499999935 ], [ -46.795241399999952, -24.19416869999997 ], [ -46.795235299999945, -24.194134699999953 ], [ -46.795264799999984, -24.194114199999948 ], [ -46.795309499999973, -24.194123299999951 ], [ -46.795380199999961, -24.194112199999953 ], [ -46.795413, -24.194066 ], [ -46.795371, -24.194023299999966 ], [ -46.795294399999939, -24.193956 ], [ -46.795214599999944, -24.193929299999983 ], [ -46.795171899999957, -24.193874799999943 ], [ -46.795141899999983, -24.193827199999923 ], [ -46.795176199999958, -24.193760199999925 ], [ -46.795278799999956, -24.193666699999934 ], [ -46.795505699999985, -24.193617399999933 ], [ -46.795867899999962, -24.193610699999958 ], [ -46.796304099999986, -24.193667599999973 ], [ -46.796479399999953, -24.193695899999959 ], [ -46.797195699999975, -24.19384 ], [ -46.798182499999939, -24.194132399999951 ], [ -46.799033299999962, -24.194460499999927 ], [ -46.799684599999985, -24.194777599999956 ], [ -46.800006599999961, -24.19496509999993 ], [ -46.800267099999985, -24.1951175 ], [ -46.80074529999996, -24.19547619999997 ], [ -46.800913199999968, -24.195601499999949 ], [ -46.8010369, -24.195736 ], [ -46.801137599999947, -24.19586569999996 ], [ -46.801167899999939, -24.195905099999944 ], [ -46.801167299999982, -24.195939699999926 ], [ -46.80115509999996, -24.195959299999981 ], [ -46.80107419999996, -24.195923699999977 ], [ -46.80099579999996, -24.195943599999978 ], [ -46.800955899999963, -24.19603439999997 ], [ -46.800994399999979, -24.196101499999944 ], [ -46.801042699999982, -24.196150899999964 ], [ -46.80108649999994, -24.196289 ], [ -46.801102499999956, -24.196343499999951 ], [ -46.801089599999962, -24.196453599999931 ], [ -46.801123799999971, -24.196540499999958 ], [ -46.801170499999955, -24.196572299999943 ], [ -46.801202499999924, -24.196644799999948 ], [ -46.801170099999986, -24.196720899999953 ], [ -46.801083299999952, -24.196836899999937 ], [ -46.801076799999969, -24.196896 ], [ -46.8011269, -24.196958699999975 ], [ -46.801218499999941, -24.196979799999944 ], [ -46.80128069999995, -24.196991599999926 ], [ -46.801392499999963, -24.196967799999985 ], [ -46.801476899999955, -24.196909 ], [ -46.801511099999978, -24.196883799999952 ], [ -46.801544399999955, -24.196874599999937 ], [ -46.80161489999994, -24.196839199999946 ], [ -46.801635099999949, -24.19683 ], [ -46.801690499999957, -24.19686489999998 ], [ -46.801736899999987, -24.196847399999953 ], [ -46.801765099999955, -24.196850299999944 ], [ -46.801792499999983, -24.196868199999987 ], [ -46.801824099999983, -24.196922 ], [ -46.801851599999971, -24.196957899999969 ], [ -46.801851799999952, -24.19699409999998 ], [ -46.801839099999938, -24.197010899999956 ], [ -46.801783299999954, -24.197081199999964 ], [ -46.801752699999959, -24.19715 ], [ -46.801660399999953, -24.19724059999993 ], [ -46.801585499999931, -24.197316199999928 ], [ -46.801529, -24.197418499999959 ], [ -46.8015549, -24.197491899999935 ], [ -46.801612499999976, -24.197550699999965 ], [ -46.801717899999979, -24.197577699999961 ], [ -46.801760199999933, -24.197559399999928 ], [ -46.801836099999946, -24.1975993 ], [ -46.801958199999945, -24.197681099999947 ], [ -46.801984899999979, -24.197714099999921 ], [ -46.8019872, -24.197757899999949 ], [ -46.802005399999985, -24.197805799999976 ], [ -46.802071599999977, -24.197864099999943 ], [ -46.802144499999947, -24.197888799999927 ], [ -46.802226099999984, -24.197896699999941 ], [ -46.80230209999997, -24.197860599999949 ], [ -46.80238, -24.197876499999957 ], [ -46.802481, -24.197950399999971 ], [ -46.802560899999946, -24.198045599999951 ], [ -46.802537899999948, -24.198115 ], [ -46.802615799999955, -24.198200499999935 ], [ -46.802689599999951, -24.19821 ], [ -46.802732699999986, -24.198161099999929 ], [ -46.802799299999954, -24.19821079999997 ], [ -46.802868299999943, -24.19821729999995 ], [ -46.802974499999948, -24.198249299999933 ], [ -46.803038899999933, -24.198311399999959 ], [ -46.80313689999997, -24.198313699999972 ], [ -46.803180299999958, -24.198329599999965 ], [ -46.803204499999943, -24.198382799999926 ], [ -46.803239899999944, -24.198417399999975 ], [ -46.803277199999968, -24.19841729999996 ], [ -46.803267199999937, -24.198363899999947 ], [ -46.803315299999952, -24.198339799999928 ], [ -46.803448799999956, -24.198353699999938 ], [ -46.803553499999964, -24.198384599999937 ], [ -46.803655599999956, -24.198348299999964 ], [ -46.803714599999978, -24.198303499999955 ], [ -46.803755, -24.198250399999953 ], [ -46.803829199999939, -24.198239499999932 ], [ -46.803907, -24.198243399999967 ], [ -46.803993699999978, -24.198225199999964 ], [ -46.80407189999994, -24.198171399999975 ], [ -46.804102599999958, -24.198123099999982 ], [ -46.804174, -24.198089299999939 ], [ -46.804245299999934, -24.198087299999948 ], [ -46.804297199999951, -24.198119099999918 ], [ -46.804357399999958, -24.198206399999947 ], [ -46.804411399999942, -24.198281699999928 ], [ -46.804517799999985, -24.198360299999933 ], [ -46.8045949, -24.198454899999941 ], [ -46.804582499999981, -24.198499 ], [ -46.804558599999943, -24.198538599999953 ], [ -46.804570899999931, -24.198642499999938 ], [ -46.804576299999951, -24.198747699999956 ], [ -46.804554399999972, -24.19881619999995 ], [ -46.804508799999951, -24.198826899999958 ], [ -46.804482499999949, -24.198869299999956 ], [ -46.804446499999983, -24.198915699999926 ], [ -46.804441399999973, -24.199031299999952 ], [ -46.804346, -24.199147199999977 ], [ -46.804352299999948, -24.199215099999936 ], [ -46.804418599999956, -24.19923649999998 ], [ -46.804436099999982, -24.199309299999978 ], [ -46.804413599999975, -24.199377499999976 ], [ -46.804456799999969, -24.199448799999967 ], [ -46.804511299999945, -24.199496499999931 ], [ -46.804549, -24.199572 ], [ -46.804601299999945, -24.199583299999965 ], [ -46.804673399999963, -24.199626499999962 ], [ -46.804652799999985, -24.199689799999934 ], [ -46.804651899999961, -24.199748299999957 ], [ -46.804671799999937, -24.199825799999939 ], [ -46.80464029999996, -24.199875699999946 ], [ -46.804653, -24.199919599999944 ], [ -46.804728099999984, -24.199983199999959 ], [ -46.804753399999981, -24.200036199999932 ], [ -46.804795699999943, -24.200058499999955 ], [ -46.804798199999937, -24.200060799999967 ], [ -46.804793899999943, -24.200121599999939 ], [ -46.804750899999931, -24.200218399999979 ], [ -46.804778899999981, -24.20030719999993 ], [ -46.804812499999969, -24.200358799999936 ], [ -46.804896699999972, -24.200386699999974 ], [ -46.804988599999952, -24.20041789999993 ], [ -46.805103899999956, -24.200425099999954 ], [ -46.80520329999996, -24.200418499999952 ], [ -46.805345199999977, -24.20050069999996 ], [ -46.805499499999939, -24.200521299999931 ], [ -46.805597299999938, -24.20054179999995 ], [ -46.805645499999969, -24.200648199999932 ], [ -46.805736499999959, -24.200679699999963 ], [ -46.805868099999948, -24.200689499999942 ], [ -46.805925, -24.200650899999975 ], [ -46.806005099999943, -24.200679199999971 ], [ -46.806091299999935, -24.200710399999938 ], [ -46.806145099999988, -24.200719699999983 ], [ -46.806198599999959, -24.200768 ], [ -46.806256699999949, -24.200726199999949 ], [ -46.806339799999932, -24.200770799999933 ], [ -46.806378299999956, -24.200715299999956 ], [ -46.806478599999942, -24.200740399999965 ], [ -46.806556899999975, -24.200759399999971 ], [ -46.806613399999947, -24.200806799999945 ], [ -46.806681099999942, -24.20084 ], [ -46.806740499999933, -24.200859599999937 ], [ -46.806793, -24.200863099999932 ], [ -46.806828, -24.200914799999957 ], [ -46.806905299999983, -24.200859599999937 ], [ -46.806987399999976, -24.200845899999926 ], [ -46.807058899999966, -24.200856199999979 ], [ -46.807117, -24.200918299999952 ], [ -46.807199299999979, -24.200911399999935 ], [ -46.807247099999977, -24.200979 ], [ -46.807298299999964, -24.200985199999931 ], [ -46.807362499999954, -24.20101139999997 ], [ -46.807413899999979, -24.201012099999943 ], [ -46.807399599999947, -24.200977099999935 ], [ -46.807436099999968, -24.200966299999944 ], [ -46.807494, -24.200997 ], [ -46.8075257, -24.200962299999954 ], [ -46.807559599999934, -24.200964599999956 ], [ -46.807622399999957, -24.200973499999957 ], [ -46.807673, -24.200973599999955 ], [ -46.807721099999974, -24.200937 ], [ -46.807776599999954, -24.200969699999977 ], [ -46.807827299999978, -24.201017199999967 ], [ -46.807854299999974, -24.201054699999933 ], [ -46.807813599999974, -24.201096199999942 ], [ -46.807833299999963, -24.201142299999962 ], [ -46.807881799999961, -24.201153399999946 ], [ -46.807951799999955, -24.201138099999973 ], [ -46.808070499999985, -24.201138099999984 ], [ -46.808092599999952, -24.201153499999979 ], [ -46.808083599999982, -24.201188699999928 ], [ -46.808113399999968, -24.20121969999996 ], [ -46.808186499999977, -24.20122189999995 ], [ -46.808202399999971, -24.201272899999928 ], [ -46.808177899999976, -24.201311399999952 ], [ -46.808209499999975, -24.201362299999971 ], [ -46.808305899999944, -24.20131079999992 ], [ -46.808361299999945, -24.201286299999939 ], [ -46.808402, -24.201333199999965 ], [ -46.808455, -24.201378 ], [ -46.808556299999964, -24.20137659999995 ], [ -46.808634499999982, -24.201341699999936 ], [ -46.80872329999994, -24.201319299999966 ], [ -46.808782299999962, -24.201246599999926 ], [ -46.808834199999978, -24.201184599999976 ], [ -46.808946, -24.201182399999922 ], [ -46.808999599999936, -24.20110989999996 ], [ -46.80909649999996, -24.201078499999937 ], [ -46.809155, -24.201029499999937 ], [ -46.809181099999932, -24.200976599999933 ], [ -46.809280799999954, -24.200963499999947 ], [ -46.809310599999947, -24.200909699999951 ], [ -46.809399099999958, -24.200873599999955 ], [ -46.809451199999955, -24.200916299999967 ], [ -46.809488199999976, -24.200955099999923 ], [ -46.809534, -24.201006199999942 ], [ -46.809631199999956, -24.201047399999936 ], [ -46.809705, -24.201051299999964 ], [ -46.809769299999971, -24.201054 ], [ -46.809815199999953, -24.201028799999957 ], [ -46.809845799999948, -24.200992699999961 ], [ -46.809884199999949, -24.200958 ], [ -46.809927899999934, -24.200979699999937 ], [ -46.809987099999951, -24.200988399999964 ], [ -46.810021699999929, -24.201010599999954 ], [ -46.810072199999986, -24.20099949999997 ], [ -46.81012, -24.201014899999958 ], [ -46.810169099999939, -24.200993599999954 ], [ -46.810195799999974, -24.201045099999938 ], [ -46.810184299999946, -24.201100699999976 ], [ -46.810199699999941, -24.201162699999937 ], [ -46.810210799999936, -24.201197799999932 ], [ -46.810253699999976, -24.201212499999937 ], [ -46.810301299999942, -24.20119 ], [ -46.810315, -24.201148699999976 ], [ -46.810373799999979, -24.201155199999956 ], [ -46.810387699999978, -24.201116699999947 ], [ -46.810365, -24.201095299999949 ], [ -46.810318799999955, -24.201058699999987 ], [ -46.810306499999967, -24.201005099999982 ], [ -46.81029429999996, -24.200967199999965 ], [ -46.810277399999961, -24.20093409999998 ], [ -46.8102866, -24.200897 ], [ -46.810309699999948, -24.200878699999976 ], [ -46.81031349999995, -24.200840599999935 ], [ -46.810345899999959, -24.200842099999925 ], [ -46.810385899999979, -24.200786599999962 ], [ -46.810425799999962, -24.200750199999955 ], [ -46.810452399999981, -24.20072069999998 ], [ -46.810444599999983, -24.200698399999961 ], [ -46.81045789999996, -24.200676 ], [ -46.810549499999972, -24.200644199999935 ], [ -46.810690199999954, -24.200649399999971 ], [ -46.810855699999934, -24.200705199999966 ], [ -46.811021899999965, -24.200849 ], [ -46.811125199999935, -24.201051099999965 ], [ -46.811159399999958, -24.201250899999938 ], [ -46.811115499999971, -24.201342899999933 ], [ -46.811054599999984, -24.201390099999966 ], [ -46.810972399999976, -24.201379299999928 ], [ -46.810892199999962, -24.201406299999977 ], [ -46.810814299999947, -24.201433199999936 ], [ -46.810738899999933, -24.20144769999996 ], [ -46.810702199999987, -24.201474599999983 ], [ -46.810718, -24.201522299999965 ], [ -46.810756699999956, -24.201561799999979 ], [ -46.810852599999976, -24.201653699999945 ], [ -46.810859399999977, -24.201696899999938 ], [ -46.810832399999981, -24.20172159999991 ], [ -46.810740599999974, -24.201684199999931 ], [ -46.810640399999954, -24.201619599999962 ], [ -46.81057949999996, -24.201534499999966 ], [ -46.810527599999944, -24.201485299999934 ], [ -46.810451499999935, -24.2014703 ], [ -46.810408299999942, -24.201462 ], [ -46.810351499999967, -24.201490799999924 ], [ -46.810321699999974, -24.20155689999995 ], [ -46.810319299999946, -24.201612699999938 ], [ -46.810354299999972, -24.201633 ], [ -46.810382799999957, -24.201684499999946 ], [ -46.810410599999962, -24.201748099999975 ], [ -46.810385799999949, -24.201814399999925 ], [ -46.810420499999964, -24.201886099999978 ], [ -46.810439799999983, -24.2019754 ], [ -46.810489299999979, -24.202017099999967 ], [ -46.810568899999964, -24.202009 ], [ -46.810609299999953, -24.201929699999944 ], [ -46.810645499999971, -24.201931899999973 ], [ -46.81064089999996, -24.201890599999953 ], [ -46.810677, -24.201876199999944 ], [ -46.810726799999948, -24.201923699999949 ], [ -46.810787899999987, -24.201983599999934 ], [ -46.810867, -24.201971199999935 ], [ -46.810952799999946, -24.201962899999955 ], [ -46.811043299999945, -24.202004299999945 ], [ -46.811145, -24.202012499999963 ], [ -46.811206099999943, -24.202024899999969 ], [ -46.811278799999968, -24.202045799999951 ], [ -46.811301599999972, -24.20210979999996 ], [ -46.811249699999962, -24.202140799999928 ], [ -46.811120599999988, -24.202181399999969 ], [ -46.811050499999958, -24.202160799999948 ], [ -46.810994199999989, -24.20220629999994 ], [ -46.811016599999959, -24.202251499999914 ], [ -46.811064099999953, -24.202296899999965 ], [ -46.811118399999934, -24.202323699999972 ], [ -46.811152299999947, -24.202296899999961 ], [ -46.811197499999935, -24.202323699999955 ], [ -46.811202099999953, -24.202373299999969 ], [ -46.811285799999951, -24.202410399999955 ], [ -46.811407899999956, -24.202495 ], [ -46.811525599999989, -24.202517699999927 ], [ -46.81164769999998, -24.202519799999951 ], [ -46.811731399999985, -24.202505299999928 ], [ -46.811842099999986, -24.20250249999998 ], [ -46.811906199999953, -24.202545799999935 ], [ -46.811975, -24.202573899999951 ], [ -46.812062699999963, -24.202500399999952 ], [ -46.8121647, -24.202418299999984 ], [ -46.812187799999954, -24.20234749999997 ], [ -46.81214, -24.202311699999949 ], [ -46.81205319999998, -24.20232169999996 ], [ -46.811998299999971, -24.202340299999946 ], [ -46.811956899999984, -24.202386 ], [ -46.811915699999986, -24.202407299999958 ], [ -46.811884799999966, -24.202405199999934 ], [ -46.811854, -24.20239 ], [ -46.811835799999983, -24.202358499999953 ], [ -46.811856599999935, -24.202298099999958 ], [ -46.811831699999971, -24.202239599999931 ], [ -46.811765499999979, -24.202189299999926 ], [ -46.811770299999985, -24.202149699999946 ], [ -46.811741499999982, -24.20212249999998 ], [ -46.811772799999972, -24.202097 ], [ -46.8118166, -24.202054499999978 ], [ -46.811934899999983, -24.202012299999986 ], [ -46.811978399999937, -24.202046599999967 ], [ -46.811991399999954, -24.20202629999994 ], [ -46.811988899999967, -24.201993799999968 ], [ -46.812034299999944, -24.201973 ], [ -46.81206549999996, -24.20191339999997 ], [ -46.81198779999994, -24.201796399999985 ], [ -46.811925599999938, -24.201716499999975 ], [ -46.811854099999948, -24.201670799999935 ], [ -46.811799699999938, -24.201638099999972 ], [ -46.811778699999941, -24.201566099999976 ], [ -46.811800799999965, -24.201450399999928 ], [ -46.81195289999993, -24.201332499999982 ], [ -46.812220599999932, -24.201224399999937 ], [ -46.81244449999997, -24.201134 ], [ -46.8131456, -24.201045799999978 ], [ -46.813862899999947, -24.201075199999941 ], [ -46.814620399999967, -24.201251599999985 ], [ -46.8150184, -24.201390899999979 ], [ -46.815313499999952, -24.201494199999953 ], [ -46.81635719999997, -24.202047099999955 ], [ -46.820111599999969, -24.204142399999959 ], [ -46.820292599999959, -24.204243399999942 ], [ -46.825925899999959, -24.207522199999978 ], [ -46.829666699999962, -24.209699499999953 ], [ -46.833414699999935, -24.211881 ], [ -46.83667829999996, -24.213780499999924 ], [ -46.838, -24.214549799999933 ], [ -46.839965, -24.215693499999933 ], [ -46.8434372, -24.217714399999984 ], [ -46.84462549999995, -24.218406099999985 ], [ -46.848735299999937, -24.220992799999966 ], [ -46.850478199999948, -24.222089899999972 ], [ -46.853314799999957, -24.223875299999971 ], [ -46.854915099999971, -24.224930099999938 ], [ -46.857230799999961, -24.226456699999972 ], [ -46.859785799999941, -24.228141 ], [ -46.860834299999958, -24.228832099999963 ], [ -46.862179599999934, -24.229719 ], [ -46.862464799999941, -24.229897399999967 ], [ -46.863703299999941, -24.230672299999984 ], [ -46.866428599999949, -24.232377399999965 ], [ -46.869038299999943, -24.234010199999943 ], [ -46.871824, -24.235753099999954 ], [ -46.874431399999942, -24.237401599999934 ], [ -46.877755099999945, -24.239502799999968 ], [ -46.878312599999951, -24.239855299999927 ], [ -46.878936599999967, -24.240249799999951 ], [ -46.882111599999973, -24.242397199999974 ], [ -46.883811599999937, -24.243546899999952 ], [ -46.885142099999939, -24.244446799999938 ], [ -46.887235399999945, -24.246010799999961 ], [ -46.888371099999972, -24.246859399999956 ], [ -46.89137119999998, -24.248866299999968 ], [ -46.893718499999984, -24.250436499999967 ], [ -46.897632699999974, -24.252918 ], [ -46.897856199999978, -24.252745399999974 ], [ -46.900926399999953, -24.250478699999974 ], [ -46.901263799999981, -24.250229599999948 ], [ -46.902751, -24.249131699999964 ], [ -46.903343399999983, -24.248694299999954 ], [ -46.904794799999941, -24.247622699999965 ], [ -46.905162299999979, -24.247351399999953 ], [ -46.905476299999975, -24.247119599999966 ] ], [ [ -46.803834, -24.156302399999969 ], [ -46.803683599999943, -24.156440199999974 ], [ -46.803247599999963, -24.15623039999997 ], [ -46.803057499999966, -24.156075699999981 ], [ -46.8028384, -24.155995199999936 ], [ -46.802696699999956, -24.155904899999939 ], [ -46.802577499999984, -24.15578249999993 ], [ -46.802455, -24.15563109999993 ], [ -46.80230679999994, -24.155357199999976 ], [ -46.802212099999963, -24.155215799999951 ], [ -46.802061899999956, -24.155083299999944 ], [ -46.801841299999971, -24.154965199999936 ], [ -46.801575399999933, -24.15489 ], [ -46.801266099999964, -24.154844899999947 ], [ -46.80096, -24.154809499999939 ], [ -46.800428399999937, -24.154822299999971 ], [ -46.80013519999995, -24.154873899999931 ], [ -46.799871, -24.154902899999961 ], [ -46.799513299999951, -24.154886799999929 ], [ -46.79908, -24.154817399999949 ], [ -46.798770499999932, -24.154675799999946 ], [ -46.798554199999955, -24.154403299999959 ], [ -46.798456499999986, -24.154045799999949 ], [ -46.798475799999949, -24.153552899999958 ], [ -46.798607899999979, -24.153159799999962 ], [ -46.798685699999965, -24.152985199999932 ], [ -46.798778699999964, -24.152776399999933 ], [ -46.799061799999947, -24.152420599999974 ], [ -46.799413399999935, -24.152156199999986 ], [ -46.799817499999968, -24.152041699999934 ], [ -46.800318799999957, -24.15204169999992 ], [ -46.800763499999952, -24.152083599999962 ], [ -46.801140399999959, -24.152173799999957 ], [ -46.801486799999971, -24.152365099999937 ], [ -46.801668799999966, -24.152508899999933 ], [ -46.801797699999959, -24.152721599999943 ], [ -46.801900799999942, -24.152895599999965 ], [ -46.801965299999949, -24.153140399999927 ], [ -46.801987799999949, -24.153301499999937 ], [ -46.802090899999946, -24.153633399999936 ], [ -46.802171499999986, -24.153936299999945 ], [ -46.802268099999935, -24.15413609999996 ], [ -46.80240989999993, -24.15426169999995 ], [ -46.802600599999955, -24.154340199999979 ], [ -46.802923799999967, -24.154614399999957 ], [ -46.803105899999935, -24.154851299999958 ], [ -46.803337899999974, -24.15505429999995 ], [ -46.803534399999933, -24.155160699999964 ], [ -46.803711599999986, -24.155260499999933 ], [ -46.803957199999957, -24.15549169999997 ], [ -46.804335299999934, -24.155964 ], [ -46.804059499999937, -24.156114399999982 ], [ -46.803834, -24.156302399999969 ] ], [ [ -46.805834199999943, -24.167967099999931 ], [ -46.806642499999953, -24.167594499999957 ], [ -46.80720139999994, -24.167190299999966 ], [ -46.80778619999996, -24.166479499999976 ], [ -46.808233299999984, -24.16583739999993 ], [ -46.808325, -24.165367399999983 ], [ -46.808302099999935, -24.164817 ], [ -46.808221899999978, -24.163991499999959 ], [ -46.808049899999958, -24.162936699999939 ], [ -46.807866399999966, -24.162271699999955 ], [ -46.807602699999961, -24.161881899999962 ], [ -46.807728799999957, -24.161228399999963 ], [ -46.808164499999968, -24.160815599999985 ], [ -46.80873779999996, -24.160540399999956 ], [ -46.809414299999958, -24.160540399999952 ], [ -46.810067799999956, -24.160735399999965 ], [ -46.8107098, -24.161171 ], [ -46.811145499999952, -24.161687 ], [ -46.811535299999946, -24.162237299999958 ], [ -46.811764699999962, -24.162879399999955 ], [ -46.811948099999938, -24.16355579999998 ], [ -46.811959599999966, -24.164163499999979 ], [ -46.811753199999941, -24.164851399999971 ], [ -46.811592699999956, -24.165631099999921 ], [ -46.811661499999957, -24.16645659999994 ], [ -46.811810499999979, -24.167224699999959 ], [ -46.812131499999957, -24.167740699999971 ], [ -46.81274209999998, -24.168540399999976 ], [ -46.813269499999933, -24.168999 ], [ -46.813665, -24.16932 ], [ -46.814536399999952, -24.169755699999943 ], [ -46.81553729999996, -24.1700322 ], [ -46.815574, -24.170042399999939 ], [ -46.81656, -24.170105399999962 ], [ -46.816909699999947, -24.170128299999934 ], [ -46.817230799999948, -24.170225799999965 ], [ -46.817603399999939, -24.170529599999941 ], [ -46.818136499999987, -24.170971099999974 ], [ -46.81853209999997, -24.171441099999981 ], [ -46.818686899999925, -24.171848199999946 ], [ -46.818738499999938, -24.172272399999947 ], [ -46.818639, -24.172634899999927 ], [ -46.818560699999978, -24.172920199999965 ], [ -46.818142299999977, -24.173407399999977 ], [ -46.817540299999962, -24.173854599999967 ], [ -46.816853499999986, -24.174336099999948 ], [ -46.816314599999949, -24.174703 ], [ -46.815837299999941, -24.17498 ], [ -46.814993, -24.175469799999963 ], [ -46.814133699999957, -24.17585709999997 ], [ -46.813388699999962, -24.17606359999996 ], [ -46.81310069999995, -24.176142299999981 ], [ -46.81212, -24.176521 ], [ -46.811360199999974, -24.176616899999935 ], [ -46.811391499999957, -24.178343799999922 ], [ -46.808031199999959, -24.178317299999939 ], [ -46.808046899999965, -24.181028099999917 ], [ -46.808021099999962, -24.181066599999951 ], [ -46.812167099999954, -24.181003699999952 ], [ -46.81235879999997, -24.181037499999935 ], [ -46.812330199999963, -24.181126899999974 ], [ -46.811513699999978, -24.183677799999945 ], [ -46.811432299999979, -24.183488499999957 ], [ -46.811330499999933, -24.183484399999941 ], [ -46.811127099999965, -24.183636799999924 ], [ -46.810947799999951, -24.183732399999936 ], [ -46.810864199999969, -24.183804099999975 ], [ -46.810696899999982, -24.183792099999941 ], [ -46.81045789999996, -24.183732399999933 ], [ -46.81027679999994, -24.183723399999955 ], [ -46.810120899999959, -24.183796199999957 ], [ -46.810058499999968, -24.18399369999997 ], [ -46.809757, -24.184139199999951 ], [ -46.809601099999952, -24.184253599999977 ], [ -46.809247699999958, -24.184399099999947 ], [ -46.809075699999944, -24.184611799999963 ], [ -46.808905399999965, -24.184919099999949 ], [ -46.808819899999953, -24.18535879999995 ], [ -46.808616399999941, -24.185599 ], [ -46.808518699999986, -24.185680399999953 ], [ -46.808384299999943, -24.185798399999957 ], [ -46.808225599999965, -24.18596939999998 ], [ -46.808229599999947, -24.186136299999934 ], [ -46.808298799999932, -24.186299199999947 ], [ -46.808122499999968, -24.187025099999982 ], [ -46.808020799999952, -24.187115399999982 ], [ -46.807476499999957, -24.187410599999957 ], [ -46.8073869, -24.18745129999996 ], [ -46.807281099999955, -24.187504199999978 ], [ -46.807159, -24.187606 ], [ -46.807097899999974, -24.187740299999966 ], [ -46.807093799999954, -24.187903199999944 ], [ -46.807122299999946, -24.188123 ], [ -46.8072241, -24.188363199999969 ], [ -46.807284, -24.188556899999984 ], [ -46.807321799999954, -24.18864409999998 ], [ -46.8071427, -24.188721399999963 ], [ -46.806933799999968, -24.188779499999953 ], [ -46.806774, -24.188937199999938 ], [ -46.806675899999959, -24.188948299999939 ], [ -46.806560399999967, -24.189047399999939 ], [ -46.80632989999998, -24.189175499999973 ], [ -46.806253099999942, -24.189252299999964 ], [ -46.806201899999962, -24.189533899999951 ], [ -46.806125099999967, -24.189726 ], [ -46.805997099999963, -24.189879599999976 ], [ -46.805805, -24.189918 ], [ -46.805728199999976, -24.190097199999961 ], [ -46.805805, -24.190378899999928 ], [ -46.805923899999982, -24.190347699999954 ], [ -46.806086599999965, -24.190721 ], [ -46.806265899999971, -24.190878199999926 ], [ -46.806483499999956, -24.191019 ], [ -46.806657099999946, -24.191200899999963 ], [ -46.806894399999983, -24.191179499999972 ], [ -46.80705439999997, -24.191038199999984 ], [ -46.807161, -24.190955599999938 ], [ -46.807473, -24.191027599999924 ], [ -46.807691599999941, -24.191110199999962 ], [ -46.807966199999953, -24.191270199999948 ], [ -46.807984899999951, -24.191432799999966 ], [ -46.80788089999993, -24.19178739999996 ], [ -46.807710299999947, -24.19200869999997 ], [ -46.806176399999963, -24.191054 ], [ -46.804556099999964, -24.190101599999927 ], [ -46.8038916, -24.189785399999948 ], [ -46.802635, -24.189218899999958 ], [ -46.8021998, -24.189062199999956 ], [ -46.801982499999959, -24.188981799999972 ], [ -46.801653499999986, -24.188894799999943 ], [ -46.801567899999952, -24.188882099999955 ], [ -46.80108579999996, -24.188881199999965 ], [ -46.800933399999963, -24.188901 ], [ -46.800708399999969, -24.188947299999938 ], [ -46.800246199999947, -24.189043799999965 ], [ -46.799723599999936, -24.189162099999962 ], [ -46.799421099999968, -24.189156099999934 ], [ -46.799113299999938, -24.189136699999946 ], [ -46.798974399999963, -24.189111899999933 ], [ -46.798865, -24.189081199999968 ], [ -46.798656199999989, -24.188992799999944 ], [ -46.798168399999952, -24.188704899999937 ], [ -46.797964699999966, -24.188599699999944 ], [ -46.797545899999932, -24.188386599999941 ], [ -46.798017699999946, -24.186774899999921 ], [ -46.797594099999976, -24.185922599999973 ], [ -46.797183099999984, -24.18474139999994 ], [ -46.796709599999986, -24.183034599999928 ], [ -46.796720799999953, -24.182632399999932 ], [ -46.796368599999944, -24.181317099999944 ], [ -46.796348099999932, -24.181240499999941 ], [ -46.796344399999953, -24.18122239999996 ], [ -46.796323, -24.181138399999956 ], [ -46.796282899999937, -24.180975099999941 ], [ -46.796353899999986, -24.180584499999949 ], [ -46.796567, -24.180099099999943 ], [ -46.796709, -24.179838699999955 ], [ -46.796981299999963, -24.179554599999953 ], [ -46.797158799999984, -24.179306 ], [ -46.797383699999955, -24.179175799999932 ], [ -46.797715199999978, -24.178998299999929 ], [ -46.797963799999934, -24.178844399999946 ], [ -46.798188699999976, -24.178737799999965 ], [ -46.798389899999961, -24.178666799999966 ], [ -46.798567499999933, -24.178583899999975 ], [ -46.798780599999937, -24.178501099999952 ], [ -46.799005499999964, -24.178406399999965 ], [ -46.799230399999949, -24.17832349999998 ], [ -46.799490799999944, -24.178217 ], [ -46.799774899999939, -24.178098599999942 ], [ -46.800106399999947, -24.178003899999968 ], [ -46.800473299999958, -24.17785 ], [ -46.80094679999997, -24.177696099999935 ], [ -46.801278299999986, -24.177577799999945 ], [ -46.801657099999943, -24.177435699999922 ], [ -46.801913899999938, -24.177293399999932 ], [ -46.802337199999961, -24.176985899999977 ], [ -46.802634299999966, -24.17677 ], [ -46.803053899999959, -24.176465 ], [ -46.803409, -24.176062599999955 ], [ -46.803503699999965, -24.175683799999952 ], [ -46.80352739999995, -24.175411499999949 ], [ -46.803468199999948, -24.175127399999958 ], [ -46.803385399999975, -24.174831499999982 ], [ -46.803255099999937, -24.174630199999964 ], [ -46.802971, -24.174346099999987 ], [ -46.802758, -24.174215899999975 ], [ -46.80254489999993, -24.174014699999926 ], [ -46.802284499999985, -24.173813399999979 ], [ -46.801893799999959, -24.173600399999945 ], [ -46.801574199999948, -24.173363599999956 ], [ -46.801112599999961, -24.17299659999998 ], [ -46.800781099999931, -24.172629699999963 ], [ -46.801029699999958, -24.172061499999923 ], [ -46.801365, -24.171704799999937 ], [ -46.801741, -24.171366399999961 ], [ -46.802054299999959, -24.170990499999956 ], [ -46.80254309999998, -24.170476599999958 ], [ -46.802843899999978, -24.170175899999943 ], [ -46.803157199999937, -24.16974979999998 ], [ -46.803407899999975, -24.169373799999956 ], [ -46.803632499999935, -24.168951599999946 ], [ -46.803884899999957, -24.168488 ], [ -46.804137299999979, -24.16802449999993 ], [ -46.805289599999988, -24.168185 ], [ -46.805834199999943, -24.167967099999931 ] ], [ [ -46.84178419999995, -24.176530399999937 ], [ -46.84111379999996, -24.177128299999936 ], [ -46.840479599999988, -24.177327699999971 ], [ -46.839827299999968, -24.177345799999951 ], [ -46.838794399999983, -24.177037699999975 ], [ -46.838341399999933, -24.176829399999963 ], [ -46.838042399999956, -24.176476 ], [ -46.837825, -24.175841799999933 ], [ -46.837690799999962, -24.175178699999947 ], [ -46.838163799999961, -24.174797599999966 ], [ -46.839760099999978, -24.173715399999949 ], [ -46.840950699999951, -24.174283499999945 ], [ -46.84184769999996, -24.174854199999974 ], [ -46.842119499999967, -24.175551899999952 ], [ -46.842092299999933, -24.176077399999944 ], [ -46.84178419999995, -24.176530399999937 ] ], [ [ -46.822751899999957, -24.164611899999951 ], [ -46.822754, -24.164607799999931 ], [ -46.822767299999953, -24.164572 ], [ -46.822772499999985, -24.164513399999969 ], [ -46.822771399999972, -24.164350899999924 ], [ -46.822863599999948, -24.164245899999969 ], [ -46.823141199999952, -24.164263899999977 ], [ -46.824350699999968, -24.164483799999978 ], [ -46.82552359999994, -24.164996899999959 ], [ -46.82548689999993, -24.165335899999942 ], [ -46.82525789999994, -24.165894899999959 ], [ -46.825092899999966, -24.166004799999932 ], [ -46.82500669999996, -24.166044699999922 ], [ -46.82473379999994, -24.166176099999984 ], [ -46.824653799999965, -24.166164 ], [ -46.824599399999954, -24.166102099999939 ], [ -46.824588899999981, -24.166043199999937 ], [ -46.824554099999943, -24.165988899999935 ], [ -46.823421599999968, -24.164987699999987 ], [ -46.823201199999971, -24.164907699999958 ], [ -46.822932399999956, -24.164863899999943 ], [ -46.822724799999946, -24.164868599999981 ], [ -46.822708, -24.164795799999972 ], [ -46.822714799999964, -24.164714199999938 ], [ -46.822723399999973, -24.164654799999926 ], [ -46.822723899999971, -24.164652199999974 ], [ -46.822724799999953, -24.164649399999981 ], [ -46.82272839999996, -24.164643399999935 ], [ -46.822747, -24.164619099999975 ], [ -46.822749399999964, -24.164615699999967 ], [ -46.822751899999957, -24.164611899999951 ] ] ], [ [ [ -46.806656, -23.939926 ], [ -46.806423399999971, -23.94018589999996 ], [ -46.806197299999944, -23.940406499999934 ], [ -46.805997499999933, -23.940570499999975 ], [ -46.805845099999942, -23.940713699999943 ], [ -46.805676199999937, -23.94085369999992 ], [ -46.805550899999957, -23.940973799999941 ], [ -46.805415499999988, -23.941068199999954 ], [ -46.805205799999953, -23.94118309999994 ], [ -46.80508269999995, -23.941300099999971 ], [ -46.804996499999966, -23.941394199999944 ], [ -46.804817399999941, -23.94161339999993 ], [ -46.804609599999942, -23.941823 ], [ -46.804354599999954, -23.941961899999971 ], [ -46.804304799999954, -23.942143099999956 ], [ -46.804135599999938, -23.94233 ], [ -46.803838499999983, -23.942608199999949 ], [ -46.803749399999958, -23.942718799999977 ], [ -46.803670299999965, -23.94297 ], [ -46.80362949999995, -23.943165899999933 ], [ -46.803827099999978, -23.943748499999966 ], [ -46.803917, -23.943951699999953 ], [ -46.803893899999935, -23.944194599999943 ], [ -46.80465229999993, -23.944203199999944 ], [ -46.804952, -23.944268699999952 ], [ -46.805783599999984, -23.944213799999943 ], [ -46.806129899999966, -23.944175699999963 ], [ -46.806681099999935, -23.944204799999969 ], [ -46.8070259, -23.944059599999942 ], [ -46.807394399999964, -23.944218099999947 ], [ -46.807191599999953, -23.944442199999965 ], [ -46.807300399999974, -23.944943199999955 ], [ -46.807191299999943, -23.945603899999981 ], [ -46.806956099999979, -23.946016599999954 ], [ -46.806460099999988, -23.946955499999934 ], [ -46.806152799999957, -23.946985399999964 ], [ -46.805764199999942, -23.947317099999971 ], [ -46.805466799999977, -23.948031399999945 ], [ -46.806153299999949, -23.94858389999996 ], [ -46.80802319999998, -23.949693699999955 ], [ -46.808965199999932, -23.950389599999937 ], [ -46.809637699999939, -23.951269699999951 ], [ -46.810277199999973, -23.951290799999988 ], [ -46.810324899999955, -23.95139659999996 ], [ -46.810372599999944, -23.951487599999947 ], [ -46.811081399999978, -23.953133599999941 ], [ -46.811571, -23.953532599999953 ], [ -46.812306, -23.955012 ], [ -46.812547099999961, -23.955479 ], [ -46.812570099999959, -23.95572159999994 ], [ -46.812572399999965, -23.955720499999934 ], [ -46.812573799999946, -23.955719799999933 ], [ -46.812576, -23.95571839999997 ], [ -46.812798599999951, -23.955569699999955 ], [ -46.812801699999966, -23.955567799999979 ], [ -46.813119799999988, -23.955378099999951 ], [ -46.813121199999955, -23.95537719999993 ], [ -46.813122899999946, -23.955376 ], [ -46.813124699999946, -23.955374599999971 ], [ -46.813424499999947, -23.955119299999975 ], [ -46.813427699999977, -23.955116699999959 ], [ -46.813431599999944, -23.955113899999951 ], [ -46.813435599999941, -23.955111399999968 ], [ -46.813439899999935, -23.955109199999985 ], [ -46.813444199999935, -23.955107199999929 ], [ -46.813448699999981, -23.955105499999942 ], [ -46.813453299999942, -23.955104 ], [ -46.813458, -23.955102899999925 ], [ -46.813462199999947, -23.95510209999998 ], [ -46.813642199999954, -23.955072899999944 ], [ -46.813647399999972, -23.955072199999947 ], [ -46.813652699999984, -23.95507189999995 ], [ -46.813945299999943, -23.955065699999984 ], [ -46.813949299999933, -23.955065799999947 ], [ -46.813954199999955, -23.955066 ], [ -46.813959, -23.955066599999949 ], [ -46.813963699999938, -23.955067499999924 ], [ -46.814193, -23.955115699999965 ], [ -46.81419649999998, -23.955116299999919 ], [ -46.814453799999974, -23.95515 ], [ -46.814455299999963, -23.955150199999927 ], [ -46.814460099999962, -23.955151 ], [ -46.814464799999939, -23.955152199999922 ], [ -46.814468899999952, -23.955153399999976 ], [ -46.814879, -23.955326599999982 ], [ -46.815008099999943, -23.955351199999935 ], [ -46.8150725, -23.955217599999973 ], [ -46.815290199999936, -23.954925599999967 ], [ -46.815415, -23.954624699999957 ], [ -46.815740399999981, -23.955089099999952 ], [ -46.81618009999994, -23.955545299999986 ], [ -46.816988299999942, -23.955767899999948 ], [ -46.817126, -23.955708 ], [ -46.817641899999956, -23.955507299999965 ], [ -46.818325199999954, -23.955496399999955 ], [ -46.818854, -23.955833099999953 ], [ -46.819454199999939, -23.956240299999926 ], [ -46.820042399999977, -23.956316299999962 ], [ -46.820387099999948, -23.956126299999923 ], [ -46.821016899999961, -23.956034 ], [ -46.821147599999961, -23.955816799999987 ], [ -46.821609899999935, -23.955206899999947 ], [ -46.822277699999972, -23.955393399999938 ], [ -46.822924299999954, -23.955518099999953 ], [ -46.82302859999993, -23.955157199999974 ], [ -46.823132699999981, -23.954594499999924 ], [ -46.823235899999986, -23.953921299999941 ], [ -46.82297669999997, -23.9532948 ], [ -46.823267899999962, -23.952847799999976 ], [ -46.823618, -23.952751099999933 ], [ -46.823932499999962, -23.952777199999943 ], [ -46.824277, -23.952771 ], [ -46.824800899999957, -23.952711699999949 ], [ -46.825149, -23.952449499999947 ], [ -46.825398799999959, -23.952239199999958 ], [ -46.825623, -23.951713 ], [ -46.825723399999958, -23.951426499999961 ], [ -46.825799099999983, -23.951283799999942 ], [ -46.825352699999939, -23.951344399999986 ], [ -46.824954799999944, -23.951641399999975 ], [ -46.824560499999961, -23.951518 ], [ -46.824299099999962, -23.951330299999935 ], [ -46.823852799999948, -23.951318399999924 ], [ -46.823481399999942, -23.951027699999937 ], [ -46.822872199999949, -23.950702799999938 ], [ -46.822451099999967, -23.950673399999971 ], [ -46.82214189999997, -23.950526 ], [ -46.821807299999939, -23.950346799999988 ], [ -46.821517, -23.950061 ], [ -46.821379, -23.949611 ], [ -46.821333399999958, -23.949232899999963 ], [ -46.821329699999971, -23.948897299999938 ], [ -46.821044399999948, -23.948742599999949 ], [ -46.820763, -23.948802 ], [ -46.820376699999933, -23.948716499999939 ], [ -46.820198799999957, -23.948498599999944 ], [ -46.819851, -23.948229499999979 ], [ -46.819489, -23.94810049999996 ], [ -46.819165, -23.948007499999949 ], [ -46.818614, -23.947908 ], [ -46.818272, -23.947795 ], [ -46.817827, -23.947713 ], [ -46.817818599999953, -23.947656 ], [ -46.817234799999937, -23.943545399999959 ], [ -46.815562099999973, -23.940728399999948 ], [ -46.813552499999957, -23.939846399999954 ], [ -46.808705599999939, -23.940087899999984 ], [ -46.807657699999943, -23.939976899999976 ], [ -46.807224499999968, -23.93987119999997 ], [ -46.806939199999931, -23.93970219999995 ], [ -46.806717299999953, -23.939374699999984 ], [ -46.806731499999962, -23.939731699999985 ], [ -46.806656, -23.939926 ] ] ] ] } }
]
}
