{
"type": "FeatureCollection",
"name": "3524600",
"crs": { "type": "name", "properties": { "name": "urn:ogc:def:crs:OGC:1.3:CRS84" } },
"features": [
{ "type": "Feature", "properties": { "CD_MUN": "3524600", "NM_MUN": "Jacupiranga" }, "geometry": { "type": "Polygon", "coordinates": [ [ [ -48.009646, -24.718128 ], [ -48.00966209999995, -24.718126899999962 ], [ -48.009691799999985, -24.718124799999934 ], [ -48.009720899999934, -24.718118199999946 ], [ -48.009730199999979, -24.718115899999923 ], [ -48.013623499999937, -24.718409199999932 ], [ -48.013889799999951, -24.717501699999961 ], [ -48.013898599999948, -24.717473 ], [ -48.013907299999978, -24.717444499999949 ], [ -48.015650099999959, -24.713532299999947 ], [ -48.015698, -24.713422899999959 ], [ -48.015636399999948, -24.713231499999946 ], [ -48.015472299999949, -24.713108399999953 ], [ -48.015250599999945, -24.71291049999996 ], [ -48.015340399999957, -24.710526699999946 ], [ -48.015578499999954, -24.710330299999953 ], [ -48.016397199999979, -24.709762799999975 ], [ -48.016222, -24.709573599999935 ], [ -48.016204, -24.709554099999927 ], [ -48.016182499999957, -24.709538799999962 ], [ -48.016170699999975, -24.709530699999959 ], [ -48.016157899999946, -24.709520499999943 ], [ -48.016104399999961, -24.709481599999943 ], [ -48.015668199999936, -24.709342799999938 ], [ -48.015133799999944, -24.709207199999973 ], [ -48.01473649999997, -24.709104899999943 ], [ -48.014313499999957, -24.708976099999965 ], [ -48.014936199999966, -24.707127699999951 ], [ -48.014944699999951, -24.707102699999933 ], [ -48.014954199999984, -24.70707509999993 ], [ -48.014959899999944, -24.707058299999961 ], [ -48.01497269999993, -24.707020699999926 ], [ -48.014982099999941, -24.70699309999997 ], [ -48.014955099999952, -24.706973299999962 ], [ -48.01497889999996, -24.706956 ], [ -48.015082599999971, -24.706880499999947 ], [ -48.015106799999963, -24.706862899999965 ], [ -48.015135799999939, -24.706850799999923 ], [ -48.0151537, -24.706843299999939 ], [ -48.015226299999938, -24.706812799999959 ], [ -48.015254499999969, -24.706800899999973 ], [ -48.015282699999943, -24.706789099999977 ], [ -48.015391699999952, -24.706743299999967 ], [ -48.015407799999942, -24.706735099999939 ], [ -48.015411, -24.706733499999928 ], [ -48.015424699999983, -24.706712299999939 ], [ -48.015542899999964, -24.706528099999957 ], [ -48.015699099999956, -24.706331499999976 ], [ -48.015804099999968, -24.706177699999952 ], [ -48.01593239999994, -24.705800499999949 ], [ -48.016436799999951, -24.704970899999985 ], [ -48.014920599999982, -24.703896699999959 ], [ -48.015487499999949, -24.702900099999972 ], [ -48.016021899999934, -24.702470699999932 ], [ -48.015895899999983, -24.701934 ], [ -48.015558799999951, -24.701040299999928 ], [ -48.0153931, -24.700507 ], [ -48.0152614, -24.699961099999925 ], [ -48.015187799999978, -24.699891099999956 ], [ -48.015176499999939, -24.699880399999987 ], [ -48.015082499999949, -24.699596399999955 ], [ -48.014931499999939, -24.699235399999967 ], [ -48.014675499999953, -24.698887399999933 ], [ -48.014642599999952, -24.698782199999975 ], [ -48.014647599999932, -24.698519899999965 ], [ -48.014588299999957, -24.698411299999986 ], [ -48.014479699999981, -24.698322399999938 ], [ -48.014430299999958, -24.698223699999968 ], [ -48.014446699999951, -24.698071599999931 ], [ -48.014318299999957, -24.697963 ], [ -48.014111, -24.697814899999972 ], [ -48.014002399999988, -24.697637199999978 ], [ -48.014170199999974, -24.697074399999959 ], [ -48.014081399999959, -24.696738699999973 ], [ -48.013953, -24.696482 ], [ -48.013804899999968, -24.696225299999973 ], [ -48.013775299999971, -24.695879699999981 ], [ -48.013816599999977, -24.695429099999959 ], [ -48.014074899999969, -24.694916099999947 ], [ -48.014213099999957, -24.694452099999975 ], [ -48.014221699999958, -24.694244799999979 ], [ -48.014161, -24.694112199999953 ], [ -48.014015699999959, -24.693988 ], [ -48.01386, -24.693894099999959 ], [ -48.0135911, -24.69383009999995 ], [ -48.013196199999989, -24.693968299999941 ], [ -48.01301849999993, -24.694264499999967 ], [ -48.012946, -24.694418699999972 ], [ -48.012919799999956, -24.694758399999962 ], [ -48.012921199999944, -24.69504279999996 ], [ -48.012838299999949, -24.695164299999931 ], [ -48.012653099999966, -24.695399899999934 ], [ -48.012455699999975, -24.695498699999973 ], [ -48.012278, -24.695617099999943 ], [ -48.011981799999944, -24.695627 ], [ -48.011744799999974, -24.695656599999943 ], [ -48.01146829999994, -24.695567799999935 ], [ -48.011241299999938, -24.695607299999946 ], [ -48.011063499999977, -24.69564679999996 ], [ -48.010866099999937, -24.695686199999955 ], [ -48.010619199999951, -24.695686199999948 ], [ -48.010421799999968, -24.695587499999931 ], [ -48.010234199999957, -24.695192599999924 ], [ -48.010145299999976, -24.694837099999969 ], [ -48.010362499999985, -24.694491599999942 ], [ -48.010589599999946, -24.694225 ], [ -48.010678499999983, -24.694007799999962 ], [ -48.01068829999997, -24.693751099999925 ], [ -48.010619199999951, -24.693514099999959 ], [ -48.010490899999986, -24.69338579999993 ], [ -48.010303299999975, -24.693287 ], [ -48.010095899999953, -24.69324749999992 ], [ -48.00995769999998, -24.693267299999953 ], [ -48.009740499999964, -24.693375899999985 ], [ -48.009582499999965, -24.693464699999929 ], [ -48.009464099999953, -24.69355359999998 ], [ -48.009325799999949, -24.693642499999946 ], [ -48.009128399999952, -24.693770799999982 ], [ -48.008940799999955, -24.693968299999934 ], [ -48.008654399999962, -24.69413609999998 ], [ -48.008486599999969, -24.694225 ], [ -48.008318699999968, -24.694244699999945 ], [ -48.008071899999955, -24.694294099999972 ], [ -48.007864599999948, -24.694205199999942 ], [ -48.007736199999954, -24.694086799999969 ], [ -48.007598, -24.693909 ], [ -48.007420299999978, -24.693622699999938 ], [ -48.007212899999956, -24.693366 ], [ -48.006956199999934, -24.693178399999955 ], [ -48.006699499999975, -24.693099399999941 ], [ -48.006521799999973, -24.693119199999952 ], [ -48.006304599999964, -24.693089599999951 ], [ -48.006077499999954, -24.693079699999942 ], [ -48.005791199999976, -24.69306979999994 ], [ -48.005436399999951, -24.692926399999976 ], [ -48.005392099999938, -24.692908399999965 ], [ -48.005361599999965, -24.692883799999947 ], [ -48.005258199999957, -24.692799899999962 ], [ -48.005348399999939, -24.692633599999979 ], [ -48.005424099999971, -24.692529199999978 ], [ -48.005501099999947, -24.692316 ], [ -48.005571399999951, -24.692057599999949 ], [ -48.005611499999986, -24.691805199999969 ], [ -48.005607499999947, -24.691611899999945 ], [ -48.005534399999931, -24.691393899999987 ], [ -48.005385099999963, -24.690935199999942 ], [ -48.005204699999979, -24.69057719999995 ], [ -48.004863499999942, -24.690343599999949 ], [ -48.004558799999984, -24.690167 ], [ -48.004352499999982, -24.689806699999966 ], [ -48.004227, -24.689402599999941 ], [ -48.003867499999963, -24.689110499999963 ], [ -48.00313929999993, -24.689106299999928 ], [ -48.002682199999981, -24.689256899999972 ], [ -48.002278399999973, -24.689443099999945 ], [ -48.002125799999931, -24.689568799999964 ], [ -48.001687199999935, -24.689654399999931 ], [ -48.001399799999945, -24.689585799999978 ], [ -48.00115749999997, -24.68946979999998 ], [ -48.00093319999997, -24.689357899999955 ], [ -48.000646, -24.689214299999946 ], [ -48.00041259999994, -24.689115499999946 ], [ -48.000233099999953, -24.688971899999963 ], [ -47.999958, -24.688453599999949 ], [ -47.999712799999941, -24.688201299999939 ], [ -47.999549599999973, -24.688093599999938 ], [ -47.999407399999939, -24.688038499999948 ], [ -47.99921889999996, -24.687885899999966 ], [ -47.998985499999947, -24.68785 ], [ -47.998698299999944, -24.687751299999949 ], [ -47.998143899999945, -24.687518 ], [ -47.997773699999989, -24.68696969999996 ], [ -47.997646299999985, -24.687405 ], [ -47.997548799999947, -24.687611299999961 ], [ -47.997357299999976, -24.687756199999964 ], [ -47.996952, -24.687721499999952 ], [ -47.99683269999997, -24.687829099999931 ], [ -47.996727299999975, -24.688008399999937 ], [ -47.996729499999958, -24.688139699999958 ], [ -47.996721699999966, -24.688301899999939 ], [ -47.99663739999994, -24.688576699999945 ], [ -47.996477399999954, -24.688895 ], [ -47.996223199999982, -24.688837599999939 ], [ -47.996087499999938, -24.688604699999932 ], [ -47.995863099999951, -24.68855979999995 ], [ -47.995571, -24.688710499999956 ], [ -47.995459599999947, -24.688899599999953 ], [ -47.995706899999959, -24.688921299999944 ], [ -47.99593079999994, -24.68898129999997 ], [ -47.996051, -24.689128099999945 ], [ -47.996125499999955, -24.689312799999982 ], [ -47.996002199999964, -24.689385499999947 ], [ -47.995793899999974, -24.689403199999962 ], [ -47.99565929999995, -24.689492099999931 ], [ -47.995511499999964, -24.689600399999954 ], [ -47.995347899999956, -24.68964659999995 ], [ -47.995263399999942, -24.689862599999959 ], [ -47.9954044, -24.690026299999939 ], [ -47.995600199999956, -24.690180899999969 ], [ -47.99571119999996, -24.690278699999965 ], [ -47.995746899999972, -24.690394099999939 ], [ -47.995805799999971, -24.690495399999985 ], [ -47.995885299999941, -24.690744699999971 ], [ -47.995789699999925, -24.690923699999935 ], [ -47.995643, -24.69099359999996 ], [ -47.995542099999973, -24.691114599999928 ], [ -47.9955169, -24.691341599999923 ], [ -47.995572399999965, -24.691533299999953 ], [ -47.995880099999972, -24.691669599999951 ], [ -47.996222299999943, -24.691739499999972 ], [ -47.996563, -24.691645299999948 ], [ -47.996690799999946, -24.691773299999962 ], [ -47.996656899999955, -24.691957099999961 ], [ -47.996535699999988, -24.692184699999927 ], [ -47.996505799999973, -24.692350499999971 ], [ -47.996404799999937, -24.69243129999996 ], [ -47.996238399999982, -24.692683399999961 ], [ -47.996205699999962, -24.692909499999935 ], [ -47.996198599999957, -24.692928599999959 ], [ -47.99618769999995, -24.692957799999924 ], [ -47.996178199999981, -24.692983499999954 ], [ -47.996168599999983, -24.693009199999949 ], [ -47.996143599999989, -24.693156199999962 ], [ -47.996138599999938, -24.693185699999958 ], [ -47.996206099999931, -24.693250299999935 ], [ -47.996189799999975, -24.693273199999958 ], [ -47.996094299999989, -24.69340739999997 ], [ -47.99598919999994, -24.693510499999928 ], [ -47.996035399999975, -24.693718499999935 ], [ -47.996144299999969, -24.693855899999974 ], [ -47.996106, -24.694148399999964 ], [ -47.996004, -24.694320199999925 ], [ -47.995977099999948, -24.694468799999985 ], [ -47.996078199999943, -24.694896399999941 ], [ -47.996487499999944, -24.695666499999962 ], [ -47.996377599999967, -24.695758799999968 ], [ -47.996379199999986, -24.695980599999924 ], [ -47.996444299999943, -24.696143899999981 ], [ -47.996538499999986, -24.696248299999969 ], [ -47.9967018, -24.69578069999994 ], [ -47.99692859999994, -24.69579739999994 ], [ -47.99700409999997, -24.696008399999986 ], [ -47.996857899999952, -24.696105599999946 ], [ -47.996919699999985, -24.696538499999964 ], [ -47.996878899999956, -24.696723499999948 ], [ -47.99686939999998, -24.696767399999953 ], [ -47.996862199999953, -24.696800699999979 ], [ -47.996856, -24.696829499999982 ], [ -47.996846499999947, -24.696873699999962 ], [ -47.996880499999975, -24.697269699999939 ], [ -47.997090499999956, -24.697482 ], [ -47.997365, -24.697361 ], [ -47.997563899999932, -24.697278899999972 ], [ -47.997828899999952, -24.697327299999987 ], [ -47.997797899999966, -24.697468 ], [ -47.997605499999963, -24.697614199999975 ], [ -47.997597299999946, -24.697828799999961 ], [ -47.998046299999949, -24.697759 ], [ -47.99823809999998, -24.697766499999943 ], [ -47.998304699999949, -24.697891199999951 ], [ -47.998331599999979, -24.698107799999942 ], [ -47.99808749999994, -24.698150099999971 ], [ -47.997906699999938, -24.698204599999951 ], [ -47.997775599999962, -24.698342499999971 ], [ -47.997740699999959, -24.698667099999955 ], [ -47.997616499999936, -24.698865799999965 ], [ -47.997369499999934, -24.698986199999975 ], [ -47.997088499999961, -24.698960899999985 ], [ -47.996916799999958, -24.698885299999979 ], [ -47.996853299999941, -24.698741 ], [ -47.996983899999975, -24.698565599999942 ], [ -47.997214199999974, -24.69853489999997 ], [ -47.997275699999932, -24.698395799999965 ], [ -47.997179499999959, -24.698212 ], [ -47.996758799999945, -24.69812359999997 ], [ -47.996435799999972, -24.698057199999944 ], [ -47.996027499999975, -24.69789789999993 ], [ -47.995755299999978, -24.697885399999969 ], [ -47.99538629999995, -24.698093499999963 ], [ -47.995254099999954, -24.698319899999944 ], [ -47.995267399999932, -24.698493199999966 ], [ -47.995109799999973, -24.698995199999956 ], [ -47.995089199999939, -24.699242599999934 ], [ -47.995267799999958, -24.699421199999954 ], [ -47.99570749999998, -24.699441799999935 ], [ -47.995824299999981, -24.699586099999976 ], [ -47.995824299999981, -24.699881499999943 ], [ -47.99581749999993, -24.700211299999971 ], [ -47.995673199999942, -24.700548 ], [ -47.995556399999934, -24.700953399999946 ], [ -47.995541599999967, -24.701158499999956 ], [ -47.995577, -24.701338099999916 ], [ -47.995673199999949, -24.701764099999924 ], [ -47.995748799999951, -24.702080199999951 ], [ -47.9960579, -24.702217599999987 ], [ -47.996154099999949, -24.702059599999927 ], [ -47.996009799999968, -24.701846599999957 ], [ -47.995793599999956, -24.701701 ], [ -47.995826, -24.70160809999993 ], [ -47.996406699999966, -24.701551099999961 ], [ -47.996463299999959, -24.701200699999958 ], [ -47.996683199999957, -24.701269399999941 ], [ -47.996779399999987, -24.701379399999944 ], [ -47.996896199999988, -24.701558 ], [ -47.996958, -24.701812199999939 ], [ -47.996765599999947, -24.702368699999955 ], [ -47.996621299999958, -24.702382499999949 ], [ -47.996442699999932, -24.702513 ], [ -47.996236599999975, -24.70282219999995 ], [ -47.9961335, -24.703193199999927 ], [ -47.996415199999944, -24.703488699999987 ], [ -47.996607599999948, -24.703949 ], [ -47.996710699999937, -24.70432 ], [ -47.996669399999973, -24.7047391 ], [ -47.99655949999994, -24.704917799999976 ], [ -47.996367099999979, -24.705185699999948 ], [ -47.996202199999964, -24.705391799999976 ], [ -47.995982399999946, -24.705659799999989 ], [ -47.996064799999942, -24.705735399999973 ], [ -47.996415199999944, -24.705646099999967 ], [ -47.996559499999933, -24.705756 ], [ -47.996477099999936, -24.705872799999948 ], [ -47.996161, -24.705982699999929 ], [ -47.996140399999952, -24.706154499999965 ], [ -47.996312199999984, -24.70631939999992 ], [ -47.996642, -24.70650489999996 ], [ -47.996951099999933, -24.706539199999941 ], [ -47.997013, -24.706814099999974 ], [ -47.996820599999985, -24.707082 ], [ -47.996813699999961, -24.707453099999963 ], [ -47.996944299999939, -24.707563 ], [ -47.997280899999964, -24.707528599999932 ], [ -47.99745269999994, -24.707329399999931 ], [ -47.997521399999982, -24.706752199999979 ], [ -47.997727499999947, -24.706772899999972 ], [ -47.997837499999946, -24.707109499999948 ], [ -47.997919899999943, -24.707356899999986 ], [ -47.9978306, -24.707576699999954 ], [ -47.997796199999975, -24.707824099999986 ], [ -47.997603899999945, -24.707954599999937 ], [ -47.997315299999968, -24.708023299999983 ], [ -47.997294699999948, -24.708353099999957 ], [ -47.997869599999937, -24.708555 ], [ -47.998358199999984, -24.708915799999946 ], [ -47.998824399999933, -24.70915169999995 ], [ -47.999158499999965, -24.709462 ], [ -47.999383399999935, -24.709761599999979 ], [ -47.999589499999949, -24.71007769999995 ], [ -47.999681399999986, -24.710407899999943 ], [ -47.999691899999959, -24.710704299999978 ], [ -47.99961779999996, -24.710847299999944 ], [ -47.999530199999988, -24.711016299999979 ], [ -47.999050699999948, -24.711446499999951 ], [ -47.999114099999986, -24.711735599999937 ], [ -47.998895499999946, -24.711933099999964 ], [ -47.998585199999987, -24.711806199999952 ], [ -47.99843009999995, -24.711869599999947 ], [ -47.998571099999936, -24.712187 ], [ -47.997915299999931, -24.71278639999997 ], [ -47.998007, -24.713188399999975 ], [ -47.997590899999985, -24.713160099999978 ], [ -47.997464, -24.713012099999954 ], [ -47.997456899999975, -24.712828699999925 ], [ -47.997590899999985, -24.712581899999972 ], [ -47.997753099999954, -24.712377399999976 ], [ -47.997675499999957, -24.712264499999947 ], [ -47.997379399999943, -24.712292799999943 ], [ -47.997189, -24.712553699999944 ], [ -47.997076099999965, -24.712990899999966 ], [ -47.996977399999942, -24.713435199999928 ], [ -47.996596599999982, -24.713710199999976 ], [ -47.996603599999958, -24.713830099999939 ], [ -47.996829299999952, -24.714373099999928 ], [ -47.996871599999963, -24.714669299999972 ], [ -47.99697029999993, -24.715043 ], [ -47.997252399999979, -24.715804599999959 ], [ -47.997414599999949, -24.716016199999963 ], [ -47.997471, -24.716213599999943 ], [ -47.997629899999936, -24.716402699999936 ], [ -47.998046899999963, -24.716636499999932 ], [ -47.998496, -24.717089699999963 ], [ -47.99945629999997, -24.717471299999936 ], [ -48.000518099999965, -24.717761499999938 ], [ -48.000535399999926, -24.717675 ], [ -48.000474899999972, -24.71745009999994 ], [ -48.000449299999957, -24.717279699999938 ], [ -48.000423, -24.71710419999993 ], [ -48.000423, -24.716775499999983 ], [ -48.000460099999941, -24.716781699999949 ], [ -48.004727, -24.717390199999958 ], [ -48.007221499999957, -24.717814 ], [ -48.007053099999951, -24.719344299999928 ], [ -48.00771449999997, -24.719447099999964 ], [ -48.008236099999976, -24.719501899999958 ], [ -48.008732599999973, -24.719565599999953 ], [ -48.008882199999967, -24.719585399999961 ], [ -48.009161, -24.718086799999977 ], [ -48.009646, -24.718128 ] ] ] } }
]
}
