{
"type": "FeatureCollection",
"name": "3538204",
"crs": { "type": "name", "properties": { "name": "urn:ogc:def:crs:OGC:1.3:CRS84" } },
"features": [
{ "type": "Feature", "properties": { "CD_MUN": "3538204", "NM_MUN": "Pinhalzinho" }, "geometry": { "type": "MultiPolygon", "coordinates": [ [ [ [ -46.572556899999938, -22.797335599999936 ], [ -46.572752799999932, -22.797259599999951 ], [ -46.572933099999943, -22.797138599999986 ], [ -46.573056799999961, -22.797038099999956 ], [ -46.57327319999996, -22.796754699999951 ], [ -46.573340099999939, -22.796584699999986 ], [ -46.573376199999984, -22.796383799999937 ], [ -46.573443199999986, -22.796172599999977 ], [ -46.57354619999996, -22.795889199999976 ], [ -46.573675, -22.795574899999963 ], [ -46.573870799999952, -22.795301899999973 ], [ -46.573922299999943, -22.794920599999948 ], [ -46.573937799999953, -22.794359099999951 ], [ -46.573922299999943, -22.794147799999955 ], [ -46.573881099999937, -22.793838699999981 ], [ -46.573912, -22.793586299999948 ], [ -46.573968699999973, -22.793447199999942 ], [ -46.574143799999945, -22.79341619999996 ], [ -46.574349899999959, -22.793442 ], [ -46.574483899999969, -22.793447199999953 ], [ -46.574586899999986, -22.793375 ], [ -46.574607499999956, -22.793261699999952 ], [ -46.574437499999931, -22.79279289999992 ], [ -46.574293299999972, -22.792473399999945 ], [ -46.574210799999946, -22.79225189999994 ], [ -46.574195399999951, -22.792184899999935 ], [ -46.573878899999961, -22.791808499999952 ], [ -46.573572, -22.791479099999943 ], [ -46.57327829999997, -22.791556399999934 ], [ -46.573201, -22.791607899999978 ], [ -46.57301559999997, -22.79168 ], [ -46.572917699999955, -22.79174189999998 ], [ -46.572840399999954, -22.791870699999944 ], [ -46.572747699999987, -22.79190159999996 ], [ -46.572484899999949, -22.791886099999939 ], [ -46.572289099999985, -22.791865499999968 ], [ -46.572196399999939, -22.791819099999937 ], [ -46.572165499999976, -22.791659399999965 ], [ -46.572196399999939, -22.791504899999939 ], [ -46.572196399999946, -22.791314199999928 ], [ -46.572103699999964, -22.791072099999955 ], [ -46.572016099999985, -22.790881499999955 ], [ -46.571887299999958, -22.790824799999939 ], [ -46.571743, -22.790835099999978 ], [ -46.571428699999956, -22.790979399999976 ], [ -46.571171099999965, -22.791 ], [ -46.570599299999976, -22.791195699999946 ], [ -46.570398299999965, -22.791211199999964 ], [ -46.57025919999996, -22.791298799999939 ], [ -46.570120099999947, -22.791494599999968 ], [ -46.570109799999962, -22.791602699999949 ], [ -46.570078899999935, -22.791747 ], [ -46.570073799999939, -22.791896399999924 ], [ -46.569981, -22.792164299999953 ], [ -46.569898599999931, -22.792324 ], [ -46.569821299999951, -22.792555899999957 ], [ -46.56976979999996, -22.792823799999947 ], [ -46.569759499999975, -22.792937099999961 ], [ -46.569692499999981, -22.793071099999953 ], [ -46.569538, -22.793169 ], [ -46.56935759999994, -22.793241099999921 ], [ -46.5691619, -22.793354399999945 ], [ -46.568894, -22.793416199999967 ], [ -46.568615799999975, -22.793385299999958 ], [ -46.568461199999945, -22.793272 ], [ -46.568280899999934, -22.793071099999949 ], [ -46.568136599999946, -22.792880399999945 ], [ -46.567909899999961, -22.792679499999956 ], [ -46.567770799999948, -22.79259709999997 ], [ -46.567616299999941, -22.792550699999936 ], [ -46.5674772, -22.792550699999925 ], [ -46.567394699999966, -22.792638299999957 ], [ -46.567353499999967, -22.792746499999961 ], [ -46.567291699999942, -22.792875299999938 ], [ -46.566623599999957, -22.794204499999985 ], [ -46.566622299999949, -22.794252399999934 ], [ -46.566716099999958, -22.794211699999948 ], [ -46.566919599999956, -22.794100299999972 ], [ -46.567063399999945, -22.794015199999933 ], [ -46.5673, -22.794013199999942 ], [ -46.567545799999948, -22.794029799999969 ], [ -46.567920699999945, -22.794049399999942 ], [ -46.568221299999955, -22.794078399999936 ], [ -46.568451699999969, -22.794098799999983 ], [ -46.568676799999935, -22.794103299999957 ], [ -46.568908399999948, -22.794075099999922 ], [ -46.569070499999953, -22.794061499999938 ], [ -46.56920839999998, -22.794053299999966 ], [ -46.569368499999939, -22.794075299999971 ], [ -46.569595599999964, -22.794123 ], [ -46.569852599999933, -22.794168399999933 ], [ -46.570170099999984, -22.794220599999957 ], [ -46.570451299999952, -22.794272 ], [ -46.57067, -22.79430989999997 ], [ -46.570838499999979, -22.794347 ], [ -46.570940499999942, -22.794387499999967 ], [ -46.571073399999925, -22.794494899999961 ], [ -46.571311, -22.794692099999963 ], [ -46.571388, -22.79476289999997 ], [ -46.571578399999964, -22.794922799999934 ], [ -46.571701699999949, -22.795037699999977 ], [ -46.571793599999978, -22.795017499999972 ], [ -46.571849899999968, -22.795082199999971 ], [ -46.571873, -22.795120699999927 ], [ -46.571878299999987, -22.795181899999925 ], [ -46.57199849999995, -22.7956253 ], [ -46.572255499999983, -22.796503699999953 ], [ -46.572451299999955, -22.796963599999977 ], [ -46.572556899999938, -22.797335599999936 ] ] ], [ [ [ -46.586514, -22.791698 ], [ -46.586275, -22.791834799999954 ], [ -46.586923, -22.792082499999935 ], [ -46.586364299999957, -22.792638399999937 ], [ -46.587314799999938, -22.793024399999986 ], [ -46.587490499999937, -22.792989799999933 ], [ -46.588749199999938, -22.793372899999955 ], [ -46.588890299999946, -22.793035899999957 ], [ -46.589045899999974, -22.792726199999944 ], [ -46.589162499999986, -22.792602399999961 ], [ -46.589251799999936, -22.792423799999945 ], [ -46.589331, -22.792131399999956 ], [ -46.58940739999997, -22.791951399999963 ], [ -46.589505299999985, -22.791787199999924 ], [ -46.5898524, -22.791126199999955 ], [ -46.59010509999996, -22.790761099999944 ], [ -46.590109499999976, -22.790763 ], [ -46.590146699999934, -22.790792 ], [ -46.590497299999981, -22.790892199999973 ], [ -46.590926299999978, -22.791001199999975 ], [ -46.591563099999973, -22.791168599999938 ], [ -46.591748899999978, -22.790836899999917 ], [ -46.591971, -22.790512499999981 ], [ -46.592115599999943, -22.790278 ], [ -46.592231599999941, -22.790036799999935 ], [ -46.592499499999981, -22.790102799999932 ], [ -46.5927966, -22.790193399999968 ], [ -46.593076099999962, -22.790321 ], [ -46.593374, -22.790479399999988 ], [ -46.593716399999948, -22.790695 ], [ -46.593923699999955, -22.790896499999963 ], [ -46.594000599999958, -22.791066599999969 ], [ -46.594011399999943, -22.791241299999971 ], [ -46.593997799999954, -22.791587699999965 ], [ -46.59397789999997, -22.791877099999965 ], [ -46.59400039999997, -22.792089799999932 ], [ -46.59407559999994, -22.792219899999964 ], [ -46.594180299999948, -22.792335 ], [ -46.594268099999972, -22.792430099999933 ], [ -46.594344899999946, -22.79253569999997 ], [ -46.594457499999976, -22.792640099999975 ], [ -46.594554899999935, -22.792730499999948 ], [ -46.594688699999949, -22.792839699999938 ], [ -46.594861299999934, -22.792956699999937 ], [ -46.595025599999985, -22.793036 ], [ -46.595199199999968, -22.792964799999936 ], [ -46.595402399999955, -22.792972399999947 ], [ -46.5955709, -22.793017299999974 ], [ -46.595745399999942, -22.793159 ], [ -46.595916799999941, -22.793321199999966 ], [ -46.596097499999985, -22.79347219999994 ], [ -46.596270399999987, -22.793584299999956 ], [ -46.596506599999941, -22.79373239999995 ], [ -46.596835, -22.793954199999963 ], [ -46.597084099999968, -22.794125699999928 ], [ -46.597332699999981, -22.794318499999981 ], [ -46.597526, -22.794482799999962 ], [ -46.597688, -22.794400299999939 ], [ -46.59783519999997, -22.794297199999971 ], [ -46.597982399999978, -22.794208799999986 ], [ -46.598151499999979, -22.794130899999971 ], [ -46.59835309999994, -22.794049399999942 ], [ -46.598593, -22.79389129999992 ], [ -46.598787199999947, -22.793711899999945 ], [ -46.599169199999942, -22.793366099999957 ], [ -46.598111499999966, -22.792334399999959 ], [ -46.596995299999946, -22.791340799999958 ], [ -46.596449699999944, -22.79096739999995 ], [ -46.597205899999949, -22.79028969999996 ], [ -46.59733609999995, -22.790157599999937 ], [ -46.597533299999952, -22.789906799999983 ], [ -46.597632799999985, -22.789747899999959 ], [ -46.597743899999962, -22.78963489999995 ], [ -46.597969799999923, -22.789537299999953 ], [ -46.598301, -22.789441599999982 ], [ -46.598538399999939, -22.789330499999938 ], [ -46.59883519999994, -22.789097 ], [ -46.599344399999957, -22.788739 ], [ -46.59956649999998, -22.788616399999967 ], [ -46.599813499999982, -22.788534099999946 ], [ -46.600035599999956, -22.788520699999935 ], [ -46.600271, -22.788453699999923 ], [ -46.601375699999949, -22.788095699999928 ], [ -46.601662799999986, -22.788019499999955 ], [ -46.601542599999966, -22.78783209999995 ], [ -46.60143, -22.78762549999993 ], [ -46.601323, -22.787323399999945 ], [ -46.60116869999996, -22.786955299999928 ], [ -46.600992399999946, -22.786626199999937 ], [ -46.600787099999934, -22.786184699999978 ], [ -46.600674, -22.78588869999993 ], [ -46.600513499999977, -22.785526499999943 ], [ -46.600400299999933, -22.785356499999981 ], [ -46.600254, -22.785209799999965 ], [ -46.600041, -22.78508259999996 ], [ -46.599768099999942, -22.784994299999937 ], [ -46.599602399999988, -22.784918899999983 ], [ -46.59947, -22.784809099999954 ], [ -46.599355, -22.784667299999956 ], [ -46.599229099999945, -22.784493299999948 ], [ -46.599077899999941, -22.784310699999931 ], [ -46.598938899999943, -22.784205 ], [ -46.598755, -22.784119899999954 ], [ -46.598527, -22.784058099999982 ], [ -46.598272, -22.783997 ], [ -46.598077299999943, -22.783921599999925 ], [ -46.59789029999996, -22.78380229999993 ], [ -46.597675599999953, -22.783668099999939 ], [ -46.597511099999963, -22.783541799999973 ], [ -46.597416299999963, -22.783406399999937 ], [ -46.597395399999982, -22.783336 ], [ -46.597382699999969, -22.783218 ], [ -46.59739019999995, -22.78296779999993 ], [ -46.597400399999977, -22.782747 ], [ -46.597409899999946, -22.782557599999954 ], [ -46.597412299999974, -22.782474 ], [ -46.597662899999939, -22.782424699999972 ], [ -46.598010299999949, -22.782375 ], [ -46.598315699999951, -22.782323899999927 ], [ -46.598659899999973, -22.782285499999944 ], [ -46.598800899999958, -22.78231309999995 ], [ -46.598965499999963, -22.782117799999973 ], [ -46.599077099999938, -22.781888099999954 ], [ -46.599092499999976, -22.781648499999964 ], [ -46.59898469999996, -22.781426499999952 ], [ -46.598725399999971, -22.781265899999944 ], [ -46.59834, -22.781154399999924 ], [ -46.59794739999996, -22.781094499999941 ], [ -46.597616499999958, -22.781045499999951 ], [ -46.59734549999996, -22.780994299999975 ], [ -46.597138099999945, -22.780913499999933 ], [ -46.596969499999943, -22.780756499999935 ], [ -46.596805299999971, -22.780575899999977 ], [ -46.596739699999944, -22.780231799999967 ], [ -46.59671059999993, -22.779845899999941 ], [ -46.596693699999946, -22.779469299999953 ], [ -46.596672699999942, -22.779031 ], [ -46.596615299999939, -22.77865719999993 ], [ -46.596547199999982, -22.778216599999936 ], [ -46.596477299999947, -22.777876699999979 ], [ -46.596396299999981, -22.777641899999939 ], [ -46.596271399999978, -22.777383799999932 ], [ -46.59610239999995, -22.777086799999946 ], [ -46.595937699999986, -22.776810099999977 ], [ -46.595780599999955, -22.776558 ], [ -46.595591799999958, -22.776288799999975 ], [ -46.595389599999976, -22.775984799999957 ], [ -46.595123899999976, -22.775651199999977 ], [ -46.594856099999959, -22.775439699999932 ], [ -46.594562399999965, -22.775312099999955 ], [ -46.594251199999967, -22.775289 ], [ -46.593968799999971, -22.775250099999937 ], [ -46.593827, -22.775150799999945 ], [ -46.593772099999967, -22.774955399999957 ], [ -46.593786199999954, -22.774701799999946 ], [ -46.593888499999935, -22.774362299999954 ], [ -46.593932, -22.77409989999995 ], [ -46.593900299999973, -22.773889599999958 ], [ -46.593806099999945, -22.773746599999981 ], [ -46.593629699999958, -22.773666399999964 ], [ -46.593429099999987, -22.773653899999939 ], [ -46.59324509999994, -22.773698299999971 ], [ -46.593064699999964, -22.773775199999932 ], [ -46.59283279999994, -22.773927299999979 ], [ -46.592510299999958, -22.774134799999945 ], [ -46.5922116, -22.774330799999973 ], [ -46.591881099999974, -22.774548699999972 ], [ -46.5916481, -22.774703299999938 ], [ -46.591299499999934, -22.774905199999971 ], [ -46.591017499999964, -22.7750842 ], [ -46.590769099999932, -22.775246899999953 ], [ -46.590601399999976, -22.775362899999955 ], [ -46.590276, -22.775298899999939 ], [ -46.59, -22.775281099999969 ], [ -46.589742, -22.775328299999963 ], [ -46.589466899999934, -22.775474499999973 ], [ -46.589226099999962, -22.775712099999961 ], [ -46.589022699999923, -22.775926599999934 ], [ -46.588787099999934, -22.776210099999957 ], [ -46.588533299999938, -22.776500599999959 ], [ -46.588327, -22.776747299999943 ], [ -46.588144899999975, -22.776934899999958 ], [ -46.587909399999951, -22.777121099999942 ], [ -46.58766559999998, -22.777283399999931 ], [ -46.587428599999953, -22.777410799999931 ], [ -46.587186899999956, -22.777507 ], [ -46.587000499999938, -22.777575599999984 ], [ -46.58674789999997, -22.777634899999956 ], [ -46.586491899999942, -22.777668799999955 ], [ -46.586252199999933, -22.777732299999961 ], [ -46.586017699999957, -22.77793389999993 ], [ -46.585868199999936, -22.778200399999943 ], [ -46.585859, -22.778419799999941 ], [ -46.585882099999935, -22.778568799999963 ], [ -46.585907599999985, -22.778754299999949 ], [ -46.585891799999956, -22.778931699999937 ], [ -46.585832299999936, -22.779102199999958 ], [ -46.585777399999984, -22.779249499999928 ], [ -46.585744199999965, -22.779359499999945 ], [ -46.585693099999958, -22.779471699999942 ], [ -46.585616399999935, -22.779578399999931 ], [ -46.585452399999951, -22.779707399999946 ], [ -46.585270299999934, -22.779782599999979 ], [ -46.584992899999975, -22.77979159999996 ], [ -46.584720499999953, -22.779792 ], [ -46.58456659999996, -22.779832699999936 ], [ -46.584477499999934, -22.779932599999935 ], [ -46.584427699999942, -22.780090199999965 ], [ -46.584350599999929, -22.780310699999976 ], [ -46.584272, -22.780486899999975 ], [ -46.584191799999985, -22.780643 ], [ -46.58411429999996, -22.780823199999922 ], [ -46.583996499999962, -22.780903299999977 ], [ -46.583859299999965, -22.780959599999949 ], [ -46.583642399999981, -22.780951699999946 ], [ -46.583475899999939, -22.780844299999952 ], [ -46.583349699999985, -22.780699499999962 ], [ -46.583226399999937, -22.780573199999942 ], [ -46.583083699999975, -22.780492 ], [ -46.582955099999943, -22.780380699999967 ], [ -46.582874499999946, -22.780221599999951 ], [ -46.582836199999974, -22.780038899999965 ], [ -46.582766799999945, -22.779878 ], [ -46.582660399999952, -22.779727799999922 ], [ -46.582504199999967, -22.779614199999969 ], [ -46.582356799999957, -22.77955669999994 ], [ -46.582172199999945, -22.779536 ], [ -46.582000599999958, -22.77956079999996 ], [ -46.581819099999962, -22.779635499999923 ], [ -46.581694299999981, -22.77973249999997 ], [ -46.581516499999964, -22.77978729999996 ], [ -46.581344299999955, -22.779782599999969 ], [ -46.581156799999974, -22.779747499999932 ], [ -46.580948099999944, -22.779750499999974 ], [ -46.580762599999964, -22.779757599999968 ], [ -46.580497099999945, -22.779730299999979 ], [ -46.580314299999941, -22.779691399999933 ], [ -46.580129499999948, -22.779614199999969 ], [ -46.579954099999959, -22.779609799999943 ], [ -46.579786299999967, -22.779663299999978 ], [ -46.579668099999935, -22.779684099999947 ], [ -46.5795768, -22.779670099999972 ], [ -46.579527299999938, -22.779703799999936 ], [ -46.579505199999971, -22.779787099999961 ], [ -46.579448099999979, -22.779953399999957 ], [ -46.579326899999955, -22.780176499999985 ], [ -46.579221399999938, -22.78036109999994 ], [ -46.579126799999983, -22.780517499999963 ], [ -46.579020499999963, -22.780636599999987 ], [ -46.579002299999949, -22.780751799999955 ], [ -46.579078299999942, -22.780850499999922 ], [ -46.57926509999993, -22.780966699999968 ], [ -46.579359499999953, -22.781085 ], [ -46.579369299999932, -22.781185599999962 ], [ -46.579307199999967, -22.781284699999954 ], [ -46.579152199999953, -22.781369 ], [ -46.578936899999967, -22.781369699999978 ], [ -46.57866219999994, -22.781326499999977 ], [ -46.578399199999978, -22.781304399999954 ], [ -46.578158199999955, -22.78131 ], [ -46.577941, -22.781347099999952 ], [ -46.577711399999941, -22.781366699999978 ], [ -46.577481099999943, -22.78136789999996 ], [ -46.577240399999944, -22.781350199999959 ], [ -46.577070499999934, -22.78137809999993 ], [ -46.576858799999968, -22.78147 ], [ -46.576700099999982, -22.781561899999925 ], [ -46.576566399999933, -22.781715099999936 ], [ -46.576513499999976, -22.781879399999976 ], [ -46.576521799999973, -22.781996399999979 ], [ -46.57654969999993, -22.782116199999958 ], [ -46.576610899999942, -22.782224799999945 ], [ -46.576725099999976, -22.782347399999935 ], [ -46.576844899999976, -22.782453199999956 ], [ -46.576989699999956, -22.782525599999918 ], [ -46.577095599999957, -22.782581299999944 ], [ -46.577190199999968, -22.782689199999933 ], [ -46.57680339999996, -22.782683099999922 ], [ -46.576787099999933, -22.782797399999932 ], [ -46.576607599999932, -22.782943499999924 ], [ -46.5764832, -22.783019799999973 ], [ -46.576379699999961, -22.783212299999953 ], [ -46.576338199999952, -22.783365799999956 ], [ -46.576346499999943, -22.783561699999957 ], [ -46.576358899999946, -22.783772 ], [ -46.576343099999974, -22.783944699999942 ], [ -46.576331799999934, -22.784111799999938 ], [ -46.576376499999988, -22.784300499999972 ], [ -46.576467599999944, -22.784466099999971 ], [ -46.576535199999967, -22.784585899999968 ], [ -46.576638799999955, -22.78465309999995 ], [ -46.576747499999954, -22.784707399999931 ], [ -46.576846699999976, -22.784761799999956 ], [ -46.576942599999938, -22.784864099999933 ], [ -46.577038599999987, -22.785027199999934 ], [ -46.577099299999986, -22.785097599999961 ], [ -46.577160099999958, -22.785199899999949 ], [ -46.577156899999977, -22.785302299999945 ], [ -46.577118499999983, -22.785382199999965 ], [ -46.577035399999943, -22.785471799999982 ], [ -46.576939399999965, -22.785602899999958 ], [ -46.576875499999971, -22.785721299999974 ], [ -46.576869099999954, -22.785820399999984 ], [ -46.576923399999941, -22.785980299999945 ], [ -46.576990599999931, -22.786130599999968 ], [ -46.577065, -22.78623059999995 ], [ -46.577137, -22.786260099999929 ], [ -46.577244199999939, -22.786229299999956 ], [ -46.577085599999975, -22.786423699999936 ], [ -46.57674819999994, -22.786982699999953 ], [ -46.576552399999962, -22.787394899999978 ], [ -46.576488, -22.78763959999997 ], [ -46.57645969999993, -22.788572099999961 ], [ -46.576488, -22.788829699999944 ], [ -46.576490599999943, -22.788989399999934 ], [ -46.57646479999994, -22.789164599999928 ], [ -46.576421, -22.789326899999942 ], [ -46.576364399999932, -22.789473699999974 ], [ -46.576360499999971, -22.789771199999958 ], [ -46.576388799999954, -22.789905199999961 ], [ -46.576383699999951, -22.790046799999978 ], [ -46.576342499999953, -22.790165299999959 ], [ -46.575998499999969, -22.790593299999941 ], [ -46.576162799999963, -22.790849599999941 ], [ -46.577967899999976, -22.790804199999968 ], [ -46.577684599999941, -22.791600199999944 ], [ -46.577707699999969, -22.79214369999994 ], [ -46.578022, -22.792326599999974 ], [ -46.578570699999943, -22.792919099999953 ], [ -46.578650599999946, -22.793302899999958 ], [ -46.578467699999969, -22.79370989999995 ], [ -46.578168799999958, -22.794199399999975 ], [ -46.579858699999932, -22.795183399999935 ], [ -46.580368799999974, -22.794451799999926 ], [ -46.581157, -22.792875299999935 ], [ -46.581924199999953, -22.792573599999962 ], [ -46.581890199999975, -22.792449099999939 ], [ -46.581758799999939, -22.792015899999967 ], [ -46.581564599999979, -22.791516599999969 ], [ -46.581366499999945, -22.790999099999972 ], [ -46.581218799999931, -22.790506899999961 ], [ -46.580914, -22.790088399999938 ], [ -46.580665899999985, -22.789931299999978 ], [ -46.580400399999974, -22.789855499999927 ], [ -46.580308599999967, -22.789711699999948 ], [ -46.580295299999939, -22.78952229999992 ], [ -46.580367299999985, -22.789274599999938 ], [ -46.580461099999987, -22.788932399999965 ], [ -46.580540599999949, -22.788613499999951 ], [ -46.580614599999933, -22.788333499999961 ], [ -46.580648899999979, -22.788131 ], [ -46.580646199999933, -22.787994499999972 ], [ -46.580596599999978, -22.78787669999997 ], [ -46.580507, -22.787849399999971 ], [ -46.580369699999956, -22.787889099999983 ], [ -46.58018839999994, -22.787913 ], [ -46.580019299999947, -22.787887099999978 ], [ -46.579747299999951, -22.787781399999972 ], [ -46.581447499999975, -22.786449899999969 ], [ -46.582092699999976, -22.786265599999968 ], [ -46.581631799999975, -22.784963599999969 ], [ -46.583578899999971, -22.784318399999972 ], [ -46.583567399999936, -22.785136499999957 ], [ -46.584291399999977, -22.785196499999927 ], [ -46.584292399999981, -22.785558799999933 ], [ -46.584313099999981, -22.785853 ], [ -46.584311399999926, -22.786053199999966 ], [ -46.584288399999934, -22.786197699999946 ], [ -46.584241199999951, -22.786333699999947 ], [ -46.584143299999937, -22.786574099999942 ], [ -46.584057799999982, -22.786744399999968 ], [ -46.583998699999938, -22.786908899999958 ], [ -46.583948299999975, -22.787082299999941 ], [ -46.583914499999935, -22.787233699999938 ], [ -46.583908299999962, -22.787407499999969 ], [ -46.583954399999982, -22.787581699999979 ], [ -46.584053, -22.787788899999953 ], [ -46.584169399999951, -22.788064199999962 ], [ -46.584284899999943, -22.788491099999931 ], [ -46.584351599999941, -22.788744099999978 ], [ -46.584379599999977, -22.788854299999969 ], [ -46.58503549999994, -22.788880199999944 ], [ -46.585456699999945, -22.788905 ], [ -46.585902799999985, -22.788931699999981 ], [ -46.586589099999976, -22.788952499999937 ], [ -46.587160899999965, -22.788961299999986 ], [ -46.588825499999984, -22.789635599999936 ], [ -46.589202899999975, -22.789765199999987 ], [ -46.589165599999944, -22.789877799999932 ], [ -46.589081599999986, -22.790176699999961 ], [ -46.589037699999949, -22.790380899999942 ], [ -46.58918529999994, -22.790424599999941 ], [ -46.58886149999995, -22.790511199999955 ], [ -46.588515899999955, -22.790586099999931 ], [ -46.587909599999932, -22.790691299999938 ], [ -46.587651799999946, -22.7907532 ], [ -46.587500599999942, -22.790799299999946 ], [ -46.587301799999985, -22.790957699999982 ], [ -46.587074299999983, -22.791179499999942 ], [ -46.586514, -22.791698 ] ] ], [ [ [ -46.580743899999959, -22.768466799999945 ], [ -46.580808199999986, -22.76838859999998 ], [ -46.580907099999934, -22.768343399999925 ], [ -46.581146699999984, -22.768361299999967 ], [ -46.581231399999979, -22.768302699999936 ], [ -46.58130029999996, -22.768011799999954 ], [ -46.581203499999965, -22.767043499999954 ], [ -46.583521699999956, -22.767731899999944 ], [ -46.583591499999955, -22.768008 ], [ -46.583940699999978, -22.7679515 ], [ -46.583694599999944, -22.767143199999961 ], [ -46.583568199999952, -22.766597799999939 ], [ -46.583614799999964, -22.766192 ], [ -46.584097099999951, -22.765979199999951 ], [ -46.583704599999969, -22.76478509999998 ], [ -46.584036099999942, -22.764561599999983 ], [ -46.584206799999947, -22.764064099999935 ], [ -46.584202199999936, -22.7639531 ], [ -46.58414159999996, -22.763873799999935 ], [ -46.583719599999938, -22.762596599999942 ], [ -46.583704599999983, -22.762460299999923 ], [ -46.58366969999998, -22.762313899999974 ], [ -46.583541, -22.762018399999931 ], [ -46.583420499999939, -22.762041499999945 ], [ -46.583304299999959, -22.762092099999958 ], [ -46.583201599999938, -22.762183799999939 ], [ -46.58302439999995, -22.762188699999957 ], [ -46.582323799999983, -22.762676499999941 ], [ -46.581153, -22.762955799999929 ], [ -46.581052599999964, -22.763019899999961 ], [ -46.580411499999968, -22.763704099999927 ], [ -46.580179299999941, -22.76392119999997 ], [ -46.579820399999967, -22.764319 ], [ -46.579763699999944, -22.76440219999996 ], [ -46.57974379999996, -22.764454799999942 ], [ -46.579665499999976, -22.765360299999948 ], [ -46.579610699999932, -22.765774199999946 ], [ -46.579583899999925, -22.766092599999975 ], [ -46.579537599999981, -22.766309599999936 ], [ -46.579494, -22.766468699999962 ], [ -46.579549699999973, -22.766647599999942 ], [ -46.578844299999957, -22.767474299999943 ], [ -46.578448499999979, -22.767946599999966 ], [ -46.578275199999958, -22.768315399999953 ], [ -46.578149, -22.768634399999947 ], [ -46.577964799999961, -22.769160899999981 ], [ -46.577831899999985, -22.769427799999967 ], [ -46.577697299999954, -22.769715299999977 ], [ -46.57784689999994, -22.769864 ], [ -46.578014399999965, -22.76996 ], [ -46.578211599999975, -22.770056899999929 ], [ -46.578393399999982, -22.770090799999942 ], [ -46.578514899999959, -22.770078199999954 ], [ -46.578871, -22.769982499999958 ], [ -46.579166699999973, -22.769994699999927 ], [ -46.579573499999981, -22.770064799999943 ], [ -46.580245499999933, -22.770049399999944 ], [ -46.58048789999998, -22.770064799999947 ], [ -46.580809, -22.770092399999953 ], [ -46.581509799999935, -22.770170199999942 ], [ -46.581779299999937, -22.770163099999934 ], [ -46.582073299999934, -22.770108899999972 ], [ -46.582368799999983, -22.770078299999959 ], [ -46.582549399999948, -22.77011769999995 ], [ -46.582625699999937, -22.770177099999948 ], [ -46.582665199999951, -22.770260299999954 ], [ -46.582654099999964, -22.77039069999995 ], [ -46.582654299999945, -22.770504799999966 ], [ -46.583214, -22.769910399999958 ], [ -46.582129799999962, -22.769448099999963 ], [ -46.580747799999983, -22.769251899999976 ], [ -46.580717899999975, -22.769183699999939 ], [ -46.580663, -22.769137199999918 ], [ -46.580596899999939, -22.769105599999929 ], [ -46.58068719999995, -22.768812599999933 ], [ -46.580693, -22.76857839999996 ], [ -46.580743899999959, -22.768466799999945 ] ] ], [ [ [ -46.597352, -22.762997599999949 ], [ -46.597296599999943, -22.762895899999936 ], [ -46.597240899999974, -22.762659499999916 ], [ -46.597204499999982, -22.762418099999941 ], [ -46.597029799999973, -22.762178299999963 ], [ -46.596804499999969, -22.761791599999977 ], [ -46.596655399999975, -22.761437499999928 ], [ -46.596513099999981, -22.761198099999952 ], [ -46.596319, -22.760855299999939 ], [ -46.596153, -22.7606297 ], [ -46.595958499999945, -22.760433 ], [ -46.595714399999963, -22.760170599999974 ], [ -46.595520399999948, -22.759960699999954 ], [ -46.595401, -22.759807599999935 ], [ -46.595294199999955, -22.759647199999954 ], [ -46.595088399999959, -22.759344599999963 ], [ -46.5949141, -22.759082699999961 ], [ -46.594783799999966, -22.758787 ], [ -46.59475969999994, -22.758665699999931 ], [ -46.593481299999944, -22.758501499999973 ], [ -46.593408899999986, -22.758621299999962 ], [ -46.592604799999947, -22.760164799999924 ], [ -46.592395499999959, -22.760294099999946 ], [ -46.594444099999976, -22.761065899999949 ], [ -46.594504, -22.761854099999933 ], [ -46.59509269999996, -22.762542599999957 ], [ -46.59589589999996, -22.762108599999969 ], [ -46.596210199999973, -22.762617399999961 ], [ -46.594603799999966, -22.763839699999952 ], [ -46.595691399999964, -22.765087 ], [ -46.597790599999939, -22.763441899999982 ], [ -46.597490199999982, -22.763156399999954 ], [ -46.597352, -22.762997599999949 ] ] ], [ [ [ -46.575354199999936, -22.761975099999969 ], [ -46.57601939999995, -22.761562699999963 ], [ -46.576611399999933, -22.761030499999951 ], [ -46.577143499999984, -22.760631399999962 ], [ -46.577203399999966, -22.759068199999941 ], [ -46.578080799999952, -22.758155399999957 ], [ -46.577879599999953, -22.758138599999949 ], [ -46.577678599999956, -22.758108 ], [ -46.577525899999962, -22.758086899999959 ], [ -46.577457099999954, -22.75807369999994 ], [ -46.577326699999958, -22.758036199999939 ], [ -46.577240399999937, -22.75801609999996 ], [ -46.577100899999955, -22.758017299999949 ], [ -46.576916899999958, -22.758036599999965 ], [ -46.576762299999984, -22.758046 ], [ -46.576615499999946, -22.758027899999938 ], [ -46.57634859999996, -22.757973899999975 ], [ -46.576124599999964, -22.757924 ], [ -46.576029699999935, -22.757875599999984 ], [ -46.575917, -22.757794299999951 ], [ -46.57580669999993, -22.757748899999971 ], [ -46.575657899999953, -22.757735299999979 ], [ -46.575548299999973, -22.757758699999961 ], [ -46.575458899999951, -22.757800099999937 ], [ -46.575323899999951, -22.757890299999936 ], [ -46.575170199999945, -22.757991 ], [ -46.575085599999959, -22.75810179999996 ], [ -46.575043099999967, -22.758212599999975 ], [ -46.574983399999951, -22.758371399999923 ], [ -46.574889, -22.758612599999932 ], [ -46.574741499999959, -22.75882 ], [ -46.574583799999971, -22.759036499999976 ], [ -46.574421699999959, -22.759238899999943 ], [ -46.574329599999949, -22.759355799999973 ], [ -46.574220799999978, -22.75947929999996 ], [ -46.57412, -22.759574399999959 ], [ -46.57401219999997, -22.759666 ], [ -46.573889, -22.759748299999949 ], [ -46.573686099999982, -22.759866899999942 ], [ -46.573505199999943, -22.75996159999994 ], [ -46.573433199999961, -22.760001599999942 ], [ -46.573270899999955, -22.760023799999946 ], [ -46.573040299999953, -22.760046499999934 ], [ -46.572801099999936, -22.76005349999997 ], [ -46.572652299999959, -22.760057099999983 ], [ -46.572465899999941, -22.760055799999975 ], [ -46.5723177, -22.760074399999951 ], [ -46.572185599999955, -22.760077899999949 ], [ -46.571993099999986, -22.760078599999932 ], [ -46.57164169999993, -22.760049499999976 ], [ -46.57133, -22.760008399999954 ], [ -46.57116509999998, -22.760002899999957 ], [ -46.570990799999954, -22.760050399999951 ], [ -46.570685699999956, -22.760179199999982 ], [ -46.570591199999967, -22.760200199999936 ], [ -46.57041369999996, -22.760203299999947 ], [ -46.570150899999938, -22.760223399999969 ], [ -46.569863399999974, -22.760283899999934 ], [ -46.569741499999964, -22.760348599999933 ], [ -46.56952849999994, -22.760502299999931 ], [ -46.569628, -22.760494899999973 ], [ -46.56973789999995, -22.760497299999933 ], [ -46.569861199999934, -22.760530899999921 ], [ -46.56992189999994, -22.760555299999965 ], [ -46.569975499999948, -22.76058369999992 ], [ -46.570011699999959, -22.760627799999952 ], [ -46.570042099999966, -22.760667899999937 ], [ -46.570189899999953, -22.760996199999965 ], [ -46.570249599999961, -22.76115029999993 ], [ -46.570278299999984, -22.761257 ], [ -46.570292699999989, -22.761382499999964 ], [ -46.570334799999962, -22.761474 ], [ -46.570447699999932, -22.761612 ], [ -46.570575499999961, -22.761714499999979 ], [ -46.570711399999936, -22.761824 ], [ -46.570900299999956, -22.762021499999943 ], [ -46.571053199999938, -22.762190599999936 ], [ -46.571237399999973, -22.762438199999959 ], [ -46.571421899999962, -22.762659599999949 ], [ -46.571577099999956, -22.76284869999996 ], [ -46.571724599999982, -22.763058 ], [ -46.571842499999946, -22.76322869999996 ], [ -46.571907799999963, -22.763315099999932 ], [ -46.572001099999966, -22.763359299999927 ], [ -46.57212, -22.763408599999941 ], [ -46.572191799999985, -22.763460499999958 ], [ -46.572280199999966, -22.763547799999969 ], [ -46.572886299999944, -22.76329219999996 ], [ -46.573451699999971, -22.763165799999971 ], [ -46.573757699999931, -22.76303269999995 ], [ -46.573884099999937, -22.762959599999931 ], [ -46.574043699999955, -22.762793299999938 ], [ -46.574196699999959, -22.762706799999936 ], [ -46.574422899999938, -22.762620299999984 ], [ -46.574695599999984, -22.762427399999982 ], [ -46.575354199999936, -22.761975099999969 ] ] ], [ [ [ -46.60827229999996, -22.74765669999994 ], [ -46.608293699999933, -22.747742399999932 ], [ -46.608238099999937, -22.74778089999996 ], [ -46.608220899999942, -22.747832299999967 ], [ -46.608229499999936, -22.747870899999949 ], [ -46.608268, -22.747926499999942 ], [ -46.608280899999947, -22.747986499999964 ], [ -46.608071, -22.748115 ], [ -46.608015299999984, -22.748200699999927 ], [ -46.607946799999979, -22.748423399999975 ], [ -46.607959599999965, -22.748474799999933 ], [ -46.608015299999984, -22.748543299999927 ], [ -46.608071, -22.748594699999948 ], [ -46.608101, -22.748654699999971 ], [ -46.608113799999963, -22.748770399999962 ], [ -46.608165199999974, -22.748916 ], [ -46.608259499999974, -22.74901019999993 ], [ -46.608336599999973, -22.74911729999997 ], [ -46.608550699999967, -22.749494199999958 ], [ -46.608576399999947, -22.749554199999981 ], [ -46.608576399999954, -22.749772699999923 ], [ -46.60861929999993, -22.749854 ], [ -46.608662099999954, -22.749974 ], [ -46.608709199999964, -22.750209499999986 ], [ -46.608726399999966, -22.750376599999978 ], [ -46.608722099999966, -22.750517899999984 ], [ -46.607192899999973, -22.74937859999994 ], [ -46.607141499999955, -22.749575599999961 ], [ -46.606867399999949, -22.750192399999953 ], [ -46.606493, -22.753676 ], [ -46.60664479999997, -22.753646899999982 ], [ -46.607106, -22.753555699999939 ], [ -46.607379799999933, -22.753515699999976 ], [ -46.607654699999962, -22.753502899999948 ], [ -46.60809339999998, -22.753489799999954 ], [ -46.608475, -22.75339229999997 ], [ -46.608968199999936, -22.753252499999967 ], [ -46.609492299999943, -22.753167899999927 ], [ -46.609910299999967, -22.753160799999932 ], [ -46.610338599999977, -22.753179099999958 ], [ -46.610785899999939, -22.753198099999963 ], [ -46.611130199999934, -22.753186799999984 ], [ -46.611397699999948, -22.753110299999939 ], [ -46.6116239, -22.752972 ], [ -46.611869899999931, -22.752774 ], [ -46.612075, -22.752519199999938 ], [ -46.612246299999974, -22.752193399999964 ], [ -46.612328899999973, -22.751900499999977 ], [ -46.61235609999995, -22.751582599999946 ], [ -46.6124248, -22.751143199999941 ], [ -46.612694, -22.750555599999934 ], [ -46.6127178, -22.750495099999945 ], [ -46.612797299999954, -22.750097599999947 ], [ -46.614128099999959, -22.747911699999975 ], [ -46.614409699999953, -22.747311899999946 ], [ -46.611854199999989, -22.747639 ], [ -46.611807399999975, -22.747556499999973 ], [ -46.611749399999944, -22.747356099999934 ], [ -46.611613, -22.747118199999939 ], [ -46.611497699999973, -22.746997099999923 ], [ -46.608122399999957, -22.747425399999941 ], [ -46.608178099999968, -22.747463899999957 ], [ -46.60827229999996, -22.74765669999994 ] ] ], [ [ [ -46.561745899999949, -22.79819649999996 ], [ -46.561638799999969, -22.796236199999942 ], [ -46.559622699999977, -22.796003399999957 ], [ -46.559524899999985, -22.794704299999974 ], [ -46.559451599999932, -22.794713899999969 ], [ -46.558613599999951, -22.794720199999972 ], [ -46.5575894, -22.794704299999982 ], [ -46.556472299999946, -22.794671699999981 ], [ -46.555374299999983, -22.794664199999939 ], [ -46.555277899999965, -22.794674 ], [ -46.555052, -22.794650799999943 ], [ -46.555019, -22.795243799999984 ], [ -46.555006599999963, -22.795723499999937 ], [ -46.554968499999973, -22.796474299999939 ], [ -46.554950699999949, -22.796703499999978 ], [ -46.554914899999972, -22.796956399999953 ], [ -46.5549, -22.797181399999943 ], [ -46.554905799999979, -22.797638099999972 ], [ -46.554896899999967, -22.798064599999975 ], [ -46.554889699999933, -22.79840919999997 ], [ -46.554861799999969, -22.798796599999935 ], [ -46.554845599999972, -22.799182099999943 ], [ -46.557196799999986, -22.799507199999944 ], [ -46.559022499999969, -22.799455499999961 ], [ -46.559066099999939, -22.79958629999993 ], [ -46.559103499999935, -22.799631399999956 ], [ -46.559346099999971, -22.799748399999938 ], [ -46.559392899999978, -22.799744099999941 ], [ -46.560432899999967, -22.800031 ], [ -46.560996299999942, -22.798112599999964 ], [ -46.561745899999949, -22.79819649999996 ] ] ], [ [ [ -46.567068299999967, -22.781270299999949 ], [ -46.567154599999988, -22.781195599999947 ], [ -46.567403699999943, -22.78093 ], [ -46.567541499999948, -22.780671799999936 ], [ -46.567601199999956, -22.780627899999953 ], [ -46.567788799999953, -22.780638599999982 ], [ -46.567924099999971, -22.780660199999947 ], [ -46.568087699999978, -22.78071169999993 ], [ -46.568270899999959, -22.780308899999977 ], [ -46.567416099999953, -22.780094199999951 ], [ -46.566639699999946, -22.779959699999939 ], [ -46.565945499999941, -22.779845699999942 ], [ -46.565460799999983, -22.779796 ], [ -46.565445899999986, -22.779676499999926 ], [ -46.565524399999966, -22.779604899999967 ], [ -46.565575399999943, -22.779516 ], [ -46.565615799999932, -22.779349399999941 ], [ -46.565697099999966, -22.779203399999968 ], [ -46.565840299999934, -22.779036699999949 ], [ -46.566268699999959, -22.778715599999952 ], [ -46.566496299999976, -22.778560799999983 ], [ -46.56669119999998, -22.778430499999942 ], [ -46.566897199999971, -22.778288699999965 ], [ -46.567144, -22.778150499999985 ], [ -46.567345799999941, -22.778049599999967 ], [ -46.567515799999967, -22.77798429999995 ], [ -46.567802, -22.777836799999932 ], [ -46.568074199999955, -22.777688499999943 ], [ -46.568294899999955, -22.777542299999929 ], [ -46.568528299999976, -22.777390899999951 ], [ -46.568619799999965, -22.777390699999955 ], [ -46.568664699999943, -22.777421099999966 ], [ -46.568703299999981, -22.777507499999956 ], [ -46.568750699999953, -22.777643799999971 ], [ -46.568778499999944, -22.777737399999975 ], [ -46.568808599999954, -22.777852199999927 ], [ -46.568857599999951, -22.777999199999961 ], [ -46.56890709999994, -22.778187499999948 ], [ -46.568978799999968, -22.778510899999954 ], [ -46.569116699999938, -22.779021099999966 ], [ -46.569169599999952, -22.779209499999975 ], [ -46.56921889999996, -22.779391599999933 ], [ -46.569277499999949, -22.779570399999958 ], [ -46.56935969999995, -22.779794499999987 ], [ -46.569920299999978, -22.779692699999949 ], [ -46.56950089999998, -22.778341599999976 ], [ -46.56922139999994, -22.777246699999978 ], [ -46.5688952, -22.776861299999954 ], [ -46.568552199999949, -22.776888799999931 ], [ -46.568427199999974, -22.776687599999942 ], [ -46.566756299999952, -22.777301799999975 ], [ -46.566114599999942, -22.777200099999956 ], [ -46.566046799999981, -22.776442 ], [ -46.566339099999944, -22.775586399999952 ], [ -46.565826599999973, -22.775416899999978 ], [ -46.565803299999978, -22.77549949999996 ], [ -46.565261099999937, -22.775478399999937 ], [ -46.565019699999937, -22.774870599999925 ], [ -46.565453899999973, -22.774762599999978 ], [ -46.565111799999954, -22.774367599999948 ], [ -46.565492, -22.773958899999961 ], [ -46.565201799999954, -22.773647499999981 ], [ -46.565964199999939, -22.773373299999943 ], [ -46.565907099999947, -22.773068299999977 ], [ -46.566000199999969, -22.77303129999995 ], [ -46.566470399999957, -22.772948699999965 ], [ -46.56634969999994, -22.772359899999977 ], [ -46.565990799999945, -22.772062699999939 ], [ -46.565793299999939, -22.77217 ], [ -46.565545499999985, -22.772277199999973 ], [ -46.565244499999956, -22.772364599999943 ], [ -46.564910599999955, -22.772469399999977 ], [ -46.564638299999963, -22.772608699999978 ], [ -46.564436899999976, -22.772859 ], [ -46.564289099999932, -22.77313729999997 ], [ -46.564193399999965, -22.773316699999953 ], [ -46.564003399999933, -22.77359539999998 ], [ -46.563820799999974, -22.773845099999964 ], [ -46.563613699999969, -22.774086799999967 ], [ -46.563381199999988, -22.774295499999941 ], [ -46.563110299999948, -22.774479799999931 ], [ -46.562842299999943, -22.774652799999959 ], [ -46.563014199999941, -22.774985099999977 ], [ -46.563110599999966, -22.775244899999947 ], [ -46.563180899999963, -22.775520399999941 ], [ -46.563225799999948, -22.775827499999938 ], [ -46.563248699999981, -22.77608239999994 ], [ -46.56326259999998, -22.776479 ], [ -46.563296, -22.776873 ], [ -46.563347599999979, -22.777450099999953 ], [ -46.563375599999972, -22.778024599999988 ], [ -46.563417099999981, -22.778721499999971 ], [ -46.563467799999955, -22.77931759999997 ], [ -46.563503099999942, -22.779858099999952 ], [ -46.56351079999996, -22.780322499999958 ], [ -46.563475499999981, -22.780598799999954 ], [ -46.5634199, -22.780863499999949 ], [ -46.563325799999973, -22.781133399999934 ], [ -46.563158299999941, -22.781432199999987 ], [ -46.562992, -22.781629799999976 ], [ -46.564946599999985, -22.782087099999949 ], [ -46.565612299999941, -22.781642199999958 ], [ -46.565741799999955, -22.781587399999985 ], [ -46.566327899999976, -22.781117599999956 ], [ -46.566508799999959, -22.781154099999981 ], [ -46.566646599999949, -22.781194 ], [ -46.566860799999979, -22.78130689999994 ], [ -46.566960399999971, -22.781308499999962 ], [ -46.567068299999967, -22.781270299999949 ] ] ], [ [ [ -46.564214199999981, -22.753503899999945 ], [ -46.563807799999957, -22.753300599999925 ], [ -46.563715499999944, -22.753520799999936 ], [ -46.563666599999983, -22.75356219999998 ], [ -46.563574399999943, -22.753605499999928 ], [ -46.56337869999993, -22.7536224 ], [ -46.563320399999952, -22.75364119999994 ], [ -46.563282699999945, -22.753686399999946 ], [ -46.563250699999976, -22.753756 ], [ -46.563215, -22.753910399999938 ], [ -46.56316419999996, -22.753974299999967 ], [ -46.561931499999957, -22.753526499999968 ], [ -46.562307899999944, -22.75290919999998 ], [ -46.561338699999972, -22.752350299999918 ], [ -46.560514699999935, -22.75163049999998 ], [ -46.560242199999948, -22.751823799999961 ], [ -46.559685699999939, -22.752210799999936 ], [ -46.559399299999939, -22.752436599999957 ], [ -46.559190799999953, -22.752657099999965 ], [ -46.559038, -22.752909 ], [ -46.558907499999982, -22.753159099999952 ], [ -46.558801099999982, -22.753421 ], [ -46.55874549999993, -22.753664499999953 ], [ -46.558751899999947, -22.753916599999968 ], [ -46.558795599999939, -22.754157799999962 ], [ -46.558977599999942, -22.754683099999959 ], [ -46.559231299999958, -22.755365299999937 ], [ -46.559316899999949, -22.75562709999997 ], [ -46.559364499999951, -22.755897799999968 ], [ -46.559379599999943, -22.756160699999953 ], [ -46.559350199999983, -22.756462299999942 ], [ -46.559290799999978, -22.75692619999996 ], [ -46.559201299999984, -22.757648399999933 ], [ -46.559158199999956, -22.757932 ], [ -46.559091599999931, -22.758301699999951 ], [ -46.559029399999986, -22.758681699999965 ], [ -46.559008199999937, -22.75897249999996 ], [ -46.559022299999974, -22.759217699999972 ], [ -46.559968699999956, -22.759111799999967 ], [ -46.559788099999935, -22.758765599999943 ], [ -46.562513, -22.758133299999944 ], [ -46.564801399999965, -22.757139599999967 ], [ -46.564726099999973, -22.756401899999968 ], [ -46.564003499999956, -22.755370699999958 ], [ -46.563800199999953, -22.754444799999924 ], [ -46.564214199999981, -22.753503899999945 ] ] ], [ [ [ -46.567210199999984, -22.751456399999924 ], [ -46.567281699999974, -22.751591899999926 ], [ -46.567357, -22.75192689999994 ], [ -46.567436, -22.752111299999953 ], [ -46.567628, -22.75232579999993 ], [ -46.567771, -22.752536599999921 ], [ -46.567962899999941, -22.752905399999968 ], [ -46.56802689999995, -22.753176399999962 ], [ -46.568128499999943, -22.753349599999975 ], [ -46.568215099999982, -22.753582899999962 ], [ -46.568249, -22.753718399999961 ], [ -46.56833179999996, -22.753782399999988 ], [ -46.56844469999993, -22.753812499999981 ], [ -46.56860649999993, -22.753838799999979 ], [ -46.568663, -22.753914099999974 ], [ -46.568760799999957, -22.754155 ], [ -46.568903899999953, -22.754441 ], [ -46.569069499999955, -22.75484 ], [ -46.569189899999969, -22.755254 ], [ -46.569242599999932, -22.755479799999929 ], [ -46.569325399999961, -22.755607799999943 ], [ -46.569415699999972, -22.755788499999944 ], [ -46.569517299999973, -22.75602559999993 ], [ -46.569555, -22.756228799999977 ], [ -46.569547499999942, -22.756341699999943 ], [ -46.569487199999969, -22.756398199999989 ], [ -46.569344199999925, -22.756477199999956 ], [ -46.56925769999998, -22.7565676 ], [ -46.56925769999998, -22.756669199999983 ], [ -46.569310299999984, -22.75677079999997 ], [ -46.569430799999964, -22.756921299999927 ], [ -46.569573799999944, -22.757203599999958 ], [ -46.569671699999958, -22.757312799999958 ], [ -46.570017899999989, -22.757497199999936 ], [ -46.570101699999952, -22.757607299999961 ], [ -46.570371699999953, -22.75759979999998 ], [ -46.570545799999927, -22.757617599999936 ], [ -46.570769699999978, -22.757655299999954 ], [ -46.571146099999964, -22.757790799999945 ], [ -46.571289099999944, -22.757760699999945 ], [ -46.571447199999973, -22.757662799999938 ], [ -46.571575199999984, -22.757459599999951 ], [ -46.571725699999945, -22.757248799999953 ], [ -46.571778399999978, -22.757045499999951 ], [ -46.57177089999994, -22.756879899999934 ], [ -46.571816, -22.756714299999931 ], [ -46.571891299999955, -22.756609 ], [ -46.571989199999962, -22.756390699999933 ], [ -46.572132199999942, -22.75590139999996 ], [ -46.572132199999942, -22.755600299999969 ], [ -46.572026799999946, -22.755299199999964 ], [ -46.571936499999936, -22.755133599999965 ], [ -46.571921399999958, -22.75494539999994 ], [ -46.571936499999936, -22.754779799999927 ], [ -46.572064499999961, -22.754561499999969 ], [ -46.572109599999983, -22.754358199999952 ], [ -46.572102099999945, -22.754155 ], [ -46.572049399999969, -22.753823799999957 ], [ -46.571959099999958, -22.75356789999995 ], [ -46.571921399999944, -22.753379699999986 ], [ -46.571929, -22.753199 ], [ -46.571846199999982, -22.752566699999917 ], [ -46.571846199999989, -22.752325799999934 ], [ -46.571816, -22.752212899999954 ], [ -46.571748299999967, -22.752084899999932 ], [ -46.571740799999937, -22.751866599999978 ], [ -46.571770899999933, -22.751543 ], [ -46.571816, -22.751369799999971 ], [ -46.571838599999978, -22.751159099999946 ], [ -46.571891299999947, -22.75102359999994 ], [ -46.571981699999981, -22.750888099999933 ], [ -46.57213969999998, -22.75067729999995 ], [ -46.572252599999956, -22.750609599999962 ], [ -46.572305299999982, -22.750519199999928 ], [ -46.5723354, -22.750022399999985 ], [ -46.572297799999944, -22.749871899999963 ], [ -46.572207499999934, -22.749623499999927 ], [ -46.572162299999945, -22.749450299999982 ], [ -46.5722, -22.7493224 ], [ -46.572215, -22.749186899999923 ], [ -46.572184899999968, -22.749013699999978 ], [ -46.572230099999963, -22.748757799999968 ], [ -46.572455899999966, -22.748328699999956 ], [ -46.572629, -22.748230899999946 ], [ -46.572892499999966, -22.748102899999928 ], [ -46.5731785, -22.748057699999947 ], [ -46.573283899999971, -22.74799 ], [ -46.573442, -22.747952399999971 ], [ -46.5736151, -22.747967399999943 ], [ -46.573916199999985, -22.748020099999962 ], [ -46.57447319999995, -22.748148099999973 ], [ -46.574831499999959, -22.748182199999974 ], [ -46.574850599999927, -22.748303899999936 ], [ -46.574823199999969, -22.748447 ], [ -46.57486669999998, -22.748590799999928 ], [ -46.574884099999963, -22.748673699999923 ], [ -46.57494209999993, -22.748740499999943 ], [ -46.575013, -22.748784599999958 ], [ -46.5750968, -22.748814 ], [ -46.575169599999988, -22.74881849999996 ], [ -46.575405799999942, -22.748792599999934 ], [ -46.575660399999947, -22.748798799999978 ], [ -46.575918099999967, -22.74880329999996 ], [ -46.57606329999993, -22.748839299999933 ], [ -46.576140099999982, -22.748859399999965 ], [ -46.576237099999958, -22.748892799999965 ], [ -46.576302299999952, -22.748908799999985 ], [ -46.576384399999931, -22.748921899999971 ], [ -46.576460499999939, -22.748919699999927 ], [ -46.576652099999933, -22.748843299999972 ], [ -46.57686, -22.748722 ], [ -46.576995, -22.748633 ], [ -46.577146799999987, -22.748537599999963 ], [ -46.577267099999972, -22.748444499999945 ], [ -46.577377499999962, -22.74832 ], [ -46.577444399999941, -22.748201799999954 ], [ -46.577492, -22.748147599999971 ], [ -46.577573, -22.748085199999924 ], [ -46.57767309999997, -22.748037399999927 ], [ -46.577928099999951, -22.747941299999976 ], [ -46.578392099999974, -22.747756599999942 ], [ -46.578573099999971, -22.747701199999945 ], [ -46.578665599999972, -22.747678899999983 ], [ -46.578831599999944, -22.747654399999931 ], [ -46.578970599999941, -22.747647699999956 ], [ -46.579277699999977, -22.747639299999957 ], [ -46.579524, -22.747628599999928 ], [ -46.579699299999959, -22.74761389999998 ], [ -46.579814299999953, -22.74759569999997 ], [ -46.579980299999932, -22.747555199999972 ], [ -46.580206299999986, -22.747463 ], [ -46.58037429999996, -22.747396899999963 ], [ -46.580458399999948, -22.747371499999925 ], [ -46.580549599999983, -22.747348799999937 ], [ -46.580852099999959, -22.747287399999941 ], [ -46.581287699999962, -22.747233599999948 ], [ -46.5814898, -22.74720979999994 ], [ -46.581633199999942, -22.747196499999973 ], [ -46.581807, -22.74720579999995 ], [ -46.582086599999968, -22.747240599999934 ], [ -46.582224199999985, -22.747252599999975 ], [ -46.582415199999957, -22.747285899999952 ], [ -46.582490199999938, -22.745656499999939 ], [ -46.5823678, -22.745416299999935 ], [ -46.582160599999945, -22.745256199999968 ], [ -46.581901599999988, -22.745034799999921 ], [ -46.581411799999955, -22.744884099999982 ], [ -46.581002099999978, -22.744860599999974 ], [ -46.581169299999949, -22.742880299999968 ], [ -46.581065699999954, -22.742878 ], [ -46.580262699999935, -22.743021599999963 ], [ -46.580733699999946, -22.739433099999932 ], [ -46.580535899999973, -22.739588499999972 ], [ -46.580389899999943, -22.739673299999929 ], [ -46.580262699999942, -22.739682699999943 ], [ -46.579933099999948, -22.739593199999945 ], [ -46.579843599999947, -22.739541399999958 ], [ -46.579805899999947, -22.739565 ], [ -46.579316199999944, -22.739565 ], [ -46.579151299999985, -22.73954609999992 ], [ -46.57892529999998, -22.739433099999921 ], [ -46.578793399999945, -22.739442499999935 ], [ -46.578576799999951, -22.739588499999975 ], [ -46.578171799999957, -22.739696799999933 ], [ -46.57795519999997, -22.739833399999952 ], [ -46.577837499999923, -22.739937 ], [ -46.577771499999983, -22.740167799999931 ], [ -46.577696199999941, -22.740299599999958 ], [ -46.577573699999967, -22.740351399999938 ], [ -46.577465399999937, -22.740530399999955 ], [ -46.577357099999972, -22.740958899999953 ], [ -46.577291199999934, -22.741057799999954 ], [ -46.577206399999966, -22.741071899999955 ], [ -46.577098099999951, -22.741076699999944 ], [ -46.577046299999957, -22.741147299999966 ], [ -46.576985099999952, -22.741260299999972 ], [ -46.576839099999972, -22.74139219999994 ], [ -46.576608299999975, -22.741448699999982 ], [ -46.576490599999943, -22.741495799999925 ], [ -46.576434099999972, -22.74156169999997 ], [ -46.576377599999944, -22.74167 ], [ -46.576302199999922, -22.741726499999967 ], [ -46.576222199999968, -22.741740699999987 ], [ -46.576038499999989, -22.741717099999953 ], [ -46.575826599999978, -22.741759499999954 ], [ -46.575562899999966, -22.741971399999947 ], [ -46.575336799999953, -22.742089199999945 ], [ -46.575280299999982, -22.742192799999941 ], [ -46.575082499999958, -22.742381099999935 ], [ -46.574677499999957, -22.742555399999951 ], [ -46.574065299999972, -22.742894399999958 ], [ -46.573820399999931, -22.74298859999994 ], [ -46.573688599999969, -22.743064 ], [ -46.573655599999945, -22.743181699999973 ], [ -46.573627299999949, -22.743403 ], [ -46.573584899999958, -22.743530199999956 ], [ -46.573504899999932, -22.743577299999966 ], [ -46.573401299999944, -22.743596099999934 ], [ -46.573269399999958, -22.743582 ], [ -46.573184699999963, -22.743605499999937 ], [ -46.572996299999936, -22.743737399999929 ], [ -46.572873799999975, -22.743841 ], [ -46.572718399999985, -22.744005799999972 ], [ -46.572694899999931, -22.744147099999964 ], [ -46.572727899999961, -22.744302499999939 ], [ -46.572812599999963, -22.744425 ], [ -46.572765499999953, -22.744514399999954 ], [ -46.572822, -22.745202 ], [ -46.57287679999996, -22.746853199999972 ], [ -46.572767599999963, -22.746845599999972 ], [ -46.572509199999956, -22.746822699999935 ], [ -46.572321399999971, -22.746841299999975 ], [ -46.572032399999962, -22.746900799999935 ], [ -46.57180939999995, -22.746951599999925 ], [ -46.571667899999966, -22.746969599999932 ], [ -46.571517899999947, -22.746976099999923 ], [ -46.571273699999949, -22.746954899999935 ], [ -46.57096439999998, -22.746920099999954 ], [ -46.570697899999971, -22.745955599999945 ], [ -46.570623099999978, -22.745682899999967 ], [ -46.5705387, -22.745374099999928 ], [ -46.570482099999936, -22.745090599999958 ], [ -46.570477499999981, -22.744795799999959 ], [ -46.570536299999958, -22.744536299999933 ], [ -46.570629099999969, -22.744254 ], [ -46.570765099999953, -22.743973299999929 ], [ -46.570889499999964, -22.743642699999956 ], [ -46.57094, -22.743339099999965 ], [ -46.570929, -22.743038 ], [ -46.570887899999946, -22.742803899999949 ], [ -46.570820099999928, -22.742569499999938 ], [ -46.570552299999974, -22.742579099999951 ], [ -46.570297099999948, -22.742581499999972 ], [ -46.570027, -22.742580799999924 ], [ -46.569748199999943, -22.742597299999947 ], [ -46.569443699999965, -22.742617799999952 ], [ -46.569108199999953, -22.742609499999965 ], [ -46.568755599999974, -22.742601499999978 ], [ -46.568451499999981, -22.742589699999929 ], [ -46.568112599999949, -22.742568699999932 ], [ -46.56783709999997, -22.742548899999964 ], [ -46.56755069999997, -22.742515199999954 ], [ -46.567245599999985, -22.742497199999942 ], [ -46.56698669999998, -22.74252219999995 ], [ -46.566769399999941, -22.742560799999989 ], [ -46.566561599999943, -22.74265 ], [ -46.565899, -22.742534299999935 ], [ -46.565834699999982, -22.742416299999942 ], [ -46.56574349999994, -22.742303899999964 ], [ -46.565662299999978, -22.742186299999961 ], [ -46.56563459999996, -22.742105899999959 ], [ -46.565596299999982, -22.742023299999975 ], [ -46.565529399999939, -22.741971899999953 ], [ -46.565414, -22.741916699999926 ], [ -46.565324199999971, -22.741855699999967 ], [ -46.565273299999944, -22.741770499999969 ], [ -46.56527779999994, -22.741712099999969 ], [ -46.565259899999937, -22.741587899999953 ], [ -46.565200399999974, -22.741478 ], [ -46.565115799999944, -22.741369 ], [ -46.565058699999959, -22.741237799999958 ], [ -46.565034599999933, -22.741067599999958 ], [ -46.564795899999979, -22.741057699999935 ], [ -46.564664599999958, -22.741043499999911 ], [ -46.564436499999942, -22.741014099999973 ], [ -46.564260299999944, -22.741002899999945 ], [ -46.564129199999975, -22.740970199999946 ], [ -46.563992599999956, -22.740904 ], [ -46.563906699999961, -22.740830599999974 ], [ -46.563858, -22.74074829999994 ], [ -46.563794799999982, -22.740614099999956 ], [ -46.563772499999978, -22.740502799999952 ], [ -46.563758199999938, -22.74035779999997 ], [ -46.563742499999933, -22.740255199999979 ], [ -46.563706899999943, -22.740174 ], [ -46.563639099999939, -22.740119799999945 ], [ -46.563635799999979, -22.739856699999969 ], [ -46.563655499999982, -22.739177099999942 ], [ -46.563674599999956, -22.738389399999956 ], [ -46.563700899999958, -22.737892599999949 ], [ -46.563762199999985, -22.737526099999965 ], [ -46.563905899999959, -22.736894699999926 ], [ -46.564041799999984, -22.736237 ], [ -46.564113799999973, -22.735907699999927 ], [ -46.564216, -22.735469899999938 ], [ -46.564306699999975, -22.735009899999966 ], [ -46.564217, -22.735150099999952 ], [ -46.564085399999954, -22.735264 ], [ -46.563877399999967, -22.735332699999955 ], [ -46.563738699999931, -22.735372099999939 ], [ -46.56359029999993, -22.735443299999933 ], [ -46.563317099999949, -22.735715699999961 ], [ -46.563004499999984, -22.735912599999946 ], [ -46.56276139999995, -22.736110599999943 ], [ -46.562514199999953, -22.736382699999972 ], [ -46.562419699999971, -22.736542199999967 ], [ -46.562354099999943, -22.736695199999925 ], [ -46.562320199999931, -22.736816799999925 ], [ -46.562258899999954, -22.736972499999979 ], [ -46.562195499999973, -22.73714069999993 ], [ -46.562017399999945, -22.737562199999953 ], [ -46.561942, -22.737709599999967 ], [ -46.561834099999942, -22.737850399999957 ], [ -46.561652299999935, -22.738008799999918 ], [ -46.561455299999977, -22.738175099999985 ], [ -46.561296299999981, -22.738277299999929 ], [ -46.561052, -22.738410299999927 ], [ -46.560899299999967, -22.738550199999963 ], [ -46.560807499999953, -22.738688199999963 ], [ -46.560778299999981, -22.738835399999967 ], [ -46.560800399999948, -22.738990899999973 ], [ -46.56084309999995, -22.739160699999964 ], [ -46.56083609999996, -22.739261099999972 ], [ -46.560794799999947, -22.739359499999971 ], [ -46.560705699999978, -22.739466099999955 ], [ -46.560559099999985, -22.739541399999961 ], [ -46.560444099999977, -22.739564799999982 ], [ -46.5602952, -22.739563399999945 ], [ -46.560167399999955, -22.739519499999979 ], [ -46.56003439999995, -22.739477 ], [ -46.559833099999935, -22.739464799999958 ], [ -46.559657799999968, -22.739470599999954 ], [ -46.559493599999932, -22.739463899999972 ], [ -46.559280399999984, -22.739434199999948 ], [ -46.559132399999946, -22.739378599999945 ], [ -46.558993899999962, -22.739286099999951 ], [ -46.558868899999943, -22.739322899999923 ], [ -46.558663399999944, -22.739480199999957 ], [ -46.558510199999944, -22.739692599999952 ], [ -46.558293, -22.739666599999964 ], [ -46.55812009999994, -22.739624799999937 ], [ -46.557880599999976, -22.739605699999974 ], [ -46.557722799999965, -22.739610799999983 ], [ -46.557602499999973, -22.739626799999932 ], [ -46.557434599999972, -22.739655799999976 ], [ -46.557268799999967, -22.739718899999957 ], [ -46.557061499999968, -22.739841599999977 ], [ -46.556773199999952, -22.740027099999967 ], [ -46.5564414, -22.74025759999995 ], [ -46.556311899999969, -22.740374499999966 ], [ -46.556062, -22.740641899999957 ], [ -46.555696099999984, -22.741025099999938 ], [ -46.555441099999939, -22.741401099999958 ], [ -46.555286399999943, -22.741711699999932 ], [ -46.555244199999954, -22.741873099999964 ], [ -46.555226399999988, -22.742022 ], [ -46.555169099999944, -22.742193699999959 ], [ -46.555098099999945, -22.742281799999937 ], [ -46.554977899999983, -22.742335299999986 ], [ -46.554516399999955, -22.742343299999966 ], [ -46.554421499999933, -22.74237329999994 ], [ -46.554353599999963, -22.742458099999958 ], [ -46.554536799999937, -22.742689599999949 ], [ -46.554654299999989, -22.742962399999954 ], [ -46.554741199999967, -22.743137699999981 ], [ -46.554836599999931, -22.743452499999943 ], [ -46.554865699999944, -22.743613499999984 ], [ -46.554918499999985, -22.743853299999948 ], [ -46.55495389999993, -22.744011599999965 ], [ -46.555011799999932, -22.744245299999925 ], [ -46.555098499999986, -22.744590399999918 ], [ -46.555168899999956, -22.744767699999951 ], [ -46.555352199999959, -22.745045199999932 ], [ -46.555599699999959, -22.745386 ], [ -46.555721, -22.74555319999995 ], [ -46.555902399999972, -22.745808199999946 ], [ -46.555958299999986, -22.745975299999941 ], [ -46.556069299999933, -22.746530499999938 ], [ -46.556106299999954, -22.74666979999995 ], [ -46.556183199999964, -22.746803599999961 ], [ -46.556713499999944, -22.747251799999955 ], [ -46.556953099999937, -22.747531599999938 ], [ -46.557204399999932, -22.747838199999929 ], [ -46.557376399999953, -22.748095699999975 ], [ -46.557498699999947, -22.748366199999964 ], [ -46.557566, -22.748655099999954 ], [ -46.557620699999973, -22.748895699999935 ], [ -46.557663699999971, -22.749146699999979 ], [ -46.557708199999986, -22.749342099999975 ], [ -46.557789599999978, -22.749583199999964 ], [ -46.557905799999958, -22.749770499999958 ], [ -46.558032799999978, -22.749982099999954 ], [ -46.558182399999964, -22.750272499999934 ], [ -46.558336, -22.750482399999939 ], [ -46.558558399999981, -22.750632699999979 ], [ -46.558801699999954, -22.750821399999953 ], [ -46.558925199999983, -22.750967499999934 ], [ -46.559085599999953, -22.751114 ], [ -46.559320099999979, -22.751266199999979 ], [ -46.559516199999962, -22.751387299999973 ], [ -46.559710699999982, -22.751487199999922 ], [ -46.559858299999981, -22.751553299999955 ], [ -46.560080199999959, -22.751572099999969 ], [ -46.560268899999976, -22.751531099999966 ], [ -46.560436799999927, -22.751447199999976 ], [ -46.560684699999975, -22.751268 ], [ -46.560925099999956, -22.751113699999966 ], [ -46.561178299999945, -22.751001599999931 ], [ -46.561489399999971, -22.750879199999929 ], [ -46.561821599999973, -22.750542899999964 ], [ -46.562496799999963, -22.74995239999992 ], [ -46.562778499999979, -22.749668599999943 ], [ -46.563007899999945, -22.749377799999937 ], [ -46.563178, -22.749004799999959 ], [ -46.56327239999996, -22.748671099999967 ], [ -46.563701699999967, -22.748481199999961 ], [ -46.564151099999954, -22.748278299999978 ], [ -46.564474299999979, -22.748144099999923 ], [ -46.564738399999953, -22.748052599999934 ], [ -46.564967099999933, -22.747988699999951 ], [ -46.565271, -22.747899599999986 ], [ -46.565572199999963, -22.747794599999956 ], [ -46.565814099999955, -22.74770969999998 ], [ -46.566238199999937, -22.747564299999969 ], [ -46.566819199999941, -22.747383 ], [ -46.567241699999954, -22.747330899999959 ], [ -46.567550499999975, -22.747348299999938 ], [ -46.567780399999954, -22.747413 ], [ -46.567993399999978, -22.747496599999987 ], [ -46.568314899999962, -22.747626399999945 ], [ -46.567526299999948, -22.748558299999956 ], [ -46.567752199999973, -22.749604599999937 ], [ -46.567579, -22.74988319999995 ], [ -46.567266599999982, -22.750267099999967 ], [ -46.567206399999982, -22.750428899999964 ], [ -46.567119799999951, -22.750865499999978 ], [ -46.567112299999962, -22.751053699999943 ], [ -46.56713869999993, -22.751279499999956 ], [ -46.567210199999984, -22.751456399999924 ] ] ], [ [ [ -46.550905299999961, -22.735785899999936 ], [ -46.550556599999936, -22.735548699999978 ], [ -46.549481899999925, -22.734948399999958 ], [ -46.549170299999965, -22.734756899999976 ], [ -46.550082099999941, -22.733653599999972 ], [ -46.549836299999988, -22.733436399999956 ], [ -46.552191599999951, -22.731029699999965 ], [ -46.551680599999941, -22.730761499999968 ], [ -46.552111499999967, -22.730012199999976 ], [ -46.551539899999966, -22.72989779999995 ], [ -46.547818399999983, -22.729211799999973 ], [ -46.5473267, -22.732721799999975 ], [ -46.547275299999967, -22.733339199999929 ], [ -46.547109499999976, -22.733888 ], [ -46.546712199999945, -22.734568299999985 ], [ -46.546572099999935, -22.734719799999937 ], [ -46.546220599999963, -22.7349627 ], [ -46.546083399999929, -22.735099899999977 ], [ -46.546798, -22.735288599999922 ], [ -46.548007, -22.735628699999957 ], [ -46.548012699999958, -22.736217499999949 ], [ -46.548824499999967, -22.736732 ], [ -46.549356099999954, -22.737938199999981 ], [ -46.550933899999961, -22.738332699999937 ], [ -46.551894299999958, -22.737023599999933 ], [ -46.551898599999966, -22.73701729999993 ], [ -46.551356899999973, -22.736749199999963 ], [ -46.551228299999941, -22.736697699999961 ], [ -46.55106539999997, -22.736557699999928 ], [ -46.550976799999951, -22.736397599999961 ], [ -46.550922499999963, -22.736220399999983 ], [ -46.550853899999936, -22.736123199999945 ], [ -46.550899599999987, -22.735997399999963 ], [ -46.5509196, -22.735871699999961 ], [ -46.550905299999961, -22.735785899999936 ] ] ] ] } }
]
}
