{
"type": "FeatureCollection",
"name": "3542602",
"crs": { "type": "name", "properties": { "name": "urn:ogc:def:crs:OGC:1.3:CRS84" } },
"features": [
{ "type": "Feature", "properties": { "CD_MUN": "3542602", "NM_MUN": "Registro" }, "geometry": { "type": "MultiPolygon", "coordinates": [ [ [ [ -47.867764899999941, -24.535751099999974 ], [ -47.86775839999995, -24.535647299999948 ], [ -47.867798099999959, -24.535238599999957 ], [ -47.867840499999943, -24.534987599999969 ], [ -47.867855199999958, -24.534822499999969 ], [ -47.867919499999978, -24.534446699999926 ], [ -47.867920899999937, -24.534314 ], [ -47.875243399999931, -24.535274499999968 ], [ -47.87551789999997, -24.533429799999965 ], [ -47.875328399999944, -24.533423099999933 ], [ -47.87395929999996, -24.533162699999927 ], [ -47.872882899999979, -24.53296969999996 ], [ -47.872679899999987, -24.532931399999935 ], [ -47.872456499999942, -24.532887299999974 ], [ -47.872027399999986, -24.532802699999934 ], [ -47.871753, -24.532737 ], [ -47.871407899999959, -24.532656699999958 ], [ -47.870923499999947, -24.53255 ], [ -47.870385499999934, -24.532430599999937 ], [ -47.870089699999937, -24.532364799999989 ], [ -47.869878699999958, -24.532317899999956 ], [ -47.869703299999969, -24.532287799999953 ], [ -47.869454499999968, -24.532258299999974 ], [ -47.8692387, -24.532239299999954 ], [ -47.869138399999947, -24.532232 ], [ -47.869054499999947, -24.532229499999975 ], [ -47.868973099999948, -24.532239 ], [ -47.868904199999974, -24.532253299999979 ], [ -47.868840899999952, -24.532275 ], [ -47.868783599999972, -24.53230619999994 ], [ -47.868707899999947, -24.532359599999939 ], [ -47.868305, -24.532658699999946 ], [ -47.868264199999949, -24.532620699999946 ], [ -47.868226799999952, -24.532585899999962 ], [ -47.868191599999932, -24.532533299999951 ], [ -47.868144599999937, -24.532449899999957 ], [ -47.868102099999923, -24.53237259999997 ], [ -47.868045799999955, -24.532214399999933 ], [ -47.867495599999984, -24.532260599999958 ], [ -47.866893099999977, -24.532269799999931 ], [ -47.866590799999983, -24.532257599999987 ], [ -47.866312, -24.532241499999937 ], [ -47.865607799999964, -24.532181899999962 ], [ -47.864847, -24.532036099999974 ], [ -47.863934299999983, -24.531885099999947 ], [ -47.863178099999978, -24.531799 ], [ -47.862824599999961, -24.531782599999936 ], [ -47.862651399999947, -24.531770499999933 ], [ -47.862474199999959, -24.531758099999941 ], [ -47.86224889999994, -24.53178239999994 ], [ -47.861931, -24.531824799999974 ], [ -47.861419, -24.531820699999972 ], [ -47.860988299999974, -24.531791599999956 ], [ -47.86060139999995, -24.531839299999927 ], [ -47.860474599999975, -24.532043099999964 ], [ -47.860358799999972, -24.532331599999971 ], [ -47.860483699999975, -24.533323 ], [ -47.860425299999974, -24.533402399999943 ], [ -47.860327399999967, -24.533495199999955 ], [ -47.86029069999995, -24.533677599999976 ], [ -47.860613899999976, -24.53512389999997 ], [ -47.860946199999944, -24.535478099999985 ], [ -47.861369899999936, -24.536876899999978 ], [ -47.867951, -24.536522599999945 ], [ -47.867874599999929, -24.536205599999963 ], [ -47.867815899999982, -24.536014499999954 ], [ -47.867764899999941, -24.535751099999974 ] ] ], [ [ [ -47.886966199999961, -24.534269399999971 ], [ -47.887009199999973, -24.534129499999953 ], [ -47.887134599999975, -24.533952599999964 ], [ -47.887249699999984, -24.533872599999938 ], [ -47.887419399999942, -24.53382369999996 ], [ -47.887491, -24.53369779999997 ], [ -47.887503499999987, -24.533545599999961 ], [ -47.887406699999985, -24.533310699999955 ], [ -47.887599499999972, -24.533155399999934 ], [ -47.887747599999955, -24.533020099999931 ], [ -47.887769099999957, -24.533000399999924 ], [ -47.887836099999959, -24.533000399999938 ], [ -47.888108799999941, -24.53299009999995 ], [ -47.888757799999958, -24.532786399999964 ], [ -47.889044299999966, -24.532717399999971 ], [ -47.889337699999935, -24.532686299999966 ], [ -47.889717399999931, -24.532617299999984 ], [ -47.890069499999981, -24.532593099999939 ], [ -47.890535499999942, -24.532610399999957 ], [ -47.890702, -24.532655299999934 ], [ -47.890700899999956, -24.532615499999967 ], [ -47.890606299999952, -24.525928 ], [ -47.889450599999975, -24.526055699999979 ], [ -47.888815099999938, -24.5263844 ], [ -47.888501, -24.526479299999949 ], [ -47.887982399999942, -24.526596199999965 ], [ -47.88760259999998, -24.526669199999958 ], [ -47.887222799999961, -24.526669199999954 ], [ -47.886412, -24.526479299999956 ], [ -47.885798499999972, -24.526106799999976 ], [ -47.881924399999946, -24.524099299999925 ], [ -47.881865, -24.524207499999935 ], [ -47.881783599999949, -24.524354799999969 ], [ -47.881703099999982, -24.52450029999995 ], [ -47.881626599999954, -24.524638599999939 ], [ -47.881498, -24.524871199999946 ], [ -47.881401699999977, -24.52504539999995 ], [ -47.881258, -24.525337899999943 ], [ -47.881228899999947, -24.525464399999972 ], [ -47.881199399999964, -24.525593 ], [ -47.881174899999962, -24.525774899999924 ], [ -47.88108619999997, -24.526008199999968 ], [ -47.881017199999981, -24.526313799999961 ], [ -47.880941699999937, -24.526597299999931 ], [ -47.880920199999942, -24.526678 ], [ -47.880894599999984, -24.526774199999981 ], [ -47.880869399999945, -24.526869099999942 ], [ -47.880797099999945, -24.526987399999939 ], [ -47.880725699999971, -24.52705889999994 ], [ -47.880642599999931, -24.527115499999979 ], [ -47.880549599999938, -24.527163599999938 ], [ -47.880445499999951, -24.527211499999954 ], [ -47.88036029999995, -24.527243799999948 ], [ -47.880275299999944, -24.527276099999938 ], [ -47.880199, -24.527306099999965 ], [ -47.879986599999938, -24.527445699999941 ], [ -47.879791599999969, -24.527680699999955 ], [ -47.876210399999934, -24.527245799999942 ], [ -47.873415699999953, -24.526932 ], [ -47.872840799999949, -24.53093369999992 ], [ -47.87612919999998, -24.531303099999953 ], [ -47.879347099999961, -24.53166449999998 ], [ -47.879315099999985, -24.53182749999997 ], [ -47.879299399999979, -24.532120199999955 ], [ -47.879447899999953, -24.532127099999961 ], [ -47.880003599999952, -24.532437799999968 ], [ -47.880241799999972, -24.532634499999961 ], [ -47.880314299999952, -24.532838199999951 ], [ -47.880300499999976, -24.533057399999965 ], [ -47.880248699999981, -24.533148899999951 ], [ -47.880017399999986, -24.533442299999926 ], [ -47.879724, -24.533841 ], [ -47.879644599999956, -24.534167199999949 ], [ -47.87965249999997, -24.534524799999929 ], [ -47.879651499999966, -24.534729899999938 ], [ -47.879665299999949, -24.535071599999981 ], [ -47.879706799999951, -24.535340799999965 ], [ -47.879768899999938, -24.535579 ], [ -47.879762, -24.535948399999938 ], [ -47.87972989999998, -24.536271899999971 ], [ -47.87964809999994, -24.536680199999978 ], [ -47.879565199999945, -24.536920099999971 ], [ -47.879929, -24.537028299999974 ], [ -47.880359299999952, -24.537184699999962 ], [ -47.880686399999945, -24.537348299999955 ], [ -47.881131599999947, -24.537506499999946 ], [ -47.881674399999959, -24.537790599999934 ], [ -47.881934599999973, -24.537952799999978 ], [ -47.882073299999938, -24.537991899999959 ], [ -47.882212, -24.538002599999981 ], [ -47.8823862, -24.538059499999985 ], [ -47.883090299999935, -24.53852529999995 ], [ -47.883285899999976, -24.538607099999982 ], [ -47.883410299999987, -24.538628499999966 ], [ -47.883691299999953, -24.5386 ], [ -47.883886799999971, -24.538575099999949 ], [ -47.884142899999972, -24.538553799999921 ], [ -47.885629299999948, -24.538511099999937 ], [ -47.886098, -24.538563199999935 ], [ -47.887051699999979, -24.538831199999937 ], [ -47.887336199999943, -24.538966299999963 ], [ -47.887381199999943, -24.539150199999934 ], [ -47.887517499999937, -24.539225899999959 ], [ -47.888116699999955, -24.53922 ], [ -47.888239899999974, -24.538988299999968 ], [ -47.888182899999954, -24.538636899999979 ], [ -47.887954, -24.537989499999984 ], [ -47.887636799999939, -24.538010699999983 ], [ -47.887251699999986, -24.538036499999968 ], [ -47.88700289999997, -24.537856599999934 ], [ -47.886735099999946, -24.537643599999971 ], [ -47.886540799999977, -24.537171699999927 ], [ -47.886596199999985, -24.536673199999939 ], [ -47.885350799999969, -24.536538199999935 ], [ -47.885307699999942, -24.536533499999962 ], [ -47.883633299999978, -24.53629369999992 ], [ -47.883840899999939, -24.53512129999995 ], [ -47.883583899999962, -24.535100799999952 ], [ -47.883136199999967, -24.535036499999936 ], [ -47.882636, -24.53495479999998 ], [ -47.882117499999943, -24.534892399999926 ], [ -47.882275099999958, -24.534078799999975 ], [ -47.886692899999957, -24.534599399999919 ], [ -47.886846599999956, -24.534457199999963 ], [ -47.886966199999961, -24.534269399999971 ] ] ], [ [ [ -47.823211599999986, -24.525537099999962 ], [ -47.814678699999945, -24.521281799999937 ], [ -47.814093299999968, -24.522228899999963 ], [ -47.812347799999941, -24.525052799999976 ], [ -47.81226079999994, -24.525082599999951 ], [ -47.80965579999998, -24.528339199999944 ], [ -47.809637499999944, -24.528364899999929 ], [ -47.809613799999966, -24.528400499999972 ], [ -47.806970099999951, -24.532298499999964 ], [ -47.80763369999994, -24.532407399999951 ], [ -47.80823179999993, -24.53246 ], [ -47.810662699999973, -24.532218299999958 ], [ -47.812214199999971, -24.532092 ], [ -47.813278899999943, -24.532532299999954 ], [ -47.814324099999965, -24.532931399999942 ], [ -47.81472469999995, -24.533084299999931 ], [ -47.815927299999935, -24.533564 ], [ -47.816111299999932, -24.533688899999945 ], [ -47.816557199999984, -24.53427639999996 ], [ -47.81663, -24.534339699999979 ], [ -47.816913099999958, -24.534372399999931 ], [ -47.817021399999931, -24.53438819999996 ], [ -47.817451899999973, -24.534451199999982 ], [ -47.817573399999958, -24.534519899999964 ], [ -47.817949499999948, -24.53385349999996 ], [ -47.818251299999986, -24.53331859999998 ], [ -47.819245199999955, -24.531777 ], [ -47.820421599999975, -24.529952199999958 ], [ -47.821889499999941, -24.527729099999917 ], [ -47.822321799999941, -24.527015099999964 ], [ -47.822539399999982, -24.526655799999961 ], [ -47.823245899999968, -24.525554199999927 ], [ -47.823211599999986, -24.525537099999962 ] ] ], [ [ [ -47.87269329999998, -24.513563599999937 ], [ -47.872916, -24.511927399999927 ], [ -47.870355899999943, -24.512283499999974 ], [ -47.868078799999978, -24.512583 ], [ -47.867972899999984, -24.512676099999958 ], [ -47.867635099999973, -24.513275099999927 ], [ -47.865642799999932, -24.512363899999958 ], [ -47.864242299999951, -24.512453299999937 ], [ -47.862671799999937, -24.513015799999934 ], [ -47.863382499999943, -24.514660199999977 ], [ -47.863997, -24.516244699999962 ], [ -47.864801299999954, -24.518184699999942 ], [ -47.865060199999959, -24.518712799999943 ], [ -47.865132599999981, -24.5189372 ], [ -47.865302299999939, -24.519354899999939 ], [ -47.865723199999934, -24.519436199999973 ], [ -47.868310699999945, -24.51989269999995 ], [ -47.870056399999953, -24.520064399999971 ], [ -47.870138599999962, -24.520135599999954 ], [ -47.870275599999964, -24.520190399999937 ], [ -47.870441699999958, -24.520148399999975 ], [ -47.870494699999938, -24.520000399999969 ], [ -47.870483699999973, -24.51989819999994 ], [ -47.872382799999968, -24.516430499999966 ], [ -47.87269329999998, -24.513563599999937 ] ] ], [ [ [ -47.853273499999943, -24.51913049999996 ], [ -47.853786099999979, -24.519208199999987 ], [ -47.854139899999943, -24.519232299999935 ], [ -47.854316, -24.519246199999941 ], [ -47.854975299999985, -24.518990699999954 ], [ -47.855344699999932, -24.518904399999951 ], [ -47.855582799999972, -24.518880199999963 ], [ -47.855803799999933, -24.518894099999955 ], [ -47.856166199999961, -24.519028699999978 ], [ -47.856300399999952, -24.519101399999961 ], [ -47.85650179999994, -24.517491 ], [ -47.856640699999957, -24.516569 ], [ -47.856900099999962, -24.514649799999972 ], [ -47.856973699999969, -24.514172899999952 ], [ -47.857094199999949, -24.513304499999943 ], [ -47.857269199999962, -24.512122 ], [ -47.857636599999978, -24.51182079999996 ], [ -47.858040599999988, -24.511717899999951 ], [ -47.85848679999998, -24.511670599999942 ], [ -47.858957299999986, -24.511595199999931 ], [ -47.85942479999995, -24.511540299999975 ], [ -47.8598358, -24.511475299999987 ], [ -47.860082299999931, -24.511437599999958 ], [ -47.860302299999951, -24.51141519999992 ], [ -47.860877099999982, -24.511338399999943 ], [ -47.861099699999954, -24.511285099999949 ], [ -47.861268199999984, -24.511245299999924 ], [ -47.861635799999938, -24.511216 ], [ -47.861886299999973, -24.511186299999963 ], [ -47.861926599999947, -24.511179699999946 ], [ -47.861968, -24.511176799999948 ], [ -47.862277699999936, -24.511154499999972 ], [ -47.862552599999958, -24.511134699999946 ], [ -47.862885, -24.509881199999935 ], [ -47.863194, -24.507178399999933 ], [ -47.864457799999961, -24.504087599999941 ], [ -47.864524, -24.503208799999971 ], [ -47.863845199999957, -24.503168699999943 ], [ -47.864005299999981, -24.501874299999933 ], [ -47.865605699999946, -24.502014899999946 ], [ -47.865839299999948, -24.499963099999945 ], [ -47.865843699999971, -24.499918699999959 ], [ -47.865978499999983, -24.500002899999966 ], [ -47.866191499999957, -24.500135799999953 ], [ -47.866459099999986, -24.500301199999956 ], [ -47.866949699999971, -24.500571699999963 ], [ -47.86708729999998, -24.500621299999974 ], [ -47.867212699999982, -24.500630499999939 ], [ -47.867366899999986, -24.500614399999964 ], [ -47.867566, -24.500600499999962 ], [ -47.867756099999951, -24.500591799999924 ], [ -47.868011099999933, -24.500618399999947 ], [ -47.86818419999998, -24.500643599999918 ], [ -47.86858459999997, -24.500719599999975 ], [ -47.868932199999968, -24.50080429999997 ], [ -47.868936799999979, -24.500763199999938 ], [ -47.869289199999969, -24.497609599999965 ], [ -47.869351699999982, -24.496665499999942 ], [ -47.869315599999936, -24.496653 ], [ -47.869295399999942, -24.496646099999968 ], [ -47.869281299999962, -24.496633 ], [ -47.869286, -24.496617299999969 ], [ -47.869282099999964, -24.496601299999949 ], [ -47.869276099999979, -24.496555299999965 ], [ -47.869305699999984, -24.496191199999945 ], [ -47.869357799999932, -24.495957599999937 ], [ -47.869419899999976, -24.495677399999977 ], [ -47.869457899999986, -24.495067 ], [ -47.869502799999971, -24.494649299999921 ], [ -47.869589099999985, -24.494000399999955 ], [ -47.869668499999932, -24.493316899999972 ], [ -47.869720299999983, -24.492692099999939 ], [ -47.869723699999959, -24.492585099999928 ], [ -47.869791899999939, -24.492032 ], [ -47.869808899999946, -24.491919799999948 ], [ -47.869808599999949, -24.491805399999969 ], [ -47.86980189999997, -24.49173449999995 ], [ -47.869783599999948, -24.491694199999976 ], [ -47.869839, -24.491058299999963 ], [ -47.869842199999944, -24.490098399999965 ], [ -47.8672289, -24.489940799999946 ], [ -47.866567399999951, -24.489936799999949 ], [ -47.86572289999998, -24.489857399999948 ], [ -47.864988299999936, -24.489829899999958 ], [ -47.864346099999977, -24.489879399999943 ], [ -47.863974, -24.48985329999994 ], [ -47.863514099999975, -24.489754299999959 ], [ -47.862283099999964, -24.489412799999958 ], [ -47.861820099999932, -24.488973799999943 ], [ -47.861554899999931, -24.488464699999955 ], [ -47.861897499999941, -24.487587499999954 ], [ -47.862472, -24.48654839999995 ], [ -47.862653499999965, -24.484961199999926 ], [ -47.86274339999995, -24.48413029999994 ], [ -47.862270899999942, -24.483869699999953 ], [ -47.861777099999983, -24.483870799999973 ], [ -47.86469059999996, -24.481672299999957 ], [ -47.865556099999935, -24.481621199999935 ], [ -47.866494699999976, -24.481851299999967 ], [ -47.866900099999945, -24.481292499999949 ], [ -47.8683463, -24.482260299999943 ], [ -47.869361599999927, -24.481062399999928 ], [ -47.868225299999956, -24.480096499999945 ], [ -47.867989099999932, -24.480206399999933 ], [ -47.867726799999957, -24.479913 ], [ -47.867545199999931, -24.479652299999941 ], [ -47.867356499999964, -24.479397499999937 ], [ -47.867235, -24.479265399999974 ], [ -47.867075799999952, -24.479109299999944 ], [ -47.866988899999967, -24.479038099999972 ], [ -47.866823, -24.478915499999971 ], [ -47.866683399999943, -24.478809399999928 ], [ -47.866522099999933, -24.47873929999998 ], [ -47.866390899999942, -24.478708199999961 ], [ -47.86626659999996, -24.478711699999952 ], [ -47.866149199999946, -24.478794499999932 ], [ -47.865983599999936, -24.479079299999963 ], [ -47.865813499999945, -24.47936169999997 ], [ -47.865762599999982, -24.47952639999993 ], [ -47.865767, -24.479798899999935 ], [ -47.865789899999982, -24.479956299999966 ], [ -47.86580749999996, -24.480075199999938 ], [ -47.865647199999955, -24.480324399999962 ], [ -47.865564099999979, -24.480400099999944 ], [ -47.865438099999949, -24.480458399999982 ], [ -47.864904199999962, -24.480407599999975 ], [ -47.864566099999934, -24.480346099999959 ], [ -47.86438179999994, -24.480289199999959 ], [ -47.863992599999968, -24.480279799999945 ], [ -47.863738799999972, -24.480292199999951 ], [ -47.863508499999966, -24.480306499999976 ], [ -47.863023399999975, -24.480416799999936 ], [ -47.862082, -24.479354099999959 ], [ -47.859702699999957, -24.480619599999958 ], [ -47.85922969999995, -24.480784 ], [ -47.859058099999963, -24.480802199999978 ], [ -47.859123799999963, -24.47962079999996 ], [ -47.860281499999985, -24.478258499999985 ], [ -47.860639399999975, -24.478116099999959 ], [ -47.860115299999968, -24.476852299999955 ], [ -47.859934, -24.476961599999971 ], [ -47.859737299999956, -24.477144499999959 ], [ -47.859626799999951, -24.477344699999946 ], [ -47.859581899999966, -24.477493199999955 ], [ -47.859550599999977, -24.477696799999929 ], [ -47.859505599999984, -24.477879299999923 ], [ -47.859499299999989, -24.477897399999968 ], [ -47.859316099999944, -24.47842859999998 ], [ -47.859193499999947, -24.478655099999962 ], [ -47.859114299999931, -24.478726599999966 ], [ -47.859015799999959, -24.47879109999996 ], [ -47.858947899999976, -24.478832699999938 ], [ -47.858857, -24.478870499999964 ], [ -47.858708599999943, -24.478898099999984 ], [ -47.858484199999971, -24.478898099999977 ], [ -47.858277099999952, -24.478911899999943 ], [ -47.858116499999937, -24.478934599999945 ], [ -47.858238399999955, -24.480734599999948 ], [ -47.858196, -24.480737699999953 ], [ -47.858003299999957, -24.480736399999952 ], [ -47.856300099999935, -24.480240099999943 ], [ -47.85484509999997, -24.479853599999956 ], [ -47.853657299999952, -24.479484 ], [ -47.851994199999986, -24.478946599999972 ], [ -47.849994, -24.478367499999937 ], [ -47.849205099999949, -24.478204 ], [ -47.848819599999956, -24.47820159999997 ], [ -47.848387499999944, -24.478348399999955 ], [ -47.84787979999993, -24.478496 ], [ -47.8475663, -24.478615599999962 ], [ -47.847318799999982, -24.478589499999931 ], [ -47.847075599999982, -24.478691799999975 ], [ -47.846712699999948, -24.478875199999941 ], [ -47.846435099999951, -24.479007399999951 ], [ -47.846262699999954, -24.479187799999973 ], [ -47.84616189999997, -24.479389399999945 ], [ -47.846062199999956, -24.479725499999962 ], [ -47.845972899999936, -24.479983699999945 ], [ -47.846018, -24.480167599999966 ], [ -47.845889399999976, -24.480317099999976 ], [ -47.845743, -24.480352499999984 ], [ -47.845504399999989, -24.480358899999942 ], [ -47.845323599999965, -24.480348499999945 ], [ -47.845304099999964, -24.48042559999994 ], [ -47.845324299999959, -24.480625099999948 ], [ -47.845321699999943, -24.480738099999932 ], [ -47.845142899999985, -24.481062299999962 ], [ -47.845090699999957, -24.481143599999935 ], [ -47.845130099999942, -24.48085789999994 ], [ -47.845089899999955, -24.480844 ], [ -47.844624899999985, -24.480683699999918 ], [ -47.844537, -24.480718 ], [ -47.844462499999963, -24.480769499999955 ], [ -47.844370599999927, -24.480807499999973 ], [ -47.844241799999963, -24.480831099999925 ], [ -47.844134199999985, -24.480850499999971 ], [ -47.844075399999952, -24.480893099999939 ], [ -47.843972, -24.480883 ], [ -47.843919599999943, -24.480910799999943 ], [ -47.843846599999949, -24.48093809999995 ], [ -47.843769399999985, -24.480946799999966 ], [ -47.843635599999971, -24.480938299999938 ], [ -47.843529799999949, -24.48095829999993 ], [ -47.843446699999959, -24.481002799999935 ], [ -47.843333899999955, -24.481131299999962 ], [ -47.843153799999982, -24.481302499999973 ], [ -47.843074799999954, -24.481387 ], [ -47.843017499999974, -24.481416499999963 ], [ -47.842921599999954, -24.481441299999975 ], [ -47.842764099999954, -24.481462599999926 ], [ -47.842657299999985, -24.481481699999954 ], [ -47.84255839999998, -24.481526399999943 ], [ -47.842464099999972, -24.481561899999967 ], [ -47.842405199999973, -24.48163 ], [ -47.842041499999937, -24.482076499999938 ], [ -47.841975299999945, -24.482159099999929 ], [ -47.841866399999958, -24.482252099999982 ], [ -47.841741599999985, -24.482316399999942 ], [ -47.841651399999932, -24.482352399999968 ], [ -47.841569199999981, -24.482348699999935 ], [ -47.841503399999972, -24.482311799999938 ], [ -47.84143819999997, -24.482269899999942 ], [ -47.841361699999936, -24.482223099999935 ], [ -47.841295099999961, -24.482213299999952 ], [ -47.841225699999939, -24.482212199999942 ], [ -47.841143799999948, -24.482238499999934 ], [ -47.841071499999941, -24.482288 ], [ -47.840986599999944, -24.482295299999972 ], [ -47.840913299999954, -24.48228359999996 ], [ -47.840846599999963, -24.482269699999964 ], [ -47.840783899999963, -24.482279399999982 ], [ -47.840716599999951, -24.482282899999976 ], [ -47.840638199999937, -24.482299299999969 ], [ -47.840537299999937, -24.482332499999927 ], [ -47.840452099999936, -24.482358799999918 ], [ -47.840371, -24.482357799999924 ], [ -47.840294299999989, -24.482326499999949 ], [ -47.840221699999979, -24.482274899999936 ], [ -47.84017, -24.482233299999972 ], [ -47.840084399999974, -24.482219399999959 ], [ -47.83999689999996, -24.482219099999952 ], [ -47.839911099999938, -24.482220699999974 ], [ -47.839815499999986, -24.482225799999966 ], [ -47.839732599999941, -24.482243799999928 ], [ -47.839661599999943, -24.482261699999977 ], [ -47.839595199999962, -24.482291599999943 ], [ -47.839549799999986, -24.482332599999946 ], [ -47.839490099999978, -24.482375499999943 ], [ -47.839430599999964, -24.482416699999931 ], [ -47.839344499999982, -24.482462699999918 ], [ -47.839227199999989, -24.482517499999972 ], [ -47.839140699999973, -24.482567899999935 ], [ -47.839071799999935, -24.482621799999947 ], [ -47.83903, -24.482726899999935 ], [ -47.838999199999932, -24.482803299999947 ], [ -47.838858699999946, -24.482901399999953 ], [ -47.838412199999937, -24.483211 ], [ -47.838358, -24.483248499999934 ], [ -47.838887899999975, -24.484955 ], [ -47.839068, -24.485632 ], [ -47.839145299999984, -24.486208499999986 ], [ -47.839100699999968, -24.486810699999978 ], [ -47.838878399999949, -24.487589699999944 ], [ -47.838278399999986, -24.488348599999942 ], [ -47.837496, -24.488949499999926 ], [ -47.83664159999995, -24.489179499999981 ], [ -47.83546709999996, -24.489132599999945 ], [ -47.835440899999981, -24.489143099999975 ], [ -47.83543149999997, -24.489146899999984 ], [ -47.835392799999966, -24.489156299999944 ], [ -47.835343599999923, -24.489176799999939 ], [ -47.835331499999938, -24.489181699999964 ], [ -47.835276399999948, -24.489199699999968 ], [ -47.835240899999974, -24.489217299999961 ], [ -47.835201799999936, -24.489237099999958 ], [ -47.834893599999937, -24.489241299999939 ], [ -47.832727699999971, -24.489503799999966 ], [ -47.830486, -24.489690399999969 ], [ -47.826303299999957, -24.489221199999971 ], [ -47.823003699999958, -24.488466 ], [ -47.819946699999953, -24.487385199999945 ], [ -47.818155599999962, -24.486825 ], [ -47.818201099999953, -24.488961899999939 ], [ -47.825130199999933, -24.490984399999935 ], [ -47.826817499999947, -24.491157399999956 ], [ -47.82764659999998, -24.490952 ], [ -47.830350499999952, -24.491312499999932 ], [ -47.830415399999929, -24.491936199999945 ], [ -47.830837199999962, -24.494582299999934 ], [ -47.830417699999941, -24.497165799999951 ], [ -47.830418, -24.497205799999957 ], [ -47.830392599999982, -24.497206 ], [ -47.830315099999957, -24.497197 ], [ -47.826454899999931, -24.496455799999978 ], [ -47.826201, -24.498093799999943 ], [ -47.830437, -24.49987469999996 ], [ -47.832596499999966, -24.50115819999996 ], [ -47.836569399999981, -24.503645699999936 ], [ -47.837023699999975, -24.504478499999934 ], [ -47.836829, -24.505030099999953 ], [ -47.836212899999964, -24.506946899999946 ], [ -47.837181899999969, -24.507569099999948 ], [ -47.837214, -24.507592899999963 ], [ -47.836327599999947, -24.508787099999935 ], [ -47.835293899999961, -24.510113599999961 ], [ -47.835231599999986, -24.51028759999997 ], [ -47.835070699999967, -24.511456 ], [ -47.832518899999961, -24.511216399999963 ], [ -47.832543, -24.511179099999939 ], [ -47.833187299999963, -24.510180799999947 ], [ -47.829833299999962, -24.508403599999944 ], [ -47.825137699999971, -24.505913199999949 ], [ -47.823444899999977, -24.508446099999954 ], [ -47.823659699999951, -24.508608599999956 ], [ -47.824546099999971, -24.509250399999928 ], [ -47.825488699999937, -24.509758599999945 ], [ -47.826028199999946, -24.510201299999945 ], [ -47.82681759999997, -24.510872499999952 ], [ -47.82730109999995, -24.511420399999956 ], [ -47.8276901, -24.51171369999998 ], [ -47.827853499999954, -24.511836899999931 ], [ -47.828386099999939, -24.512425599999982 ], [ -47.828908, -24.512961399999938 ], [ -47.828877599999949, -24.513752399999927 ], [ -47.828743499999973, -24.514410399999971 ], [ -47.82909919999998, -24.514821099999946 ], [ -47.829096799999945, -24.515611299999929 ], [ -47.829345299999943, -24.516242599999934 ], [ -47.830088699999976, -24.517447099999966 ], [ -47.830113599999954, -24.517479199999965 ], [ -47.829783199999952, -24.517652799999947 ], [ -47.829468799999972, -24.517739199999941 ], [ -47.829126699999961, -24.51783329999995 ], [ -47.828683599999984, -24.518040099999947 ], [ -47.828250399999945, -24.5182895 ], [ -47.827872899999932, -24.518512699999974 ], [ -47.8276891, -24.518706399999925 ], [ -47.82692609999998, -24.519917599999928 ], [ -47.826890299999938, -24.519897899999933 ], [ -47.822908699999971, -24.517713 ], [ -47.818947199999961, -24.51554289999995 ], [ -47.818110699999977, -24.515212299999973 ], [ -47.816588299999978, -24.51745869999996 ], [ -47.816994299999983, -24.517711399999932 ], [ -47.817029199999986, -24.51773309999993 ], [ -47.819640499999934, -24.519142499999923 ], [ -47.822788199999941, -24.52081969999994 ], [ -47.823854799999935, -24.521381799999972 ], [ -47.825354899999986, -24.522266 ], [ -47.825495199999978, -24.522047099999956 ], [ -47.825615799999987, -24.521861 ], [ -47.827202899999975, -24.522647799999962 ], [ -47.827308799999976, -24.52260439999997 ], [ -47.827398099999982, -24.522186799999925 ], [ -47.827690299999972, -24.522316499999931 ], [ -47.828091499999978, -24.522491199999937 ], [ -47.828913599999964, -24.522324599999934 ], [ -47.829024699999934, -24.521556799999924 ], [ -47.829164899999967, -24.520391699999951 ], [ -47.829383599999971, -24.518480699999945 ], [ -47.833863299999962, -24.521348399999958 ], [ -47.834847, -24.522246299999953 ], [ -47.838884299999968, -24.522805099999974 ], [ -47.839285699999955, -24.520343399999941 ], [ -47.838012699999986, -24.520142499999963 ], [ -47.837972, -24.520136399999942 ], [ -47.838034499999935, -24.519983099999934 ], [ -47.838093599999986, -24.519871499999969 ], [ -47.838231499999956, -24.518857299999976 ], [ -47.838346299999962, -24.518109 ], [ -47.838805899999954, -24.517869399999952 ], [ -47.839193099999939, -24.517853 ], [ -47.839232099999954, -24.517839899999949 ], [ -47.839271, -24.517826699999937 ], [ -47.839321199999972, -24.517784099999975 ], [ -47.83934389999996, -24.517662399999949 ], [ -47.839386799999943, -24.517432899999964 ], [ -47.840709499999946, -24.517583799999944 ], [ -47.840773399999932, -24.517592799999925 ], [ -47.840824399999974, -24.517649499999948 ], [ -47.841832, -24.518847499999925 ], [ -47.8418827, -24.518936699999983 ], [ -47.841979699999968, -24.519142899999963 ], [ -47.84199609999996, -24.519428399999985 ], [ -47.841972399999982, -24.519599299999982 ], [ -47.841884499999928, -24.520232599999925 ], [ -47.84154319999994, -24.522599 ], [ -47.841220699999951, -24.524591099999945 ], [ -47.8409918, -24.526005899999962 ], [ -47.840965499999989, -24.526117499999941 ], [ -47.840867099999969, -24.526248799999962 ], [ -47.840381299999933, -24.526655799999951 ], [ -47.840276299999978, -24.526793599999959 ], [ -47.84025, -24.526898699999947 ], [ -47.840253299999972, -24.527036499999941 ], [ -47.840312399999966, -24.527197299999955 ], [ -47.840522399999948, -24.527440199999944 ], [ -47.840594599999974, -24.527548499999966 ], [ -47.840606599999944, -24.527627 ], [ -47.84060779999993, -24.527719199999975 ], [ -47.840582799999929, -24.528023899999933 ], [ -47.840587299999981, -24.528042299999981 ], [ -47.840566899999942, -24.528076699999918 ], [ -47.840212, -24.529916499999956 ], [ -47.837663099999986, -24.529812 ], [ -47.836138199999944, -24.530442899999969 ], [ -47.831945299999973, -24.530118399999932 ], [ -47.831920099999934, -24.529945399999978 ], [ -47.831137799999965, -24.529862499999972 ], [ -47.830869499999942, -24.532106099999964 ], [ -47.843234199999984, -24.533051099999959 ], [ -47.847512599999959, -24.53336169999994 ], [ -47.849385499999983, -24.533530399999957 ], [ -47.851360799999952, -24.533600699999958 ], [ -47.853025, -24.533672899999946 ], [ -47.854242, -24.533696 ], [ -47.856216199999942, -24.533809099999932 ], [ -47.856894, -24.533786499999959 ], [ -47.857611399999946, -24.533709499999922 ], [ -47.85769589999996, -24.533701299999958 ], [ -47.857754199999931, -24.533695099999928 ], [ -47.857836599999985, -24.53368689999996 ], [ -47.857900499999971, -24.533680199999939 ], [ -47.857865199999935, -24.53357879999993 ], [ -47.857698299999988, -24.533113099999984 ], [ -47.857502599999975, -24.532534199999919 ], [ -47.857456699999936, -24.532403899999952 ], [ -47.857422499999984, -24.532305099999977 ], [ -47.854530299999972, -24.523946399999939 ], [ -47.852900499999983, -24.519223699999944 ], [ -47.852951299999972, -24.519206399999987 ], [ -47.853027199999985, -24.519181399999972 ], [ -47.853064199999956, -24.519169099999928 ], [ -47.853102599999943, -24.519156399999925 ], [ -47.853273499999943, -24.51913049999996 ] ] ], [ [ [ -47.870645399999944, -24.501251199999956 ], [ -47.869773799999969, -24.50101949999992 ], [ -47.869281899999976, -24.500888699999958 ], [ -47.868932199999968, -24.50080429999997 ], [ -47.86892679999994, -24.500843699999955 ], [ -47.868663799999979, -24.502911699999988 ], [ -47.870809799999968, -24.503358199999976 ], [ -47.870423499999958, -24.508118699999958 ], [ -47.873348399999941, -24.508319499999967 ], [ -47.874608199999955, -24.501311599999951 ], [ -47.874687599999959, -24.501018199999979 ], [ -47.87471869999996, -24.50069369999995 ], [ -47.874739399999953, -24.500521099999951 ], [ -47.87471359999995, -24.500323 ], [ -47.874702399999933, -24.500222699999942 ], [ -47.874670399999957, -24.500141399999968 ], [ -47.874649199999965, -24.500073 ], [ -47.874611699999946, -24.499999799999955 ], [ -47.874557099999947, -24.499937299999942 ], [ -47.874498199999955, -24.499884099999974 ], [ -47.874407499999961, -24.499815199999951 ], [ -47.874352199999976, -24.499757399999972 ], [ -47.874301, -24.499688699999972 ], [ -47.874283899999973, -24.499625799999922 ], [ -47.874279299999955, -24.499584099999932 ], [ -47.874290199999955, -24.499453799999973 ], [ -47.874473, -24.499470299999921 ], [ -47.87466, -24.499487199999979 ], [ -47.874987899999958, -24.49948379999995 ], [ -47.875170399999938, -24.499467399999961 ], [ -47.875246799999957, -24.499431299999976 ], [ -47.875323599999938, -24.499395099999948 ], [ -47.875433199999975, -24.499293899999934 ], [ -47.875561699999935, -24.499169599999956 ], [ -47.875635099999954, -24.499061099999945 ], [ -47.875743899999975, -24.49886239999995 ], [ -47.87581229999995, -24.498741299999953 ], [ -47.875888899999957, -24.498682899999945 ], [ -47.876013199999939, -24.498624199999952 ], [ -47.87614149999996, -24.498601099999981 ], [ -47.876254799999977, -24.498596599999917 ], [ -47.876458499999956, -24.498716699999935 ], [ -47.87647289999996, -24.498680799999931 ], [ -47.87650959999997, -24.49859239999995 ], [ -47.876607099999951, -24.497834499999946 ], [ -47.876689799999959, -24.497168599999942 ], [ -47.87677019999996, -24.496409399999951 ], [ -47.876767199999961, -24.496199699999977 ], [ -47.876765699999964, -24.496068699999963 ], [ -47.876742099999944, -24.496040599999962 ], [ -47.876724499999973, -24.496015399999976 ], [ -47.877053799999942, -24.49318229999994 ], [ -47.877339699999936, -24.492646499999985 ], [ -47.879017799999986, -24.489699699999949 ], [ -47.877235599999949, -24.48896929999994 ], [ -47.876286, -24.49062 ], [ -47.87478619999996, -24.491712499999945 ], [ -47.874500199999943, -24.494336299999922 ], [ -47.874229599999978, -24.496985 ], [ -47.87391979999996, -24.499373199999976 ], [ -47.873914399999933, -24.499414699999932 ], [ -47.873828899999978, -24.499462099999956 ], [ -47.873696899999977, -24.499590799999968 ], [ -47.873386199999977, -24.499936 ], [ -47.872813199999932, -24.5004676 ], [ -47.87240589999994, -24.500785199999939 ], [ -47.871943699999967, -24.501095499999966 ], [ -47.871712099999968, -24.501251199999956 ], [ -47.871318499999973, -24.501399599999964 ], [ -47.871038899999974, -24.501375399999983 ], [ -47.870645399999944, -24.501251199999956 ] ] ], [ [ [ -47.824141099999963, -24.475804 ], [ -47.824889099999957, -24.475483099999966 ], [ -47.825327799999968, -24.47525829999995 ], [ -47.825357599999961, -24.475227 ], [ -47.826381, -24.474593 ], [ -47.826436, -24.474563599999957 ], [ -47.82471929999997, -24.472127 ], [ -47.826934, -24.470641099999973 ], [ -47.82736129999995, -24.470600899999965 ], [ -47.82625969999998, -24.468772099999978 ], [ -47.825129899999979, -24.46708759999996 ], [ -47.823840699999941, -24.465093499999959 ], [ -47.82517, -24.463329499999926 ], [ -47.826619899999976, -24.463698399999942 ], [ -47.826978399999973, -24.463310399999951 ], [ -47.826808899999953, -24.4631563 ], [ -47.825768699999969, -24.462323299999969 ], [ -47.825823599999978, -24.462171699999939 ], [ -47.825861599999946, -24.462047399999953 ], [ -47.825861599999946, -24.461909399999978 ], [ -47.825875399999973, -24.461719499999955 ], [ -47.825851199999931, -24.461471 ], [ -47.825806399999983, -24.461281099999944 ], [ -47.825806399999976, -24.461022199999931 ], [ -47.825834, -24.460787499999977 ], [ -47.825630299999943, -24.460711499999938 ], [ -47.825457699999966, -24.460680499999967 ], [ -47.82532219999996, -24.460661 ], [ -47.825157399999966, -24.460632099999952 ], [ -47.825066199999981, -24.460609599999945 ], [ -47.824977199999978, -24.460599699999928 ], [ -47.824864399999974, -24.460584599999958 ], [ -47.824804599999936, -24.460572699999929 ], [ -47.824753299999941, -24.460577599999969 ], [ -47.823388299999984, -24.460708899999918 ], [ -47.822552599999938, -24.460445799999949 ], [ -47.822403399999985, -24.460432 ], [ -47.822303699999964, -24.460424099999958 ], [ -47.822212599999943, -24.460398899999966 ], [ -47.822136799999946, -24.460356 ], [ -47.822105299999983, -24.460255699999951 ], [ -47.822090299999964, -24.460154599999957 ], [ -47.822078699999963, -24.460070499999979 ], [ -47.822010499999976, -24.460002899999949 ], [ -47.821727899999985, -24.459474 ], [ -47.821692099999957, -24.459491799999956 ], [ -47.821502499999959, -24.459585799999953 ], [ -47.82121559999996, -24.459649599999977 ], [ -47.820813899999962, -24.459649599999974 ], [ -47.820291, -24.459545099999954 ], [ -47.819889299999943, -24.459417499999962 ], [ -47.819417499999986, -24.459196899999938 ], [ -47.81905409999996, -24.458970599999926 ], [ -47.8179, -24.457393399999944 ], [ -47.817122099999949, -24.456377699999948 ], [ -47.816682199999946, -24.455803099999965 ], [ -47.816012699999931, -24.455142899999952 ], [ -47.81424009999995, -24.453442299999942 ], [ -47.814039099999945, -24.453331 ], [ -47.814004, -24.453311699999976 ], [ -47.813987699999984, -24.453308699999987 ], [ -47.813433699999969, -24.454353899999948 ], [ -47.813269699999985, -24.454646 ], [ -47.813034899999934, -24.454931199999976 ], [ -47.812976099999958, -24.455066 ], [ -47.812993899999981, -24.455270499999983 ], [ -47.812959899999946, -24.455286199999925 ], [ -47.812906099999971, -24.45531359999995 ], [ -47.812233399999968, -24.454404899999936 ], [ -47.809905199999946, -24.455390599999937 ], [ -47.804054, -24.457910599999938 ], [ -47.804335199999969, -24.460607299999932 ], [ -47.804046799999981, -24.460812799999925 ], [ -47.803801699999951, -24.460834399999946 ], [ -47.803296899999964, -24.460755099999975 ], [ -47.802885899999978, -24.460639799999964 ], [ -47.802666, -24.460614499999963 ], [ -47.801703499999981, -24.46077669999994 ], [ -47.801541199999981, -24.46077669999994 ], [ -47.801328499999961, -24.460708199999942 ], [ -47.801094199999966, -24.460719099999949 ], [ -47.800978799999939, -24.460812799999935 ], [ -47.800895899999944, -24.461000299999956 ], [ -47.800719199999953, -24.461717699999951 ], [ -47.799875599999957, -24.461995299999952 ], [ -47.799060899999979, -24.462543299999929 ], [ -47.799014, -24.462683899999938 ], [ -47.799068099999943, -24.463235499999939 ], [ -47.799233899999933, -24.463415699999928 ], [ -47.799525899999935, -24.463599599999956 ], [ -47.800344299999956, -24.465643699999919 ], [ -47.801011299999978, -24.465575199999936 ], [ -47.802136099999984, -24.465495899999944 ], [ -47.802796, -24.465715899999971 ], [ -47.802797399999974, -24.465711699999925 ], [ -47.802842299999952, -24.465639199999934 ], [ -47.802952799999957, -24.465525299999964 ], [ -47.80306319999994, -24.465425199999977 ], [ -47.803159899999976, -24.465349199999935 ], [ -47.803235799999989, -24.465300899999932 ], [ -47.803332499999961, -24.465273299999971 ], [ -47.803449799999946, -24.465280199999938 ], [ -47.803574099999928, -24.465269799999941 ], [ -47.80368459999994, -24.465252599999932 ], [ -47.803826099999981, -24.465218 ], [ -47.803933099999945, -24.465187 ], [ -47.804033199999942, -24.465131699999979 ], [ -47.804192, -24.46507309999993 ], [ -47.804540699999961, -24.464976399999955 ], [ -47.80469949999997, -24.464948799999952 ], [ -47.80485479999993, -24.464900499999938 ], [ -47.804901899999948, -24.46488 ], [ -47.80493759999996, -24.464855599999961 ], [ -47.805055, -24.464745099999963 ], [ -47.805148199999969, -24.464658799999935 ], [ -47.805197099999937, -24.464625799999968 ], [ -47.80524829999996, -24.46460009999992 ], [ -47.805385299999962, -24.464561099999969 ], [ -47.805908599999952, -24.46471779999996 ], [ -47.806489499999948, -24.464881899999956 ], [ -47.806627399999968, -24.464895099999982 ], [ -47.806834199999962, -24.464875399999986 ], [ -47.807108599999935, -24.46484079999993 ], [ -47.808456799999931, -24.467358899999958 ], [ -47.808049399999966, -24.467838399999945 ], [ -47.807966499999964, -24.468188099999967 ], [ -47.807966499999964, -24.468480099999958 ], [ -47.810544199999988, -24.467686899999929 ], [ -47.81116789999993, -24.469100199999954 ], [ -47.812119699999982, -24.469871699999945 ], [ -47.812847899999959, -24.469990599999953 ], [ -47.815213399999948, -24.470345699999935 ], [ -47.816150199999981, -24.470178099999949 ], [ -47.817419299999983, -24.470401599999942 ], [ -47.818457499999958, -24.47009879999996 ], [ -47.820198799999957, -24.469774299999987 ], [ -47.820736, -24.470762099999941 ], [ -47.821619299999959, -24.472651199999977 ], [ -47.822657599999957, -24.474522299999926 ], [ -47.823349699999945, -24.476115799999945 ], [ -47.824141099999963, -24.475804 ] ] ], [ [ [ -47.868231299999934, -24.423313599999972 ], [ -47.8683051, -24.423288299999967 ], [ -47.868376299999966, -24.423226799999959 ], [ -47.868418099999985, -24.42320959999995 ], [ -47.869786199999965, -24.422896 ], [ -47.870958499999979, -24.4231334 ], [ -47.870235399999956, -24.424820699999941 ], [ -47.869497699999954, -24.425021499999954 ], [ -47.869037499999934, -24.425949199999931 ], [ -47.868383799999947, -24.426296099999952 ], [ -47.868102599999979, -24.426697799999946 ], [ -47.868478699999969, -24.427442899999964 ], [ -47.869329699999987, -24.427274899999926 ], [ -47.869870199999987, -24.427001 ], [ -47.870852599999985, -24.426767199999972 ], [ -47.87392159999996, -24.425867099999955 ], [ -47.873892099999978, -24.425688399999963 ], [ -47.873854599999959, -24.425522 ], [ -47.873832299999947, -24.425332499999964 ], [ -47.873821199999952, -24.425227499999952 ], [ -47.873814699999969, -24.425113299999961 ], [ -47.873812599999951, -24.425049399999967 ], [ -47.873795, -24.425000899999937 ], [ -47.873770799999932, -24.424959699999931 ], [ -47.873750899999948, -24.424899 ], [ -47.873722, -24.424825599999966 ], [ -47.873670499999946, -24.424744 ], [ -47.873612899999948, -24.424675799999932 ], [ -47.873569199999963, -24.424633499999967 ], [ -47.873498, -24.424551799999957 ], [ -47.873203299999943, -24.424364299999979 ], [ -47.87286649999993, -24.424145399999926 ], [ -47.872852499999965, -24.424138199999955 ], [ -47.872836899999989, -24.42413449999998 ], [ -47.872822799999938, -24.424134 ], [ -47.872545, -24.424132099999959 ], [ -47.872518399999933, -24.424129 ], [ -47.872506299999941, -24.424127699999929 ], [ -47.872496, -24.424128299999953 ], [ -47.872480699999983, -24.424129499999932 ], [ -47.87247009999993, -24.424133199999968 ], [ -47.872434699999985, -24.424136499999985 ], [ -47.872405, -24.424138 ], [ -47.872374099999945, -24.424141599999921 ], [ -47.872350799999943, -24.424144 ], [ -47.872305, -24.424154199999961 ], [ -47.872250699999945, -24.424172199999933 ], [ -47.872104099999945, -24.424217699999929 ], [ -47.871879799999924, -24.424262399999968 ], [ -47.871689899999971, -24.424303299999966 ], [ -47.871836, -24.42385639999997 ], [ -47.872075599999967, -24.422605899999947 ], [ -47.872081899999962, -24.422586 ], [ -47.870883699999979, -24.421891099999979 ], [ -47.86918929999996, -24.421132899999982 ], [ -47.868622399999943, -24.420978699999981 ], [ -47.868119, -24.421162499999983 ], [ -47.866919399999972, -24.422349899999965 ], [ -47.866489299999955, -24.422677699999952 ], [ -47.866613699999959, -24.422748799999965 ], [ -47.866772, -24.42287 ], [ -47.86682159999998, -24.422926699999948 ], [ -47.867045799999971, -24.42314239999995 ], [ -47.867304899999965, -24.423353 ], [ -47.867377099999949, -24.423391699999961 ], [ -47.867429199999954, -24.423401 ], [ -47.868046899999975, -24.423444299999961 ], [ -47.868092899999965, -24.423396 ], [ -47.868164, -24.423350599999939 ], [ -47.868231299999934, -24.423313599999972 ] ] ], [ [ [ -47.746932899999933, -24.408693 ], [ -47.74795249999994, -24.40830329999994 ], [ -47.748275899999953, -24.407614099999918 ], [ -47.749061799999943, -24.407062499999924 ], [ -47.749984699999978, -24.406172099999932 ], [ -47.749191599999961, -24.405436599999973 ], [ -47.747998299999949, -24.404063 ], [ -47.746372299999962, -24.402750799999978 ], [ -47.746768899999942, -24.401056299999937 ], [ -47.74763049999995, -24.399718799999953 ], [ -47.747756699999968, -24.397555699999941 ], [ -47.74726279999993, -24.397296199999971 ], [ -47.746711199999936, -24.397894599999962 ], [ -47.745943299999965, -24.399455599999953 ], [ -47.744620199999986, -24.401809799999974 ], [ -47.743019499999953, -24.401690799999972 ], [ -47.742889699999985, -24.402480399999945 ], [ -47.741905499999973, -24.402347 ], [ -47.740167199999973, -24.403629699999943 ], [ -47.739838, -24.403836799999965 ], [ -47.738472299999955, -24.404260399999941 ], [ -47.738641099999938, -24.404597499999955 ], [ -47.74052659999996, -24.404785 ], [ -47.741337699999974, -24.405333 ], [ -47.74153959999996, -24.407088699999967 ], [ -47.742134499999963, -24.407899799999949 ], [ -47.743479199999967, -24.408191899999974 ], [ -47.744719399999958, -24.409410399999949 ], [ -47.746795899999945, -24.409352699999939 ], [ -47.746932899999933, -24.408693 ] ] ] ] } }
]
}
