{
"type": "FeatureCollection",
"name": "4101408",
"crs": { "type": "name", "properties": { "name": "urn:ogc:def:crs:OGC:1.3:CRS84" } },
"features": [
{ "type": "Feature", "properties": { "CD_MUN": "4101408", "NM_MUN": "Apucarana" }, "geometry": { "type": "MultiPolygon", "coordinates": [ [ [ [ -51.471045599999961, -23.654452399999965 ], [ -51.470901699999956, -23.654661 ], [ -51.470845, -23.65513569999996 ], [ -51.470958499999938, -23.65604639999998 ], [ -51.47100249999994, -23.656607899999987 ], [ -51.471484, -23.656879599999971 ], [ -51.471958, -23.657276499999959 ], [ -51.472791699999966, -23.653752399999973 ], [ -51.473596399999963, -23.652565599999935 ], [ -51.472997899999939, -23.652252299999937 ], [ -51.472979499999958, -23.652242599999955 ], [ -51.472973199999956, -23.652241899999972 ], [ -51.473004499999945, -23.652219 ], [ -51.472902899999951, -23.652179199999978 ], [ -51.472659, -23.651981899999956 ], [ -51.472395799999958, -23.651811299999967 ], [ -51.471048599999968, -23.651600899999952 ], [ -51.47063919999993, -23.651600899999949 ], [ -51.470352899999966, -23.652186399999948 ], [ -51.470414299999959, -23.652233 ], [ -51.470449699999968, -23.652233 ], [ -51.470865799999963, -23.652380099999963 ], [ -51.471177799999964, -23.652523499999973 ], [ -51.471443199999953, -23.652588099999953 ], [ -51.471462799999983, -23.652611299999933 ], [ -51.471670599999989, -23.652667299999962 ], [ -51.472455299999979, -23.652687599999986 ], [ -51.472524699999951, -23.652642099999987 ], [ -51.472309, -23.652906799999979 ], [ -51.472036899999978, -23.653178899999947 ], [ -51.472042199999976, -23.653183499999958 ], [ -51.471883199999979, -23.653347399999976 ], [ -51.471898799999963, -23.653359299999973 ], [ -51.471871499999963, -23.653388 ], [ -51.471045599999961, -23.654452399999965 ] ] ], [ [ [ -51.348971199999937, -23.6118327 ], [ -51.349209199999969, -23.611407699999976 ], [ -51.348020299999973, -23.610887599999959 ], [ -51.348072799999954, -23.610798 ], [ -51.348644799999924, -23.609820899999931 ], [ -51.3481728, -23.609605199999976 ], [ -51.347533799999951, -23.609322399999943 ], [ -51.346989199999939, -23.609086099999967 ], [ -51.345495899999953, -23.611951 ], [ -51.344964799999964, -23.612970599999976 ], [ -51.345366, -23.613169299999967 ], [ -51.344803799999973, -23.614162799999978 ], [ -51.346178799999961, -23.614847899999983 ], [ -51.346152, -23.614922 ], [ -51.346154699999943, -23.614923399999945 ], [ -51.345925399999942, -23.615538399999931 ], [ -51.345124099999964, -23.618063599999978 ], [ -51.345770499999958, -23.620503 ], [ -51.345993399999941, -23.621270599999939 ], [ -51.345995599999974, -23.622315499999967 ], [ -51.344694599999968, -23.625517 ], [ -51.344649599999968, -23.625627599999966 ], [ -51.346801, -23.625639399999951 ], [ -51.347150799999945, -23.625624799999962 ], [ -51.347179199999978, -23.625075699999968 ], [ -51.347189599999972, -23.621724099999952 ], [ -51.347243099999957, -23.619625599999949 ], [ -51.347301399999935, -23.616254399999949 ], [ -51.347297199999957, -23.615404299999973 ], [ -51.346835, -23.615182099999966 ], [ -51.346898499999952, -23.615062799999968 ], [ -51.348566499999947, -23.612252799999958 ], [ -51.348696699999948, -23.612272299999979 ], [ -51.348971199999937, -23.6118327 ] ] ], [ [ [ -51.406990899999983, -23.607211 ], [ -51.405963099999951, -23.607607 ], [ -51.404122099999938, -23.608295 ], [ -51.403572, -23.608563 ], [ -51.401034, -23.609549 ], [ -51.399960799999974, -23.609965 ], [ -51.399745899999971, -23.610114 ], [ -51.398602199999971, -23.61067619999994 ], [ -51.398012399999971, -23.611384899999962 ], [ -51.395469399999961, -23.617420899999956 ], [ -51.394988799999965, -23.617835099999979 ], [ -51.392594099999933, -23.619126599999955 ], [ -51.390638899999942, -23.620181099999964 ], [ -51.384731099999946, -23.624113899999937 ], [ -51.386721799999982, -23.626466399999963 ], [ -51.387666199999956, -23.626139499999962 ], [ -51.390192399999933, -23.625501699999962 ], [ -51.391246599999924, -23.62460869999995 ], [ -51.392758299999961, -23.623533499999944 ], [ -51.393494199999971, -23.623114299999937 ], [ -51.394687699999963, -23.622932099999961 ], [ -51.395901, -23.622731599999952 ], [ -51.396935399999961, -23.622312499999957 ], [ -51.409227899999962, -23.617555899999942 ], [ -51.410640099999966, -23.619250799999968 ], [ -51.411296499999935, -23.619013899999967 ], [ -51.411793799999934, -23.618503599999933 ], [ -51.412529799999959, -23.617428299999968 ], [ -51.415871399999958, -23.618558299999965 ], [ -51.417025099999933, -23.61659 ], [ -51.418855099999973, -23.610502699999927 ], [ -51.415118699999937, -23.60047359999993 ], [ -51.409830299999953, -23.599481799999982 ], [ -51.409509499999956, -23.600316499999966 ], [ -51.408997199999931, -23.602234399999926 ], [ -51.408943499999957, -23.603441799999928 ], [ -51.40916069999998, -23.605302299999952 ], [ -51.409104499999962, -23.605857399999934 ], [ -51.408801099999948, -23.606533099999968 ], [ -51.408463799999936, -23.606765099999961 ], [ -51.408418, -23.606697 ], [ -51.408144, -23.606735 ], [ -51.407740099999955, -23.606904 ], [ -51.407477099999937, -23.607011699999937 ], [ -51.406990899999983, -23.607211 ] ] ], [ [ [ -51.412502599999975, -23.594398299999956 ], [ -51.411484, -23.594822199999957 ], [ -51.411507199999967, -23.595019799999932 ], [ -51.411539399999981, -23.595533899999971 ], [ -51.410277899999983, -23.598447799999978 ], [ -51.413311399999941, -23.599026299999931 ], [ -51.413386, -23.598802 ], [ -51.413081899999945, -23.598619599999953 ], [ -51.414583799999946, -23.59710449999994 ], [ -51.412303799999961, -23.596014799999971 ], [ -51.412377799999945, -23.59545519999995 ], [ -51.412584, -23.594451 ], [ -51.412502599999975, -23.594398299999956 ] ] ], [ [ [ -51.544065599999961, -23.562312099999922 ], [ -51.5464535, -23.558737799999957 ], [ -51.547242199999978, -23.557531 ], [ -51.543807699999945, -23.55554009999997 ], [ -51.540493599999934, -23.553693199999937 ], [ -51.539843499999961, -23.553342 ], [ -51.539732199999946, -23.553319 ], [ -51.538393, -23.552767099999979 ], [ -51.538283599999943, -23.552956699999978 ], [ -51.537970499999979, -23.552870299999942 ], [ -51.536919099999977, -23.552781899999957 ], [ -51.535554599999955, -23.554931399999926 ], [ -51.535473599999939, -23.554992699999946 ], [ -51.535108599999944, -23.554715099999953 ], [ -51.53182819999995, -23.557860399999981 ], [ -51.531424099999981, -23.558180799999949 ], [ -51.530756499999939, -23.561622 ], [ -51.5311622, -23.562718899999926 ], [ -51.531447799999967, -23.563357699999973 ], [ -51.531641499999978, -23.563766899999951 ], [ -51.532500899999945, -23.563254099999934 ], [ -51.533730799999944, -23.562559199999953 ], [ -51.534749, -23.562347399999972 ], [ -51.535359799999988, -23.562286699999955 ], [ -51.538324699999968, -23.563467899999974 ], [ -51.543172099999936, -23.565281899999949 ], [ -51.543200499999955, -23.565202899999974 ], [ -51.543314399999986, -23.564740399999948 ], [ -51.543384599999968, -23.564343599999965 ], [ -51.543348399999964, -23.563371699999934 ], [ -51.543373899999956, -23.563386699999967 ], [ -51.543946099999971, -23.563672799999949 ], [ -51.544154, -23.563861299999925 ], [ -51.544951199999964, -23.563372199999954 ], [ -51.545059399999957, -23.562881 ], [ -51.544065599999961, -23.562312099999922 ] ] ], [ [ [ -51.481421499999954, -23.584133199999929 ], [ -51.48172559999994, -23.583869599999947 ], [ -51.48259749999994, -23.583572199999939 ], [ -51.482813699999951, -23.583342499999958 ], [ -51.48287449999998, -23.582862599999945 ], [ -51.483016499999962, -23.582490899999986 ], [ -51.483415199999968, -23.582017899999979 ], [ -51.483719299999962, -23.581821899999973 ], [ -51.484009899999933, -23.581592099999959 ], [ -51.484104499999951, -23.581206899999934 ], [ -51.484124799999968, -23.580896 ], [ -51.484327599999979, -23.580504 ], [ -51.484530299999967, -23.580179599999951 ], [ -51.484712799999961, -23.580179599999951 ], [ -51.485138499999948, -23.5802404 ], [ -51.485618399999964, -23.58044319999992 ], [ -51.485728199999983, -23.580129 ], [ -51.485966899999937, -23.580029299999985 ], [ -51.486308299999969, -23.579826799999978 ], [ -51.486531899999939, -23.579591199999989 ], [ -51.486807299999953, -23.578772899999933 ], [ -51.486891399999926, -23.578778499999942 ], [ -51.487133099999937, -23.578579099999953 ], [ -51.487189799999953, -23.578518699999957 ], [ -51.487610399999937, -23.578071499999965 ], [ -51.487767499999968, -23.577763399999974 ], [ -51.488232799999935, -23.576361499999955 ], [ -51.48829319999993, -23.57626479999994 ], [ -51.488554499999964, -23.576367099999974 ], [ -51.489039499999926, -23.576416099999953 ], [ -51.489306599999964, -23.576481499999943 ], [ -51.489600899999971, -23.57651419999997 ], [ -51.48969349999993, -23.576503299999953 ], [ -51.489203, -23.573625699999983 ], [ -51.489835199999966, -23.57351129999995 ], [ -51.489878099999942, -23.573498299999969 ], [ -51.490315799999969, -23.575002399999953 ], [ -51.490425399999936, -23.575054399999935 ], [ -51.491131199999984, -23.575251299999934 ], [ -51.493733199999951, -23.574115299999963 ], [ -51.494446499999981, -23.573776499999958 ], [ -51.494520799999982, -23.573705899999947 ], [ -51.494569099999978, -23.573531399999965 ], [ -51.494561699999963, -23.573405099999956 ], [ -51.493818699999963, -23.571269099999938 ], [ -51.493751399999951, -23.571148399999966 ], [ -51.493729599999938, -23.571109399999958 ], [ -51.493967399999974, -23.570015599999969 ], [ -51.495512599999984, -23.570310699999936 ], [ -51.495631499999945, -23.569738699999959 ], [ -51.496236, -23.566913 ], [ -51.496360899999964, -23.56621 ], [ -51.496717499999924, -23.564102 ], [ -51.497440899999958, -23.56427 ], [ -51.499621099999956, -23.564594 ], [ -51.500608899999982, -23.564758 ], [ -51.500797899999952, -23.564781 ], [ -51.5016, -23.564898 ], [ -51.503505099999984, -23.565191 ], [ -51.504283099999952, -23.565303 ], [ -51.504543, -23.565338 ], [ -51.505111099999965, -23.565399 ], [ -51.505809099999965, -23.56562 ], [ -51.506566899999932, -23.56604 ], [ -51.507698, -23.56691 ], [ -51.508356099999958, -23.567285 ], [ -51.508885, -23.567501 ], [ -51.509493, -23.567677 ], [ -51.509957, -23.567832 ], [ -51.510426099999961, -23.567933 ], [ -51.511133899999948, -23.568099 ], [ -51.511518, -23.568155 ], [ -51.512060899999938, -23.568276 ], [ -51.513188, -23.568383 ], [ -51.514305899999954, -23.568271 ], [ -51.517582899999987, -23.567691 ], [ -51.519026199999985, -23.567505 ], [ -51.519499899999971, -23.567282 ], [ -51.519669799999974, -23.567104 ], [ -51.519769899999979, -23.566839 ], [ -51.519845899999943, -23.566555 ], [ -51.519760899999945, -23.566037 ], [ -51.51970579999994, -23.565459 ], [ -51.519672, -23.565219 ], [ -51.519591, -23.56503 ], [ -51.519206899999979, -23.564182 ], [ -51.519195, -23.564154 ], [ -51.519029, -23.563882 ], [ -51.518794, -23.563472 ], [ -51.518551, -23.563029 ], [ -51.517973199999972, -23.562022 ], [ -51.517525, -23.561183 ], [ -51.517271199999989, -23.560509 ], [ -51.517147, -23.559907 ], [ -51.517098, -23.559379 ], [ -51.517003299999942, -23.558841199999961 ], [ -51.517003, -23.558839 ], [ -51.516859, -23.55883 ], [ -51.516344899999972, -23.558943 ], [ -51.514529, -23.559348 ], [ -51.512064099999975, -23.55987 ], [ -51.510793, -23.560166 ], [ -51.510443, -23.56022 ], [ -51.510268099999962, -23.560289 ], [ -51.509243199999958, -23.560495 ], [ -51.508815099999943, -23.559912 ], [ -51.508404, -23.558516 ], [ -51.508044, -23.557723 ], [ -51.507135, -23.554601 ], [ -51.507045, -23.554281 ], [ -51.507024099999967, -23.553889 ], [ -51.506627, -23.553653 ], [ -51.505988, -23.552404 ], [ -51.505868199999952, -23.552075 ], [ -51.50548009999995, -23.551565 ], [ -51.505300099999943, -23.551283 ], [ -51.504417, -23.55093 ], [ -51.503861899999947, -23.550794 ], [ -51.50328589999998, -23.550349 ], [ -51.502799899999957, -23.550296 ], [ -51.502303099999956, -23.549704 ], [ -51.500771099999952, -23.55068 ], [ -51.500041299999964, -23.552572299999955 ], [ -51.499473599999931, -23.554816 ], [ -51.498770699999966, -23.555302599999955 ], [ -51.496608099999946, -23.556519099999946 ], [ -51.496344499999964, -23.556566399999948 ], [ -51.496189099999981, -23.556863799999967 ], [ -51.494965799999939, -23.557809899999942 ], [ -51.49472929999996, -23.557864 ], [ -51.493965599999974, -23.558066699999983 ], [ -51.493815699999971, -23.558147 ], [ -51.493820699999951, -23.557102 ], [ -51.493803699999944, -23.556517 ], [ -51.493809799999951, -23.552061699999964 ], [ -51.493812699999985, -23.549918 ], [ -51.48801519999995, -23.546728799999983 ], [ -51.488038099999983, -23.546615 ], [ -51.488125899999943, -23.546327 ], [ -51.48815, -23.54619 ], [ -51.48815, -23.546094 ], [ -51.48799089999995, -23.545834 ], [ -51.487890799999953, -23.545743 ], [ -51.487727, -23.545652 ], [ -51.487850199999968, -23.545268 ], [ -51.487863799999957, -23.545186 ], [ -51.487908099999977, -23.545003 ], [ -51.488035899999943, -23.544834 ], [ -51.488174199999946, -23.544628 ], [ -51.488149, -23.544377 ], [ -51.488097799999935, -23.544195 ], [ -51.488133099999978, -23.544112 ], [ -51.488206899999966, -23.544025 ], [ -51.488231, -23.543829 ], [ -51.488278899999955, -23.543532 ], [ -51.488294, -23.543418 ], [ -51.4883531, -23.543276 ], [ -51.488362099999961, -23.543157 ], [ -51.488317099999961, -23.542961 ], [ -51.488406, -23.542856 ], [ -51.488538799999958, -23.542664 ], [ -51.488642199999958, -23.542549 ], [ -51.48874509999996, -23.54238 ], [ -51.48883909999995, -23.542211 ], [ -51.488466799999969, -23.542025 ], [ -51.48118009999996, -23.539297699999963 ], [ -51.481161, -23.539414 ], [ -51.480759599999942, -23.540130899999948 ], [ -51.480426, -23.540999299999957 ], [ -51.480248699999954, -23.541398199999946 ], [ -51.479884, -23.542141099999981 ], [ -51.47972859999993, -23.542381199999973 ], [ -51.479548799999982, -23.54256 ], [ -51.479450799999938, -23.542657399999939 ], [ -51.478853299999976, -23.543251599999962 ], [ -51.478509599999938, -23.543593399999963 ], [ -51.478064899999936, -23.544035599999972 ], [ -51.477592699999946, -23.544505199999936 ], [ -51.476949899999973, -23.544984099999954 ], [ -51.470374699999979, -23.542623599999956 ], [ -51.469974499999971, -23.541815799999934 ], [ -51.47160659999998, -23.537622 ], [ -51.472270199999969, -23.535412699999931 ], [ -51.472061499999938, -23.534324299999973 ], [ -51.469916, -23.533838 ], [ -51.470104, -23.533673 ], [ -51.463163099999981, -23.525939799999954 ], [ -51.464527099999941, -23.524755799999976 ], [ -51.462288599999958, -23.521879199999944 ], [ -51.46162, -23.522228099999939 ], [ -51.459368199999972, -23.523473799999977 ], [ -51.4584301, -23.523876799999986 ], [ -51.457605399999977, -23.524073199999975 ], [ -51.457576699999947, -23.524076899999947 ], [ -51.457409699999971, -23.524098499999987 ], [ -51.457375799999966, -23.524102899999949 ], [ -51.457141699999966, -23.524133099999975 ], [ -51.456917899999951, -23.524147099999936 ], [ -51.456646399999954, -23.524164199999969 ], [ -51.45649, -23.52413 ], [ -51.45560729999994, -23.523880199999947 ], [ -51.455476, -23.52386 ], [ -51.453266, -23.52251559999997 ], [ -51.453054699999939, -23.522363199999969 ], [ -51.452268499999946, -23.522048 ], [ -51.451693599999942, -23.521906 ], [ -51.450921199999982, -23.521829799999974 ], [ -51.450024199999973, -23.521916399999952 ], [ -51.449646799999982, -23.521982199999968 ], [ -51.449407699999938, -23.522023799999953 ], [ -51.44805179999998, -23.522494699999985 ], [ -51.446145099999967, -23.523128699999976 ], [ -51.44526529999996, -23.523333 ], [ -51.444340599999983, -23.523360699999955 ], [ -51.444217099999946, -23.52343 ], [ -51.444202, -23.523059 ], [ -51.444042799999977, -23.522713 ], [ -51.443318199999965, -23.521472 ], [ -51.44189879999994, -23.519062499999965 ], [ -51.44150529999996, -23.518458 ], [ -51.440815399999963, -23.518028899999941 ], [ -51.439805199999967, -23.517953799999916 ], [ -51.439136499999961, -23.518135199999964 ], [ -51.438212499999963, -23.518557 ], [ -51.437542799999967, -23.518705299999962 ], [ -51.436745099999939, -23.518594899999982 ], [ -51.435432899999967, -23.517678899999961 ], [ -51.434494899999947, -23.516903699999943 ], [ -51.434473199999957, -23.516658799999963 ], [ -51.434913499999936, -23.515660199999964 ], [ -51.43540349999995, -23.515319 ], [ -51.435775699999965, -23.514773199999976 ], [ -51.436723, -23.514013199999965 ], [ -51.433139399999959, -23.512156199999936 ], [ -51.432923299999977, -23.512044199999931 ], [ -51.431833199999971, -23.511479599999969 ], [ -51.426048899999962, -23.508483399999939 ], [ -51.425823599999944, -23.508366699999961 ], [ -51.423491, -23.507158399999984 ], [ -51.422632, -23.50780189999994 ], [ -51.42358779999995, -23.509107399999959 ], [ -51.421897599999973, -23.510208899999942 ], [ -51.423249799999958, -23.512872399999928 ], [ -51.423564499999934, -23.513630099999943 ], [ -51.423436299999935, -23.51383989999994 ], [ -51.422683699999943, -23.514585899999936 ], [ -51.421275499999986, -23.515731199999941 ], [ -51.420817499999941, -23.51613969999995 ], [ -51.419609299999941, -23.513923 ], [ -51.41904489999996, -23.512887499999977 ], [ -51.418953099999953, -23.512719099999963 ], [ -51.418871, -23.51275269999995 ], [ -51.418270299999968, -23.512987699999925 ], [ -51.418044, -23.51298769999994 ], [ -51.417373599999962, -23.512804899999928 ], [ -51.41733209999996, -23.512781799999964 ], [ -51.417138599999923, -23.512674299999958 ], [ -51.416607599999963, -23.512482799999923 ], [ -51.415850199999966, -23.512491499999953 ], [ -51.41546059999996, -23.512597 ], [ -51.414762, -23.512770099999955 ], [ -51.414222299999942, -23.512508899999943 ], [ -51.413952399999971, -23.5123 ], [ -51.413639, -23.51223909999992 ], [ -51.413264699999964, -23.512256499999989 ], [ -51.41269879999993, -23.512552499999959 ], [ -51.412272299999984, -23.512874599999975 ], [ -51.412367599999982, -23.513085599999958 ], [ -51.412566099999935, -23.513786099999944 ], [ -51.413027499999941, -23.514837299999954 ], [ -51.413446199999953, -23.515564299999937 ], [ -51.413939199999959, -23.516420099999944 ], [ -51.414058, -23.516626299999928 ], [ -51.414974, -23.518458299999963 ], [ -51.415695, -23.520031 ], [ -51.416134099999958, -23.520767399999965 ], [ -51.417054899999982, -23.52247 ], [ -51.417875899999956, -23.522227 ], [ -51.418158499999947, -23.522037799999961 ], [ -51.4183877, -23.521627 ], [ -51.418543899999975, -23.519415599999945 ], [ -51.418543499999934, -23.518463399999987 ], [ -51.418543499999949, -23.518354399999964 ], [ -51.418543399999976, -23.518186799999963 ], [ -51.418805899999946, -23.517767199999977 ], [ -51.420720699999954, -23.51920379999995 ], [ -51.421093699999972, -23.519442099999932 ], [ -51.42158059999997, -23.519411 ], [ -51.421912199999959, -23.519659699999981 ], [ -51.422243799999933, -23.519690799999974 ], [ -51.422668599999945, -23.519618299999937 ], [ -51.422865399999978, -23.51977369999997 ], [ -51.423798, -23.520146699999934 ], [ -51.42411919999995, -23.520136299999937 ], [ -51.424419599999965, -23.519918699999948 ], [ -51.424844499999949, -23.519504299999944 ], [ -51.425051699999983, -23.519877299999948 ], [ -51.425559499999963, -23.520236799999957 ], [ -51.423666399999952, -23.522382499999928 ], [ -51.423861699999975, -23.523374099999963 ], [ -51.424102899999973, -23.52356639999994 ], [ -51.424321399999947, -23.523740699999969 ], [ -51.426226499999984, -23.523296 ], [ -51.427175599999941, -23.522215599999978 ], [ -51.427998599999967, -23.522797599999937 ], [ -51.427656599999985, -23.524006499999917 ], [ -51.426984699999934, -23.524451599999963 ], [ -51.426870599999972, -23.525089499999972 ], [ -51.427368699999938, -23.525215599999967 ], [ -51.427827599999944, -23.525321599999923 ], [ -51.428334699999937, -23.525404499999986 ], [ -51.428817699999968, -23.525522499999965 ], [ -51.429305699999986, -23.5256434 ], [ -51.429788599999945, -23.52578439999996 ], [ -51.430292599999973, -23.525876399999959 ], [ -51.430789699999934, -23.525966299999936 ], [ -51.431284599999969, -23.526084299999983 ], [ -51.432594599999959, -23.526383399999926 ], [ -51.432567899999981, -23.526969699999949 ], [ -51.429777, -23.527521699999962 ], [ -51.429622599999959, -23.527775199999944 ], [ -51.429689599999961, -23.528022899999947 ], [ -51.429876099999944, -23.528156899999946 ], [ -51.430578399999945, -23.5289 ], [ -51.42919859999995, -23.52920749999992 ], [ -51.429576, -23.529656299999935 ], [ -51.430565299999962, -23.530667499999929 ], [ -51.431820799999976, -23.531924 ], [ -51.433297599999939, -23.531626199999952 ], [ -51.434282599999968, -23.531413499999932 ], [ -51.436556399999972, -23.530941899999959 ], [ -51.436725099999933, -23.531315 ], [ -51.437291, -23.531961 ], [ -51.435574899999949, -23.532629 ], [ -51.435145099999943, -23.532843 ], [ -51.43466589999997, -23.533171 ], [ -51.434010899999976, -23.533636499999943 ], [ -51.433816, -23.533775 ], [ -51.432692, -23.534203 ], [ -51.431416899999931, -23.534658 ], [ -51.431182099999944, -23.534745899999955 ], [ -51.430600099999936, -23.534964 ], [ -51.430421899999942, -23.535111 ], [ -51.43017889999993, -23.535244 ], [ -51.429953899999987, -23.535341 ], [ -51.429714099999963, -23.535364 ], [ -51.429505, -23.535332 ], [ -51.429231, -23.535173 ], [ -51.428903, -23.535034 ], [ -51.428614, -23.53502 ], [ -51.428526099999949, -23.535048 ], [ -51.428423199999941, -23.535117 ], [ -51.428394, -23.535164 ], [ -51.428373799999974, -23.535199 ], [ -51.427928899999984, -23.535945 ], [ -51.42743889999997, -23.536779 ], [ -51.427114899999935, -23.537406 ], [ -51.427073899999982, -23.537746 ], [ -51.426970899999958, -23.538066 ], [ -51.426380899999963, -23.53911 ], [ -51.426402799999956, -23.539295 ], [ -51.426264, -23.539496599999943 ], [ -51.426210499999975, -23.539683699999951 ], [ -51.426063299999946, -23.539936799999971 ], [ -51.425795899999969, -23.540172 ], [ -51.425174399999946, -23.540845699999974 ], [ -51.425127099999941, -23.541339 ], [ -51.425019, -23.542266399999949 ], [ -51.424984099999961, -23.54256619999995 ], [ -51.425117599999972, -23.544246199999968 ], [ -51.426002899999965, -23.544056 ], [ -51.426610899999964, -23.544035 ], [ -51.427230799999954, -23.544 ], [ -51.427833099999987, -23.54399 ], [ -51.428479, -23.544026 ], [ -51.428459599999933, -23.54437989999996 ], [ -51.428893699999939, -23.544491299999947 ], [ -51.429169799999961, -23.545295099999972 ], [ -51.429508, -23.54628 ], [ -51.425199799999973, -23.54627529999993 ], [ -51.422113599999925, -23.546328399999936 ], [ -51.422124, -23.54641209999993 ], [ -51.421861299999939, -23.546458799999986 ], [ -51.421325599999932, -23.546421699999936 ], [ -51.420880099999977, -23.546432299999928 ], [ -51.419638899999939, -23.546352699999936 ], [ -51.419044899999967, -23.546392699999956 ], [ -51.418535699999957, -23.546427 ], [ -51.417379399999952, -23.546464099999969 ], [ -51.417140699999948, -23.54634209999994 ], [ -51.417123899999972, -23.546306799999957 ], [ -51.415101899999968, -23.546289299999959 ], [ -51.415095799999953, -23.546614699999964 ], [ -51.415105, -23.546794299999924 ], [ -51.415427299999976, -23.546797399999946 ], [ -51.41542579999998, -23.547294699999956 ], [ -51.413758, -23.547305499999943 ], [ -51.413739599999985, -23.547 ], [ -51.413678199999936, -23.54693089999995 ], [ -51.412027299999977, -23.546736 ], [ -51.410564399999942, -23.546604199999926 ], [ -51.410572499999944, -23.54621439999994 ], [ -51.410574699999984, -23.546106099999982 ], [ -51.410574699999984, -23.545894499999974 ], [ -51.410513599999945, -23.544608099999955 ], [ -51.410397599999953, -23.543439399999958 ], [ -51.408444899999949, -23.543417799999929 ], [ -51.408545199999935, -23.548308899999938 ], [ -51.408617, -23.548664 ], [ -51.408648199999959, -23.54917 ], [ -51.408638899999964, -23.551386399999952 ], [ -51.408648499999963, -23.553311199999939 ], [ -51.408823299999938, -23.556063699999985 ], [ -51.409513199999935, -23.556160499999979 ], [ -51.410015599999952, -23.556154499999931 ], [ -51.410169499999938, -23.556617699999943 ], [ -51.410317499999969, -23.557114 ], [ -51.410609699999952, -23.558172299999971 ], [ -51.41111479999995, -23.558288599999976 ], [ -51.41111479999995, -23.558139899999951 ], [ -51.413637499999936, -23.558149699999955 ], [ -51.413782599999934, -23.558385099999956 ], [ -51.413931, -23.558924 ], [ -51.41334489999997, -23.559466 ], [ -51.412392899999986, -23.559927 ], [ -51.40678429999997, -23.56273769999996 ], [ -51.405546, -23.56515069999995 ], [ -51.404155799999955, -23.568898699999977 ], [ -51.403119199999928, -23.570130399999986 ], [ -51.402163599999938, -23.570915799999966 ], [ -51.4013844, -23.571726 ], [ -51.400440199999935, -23.572335499999951 ], [ -51.399705399999959, -23.573020699999969 ], [ -51.398917799999936, -23.573411899999947 ], [ -51.396899699999949, -23.573476599999939 ], [ -51.395469, -23.573953499999956 ], [ -51.394460299999928, -23.57430509999994 ], [ -51.393310799999938, -23.574194099999946 ], [ -51.392639199999962, -23.57325529999996 ], [ -51.391646599999945, -23.572731699999952 ], [ -51.390162499999981, -23.573326799999965 ], [ -51.389351, -23.572959799999968 ], [ -51.386252299999967, -23.572400699999939 ], [ -51.385672199999931, -23.572460399999958 ], [ -51.386273399999936, -23.573368499999962 ], [ -51.387868699999949, -23.573855399999957 ], [ -51.387943399999983, -23.575311899999974 ], [ -51.387972199999986, -23.577013699999952 ], [ -51.38986669999997, -23.576598499999932 ], [ -51.391314, -23.576794 ], [ -51.391784199999961, -23.57719 ], [ -51.39247789999996, -23.577516 ], [ -51.392908099999943, -23.577601 ], [ -51.393508899999972, -23.57791 ], [ -51.394034199999965, -23.57815 ], [ -51.394839099999956, -23.578304 ], [ -51.395233, -23.578493 ], [ -51.395365099999935, -23.578751 ], [ -51.395778, -23.579164 ], [ -51.396979, -23.580214 ], [ -51.397729899999952, -23.580643 ], [ -51.398275, -23.581229 ], [ -51.399100099999941, -23.581796 ], [ -51.400225099999943, -23.582225 ], [ -51.400955899999985, -23.582585 ], [ -51.4012939, -23.582757 ], [ -51.401800099999939, -23.583101 ], [ -51.402476199999967, -23.583548 ], [ -51.403077, -23.584099 ], [ -51.40422109999998, -23.584734 ], [ -51.404841, -23.585457 ], [ -51.40542309999995, -23.585922 ], [ -51.405891799999942, -23.5863 ], [ -51.406436199999973, -23.586627 ], [ -51.406971099999964, -23.58685 ], [ -51.407402, -23.587056 ], [ -51.407524099999932, -23.587185 ], [ -51.407817099999932, -23.587892 ], [ -51.408344199999938, -23.588978 ], [ -51.408938199999966, -23.59027 ], [ -51.410758199999975, -23.590459899999939 ], [ -51.411381799999965, -23.590525 ], [ -51.411786799999959, -23.589963 ], [ -51.411692199999955, -23.589813 ], [ -51.411777099999945, -23.589708 ], [ -51.411881899999976, -23.589619 ], [ -51.411957099999938, -23.589499 ], [ -51.411957099999938, -23.58942 ], [ -51.411982, -23.58937 ], [ -51.412111899999964, -23.589296 ], [ -51.412525899999942, -23.588554 ], [ -51.412844899999982, -23.588092 ], [ -51.413245899999943, -23.587569 ], [ -51.413474899999983, -23.587371 ], [ -51.413378299999984, -23.587521399999972 ], [ -51.4133528, -23.587561 ], [ -51.413586099999975, -23.587587 ], [ -51.414401899999973, -23.587805 ], [ -51.414670099999967, -23.587869 ], [ -51.415099899999973, -23.587953 ], [ -51.415735, -23.588123 ], [ -51.416032, -23.588246 ], [ -51.416899899999976, -23.588463 ], [ -51.417115899999942, -23.588538 ], [ -51.417355, -23.588612 ], [ -51.417501099999988, -23.588762 ], [ -51.417658099999983, -23.588949 ], [ -51.417763899999962, -23.589148 ], [ -51.41789209999996, -23.589313 ], [ -51.417933099999978, -23.589431 ], [ -51.417933799999958, -23.58956 ], [ -51.418167099999955, -23.589597 ], [ -51.41831289999994, -23.589736 ], [ -51.418510899999937, -23.589918 ], [ -51.418856199999937, -23.590416 ], [ -51.418995799999948, -23.590641 ], [ -51.419044899999953, -23.590680199999955 ], [ -51.419229799999975, -23.590828 ], [ -51.419427799999937, -23.591133 ], [ -51.420111799999965, -23.591876 ], [ -51.420205099999983, -23.59201 ], [ -51.420323199999984, -23.592294 ], [ -51.420451, -23.592546 ], [ -51.420487, -23.5927392 ], [ -51.420498799999955, -23.592803 ], [ -51.420773199999985, -23.592974 ], [ -51.42110509999997, -23.593 ], [ -51.42131389999998, -23.592946 ], [ -51.421993899999961, -23.592719 ], [ -51.42218, -23.592552 ], [ -51.422551899999974, -23.592438 ], [ -51.42312789999994, -23.592415 ], [ -51.423553099999943, -23.592446 ], [ -51.424123, -23.592456 ], [ -51.424297899999942, -23.592487 ], [ -51.424594899999938, -23.592545 ], [ -51.424763, -23.592486 ], [ -51.424881799999987, -23.592365 ], [ -51.425158, -23.592158 ], [ -51.425395899999963, -23.592071 ], [ -51.426019099999955, -23.591882 ], [ -51.426028499999966, -23.591111299999966 ], [ -51.42604289999997, -23.589925599999965 ], [ -51.426347699999944, -23.589343799999934 ], [ -51.426267699999983, -23.589983399999944 ], [ -51.426855199999977, -23.591334499999956 ], [ -51.426891, -23.591885 ], [ -51.428489599999985, -23.595672 ], [ -51.428539099999966, -23.59572 ], [ -51.428867, -23.59617 ], [ -51.428983, -23.596229 ], [ -51.42911179999993, -23.596405 ], [ -51.429107199999976, -23.59663 ], [ -51.42906, -23.596738 ], [ -51.428968899999973, -23.597339 ], [ -51.428940799999964, -23.597484 ], [ -51.429127, -23.59766 ], [ -51.42915679999993, -23.59796 ], [ -51.429264099999955, -23.598378 ], [ -51.429345099999978, -23.598507 ], [ -51.429561099999937, -23.59871 ], [ -51.429714099999956, -23.598956 ], [ -51.429703, -23.59924 ], [ -51.42982, -23.599578 ], [ -51.429857599999934, -23.599563499999917 ], [ -51.430117, -23.599464 ], [ -51.430459, -23.599228 ], [ -51.430907199999979, -23.599098 ], [ -51.431289799999945, -23.598882 ], [ -51.431383099999948, -23.598705 ], [ -51.431753899999933, -23.598436 ], [ -51.432103099999949, -23.598209 ], [ -51.43299079999997, -23.597547 ], [ -51.433357, -23.597396 ], [ -51.433583, -23.597224 ], [ -51.433675899999969, -23.597079 ], [ -51.434122, -23.596638 ], [ -51.434341899999936, -23.596235 ], [ -51.435159099999964, -23.595219 ], [ -51.435420099999931, -23.594988 ], [ -51.435595099999951, -23.594891 ], [ -51.435938199999953, -23.594853 ], [ -51.436176099999955, -23.594755 ], [ -51.436373, -23.594583 ], [ -51.436564899999951, -23.594438 ], [ -51.436825899999974, -23.594335 ], [ -51.43713409999998, -23.594115 ], [ -51.437441199999974, -23.593754 ], [ -51.437511, -23.59362 ], [ -51.437621199999974, -23.593427 ], [ -51.437661099999964, -23.593234 ], [ -51.437998099999959, -23.593141 ], [ -51.438411, -23.593092 ], [ -51.438827899999971, -23.592571 ], [ -51.438979099999976, -23.592452 ], [ -51.439414, -23.592135 ], [ -51.439716, -23.591855 ], [ -51.440041099999974, -23.591597 ], [ -51.440330899999935, -23.591456 ], [ -51.440418, -23.591177 ], [ -51.4407308, -23.590919 ], [ -51.440892799999972, -23.590742 ], [ -51.441178, -23.590526 ], [ -51.441369099999982, -23.590252 ], [ -51.441941199999967, -23.590543 ], [ -51.442195, -23.590685 ], [ -51.442544199999986, -23.590835 ], [ -51.443606199999977, -23.591486 ], [ -51.443713099999975, -23.591551 ], [ -51.444828, -23.592256 ], [ -51.445514899999971, -23.592642 ], [ -51.446017099999949, -23.592945 ], [ -51.446146, -23.593019 ], [ -51.446896899999956, -23.593457 ], [ -51.446956, -23.5935 ], [ -51.447573, -23.593852 ], [ -51.448236799999961, -23.594189 ], [ -51.44836209999994, -23.594269 ], [ -51.448684, -23.594448 ], [ -51.449011899999959, -23.593835 ], [ -51.449172099999949, -23.593394 ], [ -51.449239099999943, -23.592981 ], [ -51.449312199999952, -23.592459 ], [ -51.449379099999931, -23.592272 ], [ -51.4494428, -23.591928 ], [ -51.449517, -23.591586 ], [ -51.449468, -23.59127 ], [ -51.449190099999953, -23.590405 ], [ -51.44901519999997, -23.589922 ], [ -51.448919, -23.58972 ], [ -51.448565199999962, -23.589331 ], [ -51.448423, -23.589059 ], [ -51.448342, -23.588795 ], [ -51.448312099999953, -23.588558 ], [ -51.448309799999954, -23.588448799999984 ], [ -51.4550637, -23.588381699999953 ], [ -51.455078699999945, -23.588474199999947 ], [ -51.455155199999986, -23.589775799999924 ], [ -51.455380399999967, -23.58989459999998 ], [ -51.455551199999945, -23.590137 ], [ -51.455608599999948, -23.590510299999949 ], [ -51.455934, -23.590998399999936 ], [ -51.455953199999954, -23.591295099999968 ], [ -51.455895799999951, -23.591524799999945 ], [ -51.45597, -23.591653 ], [ -51.455972899999949, -23.591679 ], [ -51.45602, -23.591931 ], [ -51.456165799999951, -23.592043 ], [ -51.456184899999982, -23.592671 ], [ -51.456129099999941, -23.593288 ], [ -51.456154, -23.593652 ], [ -51.456341199999933, -23.593914 ], [ -51.456471099999931, -23.594348 ], [ -51.456367099999973, -23.594697 ], [ -51.45624, -23.595025 ], [ -51.456241099999936, -23.59518 ], [ -51.456195, -23.595341 ], [ -51.456165799999951, -23.595502 ], [ -51.456097099999972, -23.59569 ], [ -51.456092, -23.595969 ], [ -51.461658099999966, -23.595830899999939 ], [ -51.472607, -23.595021 ], [ -51.473445799999979, -23.595384 ], [ -51.473749, -23.595586 ], [ -51.474064, -23.595789 ], [ -51.474355899999978, -23.595906 ], [ -51.474530899999934, -23.596142 ], [ -51.474718099999969, -23.596281 ], [ -51.474928, -23.596387 ], [ -51.475183899999934, -23.596419 ], [ -51.475545, -23.596428 ], [ -51.475858899999935, -23.596427 ], [ -51.476056899999946, -23.596491 ], [ -51.476162, -23.596727 ], [ -51.476011899999946, -23.596952 ], [ -51.475943199999968, -23.597124 ], [ -51.475839099999973, -23.597382 ], [ -51.47575809999995, -23.597629 ], [ -51.475758799999937, -23.597832 ], [ -51.475725, -23.598187 ], [ -51.47544709999994, -23.598466 ], [ -51.475366099999974, -23.598584 ], [ -51.475367199999944, -23.59882 ], [ -51.475361899999946, -23.598885499999941 ], [ -51.475344799999959, -23.599099 ], [ -51.475546299999955, -23.598843699999971 ], [ -51.475892, -23.59826 ], [ -51.476013, -23.598178 ], [ -51.47617, -23.598134 ], [ -51.476847, -23.598241599999945 ], [ -51.477972899999941, -23.598420499999968 ], [ -51.478011599999952, -23.598295299999965 ], [ -51.478102399999962, -23.59796739999997 ], [ -51.478337299999964, -23.597200599999958 ], [ -51.478710799999931, -23.596231799999945 ], [ -51.479423699999984, -23.594945899999967 ], [ -51.48026039999997, -23.593049499999946 ], [ -51.48027, -23.59272 ], [ -51.479894, -23.591409599999963 ], [ -51.479910899999936, -23.591198299999967 ], [ -51.480209699999925, -23.590618799999952 ], [ -51.480218, -23.590248 ], [ -51.480398, -23.589546 ], [ -51.480269, -23.589098 ], [ -51.480205, -23.588305 ], [ -51.479790299999941, -23.587284199999932 ], [ -51.480006, -23.587243 ], [ -51.48053, -23.5871 ], [ -51.48159, -23.586539 ], [ -51.481911199999956, -23.586294 ], [ -51.481374199999955, -23.585491599999962 ], [ -51.481286399999931, -23.585038799999946 ], [ -51.481408, -23.58475489999994 ], [ -51.480847099999956, -23.584592699999973 ], [ -51.48092819999993, -23.584342699999979 ], [ -51.481421499999954, -23.584133199999929 ] ] ], [ [ [ -51.588669299999935, -23.47893329999993 ], [ -51.588264799999926, -23.47829239999993 ], [ -51.587800099999988, -23.478155299999962 ], [ -51.587574899999943, -23.478489199999959 ], [ -51.587415899999947, -23.478952 ], [ -51.586938799999984, -23.480270499999957 ], [ -51.586648099999934, -23.480087099999938 ], [ -51.585681099999931, -23.481072499999986 ], [ -51.584161199999983, -23.481560699999925 ], [ -51.584355499999958, -23.481962199999948 ], [ -51.583040499999981, -23.482383899999938 ], [ -51.581012199999982, -23.482012799999943 ], [ -51.580765299999946, -23.482354399999956 ], [ -51.583069299999977, -23.482816 ], [ -51.583437, -23.482673499999972 ], [ -51.583802699999978, -23.483004899999969 ], [ -51.584151599999984, -23.482820299999947 ], [ -51.584374699999955, -23.483169899999961 ], [ -51.587590599999949, -23.482151199999972 ], [ -51.587714499999947, -23.48176479999994 ], [ -51.588235099999963, -23.480688199999978 ], [ -51.588417, -23.480114499999949 ], [ -51.588693599999942, -23.4796277 ], [ -51.588669299999935, -23.47893329999993 ] ] ] ] } }
]
}
