{
"type": "FeatureCollection",
"name": "4125605",
"crs": { "type": "name", "properties": { "name": "urn:ogc:def:crs:OGC:1.3:CRS84" } },
"features": [
{ "type": "Feature", "properties": { "CD_MUN": "4125605", "NM_MUN": "São Mateus do Sul" }, "geometry": { "type": "MultiPolygon", "coordinates": [ [ [ [ -50.588426399999946, -26.018469499999981 ], [ -50.58889, -26.018855799999987 ], [ -50.589333799999963, -26.019599599999925 ], [ -50.590013499999941, -26.020391199999953 ], [ -50.590126399999974, -26.020540299999936 ], [ -50.591085, -26.021807299999978 ], [ -50.591295099999968, -26.02218739999995 ], [ -50.591489499999966, -26.022539299999949 ], [ -50.591906799999954, -26.023365499999951 ], [ -50.5924414, -26.02445149999993 ], [ -50.592726199999959, -26.025701799999972 ], [ -50.593055099999958, -26.026812599999968 ], [ -50.593311299999975, -26.026812299999946 ], [ -50.593914199999972, -26.026817799999939 ], [ -50.605814899999984, -26.026829699999954 ], [ -50.607297, -26.024891199999967 ], [ -50.607298, -26.018519499999954 ], [ -50.589781899999934, -26.018499699999946 ], [ -50.588426399999946, -26.018469499999981 ] ] ], [ [ [ -50.360193299999928, -25.986240499999944 ], [ -50.359845299999961, -25.986273199999964 ], [ -50.35956589999995, -25.986448 ], [ -50.359425399999964, -25.986815099999955 ], [ -50.359423299999946, -25.98791 ], [ -50.35956519999997, -25.993496099999955 ], [ -50.362243699999965, -25.993357399999972 ], [ -50.363812099999961, -25.993276199999972 ], [ -50.364955499999958, -25.993217 ], [ -50.364833399999959, -25.992693599999928 ], [ -50.364920599999948, -25.99217049999994 ], [ -50.364920599999948, -25.991664499999953 ], [ -50.364816099999985, -25.99124589999996 ], [ -50.364798599999972, -25.990687499999975 ], [ -50.364885799999975, -25.990356199999948 ], [ -50.365077899999967, -25.990164 ], [ -50.365304399999957, -25.989955 ], [ -50.36535669999995, -25.989675899999952 ], [ -50.36516469999998, -25.989257 ], [ -50.364973, -25.988733899999954 ], [ -50.364850899999965, -25.988263 ], [ -50.36467649999998, -25.987948899999925 ], [ -50.364624099999958, -25.987425199999965 ], [ -50.364658899999945, -25.98707659999997 ], [ -50.364536799999946, -25.986745 ], [ -50.364414699999948, -25.986274199999961 ], [ -50.364222799999936, -25.985907799999936 ], [ -50.363889799999974, -25.985704099999964 ], [ -50.363451099999963, -25.985841899999958 ], [ -50.363441899999948, -25.985848199999964 ], [ -50.36310309999994, -25.986082 ], [ -50.362327099999959, -25.986149 ], [ -50.361758499999951, -25.986220899999967 ], [ -50.361083699999945, -25.986137599999942 ], [ -50.361047299999946, -25.986137499999916 ], [ -50.360539699999947, -25.986135899999958 ], [ -50.360193299999928, -25.986240499999944 ] ] ], [ [ [ -50.388349699999935, -25.899696399999986 ], [ -50.389320899999973, -25.899815599999947 ], [ -50.389210499999933, -25.900252399999939 ], [ -50.389669499999968, -25.900326499999945 ], [ -50.389717699999949, -25.900334299999948 ], [ -50.389730899999961, -25.900336399999958 ], [ -50.389768599999968, -25.900342499999972 ], [ -50.389857099999972, -25.899623 ], [ -50.39017379999995, -25.898724299999973 ], [ -50.391014599999949, -25.896356899999947 ], [ -50.392596799999986, -25.891146499999934 ], [ -50.39260969999998, -25.891090599999931 ], [ -50.392622799999977, -25.891034399999967 ], [ -50.39295269999996, -25.889613399999973 ], [ -50.390750899999944, -25.88992 ], [ -50.389358, -25.89041 ], [ -50.388340599999943, -25.890511299999961 ], [ -50.388516899999956, -25.891483899999969 ], [ -50.387074599999949, -25.891661299999953 ], [ -50.386311, -25.891912 ], [ -50.3859485, -25.892158799999955 ], [ -50.384834, -25.891977499999939 ], [ -50.384448399999947, -25.892235899999939 ], [ -50.384361499999962, -25.892564399999969 ], [ -50.384056099999952, -25.892484499999977 ], [ -50.38363209999995, -25.892160099999948 ], [ -50.379885699999932, -25.891186299999958 ], [ -50.379768299999974, -25.891322499999941 ], [ -50.379752499999931, -25.891316899999936 ], [ -50.379732399999973, -25.891309699999965 ], [ -50.379712599999948, -25.891302699999986 ], [ -50.378795199999956, -25.890978499999949 ], [ -50.376449499999978, -25.891860399999924 ], [ -50.376301299999966, -25.891916099999953 ], [ -50.376979799999965, -25.89247169999993 ], [ -50.377154399999938, -25.892735099999982 ], [ -50.3765509, -25.892823899999939 ], [ -50.376391599999977, -25.892995499999984 ], [ -50.376116, -25.893504 ], [ -50.375953599999953, -25.893678599999923 ], [ -50.376057799999955, -25.894260599999942 ], [ -50.375919899999985, -25.894291199999937 ], [ -50.375351199999955, -25.894180899999984 ], [ -50.373788, -25.893877699999965 ], [ -50.37198559999996, -25.893602799999936 ], [ -50.371533599999964, -25.893558399999971 ], [ -50.370965199999944, -25.893600499999934 ], [ -50.370290099999984, -25.893703199999941 ], [ -50.369333899999958, -25.894031 ], [ -50.368590799999936, -25.894270799999955 ], [ -50.367165, -25.894677199999933 ], [ -50.36648329999997, -25.894834499999948 ], [ -50.365709799999934, -25.894893499999959 ], [ -50.364484, -25.894828 ], [ -50.36121959999997, -25.894742799999946 ], [ -50.358037099999933, -25.894637899999953 ], [ -50.357995199999941, -25.894657599999949 ], [ -50.358005, -25.894658 ], [ -50.35802469999993, -25.895443099999962 ], [ -50.358081799999987, -25.896323499999941 ], [ -50.358086699999944, -25.89636679999996 ], [ -50.358091399999971, -25.896409099999964 ], [ -50.358129399999939, -25.896613799999955 ], [ -50.358177, -25.896751799999944 ], [ -50.358254699999975, -25.896874099999931 ], [ -50.358399299999974, -25.897102 ], [ -50.35864469999995, -25.89742149999995 ], [ -50.358952699999975, -25.897660599999945 ], [ -50.359084, -25.897815199999958 ], [ -50.359152499999936, -25.897955699999947 ], [ -50.359329799999955, -25.897825099999981 ], [ -50.359578799999952, -25.897634699999966 ], [ -50.359769199999967, -25.897532199999947 ], [ -50.359923399999964, -25.897479799999928 ], [ -50.360099499999926, -25.89740839999995 ], [ -50.360296399999982, -25.897400399999981 ], [ -50.36053069999997, -25.897429699999982 ], [ -50.360867599999949, -25.897458899999936 ], [ -50.361131199999932, -25.897517499999932 ], [ -50.361409499999986, -25.897532199999944 ], [ -50.361761, -25.897590799999929 ], [ -50.362185699999948, -25.897546799999922 ], [ -50.362493299999983, -25.897458899999947 ], [ -50.362727599999964, -25.897385699999976 ], [ -50.362932699999931, -25.897239299999963 ], [ -50.363152399999933, -25.897048899999962 ], [ -50.363298799999939, -25.896829199999964 ], [ -50.363459899999953, -25.896668099999946 ], [ -50.3638261, -25.896682699999925 ], [ -50.364265399999965, -25.896712 ], [ -50.364558399999964, -25.896741299999963 ], [ -50.364865899999984, -25.896770599999954 ], [ -50.365158799999961, -25.896755899999963 ], [ -50.36545179999996, -25.896726599999969 ], [ -50.365642199999975, -25.896624099999929 ], [ -50.365803299999982, -25.896448399999944 ], [ -50.366008299999976, -25.896389799999948 ], [ -50.366242599999957, -25.896463 ], [ -50.366491599999961, -25.896463 ], [ -50.36675519999995, -25.896521599999971 ], [ -50.36696029999996, -25.896653399999938 ], [ -50.367253199999936, -25.897034199999947 ], [ -50.367443599999945, -25.897297799999922 ], [ -50.367692599999948, -25.89762 ], [ -50.367897599999935, -25.898059399999969 ], [ -50.368132, -25.89842559999995 ], [ -50.368337, -25.898718499999973 ], [ -50.368527399999948, -25.899040699999954 ], [ -50.36870289999996, -25.899437699999961 ], [ -50.368941799999959, -25.899842 ], [ -50.369180599999936, -25.90030129999997 ], [ -50.369474599999933, -25.900797399999931 ], [ -50.369952299999966, -25.901293499999944 ], [ -50.370283099999938, -25.901458799999951 ], [ -50.370503499999984, -25.901771199999935 ], [ -50.370760799999971, -25.902120299999982 ], [ -50.371054699999945, -25.902432599999941 ], [ -50.371330399999977, -25.902506099999986 ], [ -50.371514099999956, -25.902451 ], [ -50.371734599999968, -25.902653099999938 ], [ -50.372157199999947, -25.903296199999943 ], [ -50.372414399999975, -25.903590199999929 ], [ -50.372590299999956, -25.90388339999998 ], [ -50.374960599999952, -25.902928399999958 ], [ -50.375169399999947, -25.902695299999952 ], [ -50.37517059999994, -25.902699699999964 ], [ -50.377129899999936, -25.901327399999957 ], [ -50.377876799999967, -25.901191399999959 ], [ -50.377609499999949, -25.899669099999979 ], [ -50.377619099999954, -25.899666899999936 ], [ -50.379177099999943, -25.899304699999956 ], [ -50.382992799999954, -25.896942799999973 ], [ -50.383092499999975, -25.896456399999977 ], [ -50.383097299999967, -25.89642449999997 ], [ -50.383590099999935, -25.896365199999931 ], [ -50.383624, -25.896397299999929 ], [ -50.383643499999948, -25.896415699999963 ], [ -50.384465, -25.897194599999985 ], [ -50.387049099999956, -25.898318799999966 ], [ -50.386841, -25.89897129999996 ], [ -50.388482099999976, -25.899299299999946 ], [ -50.388349699999935, -25.899696399999986 ] ] ], [ [ [ -50.411844299999977, -25.883981799999958 ], [ -50.41184369999997, -25.883967199999965 ], [ -50.416167599999937, -25.88390359999994 ], [ -50.4161797, -25.882798199999964 ], [ -50.417039699999975, -25.882799699999961 ], [ -50.417024399999946, -25.879515299999976 ], [ -50.41703019999995, -25.878874899999964 ], [ -50.417024299999973, -25.878333299999952 ], [ -50.417032899999981, -25.877659099999963 ], [ -50.417035799999951, -25.877121899999953 ], [ -50.41703, -25.876599099999975 ], [ -50.41574339999994, -25.876605199999961 ], [ -50.414424299999951, -25.876569699999951 ], [ -50.413962699999949, -25.875195399999949 ], [ -50.413962099999935, -25.875172299999981 ], [ -50.413957299999936, -25.874998099999978 ], [ -50.413962699999956, -25.873830599999962 ], [ -50.413979199999972, -25.873002899999957 ], [ -50.416535199999942, -25.873627 ], [ -50.417633899999942, -25.873923599999959 ], [ -50.417871099999957, -25.87398049999997 ], [ -50.418974899999967, -25.874282 ], [ -50.419059799999964, -25.874302 ], [ -50.424115, -25.875617 ], [ -50.424950199999955, -25.875922 ], [ -50.426354899999978, -25.876782 ], [ -50.427405, -25.877862 ], [ -50.427614199999937, -25.878078 ], [ -50.427790899999934, -25.878268 ], [ -50.431006699999955, -25.875201499999946 ], [ -50.431180399999967, -25.87518329999995 ], [ -50.430914099999939, -25.875080199999964 ], [ -50.43014, -25.874834099999937 ], [ -50.429965599999953, -25.874680299999959 ], [ -50.429924, -25.874389799999957 ], [ -50.42986819999993, -25.874142 ], [ -50.429606799999931, -25.873608799999936 ], [ -50.42931949999997, -25.868650399999975 ], [ -50.429721899999947, -25.867107599999937 ], [ -50.430004199999985, -25.866101799999967 ], [ -50.429975, -25.865456 ], [ -50.43155, -25.865552 ], [ -50.433234799999987, -25.865582 ], [ -50.433207899999957, -25.863240499999964 ], [ -50.433129299999969, -25.861732799999952 ], [ -50.434099399999987, -25.861018299999959 ], [ -50.434400899999957, -25.860139899999982 ], [ -50.433181699999977, -25.859707299999982 ], [ -50.433207, -25.859667099999964 ], [ -50.428560399999981, -25.857458899999987 ], [ -50.427891799999941, -25.857190199999934 ], [ -50.427387, -25.857822699999932 ], [ -50.426521799999925, -25.85785549999996 ], [ -50.425574599999948, -25.857803099999959 ], [ -50.424817499999961, -25.85743929999996 ], [ -50.424021, -25.857121299999967 ], [ -50.423031199999969, -25.85676739999996 ], [ -50.421916899999978, -25.856210199999971 ], [ -50.420612399999982, -25.85568249999994 ], [ -50.420766299999968, -25.855615499999942 ], [ -50.420245299999976, -25.855574399999966 ], [ -50.419411499999967, -25.855586899999928 ], [ -50.419311199999981, -25.861051899999943 ], [ -50.414847299999963, -25.860989599999989 ], [ -50.41481449999997, -25.861297699999959 ], [ -50.413660799999946, -25.861389499999966 ], [ -50.413306799999987, -25.862031899999977 ], [ -50.412448099999949, -25.862195799999931 ], [ -50.411255099999948, -25.863133099999963 ], [ -50.41077659999997, -25.863401899999932 ], [ -50.410461899999973, -25.863106899999938 ], [ -50.409727799999978, -25.862884 ], [ -50.408797, -25.863133099999956 ], [ -50.407787499999984, -25.863054499999969 ], [ -50.40646339999995, -25.862975799999965 ], [ -50.405912699999931, -25.862687399999967 ], [ -50.405637399999932, -25.86190079999994 ], [ -50.406240499999967, -25.858715 ], [ -50.406948399999983, -25.857246699999962 ], [ -50.40833809999998, -25.856381399999968 ], [ -50.40943939999994, -25.854598499999955 ], [ -50.410304599999961, -25.852579499999926 ], [ -50.411235399999953, -25.851091499999924 ], [ -50.411720499999952, -25.850422899999959 ], [ -50.41195189999997, -25.850228 ], [ -50.411927, -25.850212299999956 ], [ -50.414234399999934, -25.846685699999966 ], [ -50.412949599999941, -25.846397299999975 ], [ -50.411009299999932, -25.846344899999949 ], [ -50.409357399999983, -25.846580799999973 ], [ -50.410642199999984, -25.844942099999962 ], [ -50.4125825, -25.84216269999996 ], [ -50.413091299999962, -25.841735799999977 ], [ -50.413038699999966, -25.841707599999953 ], [ -50.414755699999944, -25.838876099999936 ], [ -50.405653599999944, -25.836288899999936 ], [ -50.377803399999955, -25.83088269999995 ], [ -50.375372099999929, -25.837324199999955 ], [ -50.369008299999962, -25.854242499999941 ], [ -50.369193799999955, -25.854377699999926 ], [ -50.369551, -25.85454779999997 ], [ -50.369738199999972, -25.854854 ], [ -50.369840199999942, -25.855092199999941 ], [ -50.369976299999969, -25.855500499999948 ], [ -50.370044399999983, -25.855857699999941 ], [ -50.369953499999951, -25.85622909999995 ], [ -50.369432, -25.856657299999945 ], [ -50.369023699999957, -25.85696349999996 ], [ -50.368564299999946, -25.857167599999961 ], [ -50.368139, -25.857456899999917 ], [ -50.367747799999961, -25.857848099999956 ], [ -50.367626099999939, -25.857944199999952 ], [ -50.36742449999997, -25.858103299999982 ], [ -50.367203399999937, -25.858324499999988 ], [ -50.367090499999961, -25.858501899999961 ], [ -50.367084299999938, -25.858511599999932 ], [ -50.367356499999971, -25.858732799999924 ], [ -50.367524, -25.859137 ], [ -50.367555, -25.859394 ], [ -50.36787, -25.859538 ], [ -50.368239, -25.859397 ], [ -50.36840779999995, -25.859426 ], [ -50.36863789999996, -25.859742 ], [ -50.368759899999979, -25.860543 ], [ -50.368610199999971, -25.860866 ], [ -50.368577, -25.861276 ], [ -50.368469, -25.861704 ], [ -50.368424, -25.862295 ], [ -50.368560099999968, -25.86239 ], [ -50.368686799999978, -25.8624 ], [ -50.368866799999971, -25.862096 ], [ -50.369353899999965, -25.861632 ], [ -50.369479899999938, -25.861689 ], [ -50.369595799999956, -25.861785 ], [ -50.369783, -25.862243 ], [ -50.369758899999965, -25.862739 ], [ -50.369555899999973, -25.863309 ], [ -50.369249199999956, -25.863584 ], [ -50.368993899999964, -25.863926 ], [ -50.368740099999968, -25.864278 ], [ -50.36877, -25.864573 ], [ -50.368969099999958, -25.86466 ], [ -50.36917, -25.86467 ], [ -50.369685799999964, -25.864501 ], [ -50.370076099999949, -25.864608 ], [ -50.37035, -25.864456 ], [ -50.370467, -25.864342 ], [ -50.370644899999945, -25.864524 ], [ -50.370854, -25.864735 ], [ -50.371264099999962, -25.864975 ], [ -50.371463199999937, -25.865033 ], [ -50.371535899999969, -25.865224 ], [ -50.371675899999957, -25.866673 ], [ -50.372002099999975, -25.866788 ], [ -50.372350899999958, -25.866399 ], [ -50.372446, -25.866381 ], [ -50.372665899999959, -25.866563 ], [ -50.372844099999952, -25.866935 ], [ -50.373252, -25.867365 ], [ -50.37403, -25.86754 ], [ -50.374957, -25.867659 ], [ -50.375039, -25.867973 ], [ -50.375396199999955, -25.868194 ], [ -50.37594009999998, -25.868187 ], [ -50.375947, -25.868517 ], [ -50.376030799999967, -25.868651 ], [ -50.376238899999983, -25.86908 ], [ -50.376364899999942, -25.869262 ], [ -50.376016099999951, -25.869537 ], [ -50.375498, -25.869887 ], [ -50.375054199999965, -25.870209 ], [ -50.375189199999966, -25.870448 ], [ -50.375292799999947, -25.870686 ], [ -50.375081899999948, -25.870895 ], [ -50.374658199999949, -25.87137 ], [ -50.374615, -25.871474 ], [ -50.374741, -25.871685 ], [ -50.375088, -25.871686 ], [ -50.375572899999952, -25.871555 ], [ -50.375836099999958, -25.871623 ], [ -50.37592, -25.871718 ], [ -50.375949799999951, -25.872004 ], [ -50.375918199999944, -25.872118 ], [ -50.375664, -25.872403 ], [ -50.375179099999976, -25.872506 ], [ -50.374946199999954, -25.872657 ], [ -50.374765099999934, -25.872999 ], [ -50.374553, -25.873351 ], [ -50.374521, -25.873465 ], [ -50.374678, -25.873599 ], [ -50.374856899999941, -25.8736 ], [ -50.375173, -25.873478 ], [ -50.37546889999993, -25.873346 ], [ -50.375616799999932, -25.873194 ], [ -50.375711899999942, -25.873127 ], [ -50.375976099999946, -25.873129 ], [ -50.376143899999938, -25.873234 ], [ -50.376354099999958, -25.873349 ], [ -50.376448099999955, -25.873464 ], [ -50.376520099999937, -25.873769 ], [ -50.376476199999964, -25.874074 ], [ -50.376409899999942, -25.874703 ], [ -50.376377199999979, -25.874978 ], [ -50.37647, -25.875265 ], [ -50.376701199999957, -25.875495 ], [ -50.376975099999981, -25.875334 ], [ -50.377113, -25.875277 ], [ -50.37736389999997, -25.875431 ], [ -50.377646899999945, -25.875823 ], [ -50.377898199999947, -25.876081 ], [ -50.377994, -25.876278699999936 ], [ -50.378034199999938, -25.87672 ], [ -50.377936, -25.876824 ], [ -50.377734899999957, -25.877157299999968 ], [ -50.377923, -25.877336899999928 ], [ -50.378121299999975, -25.877840099999954 ], [ -50.378289699999989, -25.878297199999967 ], [ -50.378303799999969, -25.878335399999969 ], [ -50.378533, -25.878762699999982 ], [ -50.378927199999964, -25.879550599999952 ], [ -50.37960719999996, -25.880055099999932 ], [ -50.380780699999953, -25.880190399999947 ], [ -50.382089699999945, -25.879844399999968 ], [ -50.382879099999975, -25.879273299999962 ], [ -50.383852099999956, -25.878578499999946 ], [ -50.384759699999968, -25.877892199999959 ], [ -50.384738899999945, -25.877838299999958 ], [ -50.38522, -25.877544599999965 ], [ -50.385523799999937, -25.877510199999953 ], [ -50.385984399999984, -25.877470899999931 ], [ -50.386321199999948, -25.877438199999972 ], [ -50.386628799999983, -25.877416 ], [ -50.386691799999944, -25.877411099999954 ], [ -50.386810499999967, -25.877401799999962 ], [ -50.386979699999983, -25.877388599999954 ], [ -50.387564699999984, -25.877559099999932 ], [ -50.387863899999957, -25.877637 ], [ -50.387990499999944, -25.877672199999949 ], [ -50.38872489999995, -25.878284 ], [ -50.388820799999962, -25.878371799999961 ], [ -50.389178399999942, -25.878963699999936 ], [ -50.389411299999949, -25.879317199999942 ], [ -50.390215099999985, -25.880551499999974 ], [ -50.390580399999976, -25.881116599999938 ], [ -50.39079879999997, -25.881561899999951 ], [ -50.390991099999958, -25.881954599999975 ], [ -50.391241699999973, -25.882470099999985 ], [ -50.391850699999971, -25.882905799999943 ], [ -50.392595599999936, -25.883210199999958 ], [ -50.393582099999946, -25.883178099999967 ], [ -50.394591799999944, -25.88274059999997 ], [ -50.395370699999951, -25.882276099999959 ], [ -50.395376799999951, -25.882277099999953 ], [ -50.395391399999937, -25.881544599999984 ], [ -50.395461599999976, -25.881463599999964 ], [ -50.395685799999967, -25.881534299999938 ], [ -50.400351699999931, -25.882601099999928 ], [ -50.399966699999936, -25.885890199999945 ], [ -50.402794099999937, -25.88633469999996 ], [ -50.403974, -25.885931599999935 ], [ -50.403993699999951, -25.885518599999955 ], [ -50.405021199999965, -25.885494 ], [ -50.406030099999953, -25.885489899999975 ], [ -50.406038899999935, -25.884048599999986 ], [ -50.409442099999985, -25.883999499999966 ], [ -50.410275499999962, -25.883977399999935 ], [ -50.411844299999977, -25.883981799999958 ] ] ], [ [ [ -50.551849, -25.766272699999945 ], [ -50.551738, -25.766606699999951 ], [ -50.551655899999965, -25.766909399999967 ], [ -50.551490699999931, -25.767231799999934 ], [ -50.551360099999954, -25.767562799999951 ], [ -50.551201099999965, -25.767950299999935 ], [ -50.5500593, -25.768688899999969 ], [ -50.54946979999994, -25.76919 ], [ -50.548982, -25.769841099999944 ], [ -50.547722499999963, -25.770667399999969 ], [ -50.545281699999975, -25.772348199999961 ], [ -50.54431859999994, -25.773273699999947 ], [ -50.543528599999938, -25.774131399999927 ], [ -50.542569, -25.774738199999948 ], [ -50.541149599999983, -25.775265199999975 ], [ -50.53875359999995, -25.776808099999986 ], [ -50.537867499999955, -25.777332099999956 ], [ -50.544029399999943, -25.784763299999948 ], [ -50.560189799999932, -25.772788 ], [ -50.561497199999963, -25.771819099999952 ], [ -50.558637099999942, -25.769019099999976 ], [ -50.55382979999996, -25.76427179999995 ], [ -50.55347839999996, -25.764619 ], [ -50.552814399999932, -25.765181199999972 ], [ -50.552435199999927, -25.765578599999962 ], [ -50.55205239999998, -25.765938399999975 ], [ -50.551897699999984, -25.765967599999961 ], [ -50.551849, -25.766272699999945 ] ] ] ] } }
]
}
