{
"type": "FeatureCollection",
"name": "4127908",
"crs": { "type": "name", "properties": { "name": "urn:ogc:def:crs:OGC:1.3:CRS84" } },
"features": [
{ "type": "Feature", "properties": { "CD_MUN": "4127908", "NM_MUN": "Tuneiras do Oeste" }, "geometry": { "type": "MultiPolygon", "coordinates": [ [ [ [ -52.847005, -23.959281199999964 ], [ -52.847136599999942, -23.957886099999946 ], [ -52.844552099999937, -23.95687189999995 ], [ -52.844337099999962, -23.956804899999945 ], [ -52.844107199999939, -23.956679 ], [ -52.843886299999951, -23.956586 ], [ -52.843806699999959, -23.957069499999935 ], [ -52.844155, -23.95907149999994 ], [ -52.844313299999953, -23.960231599999926 ], [ -52.843540899999944, -23.960312 ], [ -52.843461099999956, -23.960346 ], [ -52.84345349999996, -23.960424799999942 ], [ -52.843641, -23.961421199999965 ], [ -52.843636699999934, -23.961621099999942 ], [ -52.843698399999937, -23.962003399999965 ], [ -52.843776399999967, -23.962375699999939 ], [ -52.843845599999959, -23.962500799999919 ], [ -52.843881499999952, -23.962817099999931 ], [ -52.847843099999984, -23.962328199999945 ], [ -52.847939099999962, -23.962063299999951 ], [ -52.847896599999956, -23.961726799999951 ], [ -52.847904099999937, -23.961633399999986 ], [ -52.847878199999968, -23.961477099999968 ], [ -52.847852399999965, -23.961320899999969 ], [ -52.849182499999984, -23.961157099999976 ], [ -52.849076299999986, -23.96084379999996 ], [ -52.849012, -23.960796799999965 ], [ -52.848940299999981, -23.960769299999974 ], [ -52.849031099999927, -23.960702899999944 ], [ -52.849148799999966, -23.960626899999969 ], [ -52.849959, -23.96031569999996 ], [ -52.849324599999932, -23.959614 ], [ -52.849293199999977, -23.959396599999931 ], [ -52.848679499999953, -23.959372399999939 ], [ -52.848297499999937, -23.95935209999994 ], [ -52.847655399999951, -23.959318 ], [ -52.847005, -23.959281199999964 ] ] ], [ [ [ -52.73520149999996, -23.926051599999926 ], [ -52.736405, -23.925234399999958 ], [ -52.736433199999965, -23.925181299999959 ], [ -52.73643919999995, -23.925097399999974 ], [ -52.736415499999964, -23.925004399999974 ], [ -52.736288499999951, -23.924739499999923 ], [ -52.735798, -23.923478699999976 ], [ -52.735313599999984, -23.922221899999958 ], [ -52.735246299999972, -23.922087799999925 ], [ -52.734510199999939, -23.919840199999943 ], [ -52.733917, -23.918995599999949 ], [ -52.733521399999972, -23.918121099999947 ], [ -52.733407799999945, -23.917900599999939 ], [ -52.731331, -23.918632699999929 ], [ -52.730326799999943, -23.918988699999936 ], [ -52.730073199999936, -23.919078099999979 ], [ -52.729451399999952, -23.919266099999955 ], [ -52.728236, -23.91966519999994 ], [ -52.726693299999965, -23.920205699999944 ], [ -52.726772299999936, -23.92039369999997 ], [ -52.727590899999939, -23.922361599999924 ], [ -52.727841, -23.923051299999941 ], [ -52.729732499999947, -23.922450699999949 ], [ -52.730262899999964, -23.923665599999925 ], [ -52.730284199999979, -23.923698099999971 ], [ -52.730317799999966, -23.923718399999927 ], [ -52.730360099999984, -23.923716699999936 ], [ -52.730412299999955, -23.923696899999971 ], [ -52.730845899999956, -23.923555599999929 ], [ -52.730913799999932, -23.92352609999994 ], [ -52.730972599999973, -23.923476399999963 ], [ -52.732124699999986, -23.923183799999947 ], [ -52.73229, -23.923406899999989 ], [ -52.732395499999939, -23.923612199999972 ], [ -52.732534199999975, -23.923822 ], [ -52.732917, -23.924214599999967 ], [ -52.734877199999978, -23.926296599999944 ], [ -52.73520149999996, -23.926051599999926 ] ] ], [ [ [ -52.879011899999966, -23.87753229999992 ], [ -52.879192, -23.8774744 ], [ -52.879405299999974, -23.877406399999924 ], [ -52.879592499999944, -23.877376 ], [ -52.8797934, -23.877401 ], [ -52.880104499999966, -23.8774165 ], [ -52.882889499999976, -23.876513699999979 ], [ -52.881895399999962, -23.873498299999937 ], [ -52.881577699999973, -23.872572799999944 ], [ -52.881232499999953, -23.871545199999947 ], [ -52.881552899999974, -23.871447399999958 ], [ -52.881983899999959, -23.871333 ], [ -52.882258499999978, -23.871267 ], [ -52.8818591, -23.870146099999939 ], [ -52.881747899999944, -23.869932399999975 ], [ -52.881504399999983, -23.869214399999983 ], [ -52.881202299999984, -23.868329599999978 ], [ -52.882232, -23.868010199999951 ], [ -52.881971499999963, -23.867213599999953 ], [ -52.8814996, -23.865819299999938 ], [ -52.881320799999976, -23.865197799999972 ], [ -52.880988499999951, -23.865317899999987 ], [ -52.880840099999951, -23.864948699999957 ], [ -52.880591399999965, -23.864338699999958 ], [ -52.879520499999948, -23.861875299999948 ], [ -52.879477399999985, -23.861785799999957 ], [ -52.879391199999986, -23.861706199999954 ], [ -52.879063, -23.861550399999935 ], [ -52.878794399999947, -23.861371399999932 ], [ -52.8780551, -23.860751399999959 ], [ -52.877849499999968, -23.860588899999975 ], [ -52.877407799999958, -23.860324499999926 ], [ -52.877629799999966, -23.859758699999933 ], [ -52.877401099999979, -23.859671399999968 ], [ -52.87689389999997, -23.859492299999953 ], [ -52.876436299999966, -23.859323299999964 ], [ -52.87596549999995, -23.859164099999933 ], [ -52.875385299999941, -23.85898179999997 ], [ -52.87526, -23.858938899999941 ], [ -52.875055499999974, -23.859445099999952 ], [ -52.87458179999993, -23.860579799999982 ], [ -52.873963699999933, -23.862068699999945 ], [ -52.873127099999977, -23.861553299999962 ], [ -52.872654399999931, -23.861263799999961 ], [ -52.872171099999939, -23.860966299999969 ], [ -52.87201129999994, -23.860860499999934 ], [ -52.871920499999931, -23.86081889999997 ], [ -52.871833599999945, -23.860800199999971 ], [ -52.87176809999994, -23.860793 ], [ -52.871750799999973, -23.860741 ], [ -52.871706, -23.860662299999937 ], [ -52.871643, -23.860583499999965 ], [ -52.871621599999969, -23.860507199999962 ], [ -52.869868499999939, -23.858613299999941 ], [ -52.869573599999967, -23.85871869999994 ], [ -52.869243799999929, -23.858836499999935 ], [ -52.868606799999945, -23.859064099999962 ], [ -52.867964399999948, -23.859293599999948 ], [ -52.867673599999932, -23.859397399999974 ], [ -52.865042, -23.86033359999994 ], [ -52.865731799999942, -23.862030099999981 ], [ -52.865889599999946, -23.862393499999943 ], [ -52.865933199999972, -23.862478599999971 ], [ -52.867954499999939, -23.862652099999938 ], [ -52.871216299999958, -23.86298219999998 ], [ -52.871452, -23.863000499999945 ], [ -52.871943499999979, -23.863035299999968 ], [ -52.872435499999938, -23.863081599999934 ], [ -52.873538399999966, -23.863200599999971 ], [ -52.873541799999948, -23.863255099999957 ], [ -52.873549199999957, -23.863322599999943 ], [ -52.873601399999984, -23.863534699999935 ], [ -52.874117099999971, -23.865091299999953 ], [ -52.872620199999972, -23.865518599999973 ], [ -52.871144899999933, -23.865937699999954 ], [ -52.869706799999953, -23.866319399999949 ], [ -52.869954, -23.867103399999966 ], [ -52.869960099999957, -23.867160299999956 ], [ -52.869939399999971, -23.867221099999931 ], [ -52.869949399999946, -23.867281499999937 ], [ -52.870114499999943, -23.867771799999961 ], [ -52.870156099999974, -23.867841599999952 ], [ -52.870196899999947, -23.867872799999919 ], [ -52.870253399999974, -23.867886399999975 ], [ -52.870324399999966, -23.867878899999933 ], [ -52.87039569999996, -23.867862899999974 ], [ -52.87063679999995, -23.86779259999998 ], [ -52.870883899999967, -23.86851 ], [ -52.870580599999982, -23.868623799999966 ], [ -52.870303199999974, -23.86874739999995 ], [ -52.870032099999946, -23.868902799999944 ], [ -52.869744199999964, -23.869044199999962 ], [ -52.869521899999938, -23.869145199999924 ], [ -52.869180699999966, -23.869293 ], [ -52.868951799999934, -23.869407099999929 ], [ -52.869203899999945, -23.869362499999962 ], [ -52.869562199999962, -23.869267499999982 ], [ -52.869861399999934, -23.869201199999964 ], [ -52.870154199999945, -23.869109199999954 ], [ -52.870414599999954, -23.869022899999941 ], [ -52.870515199999943, -23.869246099999938 ], [ -52.870851499999958, -23.869983199999989 ], [ -52.871247099999948, -23.870970199999928 ], [ -52.871538299999941, -23.872039299999983 ], [ -52.869946099999936, -23.872476 ], [ -52.869903299999976, -23.87247889999998 ], [ -52.868797899999947, -23.87279 ], [ -52.868762099999969, -23.872816599999961 ], [ -52.868754799999984, -23.872864799999949 ], [ -52.868902799999951, -23.873289299999957 ], [ -52.869055599999967, -23.873738399999972 ], [ -52.869214499999934, -23.874181399999948 ], [ -52.869376899999963, -23.874632299999984 ], [ -52.869480099999976, -23.874985799999937 ], [ -52.869543, -23.875048499999931 ], [ -52.869623899999958, -23.875058299999981 ], [ -52.870543599999962, -23.874768599999982 ], [ -52.870611699999984, -23.874735 ], [ -52.870665, -23.87468859999996 ], [ -52.870725299999947, -23.874668699999969 ], [ -52.870805199999957, -23.874812099999932 ], [ -52.870943899999986, -23.87521739999994 ], [ -52.871039799999949, -23.875517399999975 ], [ -52.87257759999995, -23.875102699999957 ], [ -52.872869399999956, -23.876076899999934 ], [ -52.874382899999951, -23.875654199999932 ], [ -52.875896399999931, -23.875241399999926 ], [ -52.875564899999972, -23.874298599999968 ], [ -52.877064299999972, -23.873871399999938 ], [ -52.877405299999964, -23.874837199999938 ], [ -52.878324499999955, -23.877803099999934 ], [ -52.878487599999971, -23.877734799999917 ], [ -52.878505299999972, -23.877584499999951 ], [ -52.878767899999957, -23.877520399999987 ], [ -52.879011899999966, -23.87753229999992 ] ] ], [ [ [ -52.765611, -23.75831559999995 ], [ -52.766057899999964, -23.758032299999972 ], [ -52.766508199999976, -23.757757899999937 ], [ -52.766953299999962, -23.757451199999924 ], [ -52.767493, -23.757088099999976 ], [ -52.768291799999986, -23.756559799999938 ], [ -52.770056799999963, -23.755363299999946 ], [ -52.772163799999937, -23.75401 ], [ -52.7741013, -23.752709799999938 ], [ -52.773525499999948, -23.751644399999982 ], [ -52.773365299999966, -23.751123 ], [ -52.77152319999994, -23.751583299999933 ], [ -52.7702599, -23.751979699999939 ], [ -52.769411499999933, -23.752561399999934 ], [ -52.766972399999986, -23.754176499999968 ], [ -52.765749399999947, -23.755004699999972 ], [ -52.763357, -23.756507399999968 ], [ -52.763327099999977, -23.756626599999954 ], [ -52.763070899999938, -23.757976699999965 ], [ -52.763729, -23.758052299999978 ], [ -52.76404569999994, -23.758127299999948 ], [ -52.764062299999978, -23.758084099999966 ], [ -52.764125699999973, -23.758119399999927 ], [ -52.765454399999953, -23.758311699999989 ], [ -52.765611, -23.75831559999995 ] ] ] ] } }
]
}
