{
"type": "FeatureCollection",
"name": "4200705",
"crs": { "type": "name", "properties": { "name": "urn:ogc:def:crs:OGC:1.3:CRS84" } },
"features": [
{ "type": "Feature", "properties": { "CD_MUN": "4200705", "NM_MUN": "Alfredo Wagner" }, "geometry": { "type": "MultiPolygon", "coordinates": [ [ [ [ -49.336626599999938, -27.70515 ], [ -49.336857299999956, -27.705183299999934 ], [ -49.336881299999952, -27.705048099999949 ], [ -49.336943799999979, -27.704841499999933 ], [ -49.337024599999957, -27.70469449999996 ], [ -49.337180299999943, -27.704524399999968 ], [ -49.337405599999954, -27.704432899999968 ], [ -49.337843699999951, -27.704366899999982 ], [ -49.337894, -27.704372199999963 ], [ -49.337994099999946, -27.704328499999974 ], [ -49.338037099999951, -27.704290799999974 ], [ -49.338065299999982, -27.704234199999966 ], [ -49.338061699999962, -27.7041852 ], [ -49.338023899999939, -27.704081199999969 ], [ -49.337964, -27.703865899999986 ], [ -49.337986599999965, -27.703824399999977 ], [ -49.338065599999936, -27.703782499999924 ], [ -49.338404799999978, -27.703808699999964 ], [ -49.338470799999975, -27.703792099999923 ], [ -49.338571799999961, -27.704260399999953 ], [ -49.339034699999964, -27.70458419999995 ], [ -49.339376299999969, -27.704373099999945 ], [ -49.339894499999957, -27.704737499999965 ], [ -49.340176199999974, -27.704863699999969 ], [ -49.340831899999955, -27.705048299999927 ], [ -49.341528199999971, -27.705021199999972 ], [ -49.341961799999986, -27.704960699999965 ], [ -49.342594899999938, -27.704766899999967 ], [ -49.342718799999936, -27.70477459999994 ], [ -49.342780399999981, -27.705212199999949 ], [ -49.342965099999958, -27.705832099999942 ], [ -49.343166599999968, -27.70620469999994 ], [ -49.343672, -27.706913599999961 ], [ -49.343898, -27.707174799999962 ], [ -49.34406869999998, -27.707318399999956 ], [ -49.344355299999961, -27.707476899999975 ], [ -49.344690699999944, -27.707614499999984 ], [ -49.345703099999987, -27.708491699999954 ], [ -49.346604899999932, -27.709427099999967 ], [ -49.347878, -27.708375799999935 ], [ -49.348348899999962, -27.708000199999955 ], [ -49.348178899999937, -27.707813599999948 ], [ -49.348003099999971, -27.707599799999961 ], [ -49.347854799999936, -27.707465299999978 ], [ -49.347285899999974, -27.707027399999969 ], [ -49.347270199999969, -27.707021499999936 ], [ -49.346430799999951, -27.706706799999946 ], [ -49.346286, -27.706441299999934 ], [ -49.346996599999954, -27.705932 ], [ -49.346733899999947, -27.70572539999996 ], [ -49.346576099999936, -27.705649899999962 ], [ -49.346283399999948, -27.705585699999968 ], [ -49.346113, -27.705575899999939 ], [ -49.345920499999984, -27.705584499999926 ], [ -49.345719899999949, -27.705462199999939 ], [ -49.345149, -27.704620599999938 ], [ -49.345033699999931, -27.704388 ], [ -49.344937199999947, -27.704053299999934 ], [ -49.344748, -27.703690599999952 ], [ -49.344628799999946, -27.703526699999934 ], [ -49.34442329999996, -27.70333439999996 ], [ -49.344189899999947, -27.703126799999957 ], [ -49.344069, -27.702958899999935 ], [ -49.343855499999961, -27.702753799999989 ], [ -49.343608499999966, -27.702608899999973 ], [ -49.343447799999979, -27.702548499999981 ], [ -49.3430805, -27.702498499999937 ], [ -49.342696, -27.702513299999971 ], [ -49.342469599999951, -27.702544299999932 ], [ -49.34210319999994, -27.702510499999956 ], [ -49.341931599999953, -27.702472499999942 ], [ -49.341720099999975, -27.70244769999994 ], [ -49.341322699999985, -27.702443 ], [ -49.340548499999954, -27.70188139999993 ], [ -49.340083799999945, -27.701704399999986 ], [ -49.338401199999964, -27.701322 ], [ -49.337619499999967, -27.700918199999933 ], [ -49.337481199999957, -27.700624899999976 ], [ -49.337382299999938, -27.700373899999931 ], [ -49.337368799999979, -27.700286799999958 ], [ -49.337361899999962, -27.70014539999994 ], [ -49.337458699999964, -27.700016499999943 ], [ -49.337530799999975, -27.699891 ], [ -49.337571099999941, -27.69977769999997 ], [ -49.337605199999985, -27.699634299999957 ], [ -49.33761649999996, -27.699468399999937 ], [ -49.337581599999965, -27.699337599999971 ], [ -49.337785, -27.697947499999934 ], [ -49.338284299999941, -27.696194699999982 ], [ -49.338301399999985, -27.696195299999939 ], [ -49.338578899999959, -27.696204499999965 ], [ -49.338928, -27.696216 ], [ -49.339071399999966, -27.696220699999969 ], [ -49.33925209999996, -27.696226699999954 ], [ -49.339817299999936, -27.696245299999926 ], [ -49.340862499999957, -27.696070599999921 ], [ -49.342018299999943, -27.695613699999956 ], [ -49.342690499999946, -27.695117099999955 ], [ -49.343144699999982, -27.694662899999958 ], [ -49.343250799999971, -27.694532599999949 ], [ -49.34336, -27.69440139999994 ], [ -49.343371199999986, -27.694388 ], [ -49.343392199999982, -27.694362799999965 ], [ -49.34352929999995, -27.694198099999934 ], [ -49.343546, -27.694178 ], [ -49.343547899999983, -27.694175799999982 ], [ -49.343557499999974, -27.694166 ], [ -49.343634499999951, -27.694087799999966 ], [ -49.343639199999984, -27.694083099999951 ], [ -49.34369989999994, -27.694034299999945 ], [ -49.343734099999949, -27.694006799999951 ], [ -49.343765, -27.693985 ], [ -49.343838499999954, -27.693933099999978 ], [ -49.343942599999934, -27.693878 ], [ -49.34396, -27.69386879999994 ], [ -49.344095899999949, -27.69381919999995 ], [ -49.344238599999983, -27.693783499999938 ], [ -49.344386599999957, -27.693759699999926 ], [ -49.344538299999961, -27.693746 ], [ -49.344687299999983, -27.693739 ], [ -49.344691499999954, -27.693738799999956 ], [ -49.344697599999968, -27.693738699999976 ], [ -49.344778199999958, -27.693736799999964 ], [ -49.344801899999929, -27.693736299999955 ], [ -49.345114, -27.693729099999924 ], [ -49.3451209, -27.69372889999994 ], [ -49.34512449999994, -27.69372879999997 ], [ -49.345148599999959, -27.693728299999975 ], [ -49.345154599999944, -27.693728099999934 ], [ -49.345157199999967, -27.69372809999993 ], [ -49.345158599999927, -27.693728 ], [ -49.345160199999953, -27.693728 ], [ -49.34516229999997, -27.693727899999949 ], [ -49.345171799999953, -27.693727499999969 ], [ -49.345194099999958, -27.693726699999964 ], [ -49.345471499999974, -27.693716599999952 ], [ -49.34552, -27.693714899999978 ], [ -49.345781099999954, -27.693705699999949 ], [ -49.345833099999936, -27.693704799999981 ], [ -49.345838499999964, -27.693704699999959 ], [ -49.345893, -27.693703799999977 ], [ -49.346070899999972, -27.693700599999936 ], [ -49.346080799999989, -27.693700499999967 ], [ -49.346089499999948, -27.693700699999965 ], [ -49.346095199999972, -27.693700799999927 ], [ -49.346252799999952, -27.693704299999983 ], [ -49.346377599999983, -27.693707099999983 ], [ -49.346437399999957, -27.693712199999933 ], [ -49.346444399999939, -27.693712799999954 ], [ -49.346478699999984, -27.693715599999955 ], [ -49.346490199999948, -27.69371659999997 ], [ -49.346515699999941, -27.693718799999946 ], [ -49.346553099999937, -27.693724199999959 ], [ -49.346573199999966, -27.693727099999936 ], [ -49.346596, -27.693730399999936 ], [ -49.346632199999931, -27.693735699999934 ], [ -49.346656, -27.693739199999971 ], [ -49.346658599999948, -27.693656499999985 ], [ -49.346675899999987, -27.693122599999977 ], [ -49.351825599999977, -27.692443199999953 ], [ -49.352893299999948, -27.69230239999996 ], [ -49.354617799999978, -27.692074899999966 ], [ -49.354921499999932, -27.689697699999954 ], [ -49.354924, -27.689677799999966 ], [ -49.354929199999958, -27.689637299999966 ], [ -49.354863599999931, -27.689345299999957 ], [ -49.355045, -27.689366899999989 ], [ -49.355319099999981, -27.689377899999954 ], [ -49.355500799999959, -27.689359399999944 ], [ -49.355693599999938, -27.689313099999925 ], [ -49.355968599999983, -27.689220599999938 ], [ -49.35639759999998, -27.689048 ], [ -49.356635599999947, -27.688936499999951 ], [ -49.356820299999988, -27.688825699999938 ], [ -49.35702409999994, -27.688654699999972 ], [ -49.357256399999983, -27.688345099999939 ], [ -49.357512399999962, -27.688094899999957 ], [ -49.357973099999981, -27.687706099999968 ], [ -49.358228, -27.687539699999938 ], [ -49.358932099999947, -27.687250299999956 ], [ -49.359048899999948, -27.687229499999944 ], [ -49.359395, -27.687219099999943 ], [ -49.359484699999939, -27.687208299999956 ], [ -49.359574499999951, -27.687197399999938 ], [ -49.359859599999936, -27.687132499999962 ], [ -49.360241599999938, -27.687021399999924 ], [ -49.360445299999981, -27.686941699999988 ], [ -49.360649, -27.686861899999943 ], [ -49.360819, -27.68677479999997 ], [ -49.360945099999974, -27.686690599999963 ], [ -49.361022199999987, -27.686607899999945 ], [ -49.361063199999933, -27.686522699999955 ], [ -49.361080899999934, -27.686453099999934 ], [ -49.361118499999975, -27.686305899999986 ], [ -49.361125499999957, -27.686176 ], [ -49.361091199999983, -27.686071 ], [ -49.360945299999976, -27.685853299999959 ], [ -49.360926399999983, -27.685825099999928 ], [ -49.360807099999931, -27.685606299999957 ], [ -49.360614899999973, -27.685140499999918 ], [ -49.360587099999982, -27.685031799999926 ], [ -49.360584, -27.684927199999944 ], [ -49.360610299999962, -27.684828799999934 ], [ -49.360637399999973, -27.684780099999955 ], [ -49.360447399999934, -27.684533599999938 ], [ -49.360415199999977, -27.684491899999948 ], [ -49.360327099999949, -27.684545799999977 ], [ -49.360101099999959, -27.684681699999942 ], [ -49.359803, -27.684828899999953 ], [ -49.359492799999941, -27.684982099999953 ], [ -49.357954799999959, -27.685694099999971 ], [ -49.357748399999934, -27.685789599999961 ], [ -49.35673769999994, -27.686160199999964 ], [ -49.356317399999973, -27.686314299999932 ], [ -49.355628399999944, -27.686506399999928 ], [ -49.355040299999985, -27.686606099999945 ], [ -49.354837499999974, -27.686639499999956 ], [ -49.354288799999949, -27.686670399999965 ], [ -49.353705199999979, -27.686703299999973 ], [ -49.35272109999994, -27.686700799999979 ], [ -49.35238789999994, -27.6867 ], [ -49.352322299999976, -27.686699799999928 ], [ -49.35207859999997, -27.686687499999948 ], [ -49.35176789999997, -27.686599699999924 ], [ -49.3514014, -27.686382499999979 ], [ -49.351176699999947, -27.686271299999927 ], [ -49.35086159999998, -27.686211099999973 ], [ -49.350481299999956, -27.686229799999978 ], [ -49.350410499999953, -27.686248599999931 ], [ -49.350246799999987, -27.686291899999954 ], [ -49.350015499999984, -27.686353199999939 ], [ -49.349687799999977, -27.686394399999976 ], [ -49.349443299999962, -27.686430399999953 ], [ -49.349042299999951, -27.686498299999982 ], [ -49.3489474, -27.686516799999939 ], [ -49.348638899999969, -27.686669099999961 ], [ -49.348386199999943, -27.68689 ], [ -49.348326299999947, -27.686999899999929 ], [ -49.348235, -27.687167099999964 ], [ -49.348160099999973, -27.687320499999949 ], [ -49.347646599999962, -27.688668399999983 ], [ -49.34758469999997, -27.68876629999993 ], [ -49.347454699999957, -27.688920399999965 ], [ -49.346874399999933, -27.689253799999964 ], [ -49.346753699999965, -27.689321199999938 ], [ -49.345349499999948, -27.690106099999976 ], [ -49.345295499999963, -27.690136199999984 ], [ -49.345212499999953, -27.690036399999929 ], [ -49.345164299999965, -27.689767599999968 ], [ -49.345157399999948, -27.689271299999977 ], [ -49.345102299999958, -27.688947299999935 ], [ -49.345074699999941, -27.688775 ], [ -49.344964399999974, -27.68868539999994 ], [ -49.344750699999963, -27.688540599999946 ], [ -49.344488799999965, -27.688395799999967 ], [ -49.344357799999955, -27.68840959999995 ], [ -49.344268199999931, -27.688492299999947 ], [ -49.344226799999944, -27.688568199999956 ], [ -49.344095799999941, -27.688871499999959 ], [ -49.344006199999967, -27.688947299999928 ], [ -49.343696, -27.688947299999946 ], [ -49.343461699999978, -27.688899 ], [ -49.343179, -27.688795599999938 ], [ -49.342958499999945, -27.688588899999964 ], [ -49.342606899999971, -27.688209699999959 ], [ -49.342448399999967, -27.688002899999958 ], [ -49.342358699999977, -27.687920199999947 ], [ -49.34224839999996, -27.687837499999933 ], [ -49.342117499999979, -27.687823699999971 ], [ -49.341945099999975, -27.687892599999941 ], [ -49.341807299999971, -27.688002899999947 ], [ -49.341634899999981, -27.688065 ], [ -49.341476399999976, -27.688078699999949 ], [ -49.341283399999952, -27.688037399999924 ], [ -49.341200699999945, -27.687954699999985 ], [ -49.341124799999932, -27.687678899999977 ], [ -49.341042099999981, -27.687534199999963 ], [ -49.340890499999944, -27.687403199999952 ], [ -49.340690599999959, -27.687251599999961 ], [ -49.340518199999963, -27.687079199999964 ], [ -49.340318299999979, -27.686989599999951 ], [ -49.33997369999998, -27.68679659999998 ], [ -49.339835799999946, -27.686665599999959 ], [ -49.339332599999977, -27.686238199999938 ], [ -49.339221099999968, -27.686163899999933 ], [ -49.339125799999984, -27.686100399999926 ], [ -49.338932799999959, -27.685997 ], [ -49.338557099999946, -27.685876399999984 ], [ -49.337802299999971, -27.685721299999951 ], [ -49.337361099999953, -27.685645399999935 ], [ -49.337119899999948, -27.685528199999954 ], [ -49.336844099999951, -27.685224899999977 ], [ -49.336740699999957, -27.685100899999938 ], [ -49.336630399999933, -27.685025 ], [ -49.336310099999935, -27.684925099999926 ], [ -49.335837699999956, -27.684818199999931 ], [ -49.335079499999949, -27.684590799999963 ], [ -49.334666099999936, -27.684436099999974 ], [ -49.334121299999936, -27.684232299999966 ], [ -49.333969599999932, -27.684253 ], [ -49.333266499999979, -27.68448739999997 ], [ -49.332604799999956, -27.684611399999934 ], [ -49.332307499999956, -27.684582 ], [ -49.331695699999962, -27.685326399999951 ], [ -49.331671699999958, -27.685512399999933 ], [ -49.331706899999972, -27.686048799999977 ], [ -49.331630799999978, -27.686554399999974 ], [ -49.331551, -27.68708289999994 ], [ -49.331516099999931, -27.687359299999958 ], [ -49.331508, -27.687736399999945 ], [ -49.33158, -27.687949 ], [ -49.332064799999955, -27.688562399999967 ], [ -49.33215679999995, -27.688697499999925 ], [ -49.332292499999937, -27.688833199999983 ], [ -49.332669299999964, -27.689295399999928 ], [ -49.333173899999956, -27.689908499999945 ], [ -49.333568699999937, -27.690421699999945 ], [ -49.333773299999962, -27.690668099999989 ], [ -49.3340439, -27.690897599999971 ], [ -49.33421449999998, -27.690965099999971 ], [ -49.334522, -27.69102989999994 ], [ -49.335182299999985, -27.691130099999953 ], [ -49.335643599999969, -27.691153399999955 ], [ -49.335814499999969, -27.691125499999945 ], [ -49.336201, -27.691016599999948 ], [ -49.336886399999976, -27.690717599999974 ], [ -49.337145299999975, -27.690492199999937 ], [ -49.337462899999935, -27.690316 ], [ -49.337718699999982, -27.690315 ], [ -49.338081199999976, -27.690459399999945 ], [ -49.33819, -27.690649399999977 ], [ -49.338203899999947, -27.690760799999964 ], [ -49.338106499999988, -27.690900899999971 ], [ -49.337940599999968, -27.691139099999933 ], [ -49.337822799999977, -27.691365799999975 ], [ -49.337623599999965, -27.692221 ], [ -49.337455, -27.692440199999965 ], [ -49.337092899999959, -27.692703799999943 ], [ -49.336730899999971, -27.692842899999963 ], [ -49.336301499999927, -27.69290789999997 ], [ -49.335793599999938, -27.69319819999998 ], [ -49.335473799999932, -27.693299099999933 ], [ -49.33467729999996, -27.693467499999944 ], [ -49.334345499999984, -27.693675499999973 ], [ -49.334305499999971, -27.693744499999983 ], [ -49.333991, -27.693903499999969 ], [ -49.333691, -27.69405 ], [ -49.33348239999998, -27.694144899999962 ], [ -49.33316, -27.694269 ], [ -49.333063399999951, -27.6943 ], [ -49.332828499999955, -27.694402699999962 ], [ -49.33267109999997, -27.694471399999937 ], [ -49.332596799999976, -27.694349499999927 ], [ -49.332642199999952, -27.69413569999994 ], [ -49.332675599999952, -27.693978399999938 ], [ -49.33272, -27.693459599999983 ], [ -49.332441499999959, -27.693287 ], [ -49.332220899999989, -27.693115 ], [ -49.332016899999985, -27.692935899999942 ], [ -49.331921199999954, -27.692891799999977 ], [ -49.331720799999978, -27.692854 ], [ -49.331399099999942, -27.692864099999952 ], [ -49.330855499999984, -27.692856899999967 ], [ -49.3299272, -27.69263409999996 ], [ -49.329605399999934, -27.692579899999942 ], [ -49.328813899999936, -27.692548799999937 ], [ -49.328392199999939, -27.69245909999994 ], [ -49.3281181, -27.692334499999951 ], [ -49.327971799999951, -27.692289899999938 ], [ -49.327786099999962, -27.692154 ], [ -49.327416699999958, -27.692010099999948 ], [ -49.3271276, -27.691960399999964 ], [ -49.32676059999995, -27.691961199999973 ], [ -49.326580499999977, -27.691973399999938 ], [ -49.32604159999994, -27.691956199999943 ], [ -49.32555149999996, -27.691970099999935 ], [ -49.325538599999966, -27.691047399999935 ], [ -49.325231799999976, -27.691046399999948 ], [ -49.3226552, -27.691015699999969 ], [ -49.32261189999997, -27.69410059999996 ], [ -49.323199499999937, -27.694107699999957 ], [ -49.323870399999976, -27.694126 ], [ -49.324275199999924, -27.694184899999986 ], [ -49.324311199999954, -27.694209599999954 ], [ -49.324640699999982, -27.694237199999986 ], [ -49.325157, -27.694011899999968 ], [ -49.32523439999995, -27.694751699999976 ], [ -49.325452199999972, -27.694727399999969 ], [ -49.325618199999951, -27.694707899999965 ], [ -49.325784899999967, -27.69468709999995 ], [ -49.325952199999961, -27.694667 ], [ -49.326119299999966, -27.694646899999949 ], [ -49.326285399999961, -27.694626099999951 ], [ -49.326449699999955, -27.694606 ], [ -49.326616699999938, -27.694587199999955 ], [ -49.326776799999948, -27.694568599999961 ], [ -49.326937, -27.694554 ], [ -49.327094, -27.694544099999984 ], [ -49.327247599999964, -27.694541 ], [ -49.327397899999937, -27.69454269999995 ], [ -49.327544199999977, -27.694557299999914 ], [ -49.327684899999959, -27.69458 ], [ -49.327821599999936, -27.694614 ], [ -49.32795179999993, -27.694658399999984 ], [ -49.328075399999932, -27.694712 ], [ -49.328194899999971, -27.694773199999922 ], [ -49.328310699999967, -27.694838199999925 ], [ -49.328422899999964, -27.694907399999973 ], [ -49.328529599999968, -27.694980899999962 ], [ -49.328635299999974, -27.695054899999935 ], [ -49.328737799999942, -27.695129599999969 ], [ -49.328840099999979, -27.695204 ], [ -49.328940599999953, -27.695273399999952 ], [ -49.329034199999967, -27.695336699999931 ], [ -49.329117399999973, -27.695391299999979 ], [ -49.329187399999959, -27.695436199999961 ], [ -49.328941599999958, -27.695671799999957 ], [ -49.328811199999961, -27.695821799999965 ], [ -49.328765, -27.695898499999949 ], [ -49.32875319999993, -27.69601589999996 ], [ -49.328767899999946, -27.696095 ], [ -49.328793899999937, -27.696186299999958 ], [ -49.328811199999961, -27.696231899999916 ], [ -49.328807399999953, -27.696332299999938 ], [ -49.328797899999977, -27.696391099999975 ], [ -49.328754, -27.696465799999952 ], [ -49.3286854, -27.696537599999932 ], [ -49.329071499999941, -27.697130799999965 ], [ -49.328889199999942, -27.697527399999945 ], [ -49.329593, -27.69805 ], [ -49.331662399999971, -27.698340199999965 ], [ -49.331675, -27.700001899999958 ], [ -49.33196869999994, -27.700013699999946 ], [ -49.331829699999965, -27.703195499999932 ], [ -49.331884799999955, -27.703662499999943 ], [ -49.332629899999972, -27.706930399999976 ], [ -49.332568299999934, -27.707049 ], [ -49.332494299999958, -27.707199 ], [ -49.332394299999976, -27.707330399999933 ], [ -49.33227739999996, -27.707471399999971 ], [ -49.331305599999951, -27.70744 ], [ -49.330589499999974, -27.707552499999949 ], [ -49.32988359999996, -27.707869599999984 ], [ -49.329873399999947, -27.708411799999961 ], [ -49.330006399999952, -27.708657299999967 ], [ -49.329556299999979, -27.709915599999935 ], [ -49.3294949, -27.710253199999958 ], [ -49.329525599999961, -27.71059079999997 ], [ -49.329402799999968, -27.710979599999973 ], [ -49.329259599999943, -27.711306899999943 ], [ -49.329259599999936, -27.711572899999965 ], [ -49.329382399999986, -27.71203329999997 ], [ -49.330067799999938, -27.712309499999943 ], [ -49.331069399999933, -27.71269349999994 ], [ -49.331062899999949, -27.712848299999958 ], [ -49.331042799999977, -27.712945399999963 ], [ -49.331005399999981, -27.713099199999927 ], [ -49.330933499999958, -27.713198 ], [ -49.33084249999996, -27.713343899999987 ], [ -49.330745199999967, -27.713483 ], [ -49.330665099999976, -27.713590399999926 ], [ -49.33057869999994, -27.71370869999998 ], [ -49.330482599999975, -27.713781 ], [ -49.330372399999931, -27.713807699999958 ], [ -49.3302068, -27.7138351 ], [ -49.330032099999983, -27.713776 ], [ -49.329882199999986, -27.713684 ], [ -49.329720899999984, -27.713564599999987 ], [ -49.329604099999983, -27.713508099999949 ], [ -49.32952309999996, -27.713496299999967 ], [ -49.329403099999979, -27.713511399999948 ], [ -49.32930319999997, -27.713561599999938 ], [ -49.329244199999948, -27.713641699999986 ], [ -49.3291804, -27.71376029999994 ], [ -49.329123299999935, -27.713938399999972 ], [ -49.329108699999942, -27.71398389999996 ], [ -49.329066499999954, -27.714179899999969 ], [ -49.32901709999993, -27.714424499999943 ], [ -49.328993299999979, -27.71456749999993 ], [ -49.328962599999954, -27.714752599999937 ], [ -49.328901699999967, -27.715275599999977 ], [ -49.328866699999942, -27.715491299999936 ], [ -49.328827099999955, -27.715664599999975 ], [ -49.328777399999979, -27.715809599999943 ], [ -49.328685399999983, -27.715918 ], [ -49.328605299999943, -27.715978099999965 ], [ -49.328572799999968, -27.716029399999961 ], [ -49.32856, -27.716174899999942 ], [ -49.328556399999968, -27.716414399999962 ], [ -49.328568099999984, -27.716666 ], [ -49.328544799999975, -27.716811299999968 ], [ -49.32852759999998, -27.716900399999929 ], [ -49.328523599999983, -27.716907299999946 ], [ -49.328500499999969, -27.716947 ], [ -49.32843639999993, -27.716993199999933 ], [ -49.328293, -27.717043199999985 ], [ -49.328011899999979, -27.717119599999943 ], [ -49.327752399999952, -27.717168099999981 ], [ -49.327559699999945, -27.717178199999982 ], [ -49.327148899999933, -27.717180199999966 ], [ -49.32674929999996, -27.717133799999939 ], [ -49.326588899999933, -27.717078699999938 ], [ -49.32649379999998, -27.717010499999954 ], [ -49.326406, -27.716972399999975 ], [ -49.326285399999961, -27.716975599999955 ], [ -49.326217699999972, -27.71697939999995 ], [ -49.326147099999957, -27.717010899999941 ], [ -49.326104599999958, -27.717070499999981 ], [ -49.326084799999933, -27.717174299999943 ], [ -49.326038099999948, -27.717337899999972 ], [ -49.325999199999963, -27.717503899999929 ], [ -49.326, -27.717512199999923 ], [ -49.326012599999956, -27.717645099999956 ], [ -49.326055199999985, -27.717921799999949 ], [ -49.326104199999975, -27.718287699999969 ], [ -49.326145399999973, -27.71848869999997 ], [ -49.326162099999976, -27.718586 ], [ -49.326161099999979, -27.718650799999978 ], [ -49.326164899999981, -27.718743299999961 ], [ -49.326158599999978, -27.718812599999971 ], [ -49.326126199999976, -27.718895399999948 ], [ -49.326064799999976, -27.71899869999994 ], [ -49.325969799999939, -27.719092299999936 ], [ -49.325835899999959, -27.719178599999971 ], [ -49.325625299999956, -27.719276899999954 ], [ -49.325319899999947, -27.7193564 ], [ -49.324857899999984, -27.71948029999993 ], [ -49.32457409999995, -27.719556499999943 ], [ -49.324328099999946, -27.719664499999961 ], [ -49.324142199999983, -27.719752399999955 ], [ -49.324091899999985, -27.719783099999962 ], [ -49.324053, -27.719806799999962 ], [ -49.324015699999954, -27.719864199999947 ], [ -49.323999199999946, -27.719924099999954 ], [ -49.324014, -27.71997279999994 ], [ -49.324055099999946, -27.720005699999938 ], [ -49.324178499999952, -27.720095 ], [ -49.32435339999995, -27.720222 ], [ -49.324466499999978, -27.720306599999954 ], [ -49.324512299999981, -27.72036959999997 ], [ -49.324544, -27.720426099999937 ], [ -49.324557, -27.720526799999959 ], [ -49.324538299999972, -27.720675799999974 ], [ -49.324551399999969, -27.720778099999965 ], [ -49.324584899999934, -27.720854799999984 ], [ -49.324638, -27.720966399999948 ], [ -49.32466419999998, -27.721039699999949 ], [ -49.324666899999947, -27.721099799999941 ], [ -49.324656699999935, -27.721166699999969 ], [ -49.324636799999958, -27.721234299999942 ], [ -49.324609599999974, -27.721305499999968 ], [ -49.324587599999973, -27.721336399999927 ], [ -49.324553299999927, -27.721351099999936 ], [ -49.324458899999968, -27.72135719999994 ], [ -49.324374599999942, -27.72135139999995 ], [ -49.324318, -27.721355499999955 ], [ -49.324253, -27.721370799999931 ], [ -49.324062799999986, -27.721436199999964 ], [ -49.323798, -27.721539299999957 ], [ -49.323474299999937, -27.721673299999953 ], [ -49.323183, -27.721810599999966 ], [ -49.322721899999976, -27.721995499999935 ], [ -49.322505799999931, -27.72208019999993 ], [ -49.32200609999996, -27.722272 ], [ -49.321679, -27.722395 ], [ -49.321174199999973, -27.722606399999954 ], [ -49.321129, -27.722626299999952 ], [ -49.320724699999971, -27.722804699999976 ], [ -49.320329299999969, -27.72300649999994 ], [ -49.320108399999981, -27.723151599999927 ], [ -49.320007699999969, -27.723235599999953 ], [ -49.319800199999975, -27.723432899999978 ], [ -49.319649599999941, -27.723585399999926 ], [ -49.319557799999984, -27.723646 ], [ -49.319366299999963, -27.723757799999927 ], [ -49.319218399999961, -27.723858899999971 ], [ -49.31915209999994, -27.723916599999932 ], [ -49.31911319999994, -27.723977199999975 ], [ -49.319068199999947, -27.724086 ], [ -49.319062899999949, -27.724198399999977 ], [ -49.31907989999997, -27.724236399999924 ], [ -49.319116299999955, -27.724269699999969 ], [ -49.319155299999977, -27.724281099999924 ], [ -49.319191099999955, -27.724284599999965 ], [ -49.319243599999943, -27.724296199999959 ], [ -49.319295899999986, -27.724313699999982 ], [ -49.319334699999963, -27.724344099999936 ], [ -49.319367599999964, -27.724386299999935 ], [ -49.319408099999976, -27.724447499999943 ], [ -49.319444899999958, -27.724530599999973 ], [ -49.319475, -27.724610699999968 ], [ -49.319495399999937, -27.724750099999934 ], [ -49.319475799999964, -27.724864 ], [ -49.31948269999998, -27.724924299999923 ], [ -49.31948669999997, -27.725042199999965 ], [ -49.319488699999972, -27.725142599999963 ], [ -49.319491099999937, -27.725222199999958 ], [ -49.31948269999998, -27.725305 ], [ -49.319469399999939, -27.725354199999984 ], [ -49.319431199999933, -27.725388699999936 ], [ -49.319368199999985, -27.725410299999954 ], [ -49.3192064, -27.725454499999945 ], [ -49.318940199999986, -27.725524499999942 ], [ -49.318418099999974, -27.725641499999934 ], [ -49.317965299999969, -27.725735 ], [ -49.317893399999939, -27.725749799999974 ], [ -49.317398299999986, -27.725849399999955 ], [ -49.317153699999949, -27.725913299999942 ], [ -49.316843199999944, -27.726019899999969 ], [ -49.316349299999956, -27.726225699999922 ], [ -49.316189699999939, -27.726313399999977 ], [ -49.316111399999954, -27.726395299999979 ], [ -49.316052399999926, -27.726506099999931 ], [ -49.315969299999949, -27.72666909999997 ], [ -49.315864, -27.726966799999957 ], [ -49.31577069999998, -27.727207699999944 ], [ -49.315619199999958, -27.727590699999951 ], [ -49.315553899999948, -27.727732199999931 ], [ -49.315412299999934, -27.727995199999942 ], [ -49.315294299999948, -27.728192199999956 ], [ -49.315097599999945, -27.72848179999994 ], [ -49.314926899999932, -27.728734299999918 ], [ -49.314793, -27.728900199999945 ], [ -49.314540099999931, -27.729217899999973 ], [ -49.314321099999972, -27.729491099999958 ], [ -49.314181399999939, -27.729629799999941 ], [ -49.314082599999949, -27.729721499999989 ], [ -49.313990899999965, -27.729816599999939 ], [ -49.313886, -27.729893499999939 ], [ -49.313750499999976, -27.729958 ], [ -49.313640799999973, -27.729994599999934 ], [ -49.31353, -27.730001699999949 ], [ -49.313409599999943, -27.729989799999945 ], [ -49.313400499999943, -27.729988899999956 ], [ -49.313227599999955, -27.729978499999955 ], [ -49.313099399999942, -27.729979699999941 ], [ -49.312960399999952, -27.729965399999966 ], [ -49.312787599999979, -27.729890099999974 ], [ -49.312622399999952, -27.729779599999976 ], [ -49.312500099999966, -27.729703199999967 ], [ -49.312351099999944, -27.729663199999944 ], [ -49.312210799999953, -27.729638699999956 ], [ -49.312073399999981, -27.729635599999931 ], [ -49.311954399999934, -27.729644399999977 ], [ -49.311816599999986, -27.729666799999965 ], [ -49.311715299999946, -27.729704 ], [ -49.311632799999984, -27.729766899999966 ], [ -49.311559699999982, -27.729844199999953 ], [ -49.311476199999959, -27.729956199999958 ], [ -49.31183319999996, -27.730344 ], [ -49.311898599999957, -27.730445699999965 ], [ -49.312005599999971, -27.730497499999952 ], [ -49.312178299999971, -27.730538899999946 ], [ -49.312261199999966, -27.730587299999968 ], [ -49.312271599999981, -27.730628699999958 ], [ -49.312243899999942, -27.730711599999943 ], [ -49.312150699999968, -27.730815199999938 ], [ -49.312050499999934, -27.730911899999963 ], [ -49.311874399999972, -27.730991299999978 ], [ -49.311729399999933, -27.731046599999953 ], [ -49.311636099999937, -27.731095 ], [ -49.311594699999944, -27.731195099999983 ], [ -49.311625699999986, -27.731264199999938 ], [ -49.311743199999967, -27.731357399999979 ], [ -49.311864, -27.731398899999924 ], [ -49.31205749999998, -27.731478299999942 ], [ -49.312250899999981, -27.731581899999988 ], [ -49.312509899999952, -27.731733899999941 ], [ -49.312672199999959, -27.731806399999986 ], [ -49.312701799999957, -27.731853899999969 ], [ -49.31327, -27.731838699999969 ], [ -49.313495099999955, -27.731715899999987 ], [ -49.313781499999955, -27.731327199999956 ], [ -49.3139963, -27.73111229999995 ], [ -49.314712399999962, -27.731030499999974 ], [ -49.314998899999978, -27.730805399999955 ], [ -49.315919599999972, -27.730293899999943 ], [ -49.316615199999944, -27.72965969999996 ], [ -49.317106299999978, -27.7289436 ], [ -49.31790419999993, -27.727920599999944 ], [ -49.321750699999939, -27.725219799999934 ], [ -49.32227249999994, -27.72494359999996 ], [ -49.323418199999928, -27.724718499999938 ], [ -49.324236599999956, -27.724135399999962 ], [ -49.324768599999977, -27.723286299999984 ], [ -49.325136899999968, -27.722611099999938 ], [ -49.326436099999967, -27.720933399999982 ], [ -49.326927099999978, -27.720657199999945 ], [ -49.327356799999961, -27.720739 ], [ -49.328052499999949, -27.720370799999962 ], [ -49.328277499999956, -27.719930899999952 ], [ -49.330937299999967, -27.716314499999957 ], [ -49.331315799999977, -27.715757 ], [ -49.331643199999974, -27.715133 ], [ -49.331822199999976, -27.714677699999974 ], [ -49.33225189999996, -27.713726299999959 ], [ -49.332181599999956, -27.713113599999943 ], [ -49.332206499999984, -27.713123 ], [ -49.332426, -27.712690599999984 ], [ -49.332463599999983, -27.712628599999963 ], [ -49.332539099999963, -27.712516899999965 ], [ -49.3327149, -27.712350699999941 ], [ -49.33320139999995, -27.711977599999944 ], [ -49.333281499999941, -27.711924 ], [ -49.333556699999974, -27.711699199999934 ], [ -49.333723299999974, -27.711508699999978 ], [ -49.334101199999964, -27.710776899999924 ], [ -49.334158099999968, -27.710428399999945 ], [ -49.334123299999931, -27.710171699999929 ], [ -49.334761199999946, -27.710003799999988 ], [ -49.335313699999972, -27.709236599999929 ], [ -49.335600099999965, -27.708489799999931 ], [ -49.335876299999939, -27.707927099999953 ], [ -49.335804699999983, -27.707354199999944 ], [ -49.336626599999938, -27.70515 ] ] ], [ [ [ -49.199629199999947, -27.669158 ], [ -49.199395199999969, -27.669083099999966 ], [ -49.199155599999983, -27.669058599999957 ], [ -49.198931699999946, -27.669048499999974 ], [ -49.198747499999968, -27.669060399999978 ], [ -49.198514199999984, -27.669142799999978 ], [ -49.198343099999924, -27.669325799999967 ], [ -49.198251899999946, -27.669524099999922 ], [ -49.198224699999969, -27.669716 ], [ -49.198221, -27.669943899999964 ], [ -49.198321899999939, -27.670130399999952 ], [ -49.198534699999982, -27.670437 ], [ -49.198553, -27.671470699999933 ], [ -49.198562699999961, -27.672014 ], [ -49.198563499999977, -27.672064899999953 ], [ -49.198491499999932, -27.672093499999963 ], [ -49.198359699999962, -27.672166899999986 ], [ -49.198321199999945, -27.672185799999966 ], [ -49.198233499999965, -27.672221 ], [ -49.1981866, -27.672261599999953 ], [ -49.1981014, -27.672311399999955 ], [ -49.197997399999963, -27.672341599999971 ], [ -49.197938799999974, -27.67237949999997 ], [ -49.197931399999959, -27.672384299999976 ], [ -49.197870699999953, -27.672434499999962 ], [ -49.197818499999983, -27.672460399999974 ], [ -49.197730899999954, -27.672490799999935 ], [ -49.197681399999972, -27.672524099999965 ], [ -49.197642799999983, -27.672550299999966 ], [ -49.197609799999952, -27.672569199999945 ], [ -49.197579499999961, -27.672590599999985 ], [ -49.197532899999942, -27.67261429999996 ], [ -49.197491499999963, -27.672645199999973 ], [ -49.197469399999932, -27.672669199999966 ], [ -49.197430399999973, -27.672719599999937 ], [ -49.197339399999976, -27.672793499999958 ], [ -49.197201399999983, -27.672905599999982 ], [ -49.19717959999997, -27.674056399999984 ], [ -49.198287699999987, -27.674081 ], [ -49.198919899999964, -27.67402259999994 ], [ -49.199213399999962, -27.673992799999944 ], [ -49.199469299999976, -27.673945599999961 ], [ -49.199725499999943, -27.673881599999959 ], [ -49.199930299999949, -27.673789399999983 ], [ -49.20011059999996, -27.673715 ], [ -49.200277499999977, -27.673644799999973 ], [ -49.200429599999943, -27.673587899999969 ], [ -49.200581399999976, -27.673556199999954 ], [ -49.200714, -27.673532699999956 ], [ -49.201320099999975, -27.673456399999957 ], [ -49.202069899999969, -27.673419899999931 ], [ -49.20226, -27.673387199999986 ], [ -49.202422299999974, -27.673372799999985 ], [ -49.203023099999946, -27.673370099999939 ], [ -49.203497199999958, -27.673399599999982 ], [ -49.203530099999966, -27.672156599999933 ], [ -49.20353189999998, -27.672085 ], [ -49.203504799999962, -27.672078499999937 ], [ -49.203338499999973, -27.671960599999977 ], [ -49.20310319999993, -27.671677099999943 ], [ -49.202811899999972, -27.671223299999955 ], [ -49.2028, -27.671194599999975 ], [ -49.202767799999954, -27.671116899999959 ], [ -49.202741, -27.670966099999927 ], [ -49.202688899999941, -27.670711399999956 ], [ -49.202646899999934, -27.670586899999943 ], [ -49.202585499999934, -27.670506699999979 ], [ -49.202311299999955, -27.670299699999926 ], [ -49.20213119999994, -27.670141599999962 ], [ -49.202116899999957, -27.670129 ], [ -49.201977199999931, -27.670060199999952 ], [ -49.201974599999971, -27.670039 ], [ -49.201976499999937, -27.670030499999935 ], [ -49.201982399999963, -27.670023099999977 ], [ -49.202270699999978, -27.669799199999943 ], [ -49.202321, -27.669740399999956 ], [ -49.202337799999952, -27.669690299999953 ], [ -49.202343799999937, -27.66963139999995 ], [ -49.202352499999968, -27.669528299999975 ], [ -49.202311, -27.669270099999945 ], [ -49.202223799999949, -27.668941899999943 ], [ -49.202190799999983, -27.668862299999947 ], [ -49.202143799999938, -27.668825899999948 ], [ -49.202096899999958, -27.668803599999929 ], [ -49.202033399999955, -27.668801 ], [ -49.201990399999943, -27.668800699999952 ], [ -49.20193809999995, -27.668803599999936 ], [ -49.201841299999955, -27.668805199999948 ], [ -49.201803199999972, -27.668807799999964 ], [ -49.201774, -27.668808299999966 ], [ -49.201748, -27.668804599999923 ], [ -49.201732499999935, -27.668798799999923 ], [ -49.2017168, -27.66878729999997 ], [ -49.201597899999967, -27.668655299999941 ], [ -49.201458299999956, -27.668539499999959 ], [ -49.201413799999962, -27.668518599999974 ], [ -49.201326499999929, -27.668506599999944 ], [ -49.201075099999969, -27.668512199999959 ], [ -49.201073499999957, -27.668512199999952 ], [ -49.201031699999938, -27.668510799999979 ], [ -49.200978199999952, -27.668509 ], [ -49.200969699999973, -27.668508099999936 ], [ -49.199629199999947, -27.669158 ] ] ], [ [ [ -49.399340799999955, -27.666047099999965 ], [ -49.399844599999938, -27.66606819999998 ], [ -49.400365099999938, -27.666125099999931 ], [ -49.400691399999971, -27.666222899999973 ], [ -49.401228099999962, -27.666360299999948 ], [ -49.401461299999937, -27.666475099999968 ], [ -49.40166609999995, -27.666670099999976 ], [ -49.401827299999972, -27.666717 ], [ -49.402251499999977, -27.666796199999961 ], [ -49.402483, -27.666849399999926 ], [ -49.402643199999943, -27.6668865 ], [ -49.402686699999947, -27.666891199999952 ], [ -49.402720899999963, -27.666892 ], [ -49.402753399999945, -27.666891899999943 ], [ -49.402837599999948, -27.66688309999995 ], [ -49.402931, -27.66687319999993 ], [ -49.403044, -27.666846699999954 ], [ -49.403198, -27.666765699999932 ], [ -49.403255099999967, -27.666722299999936 ], [ -49.40332079999996, -27.666670199999945 ], [ -49.403706199999938, -27.666428399999958 ], [ -49.404151, -27.66608 ], [ -49.404447399999981, -27.66573469999997 ], [ -49.404514, -27.665549899999974 ], [ -49.404505699999959, -27.665437499999943 ], [ -49.404500699999971, -27.665370699999986 ], [ -49.404455699999971, -27.665186399999978 ], [ -49.404331099999986, -27.66501529999994 ], [ -49.403799099999958, -27.664434199999963 ], [ -49.403280399999979, -27.663954 ], [ -49.402988899999976, -27.66359719999998 ], [ -49.402760799999953, -27.66325049999995 ], [ -49.402638099999926, -27.662947499999976 ], [ -49.402668599999963, -27.662696099999941 ], [ -49.402761699999985, -27.662485099999966 ], [ -49.402834699999971, -27.66242179999994 ], [ -49.402745299999935, -27.662372499999947 ], [ -49.402690799999959, -27.662303799999957 ], [ -49.402415699999949, -27.661956499999974 ], [ -49.401860699999986, -27.661194 ], [ -49.399562099999969, -27.662317399999932 ], [ -49.399096199999974, -27.66272159999993 ], [ -49.398791799999969, -27.662970099999939 ], [ -49.398328299999953, -27.663216799999923 ], [ -49.397670499999954, -27.663429699999927 ], [ -49.397011499999955, -27.663737099999938 ], [ -49.396618399999966, -27.664000399999953 ], [ -49.396497299999965, -27.664089599999947 ], [ -49.396327899999967, -27.664210599999926 ], [ -49.396908699999976, -27.664995799999918 ], [ -49.397034, -27.665094599999975 ], [ -49.397551799999974, -27.665502799999949 ], [ -49.39758779999994, -27.665682 ], [ -49.397626299999949, -27.665691699999961 ], [ -49.39766549999996, -27.665701499999958 ], [ -49.397704, -27.665711199999972 ], [ -49.397899699999982, -27.665760499999976 ], [ -49.398425299999985, -27.665858299999961 ], [ -49.399340799999955, -27.666047099999965 ] ] ], [ [ [ -49.441262399999971, -27.583301499999944 ], [ -49.442392199999965, -27.584333899999926 ], [ -49.443193499999957, -27.585035899999983 ], [ -49.443832099999952, -27.585449 ], [ -49.444563699999946, -27.585576 ], [ -49.445453199999967, -27.585556 ], [ -49.445992399999973, -27.58518429999998 ], [ -49.44492669999994, -27.588166399999977 ], [ -49.4446114, -27.588295499999962 ], [ -49.444243799999981, -27.588378199999958 ], [ -49.443756599999979, -27.588490299999929 ], [ -49.443746699999963, -27.590031799999959 ], [ -49.443410399999955, -27.592789499999984 ], [ -49.448544099999928, -27.592809099999961 ], [ -49.448609399999953, -27.592218499999941 ], [ -49.44846639999998, -27.591941299999966 ], [ -49.448158399999954, -27.591413099999965 ], [ -49.447992899999981, -27.590809199999956 ], [ -49.44803579999995, -27.590648599999948 ], [ -49.448106799999948, -27.59053229999995 ], [ -49.448256199999946, -27.590513899999952 ], [ -49.448396199999934, -27.590551899999983 ], [ -49.448581099999956, -27.590692199999975 ], [ -49.448719499999989, -27.590889299999951 ], [ -49.448822899999982, -27.591004199999936 ], [ -49.44892549999998, -27.591015399999939 ], [ -49.449065499999961, -27.591164799999945 ], [ -49.449219199999959, -27.591320299999953 ], [ -49.449445299999979, -27.5915007 ], [ -49.44977149999994, -27.591673599999972 ], [ -49.450729699999954, -27.592148599999984 ], [ -49.451225099999931, -27.592411499999965 ], [ -49.451410199999941, -27.592585299999925 ], [ -49.451520899999934, -27.592798699999943 ], [ -49.451625299999932, -27.59309009999998 ], [ -49.451695499999971, -27.59329009999994 ], [ -49.451864799999953, -27.59328819999995 ], [ -49.452106499999957, -27.593083899999954 ], [ -49.452455899999961, -27.592828499999939 ], [ -49.452845499999967, -27.592528499999961 ], [ -49.452923899999973, -27.592445 ], [ -49.452941899999985, -27.592368499999964 ], [ -49.452981599999937, -27.592054399999935 ], [ -49.452997899999957, -27.591972799999944 ], [ -49.453055699999929, -27.591914499999962 ], [ -49.453149799999956, -27.591864199999979 ], [ -49.453250299999979, -27.591821399999958 ], [ -49.453237299999962, -27.591761799999968 ], [ -49.452864499999968, -27.591401199999954 ], [ -49.452214099999935, -27.591027599999961 ], [ -49.451576, -27.590575 ], [ -49.450880899999959, -27.590220699999968 ], [ -49.45030909999997, -27.589788599999952 ], [ -49.450062, -27.589191799999981 ], [ -49.449935, -27.588735 ], [ -49.450107699999933, -27.588311199999954 ], [ -49.450693, -27.586986099999937 ], [ -49.450906599999939, -27.586018199999959 ], [ -49.451066899999951, -27.584891299999967 ], [ -49.450852899999973, -27.584304799999977 ], [ -49.450174299999958, -27.581995299999956 ], [ -49.449522499999951, -27.58068679999996 ], [ -49.448632099999941, -27.579215199999961 ], [ -49.448601599999961, -27.579209099999961 ], [ -49.448587599999932, -27.579206799999952 ], [ -49.448569499999962, -27.579205 ], [ -49.448542499999981, -27.579204699999941 ], [ -49.448515499999985, -27.579204499999936 ], [ -49.448499799999979, -27.579203699999933 ], [ -49.44848549999994, -27.579202199999948 ], [ -49.448471899999966, -27.579199699999954 ], [ -49.448443599999969, -27.579191899999952 ], [ -49.448291799999936, -27.579142899999972 ], [ -49.448272199999963, -27.579137099999965 ], [ -49.448256899999933, -27.57913319999993 ], [ -49.448236199999947, -27.579129 ], [ -49.448216, -27.579125799999922 ], [ -49.448192499999955, -27.579122899999955 ], [ -49.44817489999997, -27.579121699999973 ], [ -49.448160599999937, -27.579122299999927 ], [ -49.448144299999967, -27.57912459999995 ], [ -49.448127199999931, -27.579128499999975 ], [ -49.44811069999998, -27.579134 ], [ -49.448095699999953, -27.579140799999948 ], [ -49.448082599999964, -27.579148899999954 ], [ -49.448071399999947, -27.579158199999938 ], [ -49.448062299999947, -27.579168299999932 ], [ -49.44805329999997, -27.579181799999947 ], [ -49.448048699999958, -27.579192199999966 ], [ -49.448045799999939, -27.579204699999931 ], [ -49.448044399999958, -27.579221099999987 ], [ -49.44804419999997, -27.57924619999994 ], [ -49.448044899999957, -27.579279399999965 ], [ -49.448047199999962, -27.579317099999972 ], [ -49.448047499999973, -27.579335099999977 ], [ -49.448046399999953, -27.579353099999938 ], [ -49.44804339999996, -27.579368199999973 ], [ -49.44804, -27.57937749999995 ], [ -49.448033, -27.57939179999995 ], [ -49.448008299999969, -27.579433899999966 ], [ -49.447997799999946, -27.579453399999974 ], [ -49.447968, -27.579517499999938 ], [ -49.447944599999978, -27.579563199999932 ], [ -49.447936299999988, -27.579580599999925 ], [ -49.447927099999959, -27.57960379999998 ], [ -49.44792, -27.57962549999996 ], [ -49.447914899999951, -27.579645499999973 ], [ -49.44791029999994, -27.579671 ], [ -49.447907699999973, -27.579694699999951 ], [ -49.447906799999942, -27.57971619999995 ], [ -49.447908, -27.57979 ], [ -49.447911, -27.579872299999977 ], [ -49.447918, -27.579965 ], [ -49.447922, -27.58 ], [ -49.447924599999965, -27.58001529999995 ], [ -49.44792769999998, -27.580028699999946 ], [ -49.447931199999971, -27.580040499999928 ], [ -49.447937299999978, -27.580055 ], [ -49.447942, -27.580063 ], [ -49.447947399999968, -27.58007 ], [ -49.447957799999983, -27.580079599999973 ], [ -49.447972, -27.580089199999978 ], [ -49.447989699999937, -27.580099 ], [ -49.448009399999933, -27.580108 ], [ -49.448029399999939, -27.580115799999927 ], [ -49.448048599999936, -27.580121799999961 ], [ -49.448065499999984, -27.580125799999955 ], [ -49.448084299999955, -27.580128099999968 ], [ -49.448096899999939, -27.58012819999993 ], [ -49.44810949999993, -27.580127299999944 ], [ -49.448122599999977, -27.580125499999955 ], [ -49.448136899999952, -27.580122599999978 ], [ -49.448161599999942, -27.580116099999945 ], [ -49.448299099999986, -27.580076499999954 ], [ -49.448317799999977, -27.580072499999972 ], [ -49.44834069999996, -27.58007009999994 ], [ -49.448354, -27.580069699999971 ], [ -49.448367299999973, -27.580070099999936 ], [ -49.448381599999948, -27.58007159999994 ], [ -49.448392299999959, -27.58007339999995 ], [ -49.448421499999945, -27.58008029999996 ], [ -49.448470199999981, -27.580095099999923 ], [ -49.448487299999954, -27.580098599999918 ], [ -49.448499599999934, -27.580100099999985 ], [ -49.44851229999994, -27.580100799999975 ], [ -49.448532, -27.580100399999946 ], [ -49.448551799999954, -27.580097899999942 ], [ -49.448564599999948, -27.580095099999934 ], [ -49.448576899999978, -27.580091399999951 ], [ -49.44859409999998, -27.580084099999961 ], [ -49.448604899999964, -27.580078399999937 ], [ -49.44862059999997, -27.580069099999939 ], [ -49.448722199999963, -27.580004199999955 ], [ -49.448743099999945, -27.579993199999937 ], [ -49.44876179999995, -27.579985599999929 ], [ -49.448773199999948, -27.5799823 ], [ -49.448783799999937, -27.579980499999984 ], [ -49.448793799999976, -27.579980199999969 ], [ -49.448803399999981, -27.579981899999954 ], [ -49.448812099999941, -27.579985499999964 ], [ -49.448817699999942, -27.579989599999973 ], [ -49.448823499999946, -27.57999669999997 ], [ -49.448826199999985, -27.580003099999939 ], [ -49.448827499999943, -27.580013199999946 ], [ -49.44882639999998, -27.580022499999927 ], [ -49.448822499999956, -27.580036899999982 ], [ -49.448816, -27.580052 ], [ -49.44880969999997, -27.580062899999973 ], [ -49.448802299999954, -27.580073599999938 ], [ -49.448775499999961, -27.58010709999996 ], [ -49.448759399999972, -27.580129499999927 ], [ -49.448728899999928, -27.580174499999941 ], [ -49.44871269999993, -27.580200899999969 ], [ -49.448700499999973, -27.58022389999995 ], [ -49.4486917, -27.58024329999995 ], [ -49.448652099999947, -27.58034 ], [ -49.448641, -27.580364799999977 ], [ -49.448629399999959, -27.580385 ], [ -49.448581199999985, -27.580460599999974 ], [ -49.448573399999987, -27.580474399999968 ], [ -49.448568099999932, -27.580486099999973 ], [ -49.448565799999983, -27.580493199999964 ], [ -49.448563899999961, -27.580504099999928 ], [ -49.448563399999962, -27.580516099999947 ], [ -49.448564, -27.580529399999932 ], [ -49.448567199999957, -27.580553 ], [ -49.44857769999993, -27.580605799999951 ], [ -49.448581, -27.580625799999954 ], [ -49.448583099999958, -27.58065089999997 ], [ -49.448582399999957, -27.580669299999961 ], [ -49.448580599999957, -27.580682199999959 ], [ -49.448577799999946, -27.58069589999997 ], [ -49.448574099999973, -27.58071 ], [ -49.448567799999978, -27.580730499999962 ], [ -49.448561199999972, -27.580748699999955 ], [ -49.448552899999981, -27.580768699999968 ], [ -49.448543899999947, -27.580788699999978 ], [ -49.448536399999959, -27.580802199999937 ], [ -49.448526399999935, -27.58081449999997 ], [ -49.448520499999965, -27.580820099999979 ], [ -49.448511099999962, -27.580827799999948 ], [ -49.448501299999975, -27.580834099999944 ], [ -49.448494499999988, -27.58083779999998 ], [ -49.44847939999994, -27.580843699999949 ], [ -49.448461799999968, -27.580848299999953 ], [ -49.448436, -27.580852299999947 ], [ -49.448406, -27.580854399999964 ], [ -49.448379099999954, -27.580854599999956 ], [ -49.448349199999939, -27.580852399999959 ], [ -49.448315799999925, -27.580847099999968 ], [ -49.44814319999994, -27.580809099999954 ], [ -49.448105799999951, -27.580801899999983 ], [ -49.448041099999955, -27.580790799999928 ], [ -49.447993599999968, -27.58078069999992 ], [ -49.447965099999976, -27.580773599999919 ], [ -49.447937099999933, -27.580765699999976 ], [ -49.447783899999934, -27.580718899999972 ], [ -49.447742399999981, -27.580705399999939 ], [ -49.447702499999934, -27.580690299999961 ], [ -49.447675199999942, -27.580678499999973 ], [ -49.447635299999945, -27.580660099999935 ], [ -49.447616799999935, -27.580651099999955 ], [ -49.447599399999952, -27.580641599999975 ], [ -49.447577599999924, -27.58062729999995 ], [ -49.447530399999955, -27.580592599999925 ], [ -49.447510399999942, -27.580578799999941 ], [ -49.447489699999949, -27.580566199999957 ], [ -49.447463499999976, -27.580552199999943 ], [ -49.447433599999954, -27.580538399999963 ], [ -49.44740969999998, -27.580530099999987 ], [ -49.447387399999968, -27.58052449999996 ], [ -49.447362, -27.580521099999935 ], [ -49.447334499999954, -27.580519599999938 ], [ -49.447311399999933, -27.580519799999941 ], [ -49.447286199999958, -27.580521499999982 ], [ -49.447257699999966, -27.58052489999994 ], [ -49.447224699999929, -27.58053039999993 ], [ -49.447178699999938, -27.580539799999951 ], [ -49.447135799999963, -27.580550199999937 ], [ -49.447100199999966, -27.580560299999945 ], [ -49.447076799999941, -27.58056809999994 ], [ -49.447061399999946, -27.580574099999978 ], [ -49.447047, -27.580580499999936 ], [ -49.447027699999978, -27.580590299999987 ], [ -49.446999699999935, -27.58060619999997 ], [ -49.446969699999961, -27.580624599999954 ], [ -49.44694329999993, -27.580642399999938 ], [ -49.446924199999955, -27.580656799999932 ], [ -49.446898199999964, -27.58067919999996 ], [ -49.446881799999971, -27.580696299999946 ], [ -49.446873399999959, -27.580707 ], [ -49.446864799999958, -27.580719599999952 ], [ -49.446846499999936, -27.580750199999962 ], [ -49.446824499999934, -27.580793799999967 ], [ -49.446777699999984, -27.580890599999972 ], [ -49.446762399999962, -27.580924 ], [ -49.446754099999971, -27.580944699999979 ], [ -49.446748699999944, -27.580961099999961 ], [ -49.446743899999952, -27.580978699999953 ], [ -49.446739899999955, -27.580996899999938 ], [ -49.44673679999994, -27.581015399999963 ], [ -49.446733799999954, -27.58104139999995 ], [ -49.446731799999959, -27.581071199999943 ], [ -49.446730699999932, -27.581106099999953 ], [ -49.446731199999931, -27.581145799999945 ], [ -49.446736, -27.58124729999998 ], [ -49.446736899999962, -27.581298099999966 ], [ -49.446735399999966, -27.581522299999961 ], [ -49.446734, -27.581616899999979 ], [ -49.446732499999932, -27.581663099999957 ], [ -49.446730899999977, -27.581684799999952 ], [ -49.446727499999952, -27.581711 ], [ -49.44671429999994, -27.581779699999963 ], [ -49.44671169999998, -27.581788299999978 ], [ -49.446707499999945, -27.581798 ], [ -49.446695199999965, -27.581820899999961 ], [ -49.446687199999985, -27.581833599999978 ], [ -49.446677399999942, -27.581847499999981 ], [ -49.446641199999938, -27.581892399999969 ], [ -49.446627, -27.581911199999983 ], [ -49.4465206, -27.582063099999957 ], [ -49.446495099999936, -27.58210129999997 ], [ -49.446442499999932, -27.582182499999931 ], [ -49.446384699999953, -27.582268699999933 ], [ -49.446345899999983, -27.582328699999945 ], [ -49.446283099999967, -27.582421499999949 ], [ -49.446271499999966, -27.582436199999954 ], [ -49.446252799999961, -27.582457699999946 ], [ -49.446113099999934, -27.582611799999935 ], [ -49.446082899999965, -27.582647499999943 ], [ -49.446015, -27.582730399999946 ], [ -49.446008899999988, -27.582736799999964 ], [ -49.445985399999977, -27.582758899999924 ], [ -49.445955, -27.582783899999978 ], [ -49.445939399999986, -27.582795499999978 ], [ -49.445927099999949, -27.582803199999944 ], [ -49.445914099999982, -27.582810299999952 ], [ -49.445840499999974, -27.58284539999994 ], [ -49.445811499999934, -27.58286 ], [ -49.445781899999979, -27.582876499999941 ], [ -49.445752699999957, -27.582894199999934 ], [ -49.445727599999941, -27.582910899999934 ], [ -49.445700399999964, -27.582931199999962 ], [ -49.445670099999973, -27.582956 ], [ -49.445636, -27.582985899999983 ], [ -49.445599499999958, -27.583019799999935 ], [ -49.445562499999937, -27.583056799999952 ], [ -49.445525599999947, -27.583096399999935 ], [ -49.445488499999954, -27.583139399999933 ], [ -49.445437099999936, -27.583202 ], [ -49.445400599999971, -27.583248799999986 ], [ -49.4453731, -27.583287599999945 ], [ -49.445342299999936, -27.583334899999947 ], [ -49.445326, -27.583356599999945 ], [ -49.445301399999948, -27.583403899999954 ], [ -49.44523659999993, -27.583502 ], [ -49.445187199999957, -27.583557899999949 ], [ -49.445154199999934, -27.583577299999952 ], [ -49.445118, -27.583591 ], [ -49.445070299999941, -27.58359989999996 ], [ -49.4450303, -27.583594699999928 ], [ -49.444988199999955, -27.583580099999953 ], [ -49.44494629999997, -27.583553299999949 ], [ -49.444881699999939, -27.583483899999973 ], [ -49.444781899999953, -27.583337199999956 ], [ -49.444780399999956, -27.583334799999935 ], [ -49.444735199999968, -27.583265 ], [ -49.444692699999969, -27.583204 ], [ -49.444673499999958, -27.583175199999967 ], [ -49.4446564, -27.583147399999977 ], [ -49.444626699999965, -27.583096599999966 ], [ -49.4446124, -27.58307409999998 ], [ -49.444570799999951, -27.583017499999972 ], [ -49.444529699999975, -27.582957099999941 ], [ -49.444514499999968, -27.582937699999952 ], [ -49.44449869999994, -27.582919699999938 ], [ -49.444473599999981, -27.582893899999927 ], [ -49.444407799999972, -27.58282939999998 ], [ -49.444386699999939, -27.582809299999944 ], [ -49.444334299999987, -27.582763099999962 ], [ -49.444301699999983, -27.582735399999926 ], [ -49.444282299999941, -27.58272049999994 ], [ -49.444263799999938, -27.582707799999977 ], [ -49.444247299999965, -27.582698199999989 ], [ -49.444163499999945, -27.582657299999923 ], [ -49.444123399999974, -27.582634899999952 ], [ -49.444079199999969, -27.582608699999977 ], [ -49.444058399999967, -27.582595599999923 ], [ -49.444046, -27.582586499999945 ], [ -49.444030799999958, -27.58257279999998 ], [ -49.444016899999951, -27.582558599999981 ], [ -49.443983299999957, -27.582521799999942 ], [ -49.443939899999975, -27.582477099999952 ], [ -49.443888, -27.582418799999978 ], [ -49.44384679999996, -27.582370599999937 ], [ -49.443802499999947, -27.582315799999936 ], [ -49.443776899999932, -27.582285199999941 ], [ -49.443651199999977, -27.582140799999941 ], [ -49.44361169999997, -27.582094399999956 ], [ -49.443541699999976, -27.582009299999978 ], [ -49.443508, -27.581966 ], [ -49.443499699999968, -27.581953699999922 ], [ -49.443493, -27.581941399999938 ], [ -49.443487699999935, -27.581928499999954 ], [ -49.443485099999975, -27.581919499999973 ], [ -49.443482699999954, -27.581905699999943 ], [ -49.443482499999966, -27.581891799999941 ], [ -49.443484299999966, -27.581877799999969 ], [ -49.443487699999928, -27.581863699999939 ], [ -49.443493, -27.581849499999979 ], [ -49.443500599999929, -27.581834599999976 ], [ -49.443507199999942, -27.581824099999949 ], [ -49.443519599999945, -27.581807399999942 ], [ -49.44353979999994, -27.581783499999965 ], [ -49.44358, -27.581738799999989 ], [ -49.4436295, -27.581678099999973 ], [ -49.4436937, -27.58160549999997 ], [ -49.443732099999977, -27.581561099999931 ], [ -49.443752099999983, -27.58153689999995 ], [ -49.44379339999994, -27.581482599999962 ], [ -49.443838099999937, -27.581428799999969 ], [ -49.443856099999955, -27.581406199999932 ], [ -49.443877499999985, -27.581377 ], [ -49.443957, -27.581264299999937 ], [ -49.443974199999957, -27.581241899999949 ], [ -49.443987099999958, -27.58122649999995 ], [ -49.44401629999993, -27.581194899999947 ], [ -49.444077499999935, -27.581132399999941 ], [ -49.444112099999984, -27.581098899999976 ], [ -49.444182599999976, -27.58103239999998 ], [ -49.444211199999984, -27.581004399999987 ], [ -49.44423809999995, -27.580975699999946 ], [ -49.444257599999965, -27.580951499999969 ], [ -49.444267, -27.580937799999958 ], [ -49.444274299999961, -27.580924799999934 ], [ -49.444281, -27.580910299999971 ], [ -49.444288, -27.580892 ], [ -49.444295099999984, -27.580868099999975 ], [ -49.444300399999975, -27.580847099999964 ], [ -49.444304799999948, -27.580825899999972 ], [ -49.444308699999965, -27.580799699999947 ], [ -49.444312199999956, -27.580760299999952 ], [ -49.444312599999932, -27.580744199999963 ], [ -49.444312, -27.580726399999953 ], [ -49.44431, -27.580706199999955 ], [ -49.444307799999933, -27.580691699999925 ], [ -49.444304799999941, -27.580676799999935 ], [ -49.444300799999944, -27.580661699999954 ], [ -49.444291199999959, -27.580631899999958 ], [ -49.44427839999998, -27.580598399999928 ], [ -49.444171799999936, -27.580339 ], [ -49.444166699999982, -27.580322599999928 ], [ -49.444164199999932, -27.580309699999937 ], [ -49.444162699999929, -27.580295699999962 ], [ -49.44416159999998, -27.580275599999936 ], [ -49.444162, -27.580247499999935 ], [ -49.444165199999986, -27.580216799999956 ], [ -49.444170299999939, -27.580188599999929 ], [ -49.444173899999953, -27.580174799999963 ], [ -49.444176899999952, -27.580166399999943 ], [ -49.444180499999966, -27.580158199999975 ], [ -49.444187499999948, -27.580145499999961 ], [ -49.444224699999957, -27.580089599999951 ], [ -49.444235, -27.580072799999979 ], [ -49.444244099999935, -27.580056499999959 ], [ -49.444264699999962, -27.580016299999951 ], [ -49.444276099999961, -27.579992399999977 ], [ -49.444284099999948, -27.579973099999961 ], [ -49.44429, -27.57995429999993 ], [ -49.444292699999949, -27.579940499999957 ], [ -49.44429359999998, -27.579930899999972 ], [ -49.44429359999998, -27.579920399999931 ], [ -49.444292799999971, -27.579908799999949 ], [ -49.444291199999959, -27.579896699999953 ], [ -49.444287699999968, -27.579878499999946 ], [ -49.444283299999938, -27.57986219999998 ], [ -49.444278, -27.579847899999937 ], [ -49.444267, -27.57982549999997 ], [ -49.444259, -27.579811899999978 ], [ -49.44425, -27.579798199999967 ], [ -49.444229199999938, -27.579770499999931 ], [ -49.444199099999942, -27.579734799999976 ], [ -49.44417459999994, -27.57970969999997 ], [ -49.4441384, -27.579676499999959 ], [ -49.44411659999998, -27.579659799999948 ], [ -49.444091099999987, -27.579644 ], [ -49.444064, -27.57963019999994 ], [ -49.444031399999972, -27.579615899999961 ], [ -49.444009899999969, -27.579607599999971 ], [ -49.443988599999955, -27.579601499999974 ], [ -49.443903699999964, -27.579583099999986 ], [ -49.44386209999994, -27.579575699999957 ], [ -49.443836499999975, -27.579572299999928 ], [ -49.44382029999997, -27.579570899999961 ], [ -49.443804499999942, -27.57957 ], [ -49.443781, -27.57956959999996 ], [ -49.443756799999967, -27.579570099999955 ], [ -49.443732099999977, -27.579571499999929 ], [ -49.443707899999936, -27.579573699999976 ], [ -49.443685199999948, -27.57957689999995 ], [ -49.443658599999935, -27.579581899999933 ], [ -49.443637499999959, -27.579587 ], [ -49.443620599999974, -27.57959209999995 ], [ -49.443611, -27.579596 ], [ -49.443590899999954, -27.579605299999972 ], [ -49.443578499999944, -27.579613299999952 ], [ -49.443563099999949, -27.579625299999972 ], [ -49.44354589999994, -27.579639899999957 ], [ -49.443536699999981, -27.579648899999935 ], [ -49.443531899999982, -27.579654499999947 ], [ -49.44351359999996, -27.579682899999963 ], [ -49.443502299999977, -27.579696 ], [ -49.443494, -27.579703899999963 ], [ -49.443482799999977, -27.57971329999998 ], [ -49.443454399999951, -27.579733799999925 ], [ -49.443439499999961, -27.579743399999973 ], [ -49.443426199999976, -27.579750899999958 ], [ -49.443407399999955, -27.579760199999953 ], [ -49.443386199999964, -27.579769299999946 ], [ -49.443372199999935, -27.579774399999959 ], [ -49.443359199999982, -27.579778099999938 ], [ -49.443344299999978, -27.579781099999927 ], [ -49.443329699999936, -27.579783299999978 ], [ -49.443294799999933, -27.579786799999969 ], [ -49.443257, -27.579787499999949 ], [ -49.44312519999994, -27.57978489999994 ], [ -49.443090099999957, -27.579783199999952 ], [ -49.443058199999939, -27.579781 ], [ -49.443000499999982, -27.579775599999952 ], [ -49.442961899999936, -27.579770199999928 ], [ -49.442883699999982, -27.579755499999973 ], [ -49.442793099999967, -27.579735899999939 ], [ -49.442759299999977, -27.579730299999934 ], [ -49.442709299999933, -27.57972339999997 ], [ -49.442676599999977, -27.579720199999944 ], [ -49.442647, -27.57971949999996 ], [ -49.442622899999954, -27.579721499999945 ], [ -49.44260079999998, -27.579725699999983 ], [ -49.44257239999996, -27.57973369999997 ], [ -49.442491799999978, -27.579759799999966 ], [ -49.442423499999954, -27.579781099999931 ], [ -49.442373199999963, -27.5798 ], [ -49.442323199999976, -27.579820799999936 ], [ -49.442304399999955, -27.57983019999995 ], [ -49.442277899999965, -27.579845599999949 ], [ -49.442170399999959, -27.579913499999964 ], [ -49.442093899999975, -27.579959599999938 ], [ -49.442071399999975, -27.579975099999945 ], [ -49.442045699999937, -27.579994299999953 ], [ -49.441923799999984, -27.580088699999976 ], [ -49.441883799999964, -27.580120699999956 ], [ -49.441829399999968, -27.580167 ], [ -49.441798899999981, -27.580191799999962 ], [ -49.44176479999993, -27.580217699999945 ], [ -49.441721399999949, -27.580248299999941 ], [ -49.441651399999962, -27.580304 ], [ -49.441630599999947, -27.580323099999923 ], [ -49.441615499999955, -27.580340099999944 ], [ -49.441592799999967, -27.580371599999978 ], [ -49.44157569999993, -27.580397699999939 ], [ -49.441495599999946, -27.580535599999966 ], [ -49.441483, -27.580558199999928 ], [ -49.441477, -27.580570399999942 ], [ -49.441470899999956, -27.58058509999994 ], [ -49.44146649999994, -27.580598399999936 ], [ -49.441464299999957, -27.580607599999944 ], [ -49.441463, -27.580616399999943 ], [ -49.441462599999959, -27.580624699999927 ], [ -49.441466199999979, -27.580673399999966 ], [ -49.441466199999972, -27.58068029999998 ], [ -49.441465099999967, -27.580689499999949 ], [ -49.441461699999934, -27.580704099999934 ], [ -49.441453299999978, -27.580731 ], [ -49.441449599999942, -27.580740099999943 ], [ -49.441439, -27.580762099999955 ], [ -49.441435899999938, -27.580770399999953 ], [ -49.441433199999956, -27.580783399999973 ], [ -49.441432699999943, -27.580796399999933 ], [ -49.441434399999935, -27.580814299999926 ], [ -49.441439, -27.580831299999932 ], [ -49.441447099999948, -27.580852199999981 ], [ -49.441466199999986, -27.580892699999929 ], [ -49.441472099999942, -27.580909299999959 ], [ -49.441473799999983, -27.58091729999995 ], [ -49.44147449999997, -27.580923699999964 ], [ -49.441474199999959, -27.580947699999971 ], [ -49.441471699999973, -27.580975399999932 ], [ -49.44146839999997, -27.580990599999947 ], [ -49.441464899999971, -27.580999399999932 ], [ -49.441459099999982, -27.581011 ], [ -49.441450899999943, -27.581025 ], [ -49.441444899999965, -27.581033599999948 ], [ -49.441438199999936, -27.581041 ], [ -49.441429699999958, -27.581048599999981 ], [ -49.44142, -27.581056 ], [ -49.441407199999951, -27.581064199999954 ], [ -49.441377399999965, -27.581080799999935 ], [ -49.44132929999995, -27.581103599999953 ], [ -49.441280799999959, -27.581128799999924 ], [ -49.441235299999967, -27.581155899999946 ], [ -49.441214399999978, -27.581169799999945 ], [ -49.441182, -27.58119639999995 ], [ -49.441126399999966, -27.581240199999975 ], [ -49.441104499999938, -27.581259399999958 ], [ -49.441076399999986, -27.581287399999955 ], [ -49.441037599999959, -27.581331099999947 ], [ -49.44101859999995, -27.581351399999953 ], [ -49.440985, -27.581384899999936 ], [ -49.440968, -27.581400499999983 ], [ -49.440949599999954, -27.58141529999995 ], [ -49.44093369999996, -27.581426199999949 ], [ -49.440917199999951, -27.581436099999966 ], [ -49.440900499999948, -27.581444699999963 ], [ -49.440879699999982, -27.581453599999975 ], [ -49.440853699999927, -27.581462599999938 ], [ -49.440814599999953, -27.581473799999959 ], [ -49.440784699999938, -27.581480899999978 ], [ -49.440760299999958, -27.581485 ], [ -49.440928399999962, -27.581698799999959 ], [ -49.441045299999985, -27.581834599999972 ], [ -49.440726699999971, -27.582087399999971 ], [ -49.440314699999931, -27.582376499999953 ], [ -49.441262399999971, -27.583301499999944 ] ] ] ] } }
]
}
