{
"type": "FeatureCollection",
"name": "4203204",
"crs": { "type": "name", "properties": { "name": "urn:ogc:def:crs:OGC:1.3:CRS84" } },
"features": [
{ "type": "Feature", "properties": { "CD_MUN": "4203204", "NM_MUN": "Camboriú" }, "geometry": { "type": "Polygon", "coordinates": [ [ [ -48.669854799999939, -27.046169699999954 ], [ -48.670330399999962, -27.046222599999961 ], [ -48.670897299999979, -27.046318699999969 ], [ -48.671603499999947, -27.046419499999949 ], [ -48.67199259999996, -27.04649639999997 ], [ -48.672194399999967, -27.04655889999998 ], [ -48.672400899999964, -27.046722199999969 ], [ -48.672559499999984, -27.046957599999917 ], [ -48.672823699999981, -27.047572499999937 ], [ -48.672897199999966, -27.047780399999962 ], [ -48.678062499999953, -27.047000699999948 ], [ -48.677326, -27.041905399999951 ], [ -48.675398099999938, -27.042119099999972 ], [ -48.675260899999955, -27.041114499999946 ], [ -48.674323399999942, -27.041064 ], [ -48.674331299999956, -27.04101229999997 ], [ -48.674441199999933, -27.040902499999969 ], [ -48.674918699999978, -27.040740099999933 ], [ -48.67510979999998, -27.040644599999947 ], [ -48.674890099999978, -27.038915699999954 ], [ -48.680063299999972, -27.038366899999978 ], [ -48.678705899999954, -27.036656799999946 ], [ -48.676713799999959, -27.034391 ], [ -48.674216299999955, -27.034666699999942 ], [ -48.673831899999989, -27.034704399999946 ], [ -48.673603, -27.034728899999941 ], [ -48.673385, -27.034752299999983 ], [ -48.673355099999981, -27.034755499999967 ], [ -48.673164399999955, -27.034775899999943 ], [ -48.673054399999955, -27.034787699999981 ], [ -48.672971499999967, -27.034796599999936 ], [ -48.672712899999965, -27.034761799999952 ], [ -48.672503, -27.034696199999932 ], [ -48.672350099999953, -27.03465359999996 ], [ -48.672181899999941, -27.034625699999935 ], [ -48.672058299999946, -27.034585799999945 ], [ -48.671879099999956, -27.034563399999971 ], [ -48.671730899999943, -27.034632899999963 ], [ -48.67162849999994, -27.03475149999997 ], [ -48.671536099999969, -27.03501069999994 ], [ -48.671491199999934, -27.035193199999981 ], [ -48.671428499999934, -27.035314899999946 ], [ -48.671324, -27.035357599999948 ], [ -48.671145699999954, -27.035358099999947 ], [ -48.67098169999997, -27.035345499999956 ], [ -48.670918699999959, -27.035333399999946 ], [ -48.669758499999951, -27.027991099999959 ], [ -48.669756899999982, -27.027918599999964 ], [ -48.669747699999959, -27.027919899999969 ], [ -48.669534499999934, -27.026514899999931 ], [ -48.669443899999983, -27.02653029999993 ], [ -48.669201, -27.026563099999979 ], [ -48.668904299999951, -27.026596299999934 ], [ -48.668653499999941, -27.026620199999975 ], [ -48.668518799999958, -27.025753399999932 ], [ -48.668507, -27.025684499999951 ], [ -48.668490199999951, -27.025626599999956 ], [ -48.668414399999961, -27.02559389999994 ], [ -48.668002799999954, -27.025638099999981 ], [ -48.667971299999977, -27.02549079999994 ], [ -48.66781519999995, -27.024415799999922 ], [ -48.667656299999976, -27.023247 ], [ -48.667641799999949, -27.022859799999924 ], [ -48.665546899999988, -27.023229699999945 ], [ -48.665066699999954, -27.023186 ], [ -48.66477539999994, -27.021202899999931 ], [ -48.664861599999938, -27.021208599999966 ], [ -48.664903299999935, -27.021212099999953 ], [ -48.664944199999987, -27.021216 ], [ -48.664984799999957, -27.021220599999932 ], [ -48.665012399999966, -27.021224 ], [ -48.665066799999977, -27.021231499999946 ], [ -48.665109099999938, -27.021238099999945 ], [ -48.665152699999965, -27.021245499999957 ], [ -48.665198099999941, -27.021253899999973 ], [ -48.665294699999947, -27.021273299999958 ], [ -48.665395599999954, -27.021295299999963 ], [ -48.665496199999957, -27.021318499999939 ], [ -48.665592, -27.021341599999968 ], [ -48.665720199999953, -27.021373799999932 ], [ -48.665796599999965, -27.021393799999945 ], [ -48.665901799999972, -27.021422499999968 ], [ -48.666000199999978, -27.021450399999942 ], [ -48.666095899999959, -27.021478699999935 ], [ -48.666192899999942, -27.021508799999932 ], [ -48.666259599999933, -27.021530599999942 ], [ -48.666328, -27.021554399999957 ], [ -48.666362799999945, -27.021567299999958 ], [ -48.666398, -27.02158089999994 ], [ -48.666433599999941, -27.021595299999944 ], [ -48.666469699999936, -27.021610599999981 ], [ -48.666506199999958, -27.021626799999972 ], [ -48.666543099999956, -27.021643799999921 ], [ -48.666580499999952, -27.021661699999978 ], [ -48.666618399999948, -27.021680299999957 ], [ -48.666695499999946, -27.02172 ], [ -48.666774699999962, -27.021762699999943 ], [ -48.666856799999941, -27.021809 ], [ -48.666943499999938, -27.02186 ], [ -48.666989199999932, -27.021887699999976 ], [ -48.66703659999996, -27.021917099999929 ], [ -48.667137599999926, -27.02198119999996 ], [ -48.6672966, -27.022085199999932 ], [ -48.66755459999996, -27.022257099999923 ], [ -48.667610199999956, -27.022294499999926 ], [ -48.667657199999944, -27.022327399999931 ], [ -48.667701499999964, -27.022360299999939 ], [ -48.667747499999962, -27.022396799999964 ], [ -48.667771, -27.022416299999982 ], [ -48.667817799999966, -27.022456399999953 ], [ -48.667862599999978, -27.022496799999939 ], [ -48.667883599999982, -27.022516499999938 ], [ -48.6679228, -27.022554799999966 ], [ -48.667942, -27.022574399999932 ], [ -48.667982799999947, -27.022617299999983 ], [ -48.668236399999955, -27.022891399999935 ], [ -48.668348099999939, -27.023011099999955 ], [ -48.668471499999953, -27.023142199999935 ], [ -48.668522599999967, -27.023197399999955 ], [ -48.668568199999982, -27.023248499999973 ], [ -48.668589199999985, -27.023273 ], [ -48.668628399999939, -27.023320399999928 ], [ -48.6686577, -27.023357299999926 ], [ -48.668759099999932, -27.023488 ], [ -48.668791799999958, -27.023529 ], [ -48.668829, -27.023574199999914 ], [ -48.668873199999943, -27.023626299999933 ], [ -48.668924699999934, -27.023685599999965 ], [ -48.669012399999986, -27.023784299999928 ], [ -48.669173799999953, -27.023960299999942 ], [ -48.669207199999967, -27.023995899999928 ], [ -48.669519499999986, -27.024328499999974 ], [ -48.671231599999949, -27.023280099999962 ], [ -48.671281599999986, -27.023255099999975 ], [ -48.671349199999952, -27.023221299999928 ], [ -48.671439399999947, -27.023176199999956 ], [ -48.671458599999937, -27.023149 ], [ -48.671495099999959, -27.023099299999949 ], [ -48.680623299999986, -27.015423799999944 ], [ -48.676889499999966, -27.009881199999935 ], [ -48.678625299999965, -27.007271299999953 ], [ -48.679396699999977, -27.005801 ], [ -48.680458199999975, -27.003595599999983 ], [ -48.686297099999933, -26.990009699999959 ], [ -48.687534, -26.987131499999986 ], [ -48.687559, -26.987092 ], [ -48.687591599999962, -26.987065199999957 ], [ -48.687688, -26.986986 ], [ -48.687897, -26.986703 ], [ -48.687967, -26.98642 ], [ -48.688048, -26.986004 ], [ -48.688208, -26.985686 ], [ -48.688298, -26.985315 ], [ -48.688527, -26.984917 ], [ -48.688835, -26.984501 ], [ -48.689004, -26.984192 ], [ -48.688976, -26.983865 ], [ -48.688968, -26.983485 ], [ -48.689048, -26.983255 ], [ -48.689375799999944, -26.982581799999938 ], [ -48.689782399999956, -26.981915399999927 ], [ -48.690787899999975, -26.98101859999997 ], [ -48.692010899999964, -26.979931499999953 ], [ -48.692119699999978, -26.979333499999932 ], [ -48.691931, -26.978214399999949 ], [ -48.688771299999985, -26.975297299999966 ], [ -48.684849299999946, -26.971676499999948 ], [ -48.6847504, -26.971860599999964 ], [ -48.684573199999939, -26.972123699999944 ], [ -48.684478, -26.972252199999954 ], [ -48.684353, -26.972470499999929 ], [ -48.684170899999977, -26.972695 ], [ -48.683992199999985, -26.972851399999971 ], [ -48.683830199999932, -26.972955 ], [ -48.6836613, -26.973018099999937 ], [ -48.683609699999984, -26.973035899999946 ], [ -48.683552099999986, -26.973048499999948 ], [ -48.683497599999953, -26.973047899999987 ], [ -48.683443199999942, -26.973035 ], [ -48.683334399999978, -26.973004599999967 ], [ -48.683228199999967, -26.972953199999953 ], [ -48.683130699999936, -26.972898499999925 ], [ -48.682939799999986, -26.972763299999936 ], [ -48.682299799999953, -26.97737979999993 ], [ -48.68166709999997, -26.978490899999937 ], [ -48.681432599999937, -26.97877539999995 ], [ -48.681024499999978, -26.97927059999996 ], [ -48.679897, -26.980237599999946 ], [ -48.678656, -26.980788299999979 ], [ -48.676194499999959, -26.981852099999969 ], [ -48.675894199999959, -26.981980699999951 ], [ -48.67388619999997, -26.982553599999953 ], [ -48.672361499999965, -26.983074299999949 ], [ -48.670075399999973, -26.98395619999997 ], [ -48.668945599999972, -26.984409499999973 ], [ -48.668472599999973, -26.98459929999995 ], [ -48.66803009999996, -26.985019799999971 ], [ -48.667561, -26.985315499999956 ], [ -48.667182899999936, -26.985553699999969 ], [ -48.666876899999977, -26.985933799999948 ], [ -48.666323099999943, -26.986632799999931 ], [ -48.665694799999983, -26.987380699999967 ], [ -48.664949499999977, -26.988374399999941 ], [ -48.664411599999937, -26.989107799999939 ], [ -48.663625199999963, -26.990017199999951 ], [ -48.662661299999975, -26.991228099999933 ], [ -48.662304199999937, -26.991676799999933 ], [ -48.661417699999959, -26.992609099999978 ], [ -48.660609199999953, -26.993304199999955 ], [ -48.660543, -26.993361099999962 ], [ -48.659696399999966, -26.99400039999994 ], [ -48.659500299999941, -26.994147 ], [ -48.659042399999976, -26.994489099999953 ], [ -48.658509199999976, -26.994917799999946 ], [ -48.657878099999948, -26.995386099999955 ], [ -48.6574849, -26.995646499999967 ], [ -48.657319699999967, -26.99575329999994 ], [ -48.657127499999945, -26.995877599999961 ], [ -48.656618099999946, -26.996136399999951 ], [ -48.656322699999969, -26.996259499999944 ], [ -48.65578279999994, -26.996484899999917 ], [ -48.655666599999961, -26.996533399999965 ], [ -48.65447469999998, -26.996945 ], [ -48.654397099999983, -26.996971799999972 ], [ -48.653120799999961, -26.99729 ], [ -48.652816899999948, -26.997378599999937 ], [ -48.652229299999931, -26.997546199999931 ], [ -48.652224099999955, -26.997569299999949 ], [ -48.652138399999956, -26.997951199999935 ], [ -48.652126699999947, -26.998003499999982 ], [ -48.652059799999968, -26.998301699999946 ], [ -48.651859499999944, -26.998525599999937 ], [ -48.651663199999973, -26.998655 ], [ -48.651495499999953, -26.998691099999974 ], [ -48.65141049999994, -26.998726499999972 ], [ -48.651357299999979, -26.998741399999965 ], [ -48.651275699999985, -26.99875679999997 ], [ -48.651188499999932, -26.998753399999941 ], [ -48.651146799999935, -26.998745799999934 ], [ -48.651122799999946, -26.998733499999958 ], [ -48.650999799999958, -26.998681899999955 ], [ -48.650549599999977, -26.998884199999953 ], [ -48.650471299999936, -26.998922799999946 ], [ -48.650349, -26.998974199999957 ], [ -48.650198899999964, -26.99903 ], [ -48.650073199999959, -26.999069099999915 ], [ -48.649987499999952, -26.99910569999998 ], [ -48.649899499999947, -26.999141099999974 ], [ -48.649866299999985, -26.99916119999995 ], [ -48.649829199999942, -26.999195299999943 ], [ -48.649808, -26.999221099999936 ], [ -48.649765799999962, -26.999272499999964 ], [ -48.649758199999951, -26.999283699999971 ], [ -48.649694199999949, -26.999378099999937 ], [ -48.649655399999965, -26.999437199999939 ], [ -48.649600899999939, -26.999492699999962 ], [ -48.649495699999932, -26.999577099999964 ], [ -48.649418199999964, -26.999629 ], [ -48.64935329999998, -26.999661599999968 ], [ -48.649297099999956, -26.99968129999996 ], [ -48.649210599999954, -26.999701499999965 ], [ -48.64910569999995, -26.999702 ], [ -48.648926499999952, -26.999689199999978 ], [ -48.648767499999963, -26.999664799999941 ], [ -48.648569, -26.999649499999979 ], [ -48.648319499999957, -26.999637799999959 ], [ -48.648086, -26.99962839999996 ], [ -48.647858099999951, -26.99962679999992 ], [ -48.647769399999966, -26.999625599999945 ], [ -48.647594499999968, -26.999623399999958 ], [ -48.647439499999962, -26.999612099999982 ], [ -48.647273, -26.999594 ], [ -48.64715689999997, -26.999587799999972 ], [ -48.647057599999982, -26.999584399999939 ], [ -48.646847399999963, -26.999600499999936 ], [ -48.646687799999938, -26.999616499999938 ], [ -48.646625399999948, -26.999627799999928 ], [ -48.646537599999931, -26.999663 ], [ -48.646295499999958, -26.999759899999955 ], [ -48.646226099999978, -26.999787699999953 ], [ -48.646165199999984, -26.99981 ], [ -48.645638399999946, -27.000003099999958 ], [ -48.645499699999959, -27.00005 ], [ -48.64541829999996, -27.000080399999952 ], [ -48.645387199999966, -27.000101499999968 ], [ -48.64535989999996, -27.00012 ], [ -48.645312199999978, -27.000179699999943 ], [ -48.64527789999994, -27.000239399999941 ], [ -48.645254, -27.00032769999995 ], [ -48.645227799999986, -27.000445099999975 ], [ -48.645209399999942, -27.000528 ], [ -48.645196899999974, -27.000596799999979 ], [ -48.645185, -27.000638199999969 ], [ -48.645168199999951, -27.000672799999954 ], [ -48.645162399999947, -27.000707099999932 ], [ -48.645178599999959, -27.000725 ], [ -48.645195499999943, -27.000746799999941 ], [ -48.645206699999967, -27.000763499999948 ], [ -48.645217699999932, -27.000782099999977 ], [ -48.645249099999944, -27.000838099999946 ], [ -48.64527279999993, -27.00087829999995 ], [ -48.645307099999961, -27.000934 ], [ -48.645352499999944, -27.001005199999952 ], [ -48.645369599999988, -27.001033199999938 ], [ -48.645378399999977, -27.001049299999973 ], [ -48.645388899999951, -27.001070499999976 ], [ -48.645405899999957, -27.001108799999937 ], [ -48.645415499999956, -27.001133299999932 ], [ -48.645418899999981, -27.001145 ], [ -48.64542119999993, -27.001156299999934 ], [ -48.645422699999983, -27.001167499999955 ], [ -48.645424099999964, -27.001184799999976 ], [ -48.645424899999973, -27.001209399999933 ], [ -48.645425, -27.001235099999974 ], [ -48.645424499999926, -27.001254299999971 ], [ -48.64542309999996, -27.001273899999944 ], [ -48.645421399999982, -27.001287399999971 ], [ -48.645419, -27.001301499999965 ], [ -48.6454136, -27.00132519999994 ], [ -48.645405699999969, -27.00135419999998 ], [ -48.645384099999944, -27.001428099999945 ], [ -48.64537729999995, -27.001453 ], [ -48.645371699999941, -27.001476 ], [ -48.645363199999956, -27.001517199999974 ], [ -48.645353399999976, -27.001572299999967 ], [ -48.645351099999971, -27.001589399999951 ], [ -48.64534969999994, -27.001605699999963 ], [ -48.645349499999959, -27.001629 ], [ -48.645350599999972, -27.001644199999934 ], [ -48.64535269999994, -27.001659399999934 ], [ -48.645355599999959, -27.001675199999962 ], [ -48.645359199999973, -27.001691299999951 ], [ -48.645363399999951, -27.001707399999923 ], [ -48.645370399999941, -27.001730399999925 ], [ -48.645378099999959, -27.00175089999993 ], [ -48.645386499999972, -27.001769499999966 ], [ -48.645395899999983, -27.001787299999936 ], [ -48.645406499999986, -27.001804899999957 ], [ -48.645422499999938, -27.001829 ], [ -48.6454361, -27.001847699999932 ], [ -48.645446099999951, -27.001860199999953 ], [ -48.645457, -27.0018727 ], [ -48.645475299999937, -27.001890899999974 ], [ -48.645546, -27.001952599999981 ], [ -48.645638899999945, -27.002035699999968 ], [ -48.645667699999933, -27.002062299999981 ], [ -48.645691099999965, -27.002086 ], [ -48.645703499999968, -27.002100399999961 ], [ -48.645713799999953, -27.002114 ], [ -48.645726599999939, -27.002133599999979 ], [ -48.645738, -27.002152799999969 ], [ -48.645748699999956, -27.002172299999984 ], [ -48.645758699999931, -27.002192499999978 ], [ -48.645767699999972, -27.002213699999967 ], [ -48.645773099999985, -27.002227899999966 ], [ -48.645779699999935, -27.002248799999975 ], [ -48.645784499999934, -27.002268399999934 ], [ -48.645787599999949, -27.002287099999936 ], [ -48.645789699999966, -27.002305399999951 ], [ -48.645791, -27.002330299999983 ], [ -48.645791199999969, -27.00235749999996 ], [ -48.64579039999996, -27.002387599999963 ], [ -48.645788899999957, -27.002410599999955 ], [ -48.645785499999931, -27.002441099999942 ], [ -48.645781499999941, -27.002465799999975 ], [ -48.645745899999952, -27.002641099999941 ], [ -48.645729899999935, -27.002724599999961 ], [ -48.645721499999979, -27.002772299999954 ], [ -48.645718, -27.002800299999937 ], [ -48.645716899999968, -27.002817199999974 ], [ -48.645716899999968, -27.00284 ], [ -48.645718599999952, -27.00285909999997 ], [ -48.64572069999997, -27.002869699999962 ], [ -48.645725499999969, -27.00288409999996 ], [ -48.645730299999968, -27.002894099999942 ], [ -48.645740399999966, -27.002912499999983 ], [ -48.645762299999944, -27.002948799999949 ], [ -48.645851499999928, -27.00309139999996 ], [ -48.645867499999952, -27.003118299999986 ], [ -48.645878699999976, -27.00313849999996 ], [ -48.645889, -27.003159499999967 ], [ -48.64590169999996, -27.003191 ], [ -48.645907499999957, -27.003210099999926 ], [ -48.64591, -27.003222 ], [ -48.645911099999978, -27.003230499999979 ], [ -48.64591189999993, -27.003244299999949 ], [ -48.645911699999949, -27.003254399999957 ], [ -48.645909499999959, -27.003277699999948 ], [ -48.64590459999993, -27.003304899999936 ], [ -48.645901, -27.003319499999975 ], [ -48.645896599999958, -27.0033342 ], [ -48.645888099999972, -27.003356299999947 ], [ -48.645880499999976, -27.003371799999972 ], [ -48.645870599999967, -27.003388499999968 ], [ -48.645864699999947, -27.003397499999945 ], [ -48.645850499999945, -27.003417099999979 ], [ -48.645824, -27.003450299999933 ], [ -48.6457918, -27.003488499999939 ], [ -48.645692899999972, -27.003603499999937 ], [ -48.645618699999943, -27.003689699999935 ], [ -48.645566499999973, -27.003749599999939 ], [ -48.645511199999923, -27.003811299999946 ], [ -48.645455, -27.003872499999936 ], [ -48.645361399999956, -27.003971899999957 ], [ -48.645292199999979, -27.004045599999976 ], [ -48.645271799999932, -27.004068899999929 ], [ -48.645263399999976, -27.004079699999977 ], [ -48.645257599999979, -27.004088299999978 ], [ -48.645238, -27.004123599999957 ], [ -48.645219899999972, -27.004154199999949 ], [ -48.645209099999931, -27.004174599999939 ], [ -48.64520159999995, -27.004191 ], [ -48.6451972, -27.004202199999952 ], [ -48.645191699999941, -27.004218899999948 ], [ -48.645188799999971, -27.004230099999972 ], [ -48.645185499999975, -27.004247399999926 ], [ -48.645184099999938, -27.004259299999934 ], [ -48.645183299999978, -27.004277699999935 ], [ -48.645183599999939, -27.00429029999998 ], [ -48.645184899999947, -27.004303299999943 ], [ -48.645187, -27.004316899999932 ], [ -48.645190099999979, -27.004331699999955 ], [ -48.645196899999966, -27.004357599999938 ], [ -48.645206299999984, -27.004388899999981 ], [ -48.645217699999932, -27.00442419999996 ], [ -48.645230499999975, -27.004461299999949 ], [ -48.645239799999963, -27.004486399999958 ], [ -48.645250099999949, -27.004512499999972 ], [ -48.645261699999935, -27.004540099999922 ], [ -48.645275099999942, -27.004569499999938 ], [ -48.645290799999941, -27.004602 ], [ -48.645461899999937, -27.004939499999971 ], [ -48.645525799999973, -27.005063299999957 ], [ -48.64555809999996, -27.005123 ], [ -48.645590899999952, -27.005180699999983 ], [ -48.6456075, -27.005208699999969 ], [ -48.645640899999933, -27.005262299999977 ], [ -48.645673699999975, -27.005312 ], [ -48.645689499999946, -27.005335 ], [ -48.64571959999995, -27.005376699999946 ], [ -48.645746899999956, -27.00541219999997 ], [ -48.645759599999955, -27.005428 ], [ -48.645783699999988, -27.005456399999964 ], [ -48.64581759999993, -27.005494 ], [ -48.645862499999964, -27.005541499999939 ], [ -48.645882, -27.005561399999984 ], [ -48.645898599999953, -27.005578299999968 ], [ -48.645984599999963, -27.005663699999953 ], [ -48.646034, -27.005713599999979 ], [ -48.646068399999933, -27.005749299999941 ], [ -48.646117899999979, -27.005802099999975 ], [ -48.646158599999985, -27.005847499999962 ], [ -48.646178, -27.005870399999928 ], [ -48.646185499999937, -27.00588 ], [ -48.646197099999938, -27.005896499999952 ], [ -48.646201699999949, -27.005904 ], [ -48.646209199999937, -27.005918399999921 ], [ -48.646215899999966, -27.005933799999976 ], [ -48.646222499999965, -27.005951599999936 ], [ -48.646282599999957, -27.00613379999993 ], [ -48.646306799999941, -27.00620319999997 ], [ -48.64632469999998, -27.006252699999941 ], [ -48.646366799999953, -27.006364299999962 ], [ -48.646449499999967, -27.006575699999932 ], [ -48.646465099999944, -27.006617299999959 ], [ -48.646475199999941, -27.006646399999976 ], [ -48.646478699999932, -27.006658099999974 ], [ -48.646484399999963, -27.006679399999939 ], [ -48.646551, -27.006968099999938 ], [ -48.646573199999978, -27.007060799999973 ], [ -48.646582199999955, -27.007095299999953 ], [ -48.646593, -27.007132699999946 ], [ -48.6466013, -27.007158 ], [ -48.646609799999965, -27.007181499999938 ], [ -48.646622, -27.00721029999994 ], [ -48.646632599999982, -27.007231 ], [ -48.646642499999984, -27.007246299999959 ], [ -48.646654499999947, -27.007261 ], [ -48.646668699999964, -27.007276 ], [ -48.646692199999968, -27.007298 ], [ -48.646762899999942, -27.007360399999982 ], [ -48.646831499999962, -27.007420899999946 ], [ -48.646864699999981, -27.007451599999975 ], [ -48.646877899999936, -27.007465499999963 ], [ -48.646888199999985, -27.007478499999927 ], [ -48.64689629999998, -27.007491399999935 ], [ -48.64690319999994, -27.007505 ], [ -48.64690719999993, -27.007514799999974 ], [ -48.646912799999939, -27.007531299999986 ], [ -48.646921899999938, -27.007566199999928 ], [ -48.646949699999929, -27.007692199999944 ], [ -48.646991, -27.007889799999937 ], [ -48.646997699999986, -27.007918199999956 ], [ -48.647003499999983, -27.007938699999958 ], [ -48.647013, -27.007967599999976 ], [ -48.647021799999948, -27.007991799999957 ], [ -48.647031299999981, -27.008015799999942 ], [ -48.647041599999966, -27.00803929999995 ], [ -48.647058099999981, -27.008073799999984 ], [ -48.647078799999981, -27.008115599999943 ], [ -48.647141499999982, -27.008238699999936 ], [ -48.647151799999961, -27.008260699999937 ], [ -48.647155799999943, -27.008270599999943 ], [ -48.647159799999947, -27.008280299999964 ], [ -48.64716819999996, -27.008306599999958 ], [ -48.647202599999964, -27.008435299999967 ], [ -48.64721, -27.008470799999944 ], [ -48.647213299999969, -27.008491799999952 ], [ -48.647215, -27.008506699999938 ], [ -48.647217, -27.008531699999931 ], [ -48.647218399999986, -27.008561699999984 ], [ -48.647219299999968, -27.008598899999981 ], [ -48.647219899999989, -27.008663799999955 ], [ -48.647220099999977, -27.008742799999936 ], [ -48.647219699999944, -27.00880009999997 ], [ -48.647218499999944, -27.008847899999981 ], [ -48.647217099999985, -27.008875099999962 ], [ -48.647214, -27.008911199999947 ], [ -48.647211099999943, -27.008933599999978 ], [ -48.647207399999957, -27.008956299999969 ], [ -48.647196599999972, -27.009008499999929 ], [ -48.647180699999979, -27.009075099999961 ], [ -48.647171399999934, -27.009110699999944 ], [ -48.647161499999974, -27.009145299999947 ], [ -48.647151099999974, -27.009177899999933 ], [ -48.647133599999961, -27.009227199999941 ], [ -48.6469891, -27.009608099999987 ], [ -48.646879499999955, -27.009904099999968 ], [ -48.646834399999939, -27.009995799999963 ], [ -48.64674889999997, -27.010131299999955 ], [ -48.646676099999979, -27.010244699999923 ], [ -48.646553, -27.010436499999972 ], [ -48.646502799999958, -27.01051329999996 ], [ -48.646470699999952, -27.010561699999979 ], [ -48.646439699999981, -27.010607 ], [ -48.646410199999934, -27.010649199999943 ], [ -48.646355899999946, -27.010724 ], [ -48.646320099999969, -27.01077179999994 ], [ -48.646280799999943, -27.010823 ], [ -48.646253899999984, -27.010856799999949 ], [ -48.646240699999971, -27.010872 ], [ -48.6462332, -27.010879499999923 ], [ -48.646221499999974, -27.010889599999924 ], [ -48.646211799999946, -27.010896499999951 ], [ -48.646199299999978, -27.010904299999929 ], [ -48.646183, -27.010913199999937 ], [ -48.646172799999931, -27.010918199999949 ], [ -48.646159699999949, -27.010923699999978 ], [ -48.646141699999937, -27.010929499999971 ], [ -48.646117299999958, -27.010935699999944 ], [ -48.646084599999938, -27.010942299999954 ], [ -48.646041799999985, -27.010949299999925 ], [ -48.645987299999945, -27.010956599999929 ], [ -48.645902599999943, -27.01096629999995 ], [ -48.645845, -27.010847899999938 ], [ -48.645820499999957, -27.010797599999925 ], [ -48.645684199999948, -27.010561699999979 ], [ -48.6453906, -27.010351899999939 ], [ -48.64491339999995, -27.010100299999984 ], [ -48.64432359999995, -27.009906299999955 ], [ -48.643883099999982, -27.009780399999954 ], [ -48.643571, -27.009780299999921 ], [ -48.643492699999967, -27.009787199999938 ], [ -48.643416699999925, -27.009797 ], [ -48.643343199999954, -27.009809499999957 ], [ -48.643272099999933, -27.009824099999932 ], [ -48.643203599999943, -27.009840399999966 ], [ -48.643137699999954, -27.009858199999933 ], [ -48.643074599999977, -27.009877 ], [ -48.64301439999997, -27.009896299999973 ], [ -48.642957, -27.009916 ], [ -48.642902, -27.009936199999967 ], [ -48.642849, -27.009957099999941 ], [ -48.642797299999984, -27.009979099999956 ], [ -48.64274649999993, -27.010002599999947 ], [ -48.642696199999932, -27.010027699999966 ], [ -48.642645699999953, -27.010054699999948 ], [ -48.642594599999939, -27.010084099999968 ], [ -48.642542599999963, -27.010115899999956 ], [ -48.64249, -27.010149699999946 ], [ -48.642437399999949, -27.010185 ], [ -48.642385299999944, -27.010221199999929 ], [ -48.642334399999974, -27.010257699999965 ], [ -48.642285099999988, -27.010294199999969 ], [ -48.642238099999979, -27.010329899999928 ], [ -48.642193899999931, -27.010364299999935 ], [ -48.642153, -27.010397 ], [ -48.642115399999966, -27.010427799999942 ], [ -48.642081099999984, -27.010456799999925 ], [ -48.642050099999949, -27.01048379999996 ], [ -48.642022299999951, -27.010508799999972 ], [ -48.641997799999956, -27.010531799999978 ], [ -48.641976399999976, -27.010552799999978 ], [ -48.641958099999954, -27.010571599999931 ], [ -48.641942899999947, -27.010588399999961 ], [ -48.641930499999944, -27.010603399999972 ], [ -48.641920599999935, -27.010617 ], [ -48.641912699999978, -27.010629699999978 ], [ -48.641906699999929, -27.010641799999977 ], [ -48.641902099999989, -27.010653699999974 ], [ -48.641898699999956, -27.010665799999973 ], [ -48.64189609999994, -27.01067849999998 ], [ -48.641894099999945, -27.010692099999964 ], [ -48.641891399999963, -27.010722099999953 ], [ -48.641890799999949, -27.01073829999995 ], [ -48.641890899999972, -27.010772799999984 ], [ -48.641892899999959, -27.010809699999982 ], [ -48.641894599999944, -27.010828899999975 ], [ -48.641896899999956, -27.010848699999936 ], [ -48.641899899999942, -27.010869 ], [ -48.641903799999966, -27.01089 ], [ -48.641908799999953, -27.010911599999925 ], [ -48.641915, -27.010934 ], [ -48.641922499999964, -27.01095719999995 ], [ -48.641931499999949, -27.01098119999995 ], [ -48.641942099999937, -27.011006099999967 ], [ -48.641953899999983, -27.011031299999949 ], [ -48.641966499999967, -27.011056499999938 ], [ -48.641992799999969, -27.011104799999934 ], [ -48.64201769999994, -27.011147 ], [ -48.642038199999952, -27.011179199999951 ], [ -48.64204669999998, -27.011191399999966 ], [ -48.642054499999972, -27.011201299999975 ], [ -48.642062, -27.01120939999992 ], [ -48.642069699999986, -27.011216 ], [ -48.642078, -27.011221699999957 ], [ -48.642087399999987, -27.011226599999933 ], [ -48.642098199999964, -27.01123129999997 ], [ -48.642125499999963, -27.011241 ], [ -48.642161099999953, -27.011251399999932 ], [ -48.642182299999945, -27.011256899999971 ], [ -48.642231799999934, -27.011268499999964 ], [ -48.642324599999945, -27.011287799999938 ], [ -48.642395199999953, -27.011301099999962 ], [ -48.642467799999963, -27.011313499999961 ], [ -48.642538299999956, -27.011324299999952 ], [ -48.64260349999995, -27.011332599999953 ], [ -48.642665299999976, -27.011338499999958 ], [ -48.642726799999942, -27.01134229999996 ], [ -48.642791, -27.011344499999939 ], [ -48.64286, -27.011345299999963 ], [ -48.643077799999958, -27.011344699999935 ], [ -48.643146299999955, -27.011345099999975 ], [ -48.643269199999963, -27.011347199999932 ], [ -48.643457799999965, -27.01135179999994 ], [ -48.643507099999965, -27.011353699999969 ], [ -48.643593, -27.011357799999931 ], [ -48.643752499999955, -27.011366699999936 ], [ -48.643789499999968, -27.011368799999943 ], [ -48.643867099999973, -27.011374399999973 ], [ -48.643890399999982, -27.011376899999959 ], [ -48.643910199999944, -27.011379899999945 ], [ -48.6439271, -27.011383899999931 ], [ -48.643937, -27.011387299999964 ], [ -48.643946099999937, -27.011391499999949 ], [ -48.643954599999972, -27.011396399999974 ], [ -48.643962499999986, -27.011402299999922 ], [ -48.643969899999952, -27.011409299999968 ], [ -48.643976799999969, -27.011417499999933 ], [ -48.643983399999975, -27.011427099999938 ], [ -48.643986799999929, -27.011433899999929 ], [ -48.643990399999957, -27.011443699999976 ], [ -48.643994499999962, -27.011457899999979 ], [ -48.643999199999939, -27.011477699999936 ], [ -48.644004699999982, -27.011504699999932 ], [ -48.644011199999966, -27.01154 ], [ -48.644016499999957, -27.011601799999941 ], [ -48.643999899999983, -27.011615299999956 ], [ -48.643984399999965, -27.011629199999959 ], [ -48.64397, -27.011643199999977 ], [ -48.643956399999986, -27.011657599999978 ], [ -48.643931299999956, -27.011686899999972 ], [ -48.643907899999931, -27.011717 ], [ -48.643885799999957, -27.011747599999975 ], [ -48.643875399999963, -27.011763 ], [ -48.643855899999949, -27.01179379999995 ], [ -48.643838599999981, -27.011824299999947 ], [ -48.643830799999932, -27.011839399999928 ], [ -48.643817199999937, -27.011869 ], [ -48.643811399999947, -27.011883699999942 ], [ -48.643806299999937, -27.011898299999938 ], [ -48.643801899999971, -27.011912799999955 ], [ -48.643798199999935, -27.011927199999949 ], [ -48.643795199999936, -27.011941599999947 ], [ -48.643793, -27.011955899999968 ], [ -48.643791499999971, -27.01197 ], [ -48.643790499999973, -27.011997299999958 ], [ -48.643791699999952, -27.012022199999922 ], [ -48.643794799999966, -27.012043799999965 ], [ -48.643797, -27.012053 ], [ -48.643799599999973, -27.012061199999941 ], [ -48.643802699999981, -27.012068599999978 ], [ -48.643806299999937, -27.01207519999997 ], [ -48.643810599999938, -27.01208139999995 ], [ -48.643815499999967, -27.01208709999997 ], [ -48.643821199999934, -27.01209249999993 ], [ -48.643834899999952, -27.012103199999949 ], [ -48.643852599999946, -27.012114099999962 ], [ -48.643875, -27.012125799999982 ], [ -48.643903299999984, -27.012138599999954 ], [ -48.643938299999945, -27.012153 ], [ -48.643980799999952, -27.012169199999963 ], [ -48.644031299999945, -27.012187499999975 ], [ -48.64409, -27.012208 ], [ -48.644157499999942, -27.012230899999963 ], [ -48.644270599999977, -27.012268099999961 ], [ -48.644386499999946, -27.012304599999936 ], [ -48.644492899999932, -27.0123359 ], [ -48.644686, -27.012389299999935 ], [ -48.644727499999938, -27.012401799999957 ], [ -48.644746299999959, -27.012408 ], [ -48.644780299999972, -27.012420099999932 ], [ -48.64481, -27.012432599999954 ], [ -48.64482339999995, -27.012439099999931 ], [ -48.644836099999971, -27.01244579999997 ], [ -48.644848, -27.012452699999987 ], [ -48.644859299999958, -27.01246 ], [ -48.644870099999942, -27.012467699999942 ], [ -48.644890499999981, -27.012484199999957 ], [ -48.64491019999997, -27.012502799999936 ], [ -48.644929099999956, -27.012523299999941 ], [ -48.644946799999957, -27.012545099999954 ], [ -48.644962699999944, -27.012567699999984 ], [ -48.644969799999949, -27.012579199999948 ], [ -48.644976199999974, -27.012590599999953 ], [ -48.644987399999934, -27.012613599999952 ], [ -48.644996799999937, -27.012637 ], [ -48.645005199999957, -27.012661199999972 ], [ -48.645016799999958, -27.012699399999974 ], [ -48.645023799999926, -27.012726499999932 ], [ -48.64503, -27.012754899999944 ], [ -48.645034799999969, -27.01278469999993 ], [ -48.645036599999969, -27.012800099999939 ], [ -48.645039, -27.012831399999975 ], [ -48.64504009999996, -27.012861899999965 ], [ -48.645039899999972, -27.012890099999932 ], [ -48.645038699999986, -27.01291469999995 ], [ -48.645036399999981, -27.012935499999966 ], [ -48.645032499999949, -27.012954099999938 ], [ -48.645029799999982, -27.012963099999983 ], [ -48.645026499999972, -27.012972199999972 ], [ -48.645018099999959, -27.012991099999972 ], [ -48.645007, -27.013011399999979 ], [ -48.645000399999965, -27.013021799999937 ], [ -48.644993099999958, -27.013032199999941 ], [ -48.644985, -27.013042599999949 ], [ -48.644976299999939, -27.01305289999992 ], [ -48.644966799999963, -27.013062799999943 ], [ -48.644956499999978, -27.013072499999961 ], [ -48.644945699999937, -27.013081799999959 ], [ -48.644922699999938, -27.013099199999949 ], [ -48.644910799999934, -27.013107299999941 ], [ -48.644886899999968, -27.013122099999983 ], [ -48.644863699999974, -27.013135199999972 ], [ -48.644852399999934, -27.013140899999943 ], [ -48.644830099999972, -27.013150899999971 ], [ -48.644818799999939, -27.013155099999956 ], [ -48.644807399999927, -27.013158799999928 ], [ -48.644795799999947, -27.013161799999974 ], [ -48.644783799999971, -27.013164299999961 ], [ -48.644771299999952, -27.013166199999944 ], [ -48.644758199999956, -27.013167499999945 ], [ -48.644744199999941, -27.013168299999961 ], [ -48.644712899999938, -27.013168199999935 ], [ -48.644675799999959, -27.013166199999947 ], [ -48.644631199999942, -27.013162499999961 ], [ -48.644579399999948, -27.013156799999919 ], [ -48.644551299999932, -27.013153 ], [ -48.644522099999968, -27.013148599999958 ], [ -48.644492099999979, -27.013143299999967 ], [ -48.644461399999955, -27.013137199999971 ], [ -48.644430399999976, -27.013130199999974 ], [ -48.644399099999937, -27.013122199999945 ], [ -48.644367599999953, -27.01311319999996 ], [ -48.644335699999942, -27.013103199999925 ], [ -48.64430329999994, -27.013092299999975 ], [ -48.64427029999996, -27.013080599999959 ], [ -48.644236599999942, -27.013068 ], [ -48.644166499999983, -27.013040299999943 ], [ -48.643976699999939, -27.012961699999952 ], [ -48.643898199999967, -27.012930299999944 ], [ -48.643859, -27.012915399999937 ], [ -48.643820199999936, -27.012901199999916 ], [ -48.643781499999939, -27.012887699999961 ], [ -48.643742699999962, -27.012874899999925 ], [ -48.643703799999969, -27.01286269999996 ], [ -48.643664399999984, -27.012851 ], [ -48.643624599999953, -27.012839799999945 ], [ -48.643584, -27.012828899999928 ], [ -48.643499799999965, -27.012808099999976 ], [ -48.64345579999997, -27.012798099999937 ], [ -48.643410199999948, -27.012788299999958 ], [ -48.643362699999962, -27.012778599999933 ], [ -48.643313, -27.012769099999957 ], [ -48.643260899999973, -27.012759699999947 ], [ -48.643206, -27.012750399999952 ], [ -48.643087099999946, -27.012731899999949 ], [ -48.64302349999997, -27.01272279999996 ], [ -48.64295809999993, -27.012714 ], [ -48.642891599999984, -27.012705599999951 ], [ -48.642824699999956, -27.012697799999948 ], [ -48.64275809999998, -27.012690599999935 ], [ -48.642692599999975, -27.012684299999929 ], [ -48.642628899999984, -27.012679 ], [ -48.6425675, -27.01267479999996 ], [ -48.642508199999952, -27.012671599999983 ], [ -48.6424507, -27.012669399999929 ], [ -48.642394399999944, -27.012668099999928 ], [ -48.64233889999997, -27.012667599999926 ], [ -48.642284, -27.012667899999951 ], [ -48.642229099999952, -27.012669 ], [ -48.642173899999939, -27.012670699999941 ], [ -48.642118, -27.012673 ], [ -48.642061499999947, -27.012676 ], [ -48.642004799999945, -27.012679799999937 ], [ -48.641948, -27.012684499999974 ], [ -48.641891399999956, -27.012690299999967 ], [ -48.64183509999998, -27.012697099999976 ], [ -48.641779499999984, -27.012705099999941 ], [ -48.641724699999941, -27.012714499999962 ], [ -48.641670899999951, -27.01272529999995 ], [ -48.641618299999955, -27.012737299999959 ], [ -48.64156689999993, -27.012750499999971 ], [ -48.641516799999977, -27.012764799999946 ], [ -48.641468, -27.01278 ], [ -48.641420699999969, -27.012796 ], [ -48.641374899999953, -27.0128127 ], [ -48.641330699999976, -27.012829899999925 ], [ -48.641288, -27.012847599999922 ], [ -48.641246599999931, -27.012865799999933 ], [ -48.641206, -27.012884599999946 ], [ -48.641165699999924, -27.012904099999961 ], [ -48.641125399999964, -27.012924399999974 ], [ -48.641043, -27.012967799999945 ], [ -48.640817, -27.013091399999944 ], [ -48.640726399999949, -27.013140399999934 ], [ -48.64064239999994, -27.013184299999978 ], [ -48.640604099999962, -27.01320329999994 ], [ -48.640568499999972, -27.01322039999997 ], [ -48.640535499999942, -27.013235499999954 ], [ -48.640504799999967, -27.013248799999928 ], [ -48.640476499999977, -27.013260299999956 ], [ -48.640450299999948, -27.013270199999965 ], [ -48.640426199999972, -27.013278499999952 ], [ -48.640404, -27.013285399999976 ], [ -48.640383399999962, -27.013290799999925 ], [ -48.640363599999944, -27.013295199999956 ], [ -48.6403433, -27.013298599999924 ], [ -48.640321599999936, -27.013301299999959 ], [ -48.640297199999964, -27.013303499999953 ], [ -48.640269199999977, -27.013305499999948 ], [ -48.640100599999982, -27.013315499999969 ], [ -48.639983099999938, -27.013323399999948 ], [ -48.639852499999961, -27.013333699999976 ], [ -48.639784599999984, -27.013339899999952 ], [ -48.639716299999968, -27.013346799999958 ], [ -48.639648299999969, -27.013354399999972 ], [ -48.639580699999954, -27.013362799999982 ], [ -48.639513499999971, -27.013371899999985 ], [ -48.639446599999985, -27.013381799999937 ], [ -48.639379899999938, -27.013392399999937 ], [ -48.639313299999969, -27.013403799999931 ], [ -48.639246899999925, -27.013415899999927 ], [ -48.639180499999952, -27.013428699999963 ], [ -48.639114199999931, -27.013442199999929 ], [ -48.639048199999934, -27.013456299999962 ], [ -48.638983, -27.013471199999966 ], [ -48.638918899999958, -27.013486699999934 ], [ -48.638882699999961, -27.013496 ], [ -48.638856399999952, -27.013502799999976 ], [ -48.638795699999946, -27.013519499999969 ], [ -48.638737299999946, -27.013536699999968 ], [ -48.638681499999961, -27.013554499999945 ], [ -48.638628599999947, -27.013572799999967 ], [ -48.638578199999984, -27.013591699999942 ], [ -48.638529599999963, -27.013611499999968 ], [ -48.638482299999971, -27.013632099999942 ], [ -48.638435799999968, -27.013653899999955 ], [ -48.638389299999972, -27.013676899999943 ], [ -48.638342399999942, -27.013701299999976 ], [ -48.63829439999995, -27.013727099999983 ], [ -48.638244899999968, -27.013754599999967 ], [ -48.638193399999977, -27.013783899999957 ], [ -48.638083699999981, -27.013847899999984 ], [ -48.637963199999952, -27.013919899999955 ], [ -48.637606499999954, -27.014134299999967 ], [ -48.637454799999951, -27.01422459999997 ], [ -48.637312, -27.014308199999963 ], [ -48.637246899999987, -27.014345499999923 ], [ -48.637187099999956, -27.014379199999947 ], [ -48.637130899999931, -27.01441 ], [ -48.637076299999933, -27.014439199999966 ], [ -48.637021, -27.014468 ], [ -48.636962799999935, -27.014497699999943 ], [ -48.636829499999976, -27.014564199999931 ], [ -48.636457099999973, -27.014748699999934 ], [ -48.636243899999954, -27.014855199999928 ], [ -48.636043699999959, -27.014956399999971 ], [ -48.635955899999942, -27.015001499999975 ], [ -48.635879399999965, -27.015041499999935 ], [ -48.635813699999964, -27.015076699999952 ], [ -48.635757199999944, -27.015107899999972 ], [ -48.635708699999959, -27.015135799999936 ], [ -48.635666599999979, -27.015161099999936 ], [ -48.635629699999981, -27.015184599999934 ], [ -48.63559649999997, -27.015207 ], [ -48.635565599999957, -27.015229 ], [ -48.635535799999964, -27.015251399999951 ], [ -48.635506699999958, -27.015274199999958 ], [ -48.635478099999943, -27.015297599999947 ], [ -48.63544979999994, -27.015321799999978 ], [ -48.635421699999938, -27.015346899999944 ], [ -48.635393499999964, -27.015373 ], [ -48.635365099999945, -27.015400099999969 ], [ -48.635306599999979, -27.015458299999974 ], [ -48.63527669999997, -27.015489 ], [ -48.635217, -27.015552 ], [ -48.635159099999953, -27.015614599999942 ], [ -48.635105499999959, -27.015674099999956 ], [ -48.63505779999997, -27.015728299999981 ], [ -48.635036099999979, -27.01575379999997 ], [ -48.635015699999947, -27.01577849999995 ], [ -48.634996499999943, -27.015802799999967 ], [ -48.634978299999943, -27.015826899999983 ], [ -48.634961099999941, -27.015851 ], [ -48.634944799999971, -27.015875399999967 ], [ -48.634929199999931, -27.015900399999964 ], [ -48.634914299999934, -27.015926 ], [ -48.6349, -27.015952199999962 ], [ -48.634886299999948, -27.015979099999981 ], [ -48.634873, -27.016006599999972 ], [ -48.634860199999935, -27.016034799999947 ], [ -48.63483569999994, -27.016093399999928 ], [ -48.634812299999972, -27.016155099999931 ], [ -48.634800899999959, -27.016187199999937 ], [ -48.634778599999947, -27.016254599999968 ], [ -48.634756799999934, -27.016326499999931 ], [ -48.634746, -27.01636429999995 ], [ -48.634702699999927, -27.016524 ], [ -48.634691499999967, -27.016563699999942 ], [ -48.63468, -27.016602299999924 ], [ -48.634668199999965, -27.016639399999956 ], [ -48.634655799999969, -27.016674399999939 ], [ -48.634643, -27.016707099999952 ], [ -48.634629599999982, -27.01673749999998 ], [ -48.634615599999961, -27.016766 ], [ -48.63460079999993, -27.016792799999966 ], [ -48.634585299999969, -27.016818099999963 ], [ -48.634569, -27.01684239999997 ], [ -48.634551699999975, -27.016865699999979 ], [ -48.634533499999982, -27.01688849999994 ], [ -48.634514299999978, -27.016911 ], [ -48.634494099999984, -27.016932899999983 ], [ -48.634472899999935, -27.016954299999956 ], [ -48.634450899999941, -27.016975 ], [ -48.63442809999998, -27.016994799999967 ], [ -48.634404499999967, -27.017013599999927 ], [ -48.634380199999953, -27.017031199999966 ], [ -48.634355199999966, -27.017047499999929 ], [ -48.634329599999944, -27.017062399999933 ], [ -48.634303399999972, -27.017075799999919 ], [ -48.634276799999952, -27.017087799999953 ], [ -48.634249799999971, -27.017098399999949 ], [ -48.634222499999957, -27.017107599999967 ], [ -48.634194899999962, -27.017115299999951 ], [ -48.634167099999956, -27.017121499999973 ], [ -48.634139199999943, -27.017126299999966 ], [ -48.63411119999995, -27.017129799999971 ], [ -48.634083199999964, -27.017131799999962 ], [ -48.634055199999978, -27.017132699999927 ], [ -48.634027099999969, -27.017132499999956 ], [ -48.633999, -27.017131199999945 ], [ -48.633970899999952, -27.017129099999977 ], [ -48.633942799999943, -27.017126199999936 ], [ -48.633914699999934, -27.01712259999994 ], [ -48.633886699999948, -27.017118399999955 ], [ -48.633858699999962, -27.017113599999959 ], [ -48.633830899999964, -27.0171084 ], [ -48.633803399999977, -27.017102599999927 ], [ -48.633776299999965, -27.01709629999992 ], [ -48.633749599999931, -27.017089499999933 ], [ -48.633723499999967, -27.017082299999977 ], [ -48.633698, -27.01707459999994 ], [ -48.633673199999983, -27.017066499999931 ], [ -48.633648699999981, -27.017057799999979 ], [ -48.633624, -27.017048399999954 ], [ -48.633598799999959, -27.017038099999979 ], [ -48.633545, -27.017014199999956 ], [ -48.633483899999938, -27.016984699999966 ], [ -48.633413199999957, -27.016948899999932 ], [ -48.633335299999949, -27.016907399999972 ], [ -48.633294799999931, -27.016884899999969 ], [ -48.633253799999977, -27.016861299999963 ], [ -48.633212799999967, -27.016836899999941 ], [ -48.633172299999956, -27.016811799999974 ], [ -48.633132499999938, -27.016786 ], [ -48.633093299999985, -27.016759399999945 ], [ -48.633054399999942, -27.016731699999983 ], [ -48.63301569999993, -27.016702699999939 ], [ -48.632976799999938, -27.016672299999986 ], [ -48.632937399999946, -27.01664 ], [ -48.632897399999933, -27.016605799999976 ], [ -48.632856499999953, -27.01656939999998 ], [ -48.63281439999998, -27.016530699999976 ], [ -48.632771299999945, -27.016489899999947 ], [ -48.632727299999949, -27.016447599999928 ], [ -48.632545499999942, -27.016270399999936 ], [ -48.632499299999949, -27.016226199999952 ], [ -48.632453199999986, -27.016182899999926 ], [ -48.632407499999943, -27.016140799999956 ], [ -48.632362299999961, -27.01610009999996 ], [ -48.632317899999975, -27.016061299999933 ], [ -48.632274699999975, -27.016024499999954 ], [ -48.632232799999947, -27.015990099999957 ], [ -48.632192599999939, -27.015958299999962 ], [ -48.632154299999975, -27.01592949999997 ], [ -48.632118, -27.015903799999929 ], [ -48.632083, -27.015881 ], [ -48.632048299999951, -27.015860599999939 ], [ -48.632013099999938, -27.015842099999929 ], [ -48.631976499999951, -27.015825199999934 ], [ -48.631949399999939, -27.015814199999973 ], [ -48.631937499999935, -27.015809399999963 ], [ -48.63189529999994, -27.015794199999949 ], [ -48.631848899999966, -27.01577929999997 ], [ -48.63179759999997, -27.01576429999994 ], [ -48.631741599999941, -27.015749199999959 ], [ -48.631681199999946, -27.015733799999968 ], [ -48.63161659999998, -27.015718299999946 ], [ -48.631548199999948, -27.015702699999952 ], [ -48.631476199999952, -27.015686899999935 ], [ -48.631322899999986, -27.015655 ], [ -48.631160299999969, -27.0156229 ], [ -48.630769899999962, -27.015547599999934 ], [ -48.63064449999996, -27.015521899999957 ], [ -48.630590599999941, -27.015509899999987 ], [ -48.63054139999997, -27.015498 ], [ -48.630495599999961, -27.015485799999958 ], [ -48.630452099999957, -27.015472899999963 ], [ -48.630409799999931, -27.0154588 ], [ -48.630367599999943, -27.015443199999929 ], [ -48.6303243, -27.015425599999951 ], [ -48.630279099999939, -27.01540579999994 ], [ -48.630232199999966, -27.015383899999954 ], [ -48.630184, -27.015360199999982 ], [ -48.630135, -27.015335 ], [ -48.63008549999995, -27.015308699999931 ], [ -48.63003619999995, -27.015281399999928 ], [ -48.629987299999982, -27.015253499999965 ], [ -48.629939299999933, -27.015225199999975 ], [ -48.629892699999978, -27.015196799999941 ], [ -48.62984739999996, -27.015168499999945 ], [ -48.629803699999968, -27.015140199999973 ], [ -48.62976139999995, -27.015112099999943 ], [ -48.629720599999978, -27.015084099999967 ], [ -48.629681399999981, -27.015056399999931 ], [ -48.629643799999933, -27.015029 ], [ -48.629607799999974, -27.015001899999962 ], [ -48.629573499999942, -27.014975299999943 ], [ -48.62954069999995, -27.014948899999986 ], [ -48.629509399999954, -27.01492259999997 ], [ -48.629479499999952, -27.014896199999942 ], [ -48.629450899999931, -27.014869599999937 ], [ -48.629423499999973, -27.014842599999959 ], [ -48.629397099999949, -27.014815099999964 ], [ -48.629371699999979, -27.014786799999964 ], [ -48.629347199999984, -27.014757699999958 ], [ -48.629323499999948, -27.014727499999932 ], [ -48.629300599999958, -27.014696199999946 ], [ -48.629278399999976, -27.014663399999964 ], [ -48.629256699999985, -27.014629099999983 ], [ -48.629235599999959, -27.014593199999965 ], [ -48.629215, -27.014555299999987 ], [ -48.629194699999971, -27.014515499999966 ], [ -48.62917479999993, -27.014473499999948 ], [ -48.629155199999957, -27.014429499999949 ], [ -48.629136, -27.014383899999924 ], [ -48.629117, -27.014336599999989 ], [ -48.629098399999975, -27.014288099999924 ], [ -48.629062, -27.014188 ], [ -48.629044199999953, -27.014136799999964 ], [ -48.629009799999949, -27.014033699999978 ], [ -48.628993299999934, -27.013982499999944 ], [ -48.628962299999962, -27.013882799999973 ], [ -48.628934899999933, -27.013789599999935 ], [ -48.628922899999964, -27.013746399999949 ], [ -48.628884099999937, -27.013598699999939 ], [ -48.628867, -27.013536599999949 ], [ -48.628858099999945, -27.013507599999972 ], [ -48.628848499999947, -27.013479499999953 ], [ -48.628838199999969, -27.013452299999983 ], [ -48.628827199999932, -27.013426 ], [ -48.628815499999973, -27.013400699999973 ], [ -48.628803399999981, -27.013376499999946 ], [ -48.628791, -27.013353599999956 ], [ -48.628778299999958, -27.01333209999995 ], [ -48.628765599999952, -27.013312099999951 ], [ -48.628752899999945, -27.013293899999962 ], [ -48.628740399999963, -27.013277399999936 ], [ -48.628728099999933, -27.013262599999948 ], [ -48.628715799999952, -27.013249199999965 ], [ -48.628703599999938, -27.013237099999959 ], [ -48.628691399999973, -27.013226099999951 ], [ -48.628679199999972, -27.013216099999973 ], [ -48.628666799999962, -27.013206899999933 ], [ -48.628654299999937, -27.013198199999973 ], [ -48.628628899999967, -27.0131823 ], [ -48.628603299999945, -27.013168199999942 ], [ -48.628578399999988, -27.013155799999939 ], [ -48.628566299999932, -27.013150399999958 ], [ -48.628543399999963, -27.013141 ], [ -48.628521599999942, -27.013133399999965 ], [ -48.628499799999986, -27.013127499999939 ], [ -48.628476499999984, -27.013123199999946 ], [ -48.628450599999951, -27.013120199999943 ], [ -48.628436499999964, -27.01311909999998 ], [ -48.628406799999937, -27.013117699999945 ], [ -48.628360199999975, -27.013117499999968 ], [ -48.628314199999977, -27.013118899999938 ], [ -48.628284, -27.013121099999978 ], [ -48.628253399999949, -27.013124699999931 ], [ -48.628221799999949, -27.013130099999962 ], [ -48.62818869999996, -27.013137499999967 ], [ -48.628155199999981, -27.013146799999955 ], [ -48.628138699999965, -27.013152199999976 ], [ -48.628122499999968, -27.013158 ], [ -48.628106899999977, -27.013164299999978 ], [ -48.628091899999951, -27.013171 ], [ -48.628051399999947, -27.013193 ], [ -48.627914899999951, -27.013289699999973 ], [ -48.627854499999955, -27.013337899999943 ], [ -48.627800699999973, -27.01338369999997 ], [ -48.627765499999953, -27.013414799999953 ], [ -48.627704, -27.013471199999962 ], [ -48.627682499999942, -27.013490099999956 ], [ -48.627677199999944, -27.013494799999926 ], [ -48.627664399999958, -27.013505099999975 ], [ -48.627651699999944, -27.013514499999918 ], [ -48.627639, -27.013522799999976 ], [ -48.627626299999974, -27.01353 ], [ -48.627613499999946, -27.013536199999983 ], [ -48.627600699999959, -27.013541399999944 ], [ -48.627587899999988, -27.013545699999945 ], [ -48.627575099999952, -27.013549299999966 ], [ -48.627562499999954, -27.013552199999939 ], [ -48.62753749999996, -27.013556199999989 ], [ -48.627525299999952, -27.013557499999926 ], [ -48.62750159999996, -27.013558899999957 ], [ -48.62749, -27.013559099999952 ], [ -48.627467899999942, -27.013558499999927 ], [ -48.627447, -27.013556899999969 ], [ -48.627427499999953, -27.013554399999975 ], [ -48.627409299999961, -27.013550799999958 ], [ -48.627400499999965, -27.013548399999923 ], [ -48.627383699999939, -27.013542599999941 ], [ -48.627375499999971, -27.013539099999946 ], [ -48.627367399999962, -27.013535 ], [ -48.62735889999994, -27.013529899999973 ], [ -48.627349699999975, -27.013523599999921 ], [ -48.627339199999945, -27.013515399999953 ], [ -48.627327, -27.013505 ], [ -48.627312599999982, -27.013492 ], [ -48.627295599999975, -27.01347589999995 ], [ -48.626601099999959, -27.013702 ], [ -48.626050299999974, -27.013989899999959 ], [ -48.625854, -27.014120599999952 ], [ -48.625774099999944, -27.014206 ], [ -48.625639699999965, -27.014345199999976 ], [ -48.625465499999962, -27.014532299999928 ], [ -48.625382899999984, -27.014607399999928 ], [ -48.624877599999934, -27.015067799999937 ], [ -48.624591299999963, -27.015343699999963 ], [ -48.624427499999967, -27.015521699999969 ], [ -48.624399299999936, -27.015592099999928 ], [ -48.624390099999978, -27.015680199999967 ], [ -48.624399499999981, -27.015809299999944 ], [ -48.624428799999976, -27.015931899999948 ], [ -48.624585599999939, -27.016311299999987 ], [ -48.62468809999995, -27.01649849999994 ], [ -48.624746699999939, -27.01666459999996 ], [ -48.624780299999941, -27.016724699999951 ], [ -48.624833199999962, -27.016769199999946 ], [ -48.624891799999951, -27.016812799999958 ], [ -48.624957, -27.016849099999948 ], [ -48.625093199999988, -27.016906099999964 ], [ -48.625241699999947, -27.016976599999968 ], [ -48.62531979999995, -27.017014499999963 ], [ -48.625396299999977, -27.017065299999956 ], [ -48.625486899999935, -27.017162699999968 ], [ -48.625596499999972, -27.01726019999996 ], [ -48.625668299999973, -27.017324199999965 ], [ -48.625727, -27.017410299999927 ], [ -48.625793599999952, -27.017566599999963 ], [ -48.625875699999938, -27.017696399999977 ], [ -48.626005, -27.017821199999961 ], [ -48.6260865, -27.017923899999971 ], [ -48.626191699999936, -27.018099199999941 ], [ -48.626311099999953, -27.018267299999938 ], [ -48.62636, -27.018425199999967 ], [ -48.626378399999965, -27.018557299999934 ], [ -48.626353699999981, -27.018721099999933 ], [ -48.626346, -27.018840899999933 ], [ -48.626339399999949, -27.019070299999953 ], [ -48.62634, -27.019177599999985 ], [ -48.62633969999996, -27.019287499999955 ], [ -48.62632519999994, -27.019413299999943 ], [ -48.62632, -27.019485299999928 ], [ -48.626301499999954, -27.019576799999982 ], [ -48.626287699999985, -27.019642799999929 ], [ -48.626250399999947, -27.019717799999963 ], [ -48.626127199999978, -27.019859799999942 ], [ -48.625955399999945, -27.019943799999968 ], [ -48.625851199999943, -27.020004399999952 ], [ -48.62581339999997, -27.020036699999942 ], [ -48.625777, -27.02009519999994 ], [ -48.62575209999995, -27.02022 ], [ -48.625721299999945, -27.020374299999947 ], [ -48.62572729999993, -27.020443299999954 ], [ -48.62592879999994, -27.020451799999936 ], [ -48.625728, -27.020451399999953 ], [ -48.625740699999938, -27.020597 ], [ -48.625808599999971, -27.020743 ], [ -48.625848399999946, -27.020836899999946 ], [ -48.625853799999959, -27.020937199999942 ], [ -48.625846499999966, -27.0210355 ], [ -48.625848899999937, -27.02155049999994 ], [ -48.625814299999945, -27.02204069999992 ], [ -48.625760499999956, -27.022289799999953 ], [ -48.62573539999994, -27.022456199999965 ], [ -48.6257447, -27.022647799999948 ], [ -48.625771499999985, -27.022831199999935 ], [ -48.625760899999939, -27.02301789999995 ], [ -48.625743699999937, -27.023141599999974 ], [ -48.625703899999962, -27.023270699999951 ], [ -48.625653799999945, -27.023409 ], [ -48.625590699999975, -27.02354269999995 ], [ -48.6254795, -27.023889899999968 ], [ -48.625448, -27.024076899999962 ], [ -48.6254292, -27.02424 ], [ -48.625414099999951, -27.024382699999933 ], [ -48.625405, -27.024529499999968 ], [ -48.625432899999971, -27.024737199999951 ], [ -48.625435799999934, -27.024832399999973 ], [ -48.625422799999967, -27.024916299999976 ], [ -48.625400599999978, -27.024979399999943 ], [ -48.625389199999972, -27.025060699999983 ], [ -48.625387699999976, -27.025070799999984 ], [ -48.625391899999954, -27.025155499999979 ], [ -48.625427799999954, -27.025325599999974 ], [ -48.625431399999975, -27.025426799999927 ], [ -48.62541779999998, -27.025535899999959 ], [ -48.625394099999937, -27.025634799999974 ], [ -48.625380699999937, -27.025676199999957 ], [ -48.62537679999997, -27.02568819999993 ], [ -48.625347599999948, -27.025778399999979 ], [ -48.625281599999937, -27.025916299999945 ], [ -48.625263399999938, -27.025948799999984 ], [ -48.625241399999943, -27.025994499999968 ], [ -48.625227099999968, -27.026044199999941 ], [ -48.625221299999964, -27.026116099999964 ], [ -48.625232299999936, -27.026208499999939 ], [ -48.625256399999955, -27.026311199999959 ], [ -48.625261699999953, -27.02636149999995 ], [ -48.625248099999965, -27.026539599999978 ], [ -48.625275799999947, -27.026768499999946 ], [ -48.625334599999981, -27.026987299999963 ], [ -48.625355, -27.027148899999926 ], [ -48.625356, -27.027210199999956 ], [ -48.625344, -27.027284499999958 ], [ -48.625329099999938, -27.027358699999976 ], [ -48.625296799999944, -27.027441199999934 ], [ -48.625220499999955, -27.027574399999942 ], [ -48.625167899999951, -27.02771 ], [ -48.6251276, -27.027882899999948 ], [ -48.625120899999956, -27.028031799999944 ], [ -48.625117499999938, -27.02814659999996 ], [ -48.625137, -27.028248199999958 ], [ -48.625166, -27.028378299999932 ], [ -48.625207, -27.028496599999972 ], [ -48.625232, -27.028635 ], [ -48.625242099999987, -27.028745399999938 ], [ -48.625230499999986, -27.028860199999947 ], [ -48.62520609999995, -27.028944399999954 ], [ -48.625182699999982, -27.029066499999946 ], [ -48.62518369999998, -27.029095599999938 ], [ -48.625191799999982, -27.029127299999963 ], [ -48.625224899999978, -27.029199 ], [ -48.625242299999968, -27.029279799999973 ], [ -48.625251199999987, -27.029384199999974 ], [ -48.625278099999946, -27.029486199999948 ], [ -48.625310599999978, -27.029538699999929 ], [ -48.625379299999963, -27.029621499999958 ], [ -48.625424799999969, -27.029709199999949 ], [ -48.625443, -27.029787599999967 ], [ -48.625444499999958, -27.029799899999947 ], [ -48.625454699999977, -27.029883899999945 ], [ -48.625453499999942, -27.029964 ], [ -48.625434399999961, -27.030056299999949 ], [ -48.625410499999923, -27.030134399999952 ], [ -48.625371199999968, -27.030217299999943 ], [ -48.62532769999995, -27.030294699999946 ], [ -48.625260799999978, -27.030364899999945 ], [ -48.625156399999973, -27.030424699999969 ], [ -48.625039299999976, -27.030465799999941 ], [ -48.624990299999986, -27.030502199999937 ], [ -48.624957599999959, -27.030537499999969 ], [ -48.624907199999939, -27.030609499999976 ], [ -48.624828599999944, -27.030694699999977 ], [ -48.624752499999943, -27.030790699999962 ], [ -48.624540499999966, -27.030995799999967 ], [ -48.624360599999932, -27.031131199999948 ], [ -48.624136899999939, -27.031236599999936 ], [ -48.623868, -27.031338799999958 ], [ -48.623809799999947, -27.031362199999926 ], [ -48.623668699999939, -27.031418899999952 ], [ -48.623397599999976, -27.031490299999973 ], [ -48.62320219999998, -27.0315361 ], [ -48.62282289999996, -27.031648099999924 ], [ -48.622497899999985, -27.031747199999977 ], [ -48.622152699999965, -27.031855899999989 ], [ -48.621762899999965, -27.032007299999979 ], [ -48.621593899999937, -27.032094899999951 ], [ -48.62151559999996, -27.03213559999994 ], [ -48.621471299999939, -27.032150199999933 ], [ -48.621413699999948, -27.032156099999952 ], [ -48.621308699999986, -27.032149 ], [ -48.621175, -27.03213669999996 ], [ -48.621078, -27.032122 ], [ -48.6209798, -27.032107199999931 ], [ -48.620815299999954, -27.032068099999943 ], [ -48.620746699999984, -27.032060299999948 ], [ -48.62066839999995, -27.032065899999964 ], [ -48.620576, -27.032078399999925 ], [ -48.620484, -27.032099399999929 ], [ -48.620400899999943, -27.032122099999977 ], [ -48.62031159999998, -27.03213149999992 ], [ -48.620232899999962, -27.032119899999945 ], [ -48.620161899999978, -27.032087699999977 ], [ -48.620089899999982, -27.032070499999978 ], [ -48.619813299999976, -27.031998599999945 ], [ -48.619651, -27.031920399999937 ], [ -48.619406799999979, -27.031831499999939 ], [ -48.619261899999977, -27.031776799999925 ], [ -48.61912319999994, -27.031732299999923 ], [ -48.618869899999943, -27.031680699999985 ], [ -48.618455699999977, -27.031611799999947 ], [ -48.618003399999971, -27.031586899999976 ], [ -48.617920099999935, -27.031579699999948 ], [ -48.617833899999937, -27.031597599999941 ], [ -48.617748399999989, -27.031634 ], [ -48.6176402, -27.031710099999938 ], [ -48.617519499999965, -27.031748199999974 ], [ -48.617274499999958, -27.03174609999996 ], [ -48.616939, -27.031790799999939 ], [ -48.616630599999951, -27.031846599999938 ], [ -48.616407699999968, -27.031920399999926 ], [ -48.616151099999968, -27.032108699999981 ], [ -48.615891099999942, -27.032354399999967 ], [ -48.615822299999934, -27.032542299999921 ], [ -48.615807199999949, -27.032739699999969 ], [ -48.615805699999953, -27.032962299999948 ], [ -48.615827899999935, -27.033147 ], [ -48.615832599999976, -27.033621099999955 ], [ -48.615892599999938, -27.033870499999974 ], [ -48.615954699999975, -27.034011899999932 ], [ -48.616084599999958, -27.034205899999975 ], [ -48.616143599999923, -27.034340799999931 ], [ -48.616171399999985, -27.034513499999939 ], [ -48.616230099999939, -27.034782799999963 ], [ -48.616313399999967, -27.035007799999963 ], [ -48.616447399999963, -27.035215199999978 ], [ -48.61712579999994, -27.035938299999934 ], [ -48.617355699999962, -27.036226 ], [ -48.61749, -27.036450599999974 ], [ -48.617545199999945, -27.036616299999928 ], [ -48.617568099999978, -27.036793799999952 ], [ -48.617473699999955, -27.037244099999949 ], [ -48.617397299999936, -27.037663699999932 ], [ -48.617348299999946, -27.038009799999944 ], [ -48.61729749999995, -27.038291699999945 ], [ -48.617242299999937, -27.038415399999959 ], [ -48.617165099999966, -27.038527399999964 ], [ -48.617029599999974, -27.038672899999924 ], [ -48.61683, -27.038802 ], [ -48.616454899999958, -27.039074899999939 ], [ -48.616160499999985, -27.039385899999953 ], [ -48.615897199999957, -27.039681499999986 ], [ -48.615754099999947, -27.039840099999928 ], [ -48.615696799999967, -27.039938199999934 ], [ -48.615671499999962, -27.040052499999941 ], [ -48.615665299999939, -27.040300399999978 ], [ -48.615696, -27.040563599999921 ], [ -48.615712799999983, -27.040872599999933 ], [ -48.615691299999973, -27.041189399999951 ], [ -48.615644599999939, -27.041599399999932 ], [ -48.61558279999997, -27.041826 ], [ -48.615514499999968, -27.042001 ], [ -48.615425899999934, -27.042163299999963 ], [ -48.615270399999979, -27.042485799999952 ], [ -48.615096699999974, -27.042811899999947 ], [ -48.614971, -27.043034 ], [ -48.614808699999976, -27.043264599999926 ], [ -48.614571399999932, -27.043492 ], [ -48.61429689999995, -27.043694599999966 ], [ -48.614124, -27.043855 ], [ -48.613926699999979, -27.044074499999962 ], [ -48.613769399999967, -27.044213199999945 ], [ -48.613618, -27.044369099999983 ], [ -48.613405499999949, -27.044751499999961 ], [ -48.613057099999935, -27.045239 ], [ -48.612937, -27.045434199999928 ], [ -48.612865499999941, -27.045654199999944 ], [ -48.612777599999959, -27.045976299999939 ], [ -48.612735599999951, -27.046107599999978 ], [ -48.612660699999935, -27.046255 ], [ -48.612624499999981, -27.046407899999966 ], [ -48.612620699999979, -27.046612 ], [ -48.61260469999997, -27.046809599999964 ], [ -48.612548599999975, -27.047020899999943 ], [ -48.612513499999984, -27.047236299999945 ], [ -48.612436799999955, -27.047517499999962 ], [ -48.612388099999976, -27.047705799999953 ], [ -48.612335599999938, -27.047845599999963 ], [ -48.612226199999959, -27.047975599999976 ], [ -48.612119799999959, -27.048025 ], [ -48.611994299999928, -27.04806039999994 ], [ -48.611765199999972, -27.048114399999974 ], [ -48.611176799999953, -27.048174899999935 ], [ -48.611212299999977, -27.04820489999997 ], [ -48.611281, -27.048233899999946 ], [ -48.611387199999974, -27.048249399999975 ], [ -48.61151979999994, -27.048252799999936 ], [ -48.61167149999995, -27.048237 ], [ -48.612067, -27.048145099999939 ], [ -48.612298899999978, -27.048091199999927 ], [ -48.612469199999964, -27.048100299999923 ], [ -48.612625899999962, -27.048130299999958 ], [ -48.613278199999975, -27.048385899999968 ], [ -48.613397699999943, -27.048435099999946 ], [ -48.613477099999955, -27.048484399999953 ], [ -48.613580399999933, -27.0486 ], [ -48.613790399999971, -27.048786599999964 ], [ -48.613958699999962, -27.048900199999927 ], [ -48.614109899999967, -27.048977399999959 ], [ -48.614473099999948, -27.04916309999993 ], [ -48.614646, -27.049221399999968 ], [ -48.615082599999937, -27.04926289999997 ], [ -48.615530399999955, -27.049674399999951 ], [ -48.615691499999976, -27.04989889999996 ], [ -48.61577159999996, -27.050029 ], [ -48.615808299999969, -27.050124899999954 ], [ -48.6158516, -27.050262199999946 ], [ -48.616024599999953, -27.050733599999951 ], [ -48.61613559999995, -27.051068599999944 ], [ -48.616186199999952, -27.051437799999974 ], [ -48.616261699999939, -27.051789899999967 ], [ -48.616170899999986, -27.053130199999934 ], [ -48.616178499999933, -27.053268199999934 ], [ -48.616161799999986, -27.053441899999932 ], [ -48.616106699999939, -27.053703 ], [ -48.616025899999954, -27.054057699999927 ], [ -48.615986099999986, -27.05417529999994 ], [ -48.615961499999976, -27.054308099999965 ], [ -48.615994, -27.054436 ], [ -48.616086799999948, -27.05455859999995 ], [ -48.616323199999954, -27.054799099999961 ], [ -48.616495, -27.054930499999948 ], [ -48.616668799999957, -27.055015899999944 ], [ -48.617070599999977, -27.055287799999981 ], [ -48.617486499999984, -27.055501299999957 ], [ -48.617577599999947, -27.055592799999939 ], [ -48.617613199999937, -27.055691 ], [ -48.617618899999975, -27.055783099999921 ], [ -48.617618199999981, -27.055885 ], [ -48.617597399999966, -27.056009599999982 ], [ -48.617565899999931, -27.056119299999978 ], [ -48.617522199999939, -27.056234099999983 ], [ -48.617507499999938, -27.056340199999962 ], [ -48.617526099999964, -27.056437199999944 ], [ -48.617511399999962, -27.056559899999961 ], [ -48.61747759999998, -27.05667939999995 ], [ -48.617435099999959, -27.056786099999943 ], [ -48.61739689999996, -27.056894899999975 ], [ -48.617385399999932, -27.057005299999954 ], [ -48.617381499999965, -27.057325 ], [ -48.617410899999982, -27.057641599999958 ], [ -48.617476599999982, -27.057787099999928 ], [ -48.617600599999939, -27.057932699999988 ], [ -48.617740599999934, -27.058045 ], [ -48.617895099999949, -27.058127799999962 ], [ -48.618121899999956, -27.058258 ], [ -48.618276699999974, -27.058335699999922 ], [ -48.618401499999948, -27.058398299999965 ], [ -48.618551899999943, -27.058451199999986 ], [ -48.618916799999973, -27.058581099999969 ], [ -48.619565199999954, -27.058724199999972 ], [ -48.61983129999993, -27.058823199999946 ], [ -48.620350199999962, -27.059140799999955 ], [ -48.620472899999982, -27.05922679999998 ], [ -48.620553299999983, -27.05931489999994 ], [ -48.62064509999994, -27.059481 ], [ -48.620697299999968, -27.05954749999994 ], [ -48.620765399999989, -27.059605 ], [ -48.620852499999955, -27.059647399999953 ], [ -48.620981199999967, -27.05972839999998 ], [ -48.621067899999957, -27.059834399999943 ], [ -48.621095699999955, -27.059946099999934 ], [ -48.621072499999968, -27.060083299999974 ], [ -48.621033799999964, -27.060173499999966 ], [ -48.62096269999995, -27.060246699999936 ], [ -48.620708599999944, -27.060389399999966 ], [ -48.620335799999971, -27.060540499999945 ], [ -48.61994169999997, -27.060667 ], [ -48.619505799999956, -27.060755799999981 ], [ -48.619093799999973, -27.060790899999983 ], [ -48.618972699999979, -27.060777499999972 ], [ -48.618867499999965, -27.060756199999954 ], [ -48.618825, -27.060760199999947 ], [ -48.618785, -27.06077669999997 ], [ -48.618746399999964, -27.060796799999935 ], [ -48.618712699999946, -27.060826899999935 ], [ -48.618664599999931, -27.060916299999967 ], [ -48.61863029999995, -27.06100309999994 ], [ -48.618577099999989, -27.061077199999936 ], [ -48.618544099999951, -27.061114299999929 ], [ -48.618498699999982, -27.061143499999954 ], [ -48.618317599999955, -27.061256799999963 ], [ -48.618291399999976, -27.061283199999931 ], [ -48.618272499999932, -27.061310099999954 ], [ -48.618252899999966, -27.061351699999928 ], [ -48.618239199999948, -27.061398599999961 ], [ -48.61819689999993, -27.061565699999949 ], [ -48.61815329999996, -27.061670199999973 ], [ -48.618085699999938, -27.061784299999932 ], [ -48.618026899999968, -27.061853 ], [ -48.617961799999925, -27.061958299999954 ], [ -48.617893699999968, -27.062094099999971 ], [ -48.617833, -27.062241199999963 ], [ -48.617702, -27.062527699999976 ], [ -48.617561799999983, -27.062778199999954 ], [ -48.617424399999948, -27.063019899999965 ], [ -48.617381499999965, -27.063163599999946 ], [ -48.617349599999962, -27.063327 ], [ -48.617355, -27.063467399999976 ], [ -48.617384199999947, -27.063670499999951 ], [ -48.6174286, -27.063810199999974 ], [ -48.617417799999949, -27.063971399999954 ], [ -48.617397799999935, -27.064143199999933 ], [ -48.617339799999968, -27.064313699999964 ], [ -48.617291699999953, -27.064431499999952 ], [ -48.617225699999949, -27.064543199999946 ], [ -48.616591899999953, -27.065331499999967 ], [ -48.616335399999976, -27.065566699999984 ], [ -48.616259499999956, -27.06563709999994 ], [ -48.616131799999941, -27.06581 ], [ -48.615942599999983, -27.066041099999946 ], [ -48.615738799999981, -27.066226499999971 ], [ -48.615587699999942, -27.066357599999943 ], [ -48.615238499999975, -27.066758499999935 ], [ -48.615097299999945, -27.06700119999994 ], [ -48.614974199999949, -27.067291699999942 ], [ -48.614880099999937, -27.06771769999995 ], [ -48.614876199999969, -27.068106 ], [ -48.614875499999982, -27.068457 ], [ -48.614909699999949, -27.068569399999941 ], [ -48.614957899999979, -27.068661899999935 ], [ -48.615036199999956, -27.068721699999973 ], [ -48.615126699999962, -27.068768599999935 ], [ -48.61521369999997, -27.068801799999967 ], [ -48.615304199999962, -27.068819799999972 ], [ -48.615448499999957, -27.068796899999928 ], [ -48.615602899999942, -27.068751199999951 ], [ -48.615898699999953, -27.068699499999973 ], [ -48.616428699999972, -27.068639899999933 ], [ -48.616696699999977, -27.068635599999933 ], [ -48.616919499999945, -27.068605299999945 ], [ -48.617098599999963, -27.068556199999932 ], [ -48.617509, -27.068381299999938 ], [ -48.617718199999963, -27.068339599999938 ], [ -48.617895599999947, -27.068343499999973 ], [ -48.618003899999962, -27.068374099999971 ], [ -48.618101299999985, -27.068420499999942 ], [ -48.618243199999938, -27.068510899999985 ], [ -48.618354099999976, -27.068608199999975 ], [ -48.618489199999942, -27.068700199999963 ], [ -48.618645599999979, -27.068781099999956 ], [ -48.61880519999994, -27.068844699999939 ], [ -48.619155099999951, -27.068874099999956 ], [ -48.619346699999937, -27.068906699999953 ], [ -48.619536899999957, -27.06895669999993 ], [ -48.61966589999998, -27.068994699999955 ], [ -48.619779699999981, -27.069036099999927 ], [ -48.619890199999986, -27.069105399999952 ], [ -48.620007399999963, -27.069226699999938 ], [ -48.620059599999941, -27.069303 ], [ -48.620122199999976, -27.069355399999946 ], [ -48.62018809999995, -27.069400499999972 ], [ -48.620275599999964, -27.069439899999963 ], [ -48.620355099999983, -27.069475199999939 ], [ -48.620443399999942, -27.069499899999979 ], [ -48.620542399999977, -27.069516299999965 ], [ -48.620632399999977, -27.069513 ], [ -48.620702599999966, -27.069502099999962 ], [ -48.620754699999971, -27.069511699999957 ], [ -48.620817, -27.069531099999942 ], [ -48.620868199999968, -27.06957019999993 ], [ -48.62112529999996, -27.069848299999915 ], [ -48.621428299999941, -27.070164799999926 ], [ -48.621713899999975, -27.070499799999936 ], [ -48.622269099999983, -27.071156199999951 ], [ -48.622313, -27.071208199999948 ], [ -48.622431199999937, -27.071126099999962 ], [ -48.62252129999996, -27.071073499999958 ], [ -48.622742299999977, -27.070943799999949 ], [ -48.623020899999979, -27.070910199999958 ], [ -48.623189099999934, -27.070871799999971 ], [ -48.62329479999994, -27.070703599999948 ], [ -48.623462899999943, -27.070583499999948 ], [ -48.623621399999934, -27.070473 ], [ -48.623650199999986, -27.070314499999945 ], [ -48.623683899999946, -27.07012229999998 ], [ -48.623818399999941, -27.070021499999939 ], [ -48.624058599999955, -27.069906199999927 ], [ -48.624193099999957, -27.069911 ], [ -48.624433299999964, -27.069915799999933 ], [ -48.624567799999973, -27.069853299999973 ], [ -48.624697499999968, -27.069622699999968 ], [ -48.624817599999972, -27.069555499999979 ], [ -48.625053, -27.069545899999977 ], [ -48.625365299999942, -27.069574699999972 ], [ -48.625552599999928, -27.06961309999997 ], [ -48.625860099999954, -27.069733199999963 ], [ -48.626018599999952, -27.069776499999925 ], [ -48.626215599999966, -27.069747599999975 ], [ -48.626311599999951, -27.069699599999975 ], [ -48.626451, -27.069613099999966 ], [ -48.626503799999959, -27.069521799999947 ], [ -48.626604699999966, -27.069464199999967 ], [ -48.626792, -27.069478599999968 ], [ -48.626897699999972, -27.069569899999976 ], [ -48.627041899999938, -27.069608299999963 ], [ -48.627190799999937, -27.06958909999997 ], [ -48.627354099999934, -27.069483399999964 ], [ -48.627474199999945, -27.069368099999949 ], [ -48.627748, -27.069315299999975 ], [ -48.627906599999967, -27.069334499999975 ], [ -48.628074699999956, -27.069416199999974 ], [ -48.628170799999964, -27.069560299999978 ], [ -48.628170799999957, -27.069718799999968 ], [ -48.628117899999957, -27.06980529999991 ], [ -48.62806989999995, -27.069949399999924 ], [ -48.628079499999956, -27.070064699999918 ], [ -48.628156399999966, -27.07019439999992 ], [ -48.628214, -27.070372099999922 ], [ -48.628151599999967, -27.070530699999953 ], [ -48.628036299999962, -27.070694 ], [ -48.627964199999951, -27.070931799999983 ], [ -48.628026699999971, -27.071112 ], [ -48.628252499999967, -27.071222399999947 ], [ -48.628473399999962, -27.071236899999967 ], [ -48.628809699999984, -27.07128489999997 ], [ -48.629126799999938, -27.071294499999958 ], [ -48.629391, -27.071270499999972 ], [ -48.629520699999951, -27.071337699999948 ], [ -48.629607199999953, -27.07144819999996 ], [ -48.629679199999941, -27.071534699999976 ], [ -48.629780099999955, -27.071717299999932 ], [ -48.629849799999938, -27.072000699999933 ], [ -48.629948299999967, -27.0721832 ], [ -48.630078, -27.072288899999936 ], [ -48.630209799999932, -27.07228309999994 ], [ -48.630330199999939, -27.072188 ], [ -48.630541499999943, -27.071952699999937 ], [ -48.63059439999995, -27.07177009999997 ], [ -48.630673699999925, -27.071465 ], [ -48.630704899999955, -27.071236899999967 ], [ -48.630743299999956, -27.070881399999966 ], [ -48.630834599999964, -27.0707877 ], [ -48.63095949999996, -27.070761299999958 ], [ -48.6311444, -27.070828499999958 ], [ -48.631358199999973, -27.070943799999956 ], [ -48.631509499999929, -27.071051899999926 ], [ -48.631744899999951, -27.071128799999929 ], [ -48.631915499999934, -27.071085499999981 ], [ -48.632081199999952, -27.071063899999952 ], [ -48.63222049999996, -27.071112 ], [ -48.632374299999981, -27.071162399999924 ], [ -48.632561599999974, -27.071124 ], [ -48.632662499999981, -27.071027899999933 ], [ -48.632840199999976, -27.070903 ], [ -48.633080399999983, -27.070830899999969 ], [ -48.633234199999947, -27.0708261 ], [ -48.63335909999995, -27.070898199999931 ], [ -48.633488799999959, -27.071037499999932 ], [ -48.63364729999995, -27.071172 ], [ -48.633781799999959, -27.071277699999936 ], [ -48.633954799999962, -27.071383399999952 ], [ -48.634190199999978, -27.071445799999939 ], [ -48.634367899999972, -27.071445799999939 ], [ -48.634420699999964, -27.071373799999954 ], [ -48.634483199999977, -27.071306499999928 ], [ -48.634627299999977, -27.071200799999946 ], [ -48.634733, -27.071200799999929 ], [ -48.634881899999982, -27.071181599999917 ], [ -48.634978, -27.071104699999982 ], [ -48.635026099999948, -27.070960599999971 ], [ -48.635035699999953, -27.070797299999974 ], [ -48.635078899999939, -27.070691599999972 ], [ -48.635160599999949, -27.070595499999964 ], [ -48.635280699999953, -27.070494599999968 ], [ -48.635314299999948, -27.070379299999953 ], [ -48.635290299999951, -27.070201599999969 ], [ -48.635297499999972, -27.070088699999921 ], [ -48.635359899999976, -27.069963799999986 ], [ -48.635496799999942, -27.069882099999969 ], [ -48.63565779999994, -27.069874899999938 ], [ -48.635785099999971, -27.069951799999956 ], [ -48.635934, -27.070040699999932 ], [ -48.636049299999968, -27.070045499999949 ], [ -48.636133399999949, -27.069997399999981 ], [ -48.636131, -27.069867699999982 ], [ -48.636063699999966, -27.069714 ], [ -48.635965199999937, -27.069581899999946 ], [ -48.635845099999983, -27.069358499999957 ], [ -48.63573939999997, -27.069022199999942 ], [ -48.6356962, -27.068851699999982 ], [ -48.635703399999954, -27.068741199999977 ], [ -48.635710599999989, -27.068532199999932 ], [ -48.6356962, -27.068284799999944 ], [ -48.635641, -27.06809989999994 ], [ -48.635580899999979, -27.067987 ], [ -48.63550639999994, -27.067866899999952 ], [ -48.635432499999986, -27.067795199999971 ], [ -48.635478, -27.067802399999948 ], [ -48.63548069999996, -27.067802799999985 ], [ -48.63559529999997, -27.067806799999978 ], [ -48.639943899999935, -27.067965699999959 ], [ -48.639637199999989, -27.066970199999965 ], [ -48.639719599999985, -27.064987599999931 ], [ -48.64046129999997, -27.064816799999949 ], [ -48.640923299999947, -27.064311399999951 ], [ -48.64093, -27.063980399999938 ], [ -48.641587799999968, -27.063918 ], [ -48.642294399999969, -27.063488499999945 ], [ -48.643178499999976, -27.062402299999977 ], [ -48.643266899999958, -27.062072599999976 ], [ -48.643804599999946, -27.061861599999936 ], [ -48.645238, -27.061996199999946 ], [ -48.646434499999941, -27.063632199999969 ], [ -48.646924299999974, -27.063749799999979 ], [ -48.647257799999977, -27.063461799999978 ], [ -48.647628299999951, -27.063394799999976 ], [ -48.647950799999933, -27.063657299999939 ], [ -48.64872859999997, -27.063743499999923 ], [ -48.6492583, -27.0639356 ], [ -48.649840799999936, -27.063504899999945 ], [ -48.650665699999934, -27.063408299999935 ], [ -48.650801899999983, -27.062603299999981 ], [ -48.650755899999979, -27.060875099999972 ], [ -48.650846199999926, -27.060547199999963 ], [ -48.648635099999979, -27.052070699999934 ], [ -48.648183799999963, -27.050341 ], [ -48.647526099999936, -27.04871 ], [ -48.647292099999966, -27.047623 ], [ -48.646296799999966, -27.04581589999998 ], [ -48.64880549999998, -27.044640099999977 ], [ -48.649076, -27.044525699999951 ], [ -48.649336299999966, -27.044402 ], [ -48.6494795, -27.044375299999956 ], [ -48.649492, -27.044452 ], [ -48.649584399999981, -27.044588499999982 ], [ -48.649675199999933, -27.044668199999933 ], [ -48.649836499999942, -27.044690099999961 ], [ -48.650120099999981, -27.044654499999979 ], [ -48.650282, -27.044662499999959 ], [ -48.651056099999948, -27.044834199999972 ], [ -48.651304599999939, -27.044868699999938 ], [ -48.651466299999981, -27.044898 ], [ -48.651899, -27.044954 ], [ -48.65197459999996, -27.045147599999947 ], [ -48.652028399999956, -27.045347399999965 ], [ -48.652093, -27.045587099999981 ], [ -48.652206299999932, -27.045787 ], [ -48.652264299999956, -27.045862699999933 ], [ -48.652360099999953, -27.045987699999955 ], [ -48.652613499999973, -27.046199799999957 ], [ -48.6527536, -27.046320499999975 ], [ -48.652778399999931, -27.046348099999932 ], [ -48.652839899999947, -27.04641659999993 ], [ -48.652931599999938, -27.046524099999942 ], [ -48.653042399999947, -27.046735099999971 ], [ -48.65308849999996, -27.046832 ], [ -48.653256, -27.047184399999935 ], [ -48.653398899999956, -27.047336699999953 ], [ -48.653424399999949, -27.047347399999968 ], [ -48.653492899999947, -27.04737619999997 ], [ -48.653617199999985, -27.048780799999975 ], [ -48.653824799999938, -27.050378399999939 ], [ -48.654560699999926, -27.050296599999974 ], [ -48.654346799999985, -27.048749299999937 ], [ -48.654188599999934, -27.047465199999976 ], [ -48.654541899999977, -27.047474099999931 ], [ -48.654824599999984, -27.047439899999972 ], [ -48.655135199999968, -27.047402299999931 ], [ -48.655330299999953, -27.047343299999966 ], [ -48.655396099999962, -27.047281499999944 ], [ -48.655434399999933, -27.047179 ], [ -48.655561, -27.046806 ], [ -48.655653099999938, -27.046552499999951 ], [ -48.655757799999947, -27.046471199999946 ], [ -48.655855499999973, -27.046412299999918 ], [ -48.655969599999935, -27.046357599999968 ], [ -48.656094499999938, -27.046352799999962 ], [ -48.656466199999954, -27.046518699999968 ], [ -48.65670589999997, -27.046565599999933 ], [ -48.6575582, -27.046587299999938 ], [ -48.657804099999964, -27.04658569999998 ], [ -48.657865699999945, -27.046585399999966 ], [ -48.658038, -27.04661289999996 ], [ -48.65820089999994, -27.046709 ], [ -48.658455, -27.046936 ], [ -48.659196, -27.047624 ], [ -48.660242, -27.048343 ], [ -48.660811, -27.048874 ], [ -48.661429, -27.049576 ], [ -48.662150499999946, -27.046457699999966 ], [ -48.667713899999967, -27.047338899999943 ], [ -48.667745899999943, -27.045660499999929 ], [ -48.668423199999943, -27.045857499999947 ], [ -48.668812399999986, -27.045972799999952 ], [ -48.669412899999941, -27.046136099999956 ], [ -48.669854799999939, -27.046169699999954 ] ] ] } }
]
}
