{
"type": "FeatureCollection",
"name": "4204509",
"crs": { "type": "name", "properties": { "name": "urn:ogc:def:crs:OGC:1.3:CRS84" } },
"features": [
{ "type": "Feature", "properties": { "CD_MUN": "4204509", "NM_MUN": "Corupá" }, "geometry": { "type": "Polygon", "coordinates": [ [ [ -49.257206599999961, -26.460148899999982 ], [ -49.260099299999986, -26.457304799999967 ], [ -49.256166499999949, -26.454071 ], [ -49.25447319999995, -26.452761799999969 ], [ -49.252703199999985, -26.448001499999972 ], [ -49.252474, -26.447851299999957 ], [ -49.252150499999971, -26.447644399999945 ], [ -49.251854099999946, -26.447453199999931 ], [ -49.251641099999979, -26.44731389999998 ], [ -49.25161379999998, -26.447157899999972 ], [ -49.251593299999968, -26.447032099999948 ], [ -49.251617399999986, -26.446891299999944 ], [ -49.251638199999952, -26.446740499999979 ], [ -49.251772799999969, -26.446643 ], [ -49.251907399999943, -26.446546399999942 ], [ -49.252068299999962, -26.44651029999994 ], [ -49.25228089999996, -26.44646739999996 ], [ -49.252580299999984, -26.446405 ], [ -49.252890399999956, -26.446341599999982 ], [ -49.253094899999951, -26.446183699999946 ], [ -49.253276599999936, -26.446046099999936 ], [ -49.253372199999944, -26.445973299999931 ], [ -49.253498899999947, -26.445832199999924 ], [ -49.253651899999966, -26.445655299999938 ], [ -49.25398169999994, -26.445502899999948 ], [ -49.254228499999961, -26.445387799999924 ], [ -49.254452799999967, -26.445388799999932 ], [ -49.254764899999941, -26.445387799999921 ], [ -49.254995, -26.445530199999961 ], [ -49.255233, -26.445675499999943 ], [ -49.255459199999962, -26.446040199999953 ], [ -49.255762499999939, -26.44652979999994 ], [ -49.256175099999943, -26.4467658 ], [ -49.256645099999965, -26.447035 ], [ -49.257141499999932, -26.446822399999974 ], [ -49.257639599999955, -26.446609199999951 ], [ -49.258036799999964, -26.446438199999921 ], [ -49.258384, -26.446289899999947 ], [ -49.258395699999937, -26.446283099999956 ], [ -49.258540899999957, -26.446174099999954 ], [ -49.258776099999984, -26.445994399999964 ], [ -49.258980799999961, -26.445841799999982 ], [ -49.259592399999981, -26.445952499999976 ], [ -49.260003899999958, -26.446026599999982 ], [ -49.260608899999973, -26.446135899999952 ], [ -49.26091189999994, -26.446386499999964 ], [ -49.261161499999957, -26.446592199999937 ], [ -49.261387799999966, -26.446778499999933 ], [ -49.261609199999953, -26.446829199999964 ], [ -49.261792499999956, -26.44687209999994 ], [ -49.262086099999976, -26.446820499999937 ], [ -49.262319199999986, -26.446780499999939 ], [ -49.262973599999953, -26.446665399999972 ], [ -49.26354409999994, -26.446564899999931 ], [ -49.264128299999982, -26.446462499999932 ], [ -49.264574899999957, -26.446383499999968 ], [ -49.264634, -26.446403899999943 ], [ -49.265338, -26.446488899999956 ], [ -49.265529599999979, -26.446473299999976 ], [ -49.265586799999937, -26.446467799999926 ], [ -49.265661299999977, -26.446460599999959 ], [ -49.265760299999954, -26.446451 ], [ -49.265852399999972, -26.446442099999953 ], [ -49.265904299999931, -26.446494 ], [ -49.265613499999972, -26.446566599999986 ], [ -49.265581299999951, -26.446615099999971 ], [ -49.265447299999948, -26.446816 ], [ -49.265196599999967, -26.446949 ], [ -49.264939199999965, -26.447085199999943 ], [ -49.264607299999966, -26.447513499999946 ], [ -49.264487299999985, -26.447668199999949 ], [ -49.264367, -26.447823599999936 ], [ -49.264400199999962, -26.447951899999957 ], [ -49.264439699999969, -26.448104099999966 ], [ -49.264512199999956, -26.448142799999957 ], [ -49.264595499999984, -26.448187199999946 ], [ -49.264898499999958, -26.448106099999965 ], [ -49.265590399999951, -26.450402599999965 ], [ -49.265931199999955, -26.455292 ], [ -49.268011, -26.455334 ], [ -49.269926799999958, -26.455302699999944 ], [ -49.269739699999946, -26.45271369999994 ], [ -49.269611899999973, -26.450879 ], [ -49.27102009999993, -26.449288399999947 ], [ -49.270943399999972, -26.449248599999969 ], [ -49.27084, -26.44925139999998 ], [ -49.270734299999958, -26.449177799999966 ], [ -49.270822199999941, -26.449084899999939 ], [ -49.27061759999998, -26.448790199999959 ], [ -49.270326, -26.448590599999928 ], [ -49.269958599999946, -26.448385 ], [ -49.269702799999948, -26.448184499999964 ], [ -49.269054099999948, -26.447953199999962 ], [ -49.268869899999977, -26.447857 ], [ -49.268722599999933, -26.447625799999962 ], [ -49.268532299999947, -26.447417099999946 ], [ -49.268266299999929, -26.446968899999934 ], [ -49.268308399999974, -26.446542799999968 ], [ -49.268317399999944, -26.44646349999994 ], [ -49.268368899999984, -26.446252799999961 ], [ -49.268421799999942, -26.446070499999955 ], [ -49.268606, -26.445900699999974 ], [ -49.268849499999931, -26.445677599999961 ], [ -49.269281, -26.445691099999973 ], [ -49.269426599999974, -26.445698099999962 ], [ -49.26955959999998, -26.44571239999993 ], [ -49.269670099999985, -26.445726799999925 ], [ -49.269885, -26.44568379999998 ], [ -49.270089599999949, -26.44564489999993 ], [ -49.270114099999944, -26.445491399999984 ], [ -49.270142799999974, -26.445323599999938 ], [ -49.269872699999951, -26.444873399999949 ], [ -49.269623, -26.444656499999944 ], [ -49.26939589999995, -26.444458 ], [ -49.269271, -26.444345399999982 ], [ -49.269172799999978, -26.444257499999942 ], [ -49.269072499999929, -26.444167399999966 ], [ -49.268996799999968, -26.444046699999941 ], [ -49.26890879999997, -26.443893199999934 ], [ -49.268804499999924, -26.443719299999941 ], [ -49.268704199999952, -26.443545299999982 ], [ -49.2686121, -26.443385699999961 ], [ -49.268571199999947, -26.442996899999969 ], [ -49.268714399999972, -26.442882299999955 ], [ -49.268878099999938, -26.442751299999944 ], [ -49.269019299999968, -26.442761499999964 ], [ -49.269170799999984, -26.442771799999949 ], [ -49.269300399999963, -26.442874899999939 ], [ -49.269418699999953, -26.442968399999987 ], [ -49.269469599999987, -26.443008499999969 ], [ -49.269632099999974, -26.44315169999993 ], [ -49.269740399999932, -26.443246799999944 ], [ -49.269805099999985, -26.44330379999996 ], [ -49.270001899999954, -26.443407599999954 ], [ -49.270128499999949, -26.443475699999958 ], [ -49.270267599999954, -26.443350899999935 ], [ -49.270333099999959, -26.443156499999922 ], [ -49.270210299999974, -26.442843399999962 ], [ -49.270116199999961, -26.442593699999968 ], [ -49.270050699999956, -26.442425899999918 ], [ -49.269987299999976, -26.442262199999966 ], [ -49.269893099999926, -26.442188599999948 ], [ -49.269756, -26.441910199999938 ], [ -49.2696926, -26.441597199999922 ], [ -49.269743799999958, -26.441351599999958 ], [ -49.26979289999997, -26.441122399999983 ], [ -49.269985199999951, -26.440987299999964 ], [ -49.270130499999937, -26.440887099999941 ], [ -49.270310599999959, -26.440844099999929 ], [ -49.270425199999977, -26.440815399999956 ], [ -49.27060119999993, -26.440850199999939 ], [ -49.270779199999936, -26.440887099999937 ], [ -49.270930699999958, -26.441032299999961 ], [ -49.271078, -26.441171499999939 ], [ -49.271139399999981, -26.44144979999993 ], [ -49.271188499999937, -26.441668799999942 ], [ -49.271249899999987, -26.441936799999947 ], [ -49.271397199999967, -26.441951199999959 ], [ -49.271544599999977, -26.441969599999926 ], [ -49.271726699999931, -26.441867299999949 ], [ -49.271915, -26.441760899999963 ], [ -49.272121699999957, -26.441374099999965 ], [ -49.272338599999955, -26.440858399999971 ], [ -49.272445, -26.440586199999924 ], [ -49.272627099999966, -26.440127799999974 ], [ -49.272696899999971, -26.439957199999984 ], [ -49.272814699999962, -26.439686699999985 ], [ -49.27293, -26.439425899999947 ], [ -49.273032199999939, -26.439179199999948 ], [ -49.273114199999952, -26.43897979999997 ], [ -49.274030899999964, -26.439204899999933 ], [ -49.274521, -26.439323399999978 ], [ -49.275111399999957, -26.439462799999934 ], [ -49.275651699999969, -26.43959579999996 ], [ -49.275644399999976, -26.440111399999989 ], [ -49.275639399999932, -26.440549399999945 ], [ -49.275635299999983, -26.440905499999925 ], [ -49.275631199999964, -26.441120299999969 ], [ -49.275751899999939, -26.441306599999951 ], [ -49.275983199999985, -26.441408899999939 ], [ -49.276259399999958, -26.441396599999951 ], [ -49.276342499999942, -26.44140219999997 ], [ -49.276469299999981, -26.441408299999981 ], [ -49.276606799999968, -26.441419199999928 ], [ -49.276687199999969, -26.441405799999934 ], [ -49.276814699999932, -26.441385699999948 ], [ -49.277006399999948, -26.441355699999981 ], [ -49.277157799999941, -26.441521399999946 ], [ -49.277139399999953, -26.441758799999949 ], [ -49.277112799999948, -26.442231499999931 ], [ -49.277094399999953, -26.442493499999959 ], [ -49.277176199999985, -26.442577399999958 ], [ -49.2773122, -26.442556 ], [ -49.277484299999969, -26.442527899999966 ], [ -49.277594299999976, -26.442396799999983 ], [ -49.277689199999941, -26.44228209999994 ], [ -49.277826099999963, -26.44221419999997 ], [ -49.277951399999942, -26.442150899999938 ], [ -49.278135199999952, -26.44214159999996 ], [ -49.278353799999934, -26.442130099999932 ], [ -49.278569599999969, -26.442235199999971 ], [ -49.278801399999963, -26.442353499999953 ], [ -49.278999599999963, -26.442456599999957 ], [ -49.279164299999934, -26.442608699999944 ], [ -49.279283699999951, -26.442604 ], [ -49.279409, -26.442600499999966 ], [ -49.279519799999946, -26.44248349999998 ], [ -49.279606899999983, -26.442394499999974 ], [ -49.27971579999997, -26.442283199999963 ], [ -49.27997449999998, -26.442332399999923 ], [ -49.280223299999932, -26.442464799999978 ], [ -49.280301099999967, -26.442665399999957 ], [ -49.280241399999966, -26.442838199999979 ], [ -49.280175899999954, -26.443012599999978 ], [ -49.279920599999961, -26.443278399999933 ], [ -49.279643199999946, -26.443616699999943 ], [ -49.279643199999953, -26.443882499999976 ], [ -49.279789, -26.443927399999957 ], [ -49.279933199999959, -26.443974399999931 ], [ -49.280091599999942, -26.443948099999936 ], [ -49.280296499999963, -26.443913 ], [ -49.280440499999933, -26.44380879999995 ], [ -49.280511899999965, -26.443759599999964 ], [ -49.280722599999933, -26.443587499999982 ], [ -49.280831, -26.443404199999975 ], [ -49.28091459999996, -26.443262 ], [ -49.280927399999939, -26.443239599999966 ], [ -49.281099299999944, -26.443029499999959 ], [ -49.281164699999977, -26.442964 ], [ -49.281284599999935, -26.442848699999956 ], [ -49.28137479999998, -26.442763 ], [ -49.281522299999949, -26.442684799999931 ], [ -49.281685, -26.442600499999969 ], [ -49.281843199999976, -26.442517499999951 ], [ -49.282345299999974, -26.442491599999979 ], [ -49.282771799999971, -26.442469299999978 ], [ -49.282823699999945, -26.442466499999963 ], [ -49.283040699999958, -26.442510399999943 ], [ -49.283219299999985, -26.442545599999956 ], [ -49.283382599999989, -26.442579399999936 ], [ -49.283576699999969, -26.442673 ], [ -49.283690399999955, -26.442727599999948 ], [ -49.283874199999957, -26.442816699999984 ], [ -49.284138799999937, -26.443070399999947 ], [ -49.284404399999978, -26.44332049999997 ], [ -49.284675099999959, -26.4435769 ], [ -49.284614199999965, -26.443925799999931 ], [ -49.284491699999933, -26.44423009999997 ], [ -49.284459899999952, -26.444532899999952 ], [ -49.284745499999985, -26.4446766 ], [ -49.285095399999932, -26.444522899999981 ], [ -49.28535769999997, -26.444330899999951 ], [ -49.285597699999983, -26.444208 ], [ -49.285801399999968, -26.444103799999937 ], [ -49.285886899999973, -26.444074499999946 ], [ -49.28603319999997, -26.444024199999948 ], [ -49.286155, -26.443982 ], [ -49.2862674, -26.443943399999959 ], [ -49.286402799999962, -26.443909599999984 ], [ -49.286555399999948, -26.443869 ], [ -49.286719399999981, -26.443831499999927 ], [ -49.287023499999975, -26.44380609999995 ], [ -49.287212, -26.443790799999942 ], [ -49.287579499999943, -26.443861699999953 ], [ -49.28768679999996, -26.443906299999977 ], [ -49.287810399999955, -26.443957399999924 ], [ -49.287927499999974, -26.444005399999988 ], [ -49.288208899999965, -26.444188199999932 ], [ -49.288721599999974, -26.444678399999919 ], [ -49.288882799999953, -26.444851199999956 ], [ -49.289061799999956, -26.445038399999934 ], [ -49.289284799999962, -26.445273299999943 ], [ -49.28937029999998, -26.44563339999997 ], [ -49.289432799999986, -26.44590769999996 ], [ -49.289535599999965, -26.446335199999972 ], [ -49.289650299999956, -26.446813299999977 ], [ -49.289751799999976, -26.447240299999965 ], [ -49.289826699999935, -26.447557899999932 ], [ -49.289901499999985, -26.44787279999996 ], [ -49.290007799999955, -26.44831889999994 ], [ -49.290075699999925, -26.448604599999946 ], [ -49.29014779999995, -26.44891879999993 ], [ -49.29123449999998, -26.448069299999926 ], [ -49.291547199999968, -26.447886199999971 ], [ -49.291588699999984, -26.447849399999942 ], [ -49.291648699999946, -26.44782459999993 ], [ -49.292065699999966, -26.447633799999952 ], [ -49.291902799999946, -26.447593799999932 ], [ -49.291709799999978, -26.447388499999924 ], [ -49.291684299999986, -26.447360499999942 ], [ -49.291596099999936, -26.447225399999969 ], [ -49.291532899999943, -26.447128699999944 ], [ -49.291456399999959, -26.447009199999961 ], [ -49.291376, -26.446864099999964 ], [ -49.29131979999994, -26.446761799999923 ], [ -49.291204299999954, -26.446488599999942 ], [ -49.291204299999947, -26.446166299999959 ], [ -49.291160599999955, -26.445964899999971 ], [ -49.291160599999955, -26.445818199999952 ], [ -49.291160599999948, -26.445744 ], [ -49.291130899999985, -26.445441199999948 ], [ -49.291145799999981, -26.445207799999945 ], [ -49.291233199999965, -26.445032199999964 ], [ -49.291344799999933, -26.444934599999957 ], [ -49.29144, -26.444839399999978 ], [ -49.291465, -26.444814399999935 ], [ -49.291582099999978, -26.444624799999925 ], [ -49.291714, -26.444404699999946 ], [ -49.291738199999941, -26.444298499999938 ], [ -49.291756899999946, -26.444217399999957 ], [ -49.291756899999939, -26.444127599999934 ], [ -49.291756899999939, -26.44404249999997 ], [ -49.291640599999937, -26.443926199999961 ], [ -49.291453299999944, -26.443867699999942 ], [ -49.291258899999946, -26.443838 ], [ -49.291034099999933, -26.443841899999935 ], [ -49.290828099999949, -26.44376 ], [ -49.290626199999963, -26.443679699999961 ], [ -49.2904688, -26.443529399999932 ], [ -49.2903247, -26.443390799999968 ], [ -49.290140599999965, -26.443217 ], [ -49.29000689999998, -26.443088099999954 ], [ -49.289901699999973, -26.442986899999941 ], [ -49.289849499999946, -26.442773399999965 ], [ -49.289805199999932, -26.442586699999932 ], [ -49.289776, -26.442468099999935 ], [ -49.289748299999985, -26.442354199999947 ], [ -49.289646299999959, -26.442191299999926 ], [ -49.289485699999943, -26.442120099999954 ], [ -49.289216799999963, -26.442120099999944 ], [ -49.288942399999939, -26.441998299999966 ], [ -49.288728099999958, -26.441961899999974 ], [ -49.288532, -26.441930299999967 ], [ -49.288316799999969, -26.441895499999919 ], [ -49.287904799999986, -26.441805299999935 ], [ -49.287827599999964, -26.441644899999972 ], [ -49.28779719999995, -26.441582299999943 ], [ -49.287750599999981, -26.441488199999984 ], [ -49.287622499999941, -26.441389399999931 ], [ -49.287363899999946, -26.441263599999957 ], [ -49.287008, -26.441193199999919 ], [ -49.286913899999952, -26.441008899999932 ], [ -49.28683319999994, -26.440853899999965 ], [ -49.286781799999972, -26.44068469999997 ], [ -49.286732699999959, -26.440532099999913 ], [ -49.286626, -26.440403899999982 ], [ -49.286511299999979, -26.440267899999977 ], [ -49.286371299999985, -26.440192799999974 ], [ -49.286224199999928, -26.440113699999987 ], [ -49.285996499999946, -26.440124799999975 ], [ -49.285801899999967, -26.440134299999951 ], [ -49.285602599999947, -26.440143699999958 ], [ -49.285490299999935, -26.439991099999926 ], [ -49.285626299999933, -26.439822699999976 ], [ -49.285743399999951, -26.439675599999937 ], [ -49.285816899999986, -26.439585399999956 ], [ -49.285805899999964, -26.439456499999942 ], [ -49.285805099999948, -26.439307799999941 ], [ -49.285693599999945, -26.439160699999942 ], [ -49.285582, -26.43901279999994 ], [ -49.285559099999944, -26.438925799999932 ], [ -49.285535399999958, -26.438836499999979 ], [ -49.285530599999959, -26.438823 ], [ -49.285561499999972, -26.438586499999925 ], [ -49.285641399999975, -26.438524099999942 ], [ -49.285727599999973, -26.438457599999939 ], [ -49.285824799999943, -26.438382499999932 ], [ -49.28599649999996, -26.438339 ], [ -49.286185499999931, -26.438290799999944 ], [ -49.286377699999939, -26.438243299999961 ], [ -49.286590399999973, -26.438188699999952 ], [ -49.286766, -26.437989399999939 ], [ -49.286886199999969, -26.437851799999969 ], [ -49.286966799999959, -26.437761699999953 ], [ -49.287159, -26.437674699999953 ], [ -49.287286399999978, -26.437616199999976 ], [ -49.287484899999981, -26.437510199999956 ], [ -49.287624799999953, -26.437433499999941 ], [ -49.287823299999964, -26.437322699999982 ], [ -49.287855, -26.437196199999956 ], [ -49.287884199999951, -26.437078399999951 ], [ -49.287763199999979, -26.43693519999994 ], [ -49.287647799999945, -26.436905199999945 ], [ -49.287561599999947, -26.436887 ], [ -49.287441399999985, -26.436863299999974 ], [ -49.287231799999972, -26.436832399999957 ], [ -49.28722149999993, -26.436773099999989 ], [ -49.28722159999996, -26.436690599999967 ], [ -49.287242899999967, -26.436601499999938 ], [ -49.287263399999972, -26.436518399999951 ], [ -49.287237299999958, -26.436417199999941 ], [ -49.287212, -26.436313599999941 ], [ -49.287143099999987, -26.436255599999981 ], [ -49.287058599999973, -26.436181499999968 ], [ -49.286855299999964, -26.436221899999957 ], [ -49.286773899999957, -26.436288299999937 ], [ -49.286703499999923, -26.436345199999945 ], [ -49.286520799999948, -26.436491599999954 ], [ -49.286267699999939, -26.436695599999954 ], [ -49.286056599999945, -26.4368656 ], [ -49.285752099999968, -26.437104499999979 ], [ -49.285516399999956, -26.437287199999965 ], [ -49.285283099999958, -26.437467499999968 ], [ -49.285019699999971, -26.437654899999927 ], [ -49.284716099999969, -26.437872399999936 ], [ -49.284543599999942, -26.437923799999961 ], [ -49.284442399999932, -26.437856599999968 ], [ -49.284359399999971, -26.437801199999967 ], [ -49.28422489999997, -26.437608199999943 ], [ -49.284113399999967, -26.437454 ], [ -49.283998699999977, -26.437295899999981 ], [ -49.283913299999945, -26.437178799999973 ], [ -49.283841399999972, -26.437080699999971 ], [ -49.283734599999953, -26.436951 ], [ -49.283637299999945, -26.436834 ], [ -49.283612799999958, -26.43679289999994 ], [ -49.283563799999975, -26.436706699999938 ], [ -49.283454599999978, -26.436517699999964 ], [ -49.283359699999949, -26.436352399999979 ], [ -49.28323869999997, -26.436142 ], [ -49.283319399999989, -26.435888899999942 ], [ -49.283370799999936, -26.435809 ], [ -49.283410299999957, -26.435746599999948 ], [ -49.283462699999973, -26.435673899999976 ], [ -49.283687099999952, -26.435479299999933 ], [ -49.283967099999984, -26.435359 ], [ -49.28419729999996, -26.435275199999982 ], [ -49.284316699999977, -26.435280699999954 ], [ -49.284431299999937, -26.435285499999967 ], [ -49.28467569999998, -26.435151799999968 ], [ -49.284735, -26.435066399999979 ], [ -49.284767499999937, -26.43501979999996 ], [ -49.28474609999995, -26.434935099999958 ], [ -49.284716099999976, -26.434807 ], [ -49.28480379999997, -26.434706599999966 ], [ -49.284908199999961, -26.434585599999938 ], [ -49.284981799999969, -26.434501 ], [ -49.28504189999996, -26.434460599999969 ], [ -49.285132, -26.434400499999985 ], [ -49.285257799999954, -26.434316699999957 ], [ -49.285348, -26.434257399999989 ], [ -49.285378, -26.434051799999963 ], [ -49.285295, -26.433903899999958 ], [ -49.285225399999945, -26.4337781 ], [ -49.284974699999957, -26.43375359999995 ], [ -49.284799899999932, -26.433737 ], [ -49.284651199999985, -26.433737 ], [ -49.284457399999951, -26.433737 ], [ -49.284111799999948, -26.433737 ], [ -49.283978199999979, -26.433750399999951 ], [ -49.28380889999994, -26.433767799999945 ], [ -49.283596199999977, -26.433888 ], [ -49.283562199999956, -26.433905399999954 ], [ -49.283354199999962, -26.433990099999956 ], [ -49.283128, -26.434082599999957 ], [ -49.282948499999975, -26.434177499999979 ], [ -49.282761, -26.434256599999959 ], [ -49.282523, -26.43431829999998 ], [ -49.282320499999969, -26.434339599999923 ], [ -49.28216, -26.434348299999943 ], [ -49.281942499999957, -26.434229699999943 ], [ -49.281852299999962, -26.434172799999942 ], [ -49.281777199999972, -26.434124499999932 ], [ -49.28168309999996, -26.434064399999951 ], [ -49.281591399999961, -26.43399959999994 ], [ -49.281498, -26.433933899999943 ], [ -49.281405499999956, -26.433869099999985 ], [ -49.281279, -26.433793899999966 ], [ -49.281109699999938, -26.433693499999944 ], [ -49.281027499999936, -26.433640499999964 ], [ -49.280904899999946, -26.433563 ], [ -49.280683499999952, -26.433396899999934 ], [ -49.280458099999976, -26.433227699999975 ], [ -49.280439099999967, -26.433104299999975 ], [ -49.28041769999993, -26.432973799999967 ], [ -49.280501599999987, -26.432852 ], [ -49.280614699999944, -26.432688299999928 ], [ -49.280786299999932, -26.432440799999945 ], [ -49.281052, -26.43218219999995 ], [ -49.281168299999941, -26.432069899999924 ], [ -49.281292399999984, -26.431944899999962 ], [ -49.281436399999961, -26.431823099999981 ], [ -49.28157479999993, -26.431733699999935 ], [ -49.281792199999984, -26.431558199999976 ], [ -49.281943299999966, -26.431356499999932 ], [ -49.282027899999953, -26.43123 ], [ -49.282089599999956, -26.43102829999998 ], [ -49.28212909999997, -26.430893099999928 ], [ -49.282163899999937, -26.43071429999997 ], [ -49.28218929999997, -26.430600399999939 ], [ -49.282218499999942, -26.430511899999932 ], [ -49.282282599999967, -26.43040509999998 ], [ -49.282373499999949, -26.430324399999972 ], [ -49.282466799999945, -26.430283299999928 ], [ -49.282577599999968, -26.430273799999956 ], [ -49.282723099999949, -26.430273799999956 ], [ -49.282852, -26.430253199999981 ], [ -49.282995099999937, -26.430202599999976 ], [ -49.283096399999977, -26.430141699999975 ], [ -49.283147, -26.430029399999963 ], [ -49.283109, -26.429970899999944 ], [ -49.283065699999952, -26.429908 ], [ -49.283059399999956, -26.429846399999974 ], [ -49.283055899999965, -26.42980439999997 ], [ -49.283104299999934, -26.429696499999981 ], [ -49.283176199999957, -26.429612699999947 ], [ -49.283241399999959, -26.429585299999918 ], [ -49.2833002, -26.429560799999923 ], [ -49.283419899999956, -26.42955169999993 ], [ -49.283433899999984, -26.429549599999962 ], [ -49.283472399999937, -26.429522299999977 ], [ -49.283509499999987, -26.429497099999939 ], [ -49.283535399999948, -26.429478899999939 ], [ -49.283562, -26.429462099999974 ], [ -49.28370689999997, -26.429317199999961 ], [ -49.283738399999947, -26.42925 ], [ -49.283768499999951, -26.429183499999965 ], [ -49.283768499999958, -26.429028 ], [ -49.283763599999986, -26.428944 ], [ -49.283758699999964, -26.428857199999975 ], [ -49.283583699999951, -26.42891029999992 ], [ -49.283382799999977, -26.428959399999943 ], [ -49.283227399999937, -26.428982499999961 ], [ -49.283055199999978, -26.429007 ], [ -49.282873899999977, -26.42902029999993 ], [ -49.282738499999944, -26.429021 ], [ -49.282549, -26.429020299999948 ], [ -49.282446399999969, -26.429021 ], [ -49.282236799999964, -26.429040599999947 ], [ -49.281994899999972, -26.429071599999929 ], [ -49.281861499999941, -26.429154 ], [ -49.281692299999975, -26.429253899999928 ], [ -49.281612299999956, -26.429333299999929 ], [ -49.281564699999933, -26.429383 ], [ -49.281468099999984, -26.429486599999954 ], [ -49.281411299999945, -26.429520699999959 ], [ -49.281320499999936, -26.429582399999955 ], [ -49.281168699999967, -26.429722899999931 ], [ -49.281009099999949, -26.429934599999967 ], [ -49.280978699999935, -26.429951 ], [ -49.280820799999958, -26.429992 ], [ -49.280753099999977, -26.43002069999994 ], [ -49.280723, -26.430040699999964 ], [ -49.280633899999941, -26.429543199999941 ], [ -49.280422199999983, -26.429054199999925 ], [ -49.280420399999976, -26.428825 ], [ -49.280755599999964, -26.428345099999941 ], [ -49.281061099999931, -26.427900399999935 ], [ -49.281138599999956, -26.427787499999965 ], [ -49.280954499999957, -26.427516799999978 ], [ -49.280810699999961, -26.427304299999946 ], [ -49.280560299999941, -26.426937 ], [ -49.280524199999945, -26.426873899999968 ], [ -49.28041879999995, -26.427023099999921 ], [ -49.280339899999944, -26.427134599999931 ], [ -49.280278899999985, -26.427333099999931 ], [ -49.280224399999952, -26.427510399999964 ], [ -49.279990099999964, -26.427863299999956 ], [ -49.279753399999954, -26.42812959999997 ], [ -49.279493799999948, -26.428447 ], [ -49.279406899999969, -26.428620599999928 ], [ -49.279346, -26.428742599999975 ], [ -49.279289499999948, -26.428855799999948 ], [ -49.279084699999949, -26.429060299999939 ], [ -49.278734399999962, -26.42914779999996 ], [ -49.278383599999984, -26.429264799999942 ], [ -49.278150399999959, -26.42938149999998 ], [ -49.277946199999974, -26.429498199999951 ], [ -49.277930399999953, -26.42952989999997 ], [ -49.277908399999951, -26.429573799999961 ], [ -49.277884499999971, -26.429621699999917 ], [ -49.277858799999933, -26.429673 ], [ -49.277841099999932, -26.429708399999981 ], [ -49.277777499999956, -26.429837499999966 ], [ -49.277660799999978, -26.430054299999927 ], [ -49.277566099999945, -26.430229299999944 ], [ -49.27745909999993, -26.430381199999943 ], [ -49.277362499999974, -26.430519699999934 ], [ -49.277149899999984, -26.430661199999971 ], [ -49.277012, -26.430753599999942 ], [ -49.276737399999945, -26.430803399999942 ], [ -49.276629399999941, -26.430819099999944 ], [ -49.276467099999941, -26.430849 ], [ -49.276369399999965, -26.430864899999964 ], [ -49.27607219999993, -26.431010799999967 ], [ -49.275961, -26.431191599999977 ], [ -49.275882599999932, -26.43132989999998 ], [ -49.275803799999956, -26.431480099999927 ], [ -49.275610199999953, -26.431834199999965 ], [ -49.27560109999996, -26.431868199999936 ], [ -49.275596199999946, -26.431886599999931 ], [ -49.275587, -26.431919899999961 ], [ -49.275583599999948, -26.43193179999998 ], [ -49.275578099999962, -26.431952299999971 ], [ -49.275569299999972, -26.431984499999942 ], [ -49.275558, -26.432026499999939 ], [ -49.275548599999979, -26.43206 ], [ -49.275541099999948, -26.432087799999966 ], [ -49.275533199999984, -26.432117 ], [ -49.2755289, -26.432132399999947 ], [ -49.275522699999961, -26.432154799999982 ], [ -49.275518499999976, -26.432168599999958 ], [ -49.27551189999997, -26.432191099999962 ], [ -49.275509399999976, -26.4322 ], [ -49.275505, -26.432214199999979 ], [ -49.275501399999939, -26.432227099999981 ], [ -49.275497799999982, -26.432237699999966 ], [ -49.275493399999959, -26.432253 ], [ -49.275490699999978, -26.432262 ], [ -49.275457899999935, -26.432372199999982 ], [ -49.27543529999997, -26.432446699999947 ], [ -49.275389399999931, -26.432551199999974 ], [ -49.275347299999964, -26.432645499999968 ], [ -49.27530139999994, -26.432749699999924 ], [ -49.275224799999933, -26.432928099999966 ], [ -49.275178, -26.433037699999939 ], [ -49.275142799999976, -26.433119399999953 ], [ -49.275129299999954, -26.433243699999924 ], [ -49.275123899999983, -26.433292 ], [ -49.275114, -26.433381499999939 ], [ -49.274950199999978, -26.433467299999961 ], [ -49.274881299999954, -26.433498 ], [ -49.274748599999953, -26.433510299999963 ], [ -49.274544099999957, -26.433528399999936 ], [ -49.274388499999986, -26.433538299999952 ], [ -49.274274099999957, -26.433545499999973 ], [ -49.274218499999961, -26.433548799999976 ], [ -49.274097199999979, -26.433556599999964 ], [ -49.273942899999952, -26.433556899999932 ], [ -49.273788799999984, -26.433556899999932 ], [ -49.273607499999976, -26.43355709999997 ], [ -49.273513099999946, -26.433556899999925 ], [ -49.273409499999957, -26.433556899999932 ], [ -49.273161499999951, -26.433556899999925 ], [ -49.273006199999941, -26.433557099999977 ], [ -49.272909799999972, -26.433556899999925 ], [ -49.272748899999961, -26.433556899999925 ], [ -49.272719799999955, -26.433440099999924 ], [ -49.272806499999952, -26.43326559999997 ], [ -49.272962399999983, -26.433070699999966 ], [ -49.273039, -26.432975499999934 ], [ -49.273138099999983, -26.432839199999929 ], [ -49.273244699999964, -26.432692299999921 ], [ -49.273405299999986, -26.432476699999942 ], [ -49.273498399999937, -26.432352699999964 ], [ -49.273607399999939, -26.432205 ], [ -49.273656699999947, -26.432136799999963 ], [ -49.273770399999925, -26.431980299999967 ], [ -49.2738753, -26.431823 ], [ -49.274004099999964, -26.431630199999969 ], [ -49.274150299999974, -26.431366899999936 ], [ -49.274062799999975, -26.431221199999978 ], [ -49.273974899999985, -26.431104 ], [ -49.273792399999927, -26.431104099999978 ], [ -49.273595499999942, -26.431104099999974 ], [ -49.273450199999957, -26.431191299999966 ], [ -49.273274499999957, -26.431279299999961 ], [ -49.273099099999968, -26.43136689999994 ], [ -49.272836599999955, -26.431454399999943 ], [ -49.272544399999965, -26.431600499999934 ], [ -49.272454399999965, -26.431664899999927 ], [ -49.27234, -26.431746499999978 ], [ -49.272188299999989, -26.431763399999952 ], [ -49.272077, -26.431775799999965 ], [ -49.271965, -26.431813099999946 ], [ -49.271814399999982, -26.431863299999975 ], [ -49.271738899999946, -26.4318067 ], [ -49.271697599999989, -26.431775599999977 ], [ -49.271697599999982, -26.431675299999924 ], [ -49.271697599999989, -26.431571299999959 ], [ -49.271810099999989, -26.431480899999944 ], [ -49.27197579999995, -26.431348799999974 ], [ -49.272091, -26.431261799999959 ], [ -49.272220299999958, -26.431163599999937 ], [ -49.272342599999952, -26.431102499999952 ], [ -49.272515199999937, -26.431016099999962 ], [ -49.272687299999973, -26.430953699999971 ], [ -49.272834099999962, -26.430900199999943 ], [ -49.272990399999969, -26.430848499999971 ], [ -49.273101899999979, -26.430810699999942 ], [ -49.273297899999939, -26.43074009999998 ], [ -49.273420099999953, -26.430695399999934 ], [ -49.273565699999949, -26.430679 ], [ -49.273681, -26.430665799999925 ], [ -49.273864399999987, -26.430686599999941 ], [ -49.27400549999993, -26.430702899999968 ], [ -49.274141, -26.430718699999954 ], [ -49.27433, -26.430740699999941 ], [ -49.274460499999975, -26.430740699999948 ], [ -49.274619899999955, -26.430740699999944 ], [ -49.274754099999946, -26.430668299999976 ], [ -49.274748399999964, -26.430587599999967 ], [ -49.274743399999977, -26.430514499999958 ], [ -49.274669699999954, -26.430452799999951 ], [ -49.274611699999987, -26.430404299999964 ], [ -49.274558799999966, -26.430360099999977 ], [ -49.274567, -26.430288899999937 ], [ -49.274578899999945, -26.430185599999955 ], [ -49.274739, -26.430099299999931 ], [ -49.274844199999968, -26.430042599999975 ], [ -49.274876399999982, -26.43002239999992 ], [ -49.275103199999926, -26.429878699999961 ], [ -49.275195199999978, -26.429820099999969 ], [ -49.275289699999981, -26.429760899999952 ], [ -49.275413199999946, -26.429672 ], [ -49.275493899999958, -26.429614699999945 ], [ -49.275526, -26.429503199999946 ], [ -49.275552499999947, -26.429410499999957 ], [ -49.275438399999985, -26.429324799999957 ], [ -49.275260099999976, -26.429205699999951 ], [ -49.275052199999948, -26.429205699999951 ], [ -49.274919799999964, -26.429216499999953 ], [ -49.274810799999955, -26.429224599999952 ], [ -49.274676599999964, -26.429235399999971 ], [ -49.274534199999948, -26.429294 ], [ -49.274326199999962, -26.429380899999956 ], [ -49.274247499999944, -26.429394799999958 ], [ -49.274156099999978, -26.429411799999972 ], [ -49.274078599999939, -26.429426299999925 ], [ -49.274006099999959, -26.429438899999973 ], [ -49.273896499999978, -26.429478599999985 ], [ -49.273802599999954, -26.429512599999946 ], [ -49.273677199999959, -26.429558 ], [ -49.27357319999993, -26.4295964 ], [ -49.273509, -26.429619099999965 ], [ -49.273364699999945, -26.429672 ], [ -49.273183199999949, -26.429750199999944 ], [ -49.273049, -26.429807499999978 ], [ -49.272951899999953, -26.429848499999931 ], [ -49.272800099999984, -26.429924699999962 ], [ -49.272602799999959, -26.43002369999995 ], [ -49.272496299999951, -26.430041299999964 ], [ -49.27238159999996, -26.430060199999961 ], [ -49.272251199999964, -26.430081599999941 ], [ -49.272187599999938, -26.430073399999973 ], [ -49.272113799999943, -26.43006459999998 ], [ -49.272021799999948, -26.430052599999957 ], [ -49.271905299999965, -26.43005259999995 ], [ -49.271820199999986, -26.43005259999995 ], [ -49.271755899999953, -26.430052 ], [ -49.271695399999949, -26.430007299999936 ], [ -49.271639399999977, -26.429965099999951 ], [ -49.271669, -26.429761499999977 ], [ -49.271728799999956, -26.42967579999992 ], [ -49.271794399999976, -26.429581299999938 ], [ -49.271835299999964, -26.429522699999943 ], [ -49.271872499999979, -26.429469099999945 ], [ -49.27195439999997, -26.429403599999947 ], [ -49.27202, -26.429351299999951 ], [ -49.2721, -26.429287699999968 ], [ -49.27215979999994, -26.429239099999965 ], [ -49.272205199999974, -26.429205699999958 ], [ -49.272367799999984, -26.42908789999996 ], [ -49.27248689999994, -26.429000899999934 ], [ -49.272587099999953, -26.428851 ], [ -49.272661399999947, -26.428739399999973 ], [ -49.272661399999947, -26.428592599999941 ], [ -49.272631199999978, -26.428487399999938 ], [ -49.272603499999946, -26.42838909999994 ], [ -49.272540399999976, -26.428315399999981 ], [ -49.272428299999945, -26.428184299999948 ], [ -49.27238669999997, -26.428088499999937 ], [ -49.27234069999998, -26.427981399999972 ], [ -49.27232749999996, -26.427877399999943 ], [ -49.272311099999968, -26.427748199999929 ], [ -49.272311099999975, -26.427540299999983 ], [ -49.272340099999951, -26.42741239999998 ], [ -49.272356399999978, -26.42733609999993 ], [ -49.272374699999943, -26.427256699999937 ], [ -49.272428299999945, -26.427043099999928 ], [ -49.272462299999972, -26.426953 ], [ -49.272492599999957, -26.426870499999946 ], [ -49.272515199999937, -26.426812499999983 ], [ -49.27251519999993, -26.426646099999964 ], [ -49.27251519999993, -26.426549099999924 ], [ -49.272441499999964, -26.426475399999962 ], [ -49.272369699999956, -26.426402899999967 ], [ -49.272337499999928, -26.426328499999954 ], [ -49.272282099999984, -26.426198099999951 ], [ -49.272270699999979, -26.426089099999949 ], [ -49.272260699999947, -26.42598449999997 ], [ -49.272252499999979, -26.425906399999963 ], [ -49.272136499999938, -26.425760799999985 ], [ -49.272034399999932, -26.425716 ], [ -49.271931699999989, -26.42567259999992 ], [ -49.271813899999984, -26.425672599999924 ], [ -49.271726299999948, -26.425672599999924 ], [ -49.271636199999925, -26.425745 ], [ -49.271434599999964, -26.425907 ], [ -49.271289599999939, -26.426109899999975 ], [ -49.271193199999978, -26.426152699999928 ], [ -49.271025599999973, -26.42622839999995 ], [ -49.270963799999947, -26.426300799999975 ], [ -49.270852299999945, -26.426430599999943 ], [ -49.270742, -26.426528899999941 ], [ -49.270576299999959, -26.426675699999976 ], [ -49.270210799999973, -26.426985099999968 ], [ -49.269973899999968, -26.427221399999947 ], [ -49.269815499999943, -26.427481499999942 ], [ -49.269625399999939, -26.427803099999949 ], [ -49.269505099999954, -26.428164099999943 ], [ -49.269362699999931, -26.428562399999972 ], [ -49.269268799999956, -26.428842199999952 ], [ -49.269194399999947, -26.429065799999936 ], [ -49.269128299999984, -26.429264299999943 ], [ -49.268981399999973, -26.429469099999956 ], [ -49.268778499999939, -26.429643099999957 ], [ -49.26867389999996, -26.429643699999925 ], [ -49.268542899999943, -26.429643699999925 ], [ -49.268340599999931, -26.429614699999938 ], [ -49.268135799999989, -26.429527099999966 ], [ -49.268135799999989, -26.429322899999928 ], [ -49.267989, -26.42908849999997 ], [ -49.267898899999985, -26.42890709999995 ], [ -49.267822599999924, -26.42875459999993 ], [ -49.26778539999998, -26.428680199999977 ], [ -49.267667599999982, -26.428563 ], [ -49.267493099999967, -26.428447099999957 ], [ -49.267288899999983, -26.428388499999983 ], [ -49.267113699999982, -26.4283885 ], [ -49.266917099999944, -26.428388499999976 ], [ -49.2667924, -26.428388499999976 ], [ -49.266643599999959, -26.428431299999943 ], [ -49.266490499999975, -26.428471599999959 ], [ -49.266339299999963, -26.428508199999953 ], [ -49.266096699999935, -26.428559799999952 ], [ -49.265946699999972, -26.428592599999938 ], [ -49.26574439999996, -26.428592599999948 ], [ -49.26553709999996, -26.428592599999941 ], [ -49.265273699999973, -26.428504399999944 ], [ -49.26518549999998, -26.428416199999958 ], [ -49.265078399999936, -26.428309699999943 ], [ -49.265010299999972, -26.428242299999969 ], [ -49.264736899999946, -26.428050699999968 ], [ -49.26455469999997, -26.427915199999969 ], [ -49.264423, -26.427813099999977 ], [ -49.264184899999968, -26.427622199999984 ], [ -49.264022899999986, -26.427507499999937 ], [ -49.263783499999931, -26.427336099999923 ], [ -49.263653599999941, -26.427260499999921 ], [ -49.263436899999931, -26.427133899999937 ], [ -49.263364399999944, -26.427105499999978 ], [ -49.263185499999963, -26.427037399999964 ], [ -49.263057499999945, -26.426987699999973 ], [ -49.262704699999972, -26.42686979999996 ], [ -49.262272399999979, -26.426840799999976 ], [ -49.261802299999943, -26.426840799999979 ], [ -49.261477799999973, -26.426840799999969 ], [ -49.26122259999994, -26.426952399999937 ], [ -49.26101019999993, -26.427045599999943 ], [ -49.260510199999942, -26.427566199999941 ], [ -49.259467899999954, -26.428481399999953 ], [ -49.259930499999939, -26.427483799999951 ], [ -49.259997099999964, -26.427199299999984 ], [ -49.25970539999998, -26.426896599999957 ], [ -49.2593414, -26.426749499999971 ], [ -49.258718599999952, -26.426799199999948 ], [ -49.258731799999964, -26.426466899999973 ], [ -49.258749499999965, -26.426017299999959 ], [ -49.258782799999949, -26.425220699999954 ], [ -49.258794699999953, -26.424949699999956 ], [ -49.258809399999954, -26.42475719999992 ], [ -49.258834699999973, -26.423759799999964 ], [ -49.258847599999967, -26.423531399999938 ], [ -49.258863399999932, -26.423290399999935 ], [ -49.258878199999963, -26.422767399999938 ], [ -49.259084299999984, -26.422870399999965 ], [ -49.259832199999941, -26.423002299999947 ], [ -49.261178299999983, -26.422729 ], [ -49.261524099999974, -26.422774499999942 ], [ -49.261888, -26.422822399999966 ], [ -49.262173, -26.422859899999935 ], [ -49.262209599999949, -26.422864699999938 ], [ -49.262634, -26.422864699999934 ], [ -49.262900799999962, -26.422864699999923 ], [ -49.263051, -26.42286469999992 ], [ -49.263512499999933, -26.422647499999982 ], [ -49.263865499999945, -26.422529799999953 ], [ -49.264163799999949, -26.422430399999929 ], [ -49.26458939999997, -26.422511 ], [ -49.264925799999965, -26.422574599999958 ], [ -49.265168, -26.422620399999975 ], [ -49.265402599999966, -26.422576099999954 ], [ -49.265688799999971, -26.422522399999924 ], [ -49.265947299999929, -26.422474099999924 ], [ -49.266176399999949, -26.422385199999944 ], [ -49.266430599999985, -26.422286499999927 ], [ -49.266739099999945, -26.422166499999957 ], [ -49.266915099999949, -26.422034399999969 ], [ -49.266535499999975, -26.421488699999948 ], [ -49.266093699999942, -26.421419599999979 ], [ -49.265804499999945, -26.421374399999941 ], [ -49.265243299999959, -26.421286599999966 ], [ -49.264723399999973, -26.42078429999998 ], [ -49.264662899999962, -26.420512499999969 ], [ -49.264554299999986, -26.420023 ], [ -49.264523099999963, -26.419732 ], [ -49.264450299999972, -26.419058499999952 ], [ -49.264438399999953, -26.41897479999994 ], [ -49.264357699999948, -26.418415799999924 ], [ -49.264558199999954, -26.417947 ], [ -49.26467329999997, -26.417676699999959 ], [ -49.265024, -26.417107199999968 ], [ -49.265284399999985, -26.416818799999927 ], [ -49.265419299999969, -26.416535299999971 ], [ -49.26572729999998, -26.416535299999957 ], [ -49.265947199999971, -26.416931299999927 ], [ -49.265859199999966, -26.417371099999968 ], [ -49.265859199999966, -26.417723099999932 ], [ -49.266255099999974, -26.417855099999951 ], [ -49.266639899999973, -26.418050399999967 ], [ -49.267203599999959, -26.418388599999957 ], [ -49.267267, -26.418998899999959 ], [ -49.267575, -26.419306899999988 ], [ -49.267751, -26.419879 ], [ -49.267936199999944, -26.420394899999962 ], [ -49.268235, -26.420362699999952 ], [ -49.268723299999976, -26.420259199999975 ], [ -49.268859, -26.419825 ], [ -49.268718799999931, -26.419526899999923 ], [ -49.269049, -26.419526399999938 ], [ -49.269142399999964, -26.419697899999957 ], [ -49.269476099999963, -26.419969 ], [ -49.269809799999962, -26.419677 ], [ -49.269818599999951, -26.418954899999953 ], [ -49.269934899999953, -26.418842699999971 ], [ -49.270039199999985, -26.418675799999956 ], [ -49.270268699999974, -26.418675799999956 ], [ -49.270478499999967, -26.41917489999997 ], [ -49.270610499999975, -26.4193509 ], [ -49.270769299999984, -26.419280699999948 ], [ -49.270936199999937, -26.419072099999919 ], [ -49.270918499999937, -26.418734899999951 ], [ -49.271006499999942, -26.418427 ], [ -49.271314399999937, -26.418427 ], [ -49.271622399999956, -26.418647 ], [ -49.272018299999957, -26.418691 ], [ -49.272135899999974, -26.418557599999911 ], [ -49.272304899999938, -26.418219499999974 ], [ -49.272546299999931, -26.418075099999957 ], [ -49.272766099999956, -26.418119 ], [ -49.273030099999964, -26.418092599999959 ], [ -49.273203899999949, -26.418075199999979 ], [ -49.273545, -26.41805039999997 ], [ -49.273770499999962, -26.417740299999927 ], [ -49.273334799999986, -26.416861 ], [ -49.273126399999967, -26.416235499999971 ], [ -49.272981299999969, -26.415990499999964 ], [ -49.272812199999976, -26.415711099999953 ], [ -49.272750899999956, -26.415380199999959 ], [ -49.272810199999974, -26.415039599999943 ], [ -49.272846499999957, -26.415011699999969 ], [ -49.272865699999961, -26.414996 ], [ -49.272938599999975, -26.414942099999955 ], [ -49.27358519999995, -26.415004699999937 ], [ -49.273718499999973, -26.415249399999929 ], [ -49.273814399999942, -26.41542829999997 ], [ -49.273793799999964, -26.415985 ], [ -49.273981499999934, -26.41617269999994 ], [ -49.274315199999933, -26.416256199999964 ], [ -49.274565499999937, -26.416652499999934 ], [ -49.274525899999958, -26.417107299999937 ], [ -49.274785199999933, -26.41768379999996 ], [ -49.275179699999967, -26.417768499999958 ], [ -49.275602399999968, -26.417318 ], [ -49.275775399999986, -26.416694199999938 ], [ -49.276109699999949, -26.416535299999961 ], [ -49.276417799999926, -26.416931099999942 ], [ -49.276857499999949, -26.417151199999974 ], [ -49.277166, -26.416842499999976 ], [ -49.277402399999971, -26.416464699999942 ], [ -49.277736, -26.416423 ], [ -49.277944599999948, -26.41663159999997 ], [ -49.278570399999978, -26.416715 ], [ -49.278904099999977, -26.416464699999946 ], [ -49.27883769999994, -26.416184499999925 ], [ -49.280317199999956, -26.414985199999933 ], [ -49.281405899999974, -26.414103599999976 ], [ -49.282273899999957, -26.413398299999976 ], [ -49.281710699999962, -26.413014 ], [ -49.281467599999985, -26.412849599999959 ], [ -49.280696599999942, -26.412352299999952 ], [ -49.280470499999979, -26.412252299999977 ], [ -49.278998499999943, -26.411367499999976 ], [ -49.278208, -26.410890599999959 ], [ -49.277713199999937, -26.410590499999959 ], [ -49.276836499999945, -26.411104399999939 ], [ -49.276627299999973, -26.411145299999927 ], [ -49.276461199999979, -26.411227299999943 ], [ -49.27615179999998, -26.411403099999969 ], [ -49.275980299999965, -26.41144619999994 ], [ -49.275685899999985, -26.411658599999953 ], [ -49.275428199999965, -26.411788 ], [ -49.275173699999982, -26.411830099999985 ], [ -49.274913899999952, -26.411830099999957 ], [ -49.274785499999957, -26.411916299999969 ], [ -49.274014599999937, -26.411916299999969 ], [ -49.273794599999981, -26.412031699999932 ], [ -49.273545499999955, -26.412171899999969 ], [ -49.273368699999942, -26.412347599999968 ], [ -49.273100199999931, -26.412561099999948 ], [ -49.273110899999949, -26.412944799999934 ], [ -49.272674199999983, -26.412945 ], [ -49.272190099999932, -26.412901899999962 ], [ -49.271933499999925, -26.412734699999923 ], [ -49.271630499999958, -26.412528799999958 ], [ -49.271438499999931, -26.412383199999969 ], [ -49.271257399999975, -26.41225269999995 ], [ -49.270853, -26.411971299999941 ], [ -49.27066, -26.411812799999954 ], [ -49.270492799999943, -26.411825699999948 ], [ -49.270248099999954, -26.411791199999978 ], [ -49.269988199999943, -26.411770799999946 ], [ -49.269574099999943, -26.411715799999957 ], [ -49.269070599999964, -26.411497899999965 ], [ -49.268206899999946, -26.411107599999969 ], [ -49.267485499999971, -26.410748499999951 ], [ -49.266825399999959, -26.410377799999939 ], [ -49.266354299999932, -26.409989399999972 ], [ -49.265882099999935, -26.409775899999939 ], [ -49.26459779999994, -26.409732799999968 ], [ -49.264383199999934, -26.410075699999933 ], [ -49.264124399999957, -26.410291299999983 ], [ -49.263955099999976, -26.410587899999939 ], [ -49.2636543, -26.410761499999978 ], [ -49.263396, -26.410847299999954 ], [ -49.263139899999949, -26.41110539999994 ], [ -49.26297059999996, -26.411316799999945 ], [ -49.262928599999952, -26.411659699999973 ], [ -49.262710799999979, -26.411876399999976 ], [ -49.262464899999948, -26.412082399999967 ], [ -49.262119899999959, -26.41234119999995 ], [ -49.261729499999944, -26.412557899999971 ], [ -49.261301099999976, -26.412601599999963 ], [ -49.261299299999955, -26.412601799999944 ], [ -49.260959599999985, -26.412686199999946 ], [ -49.260529399999939, -26.412858799999984 ], [ -49.259847899999954, -26.413240499999965 ], [ -49.258034199999933, -26.414620699999947 ], [ -49.256533199999986, -26.41520729999996 ], [ -49.255526499999974, -26.415713 ], [ -49.254737899999945, -26.416225199999928 ], [ -49.254219199999973, -26.416546499999981 ], [ -49.253927899999951, -26.416876099999982 ], [ -49.253585699999981, -26.417217599999958 ], [ -49.253210399999936, -26.417781899999959 ], [ -49.252502899999968, -26.419078799999966 ], [ -49.252092, -26.419834299999938 ], [ -49.251774599999976, -26.420121399999974 ], [ -49.250928699999982, -26.420884699999934 ], [ -49.250329399999941, -26.420847199999962 ], [ -49.249916, -26.420697 ], [ -49.249586499999971, -26.420511199999954 ], [ -49.249170399999961, -26.420063699999972 ], [ -49.249034799999947, -26.41974769999997 ], [ -49.248945699999986, -26.419538599999946 ], [ -49.248940399999988, -26.419259099999973 ], [ -49.248795499999972, -26.41896909999997 ], [ -49.248795499999972, -26.418606799999964 ], [ -49.249484, -26.418280099999951 ], [ -49.249918599999944, -26.418026299999951 ], [ -49.249991699999953, -26.417701299999969 ], [ -49.250135899999975, -26.417264799999945 ], [ -49.249991699999953, -26.416649399999983 ], [ -49.25062429999997, -26.415976399999973 ], [ -49.250895499999956, -26.415568699999938 ], [ -49.251187799999968, -26.415132099999941 ], [ -49.251366599999983, -26.41389949999995 ], [ -49.252382, -26.413459099999965 ], [ -49.253024299999929, -26.412907199999943 ], [ -49.25344739999997, -26.412541799999925 ], [ -49.25429349999996, -26.411870699999941 ], [ -49.254397399999966, -26.41181529999994 ], [ -49.254499299999964, -26.411761099999985 ], [ -49.254764599999938, -26.411601399999938 ], [ -49.255262699999953, -26.411341799999938 ], [ -49.255493499999943, -26.411088 ], [ -49.255622299999978, -26.410857199999946 ], [ -49.255803099999987, -26.410613 ], [ -49.255908799999986, -26.410322599999965 ], [ -49.25593769999994, -26.410024599999925 ], [ -49.255862699999966, -26.409547599999929 ], [ -49.255689599999982, -26.40919 ], [ -49.25546079999998, -26.408718799999974 ], [ -49.255283899999945, -26.408347699999965 ], [ -49.2547704, -26.40728619999993 ], [ -49.254533899999956, -26.40680349999997 ], [ -49.254418499999986, -26.40654 ], [ -49.254727399999979, -26.405726 ], [ -49.255062699999939, -26.404840099999941 ], [ -49.256244099999947, -26.404118899999961 ], [ -49.25838779999998, -26.402627699999986 ], [ -49.259664799999946, -26.402028799999982 ], [ -49.260668499999952, -26.403047099999977 ], [ -49.261946, -26.403199399999949 ], [ -49.263731499999942, -26.403158799999982 ], [ -49.268963299999939, -26.403874399999943 ], [ -49.265625199999931, -26.396727 ], [ -49.261229299999968, -26.397874299999959 ], [ -49.256528, -26.3990836 ], [ -49.254923299999973, -26.40063 ], [ -49.252631899999983, -26.401926 ], [ -49.251723399999946, -26.400918499999928 ], [ -49.250938899999937, -26.39879389999993 ], [ -49.251151199999981, -26.395161 ], [ -49.251252799999975, -26.393621399999979 ], [ -49.250382, -26.392518299999942 ], [ -49.252590199999986, -26.39090919999996 ], [ -49.24667919999996, -26.392604799999951 ], [ -49.246716799999945, -26.392865399999941 ], [ -49.246790299999986, -26.393031399999927 ], [ -49.246866299999965, -26.393150799999944 ], [ -49.247167199999978, -26.393754599999969 ], [ -49.247412599999969, -26.394080299999931 ], [ -49.247551, -26.394242099999921 ], [ -49.248076299999987, -26.394852199999946 ], [ -49.248236799999972, -26.395053299999965 ], [ -49.248285, -26.395120299999967 ], [ -49.248390099999945, -26.395258399999925 ], [ -49.248487799999964, -26.395424599999956 ], [ -49.24854, -26.395511199999923 ], [ -49.248579099999972, -26.395606799999943 ], [ -49.248594899999944, -26.395687499999955 ], [ -49.248607, -26.395778299999954 ], [ -49.248611499999981, -26.395958399999984 ], [ -49.24860579999995, -26.39604949999995 ], [ -49.248480399999949, -26.396485199999979 ], [ -49.248324399999944, -26.396787299999964 ], [ -49.248261699999944, -26.396882899999977 ], [ -49.248019899999974, -26.397054299999979 ], [ -49.247700399999985, -26.397197499999944 ], [ -49.247234099999957, -26.397300699999963 ], [ -49.246979499999945, -26.397352099999988 ], [ -49.246841299999971, -26.397342599999948 ], [ -49.246774599999981, -26.397322399999954 ], [ -49.246669199999985, -26.397289899999961 ], [ -49.246609099999944, -26.397262 ], [ -49.246521399999949, -26.397198599999964 ], [ -49.246427399999959, -26.397125499999955 ], [ -49.246180699999975, -26.396804199999963 ], [ -49.246092099999942, -26.396661099999964 ], [ -49.245995599999958, -26.39633779999998 ], [ -49.245983499999973, -26.396252 ], [ -49.245975799999947, -26.396143299999935 ], [ -49.245933599999944, -26.395916399999969 ], [ -49.245913899999948, -26.395801499999951 ], [ -49.245808499999953, -26.395495399999966 ], [ -49.245713399999943, -26.395310799999958 ], [ -49.245531699999958, -26.395064199999979 ], [ -49.245385799999951, -26.394957399999949 ], [ -49.245258699999972, -26.394908499999929 ], [ -49.245069599999958, -26.394905 ], [ -49.244938199999986, -26.394909399999957 ], [ -49.244856099999929, -26.394927699999968 ], [ -49.24473809999995, -26.394988299999966 ], [ -49.244681199999953, -26.39502989999994 ], [ -49.244637299999965, -26.395093299999917 ], [ -49.244595899999979, -26.395176099999961 ], [ -49.244547699999941, -26.395255099999922 ], [ -49.24449089999996, -26.395367599999929 ], [ -49.244428799999973, -26.395477799999981 ], [ -49.244337499999972, -26.395633 ], [ -49.244280799999949, -26.395855199999971 ], [ -49.244275399999943, -26.395899899999964 ], [ -49.244272499999965, -26.395932899999931 ], [ -49.24430579999995, -26.39608769999996 ], [ -49.244326, -26.396163699999931 ], [ -49.244380399999955, -26.396247599999985 ], [ -49.2444503, -26.396328399999955 ], [ -49.244539399999951, -26.396390299999954 ], [ -49.24464329999995, -26.396448699999944 ], [ -49.244764499999967, -26.396504599999961 ], [ -49.244868, -26.396558099999929 ], [ -49.244938299999944, -26.396608 ], [ -49.245009399999958, -26.396694699999959 ], [ -49.245045199999936, -26.396831599999931 ], [ -49.245058799999988, -26.396876599999931 ], [ -49.245056599999941, -26.396945899999935 ], [ -49.245056599999941, -26.397177799999941 ], [ -49.245055, -26.397438699999956 ], [ -49.245042699999949, -26.397544499999977 ], [ -49.245006199999978, -26.39765959999994 ], [ -49.244937899999975, -26.397755099999983 ], [ -49.24479649999995, -26.397884 ], [ -49.24466359999996, -26.398007599999971 ], [ -49.244547499999953, -26.398076 ], [ -49.244426199999964, -26.398134699999975 ], [ -49.243971599999952, -26.39823089999993 ], [ -49.243818899999951, -26.398241 ], [ -49.243544099999951, -26.398307499999934 ], [ -49.243473799999947, -26.398333899999955 ], [ -49.243325299999981, -26.398389 ], [ -49.243152399999985, -26.398469199999962 ], [ -49.243041799999965, -26.398548499999951 ], [ -49.2427977, -26.39881959999996 ], [ -49.242377599999948, -26.399273499999943 ], [ -49.242214499999932, -26.399461299999931 ], [ -49.242189899999971, -26.399496 ], [ -49.242144599999961, -26.399556199999953 ], [ -49.242055599999965, -26.399688399999942 ], [ -49.241962899999976, -26.399761399999921 ], [ -49.241777799999973, -26.39985449999995 ], [ -49.241407499999987, -26.400127399999967 ], [ -49.24117629999995, -26.400313399999956 ], [ -49.240858699999933, -26.400527199999946 ], [ -49.240395499999977, -26.400798699999932 ], [ -49.239753299999961, -26.401211499999931 ], [ -49.239627199999973, -26.401304899999953 ], [ -49.239339799999982, -26.401543799999956 ], [ -49.239139, -26.401727499999943 ], [ -49.238923199999938, -26.402030699999951 ], [ -49.238699199999985, -26.402407799999938 ], [ -49.23856289999997, -26.402625299999951 ], [ -49.238508599999925, -26.402753299999972 ], [ -49.2385015, -26.402823399999935 ], [ -49.238494299999964, -26.402898 ], [ -49.2385, -26.402987299999939 ], [ -49.238509599999986, -26.403090799999973 ], [ -49.238548899999955, -26.403170599999946 ], [ -49.238592299999937, -26.403242199999966 ], [ -49.238667799999973, -26.403305299999946 ], [ -49.238742099999968, -26.403319299999961 ], [ -49.238853599999977, -26.403326499999928 ], [ -49.238965099999966, -26.40333379999992 ], [ -49.238555599999984, -26.403486399999966 ], [ -49.238355, -26.403436 ], [ -49.237934299999949, -26.403526899999981 ], [ -49.237837, -26.403546799999958 ], [ -49.237748599999982, -26.403184399999937 ], [ -49.237759699999962, -26.402742499999931 ], [ -49.237964899999959, -26.402357899999966 ], [ -49.237824399999965, -26.401991799999958 ], [ -49.237879799999973, -26.401483399999965 ], [ -49.237926099999981, -26.401154299999966 ], [ -49.237985199999969, -26.400740099999954 ], [ -49.238014799999974, -26.400546 ], [ -49.237949499999964, -26.399919199999932 ], [ -49.237303, -26.399407099999955 ], [ -49.236798199999953, -26.399081599999924 ], [ -49.236334099999965, -26.39898369999997 ], [ -49.236143699999957, -26.399364499999933 ], [ -49.236321199999963, -26.399769399999965 ], [ -49.236750099999938, -26.400170699999929 ], [ -49.236927599999945, -26.400599599999964 ], [ -49.236840699999959, -26.401011899999951 ], [ -49.236623399999985, -26.401347399999963 ], [ -49.235759099999946, -26.40129659999997 ], [ -49.235241199999962, -26.401347399999967 ], [ -49.234602, -26.401409 ], [ -49.234598499999954, -26.400850099999957 ], [ -49.234564699999964, -26.400128099999964 ], [ -49.234646099999971, -26.39977129999993 ], [ -49.234611099999938, -26.399119599999942 ], [ -49.234060399999976, -26.398741099999931 ], [ -49.233860099999958, -26.398444499999989 ], [ -49.233660799999939, -26.398096399999936 ], [ -49.233460399999956, -26.397745799999935 ], [ -49.233400199999949, -26.397492399999972 ], [ -49.232983, -26.396533899999952 ], [ -49.230959699999971, -26.397114299999938 ], [ -49.231150699999944, -26.397294899999956 ], [ -49.231230299999929, -26.397369 ], [ -49.231285899999925, -26.397426399999965 ], [ -49.231386099999959, -26.397542699999978 ], [ -49.231666, -26.397871399999925 ], [ -49.231891699999949, -26.398158899999945 ], [ -49.231911399999944, -26.398189399999971 ], [ -49.231961099999978, -26.398267399999945 ], [ -49.232016599999952, -26.398359699999951 ], [ -49.232060099999956, -26.398453199999942 ], [ -49.23212459999997, -26.398594199999927 ], [ -49.232260499999931, -26.398908499999951 ], [ -49.232311699999968, -26.399013 ], [ -49.23236049999997, -26.399175599999989 ], [ -49.232398199999984, -26.399264499999955 ], [ -49.232455799999961, -26.399371199999958 ], [ -49.232619599999964, -26.399623699999957 ], [ -49.232771299999975, -26.399862199999966 ], [ -49.232841899999983, -26.399974199999974 ], [ -49.232984399999964, -26.400181299999936 ], [ -49.233057299999984, -26.40030639999998 ], [ -49.233190399999955, -26.400526199999948 ], [ -49.233200499999953, -26.400543499999966 ], [ -49.233207599999957, -26.400572299999972 ], [ -49.233213099999944, -26.400627 ], [ -49.233209, -26.400663 ], [ -49.233192599999938, -26.400722299999931 ], [ -49.233145899999954, -26.400813599999928 ], [ -49.233064, -26.400921799999931 ], [ -49.232985699999972, -26.401033 ], [ -49.232839, -26.401222299999969 ], [ -49.232598499999938, -26.401549199999973 ], [ -49.232385399999941, -26.401865699999981 ], [ -49.232282099999964, -26.402019199999977 ], [ -49.232260499999946, -26.402068 ], [ -49.232257399999988, -26.402078199999931 ], [ -49.232252699999947, -26.402092499999988 ], [ -49.23224989999995, -26.402114299999941 ], [ -49.23224259999995, -26.402171499999955 ], [ -49.232241399999971, -26.402218699999921 ], [ -49.232239599999957, -26.402271599999946 ], [ -49.232239299999939, -26.40232369999995 ], [ -49.232242299999939, -26.402351399999933 ], [ -49.232247899999948, -26.402410799999924 ], [ -49.232254499999961, -26.402462399999937 ], [ -49.232253, -26.402497599999947 ], [ -49.232246399999951, -26.402534899999964 ], [ -49.232236499999942, -26.402570899999954 ], [ -49.232167199999942, -26.402753599999976 ], [ -49.232054399999981, -26.403007599999953 ], [ -49.231928799999942, -26.403282799999939 ], [ -49.231835199999978, -26.403512599999939 ], [ -49.231740299999956, -26.403760899999956 ], [ -49.231651899999981, -26.403959699999973 ], [ -49.231631399999969, -26.404034699999958 ], [ -49.231611199999975, -26.40413129999996 ], [ -49.231606199999931, -26.404214299999978 ], [ -49.231608099999967, -26.404296299999942 ], [ -49.23161829999998, -26.404360699999987 ], [ -49.23166139999995, -26.404442599999978 ], [ -49.231721399999969, -26.404523299999944 ], [ -49.231772699999965, -26.404594099999947 ], [ -49.231815599999955, -26.404641799999975 ], [ -49.231842099999938, -26.404658099999942 ], [ -49.231875, -26.404681199999978 ], [ -49.231903699999982, -26.404693199999937 ], [ -49.231956199999964, -26.404701 ], [ -49.2320223, -26.404700199999979 ], [ -49.232138199999952, -26.404669299999959 ], [ -49.232540599999936, -26.404576099999929 ], [ -49.232787899999941, -26.404524799999937 ], [ -49.232918699999971, -26.404493099999961 ], [ -49.23307369999997, -26.404473799999941 ], [ -49.233214199999964, -26.404474099999959 ], [ -49.23333359999998, -26.404483399999954 ], [ -49.233460599999944, -26.404497699999979 ], [ -49.233560599999976, -26.404514 ], [ -49.233621199999966, -26.404523799999936 ], [ -49.233656699999983, -26.404532899999936 ], [ -49.233673499999959, -26.404542599999946 ], [ -49.23368929999998, -26.40456329999995 ], [ -49.233701499999938, -26.404589199999975 ], [ -49.233708399999955, -26.40461629999994 ], [ -49.233712199999964, -26.404677599999946 ], [ -49.233707099999947, -26.404731299999977 ], [ -49.233691699999952, -26.404799 ], [ -49.233620699999967, -26.404939099999986 ], [ -49.233581499999957, -26.405021499999975 ], [ -49.233559499999956, -26.405077099999968 ], [ -49.233545499999934, -26.405130099999948 ], [ -49.233535499999967, -26.405220399999966 ], [ -49.233526899999958, -26.405274899999924 ], [ -49.233531799999973, -26.405365699999951 ], [ -49.233548299999931, -26.405505299999959 ], [ -49.233591599999954, -26.405633099999935 ], [ -49.233647699999942, -26.405785099999939 ], [ -49.233832699999937, -26.406125 ], [ -49.234004399999947, -26.40642 ], [ -49.234101099999975, -26.406558499999953 ], [ -49.234234899999933, -26.40674359999996 ], [ -49.234273, -26.406797599999955 ], [ -49.234304, -26.406874599999977 ], [ -49.234307099999967, -26.406914599999936 ], [ -49.234311299999945, -26.406955699999958 ], [ -49.234307099999974, -26.407028199999942 ], [ -49.234287099999953, -26.407070799999932 ], [ -49.234245599999952, -26.407115799999932 ], [ -49.234174899999971, -26.407163899999937 ], [ -49.23411119999998, -26.407196299999953 ], [ -49.233993199999986, -26.407226399999946 ], [ -49.233792599999958, -26.407234499999959 ], [ -49.233679299999949, -26.407223899999966 ], [ -49.233598799999989, -26.407212099999978 ], [ -49.2333407, -26.407127799999955 ], [ -49.233144, -26.407050899999941 ], [ -49.232992399999944, -26.406995699999982 ], [ -49.232918899999959, -26.406980799999918 ], [ -49.232861799999966, -26.40698 ], [ -49.23281019999996, -26.406980899999951 ], [ -49.232686899999983, -26.407033399999932 ], [ -49.232590599999988, -26.40711 ], [ -49.232457199999942, -26.407283499999949 ], [ -49.232349799999952, -26.407449499999935 ], [ -49.232265299999938, -26.407580699999979 ], [ -49.232213099999974, -26.407672399999978 ], [ -49.232172899999966, -26.407757599999961 ], [ -49.232140899999933, -26.407845399999925 ], [ -49.232128399999965, -26.407923099999955 ], [ -49.232133, -26.408014599999944 ], [ -49.232163199999952, -26.408178 ], [ -49.232177399999955, -26.408290199999957 ], [ -49.232194899999968, -26.408395 ], [ -49.232204299999978, -26.408515 ], [ -49.23219969999996, -26.408621199999974 ], [ -49.232190199999941, -26.408799699999971 ], [ -49.232190799999948, -26.408913499999986 ], [ -49.232190099999968, -26.408947599999973 ], [ -49.232190299999949, -26.408966599999932 ], [ -49.232192199999986, -26.408981199999975 ], [ -49.23219279999995, -26.409054899999941 ], [ -49.232212199999935, -26.409147799999964 ], [ -49.232246, -26.409231499999976 ], [ -49.232383399999939, -26.409480099999939 ], [ -49.23254009999993, -26.409692699999944 ], [ -49.232607899999948, -26.409796299999989 ], [ -49.232662199999943, -26.409912199999944 ], [ -49.232455, -26.409878099999951 ], [ -49.23209989999998, -26.409860399999953 ], [ -49.231904299999947, -26.409877799999958 ], [ -49.231791199999975, -26.409795199999955 ], [ -49.231686899999943, -26.409747399999954 ], [ -49.231521699999973, -26.409777799999976 ], [ -49.2314, -26.409786499999935 ], [ -49.231234799999974, -26.409769099999938 ], [ -49.231078299999986, -26.409699599999939 ], [ -49.230926099999976, -26.4096431 ], [ -49.230765299999973, -26.409677799999933 ], [ -49.230530499999986, -26.409738699999938 ], [ -49.230387099999973, -26.40983 ], [ -49.230169699999983, -26.409956099999924 ], [ -49.230043599999931, -26.409956099999931 ], [ -49.229935, -26.409947399999961 ], [ -49.229830599999957, -26.409986499999942 ], [ -49.229708899999935, -26.410008199999936 ], [ -49.229582799999953, -26.409990899999972 ], [ -49.229522, -26.409995199999962 ], [ -49.229413299999976, -26.410112599999938 ], [ -49.229361099999956, -26.410147399999975 ], [ -49.229335, -26.410251699999947 ], [ -49.229291599999954, -26.410316899999934 ], [ -49.229373499999959, -26.411423299999971 ], [ -49.229428199999973, -26.412154599999948 ], [ -49.229287, -26.41227049999997 ], [ -49.229182199999968, -26.412388799999967 ], [ -49.229158599999948, -26.412493599999955 ], [ -49.229175499999947, -26.412591599999917 ], [ -49.22923969999993, -26.412635499999965 ], [ -49.229468599999961, -26.412711699999932 ], [ -49.229514599999959, -26.413333799999975 ], [ -49.229703499999971, -26.41588779999995 ], [ -49.229744099999948, -26.416438599999935 ], [ -49.229940899999974, -26.419104 ], [ -49.230084199999965, -26.421044099999953 ], [ -49.229466099999968, -26.424129399999959 ], [ -49.229728, -26.425530899999952 ], [ -49.229641099999981, -26.425642299999943 ], [ -49.229606799999942, -26.425737699999953 ], [ -49.229641099999988, -26.425859799999955 ], [ -49.229763199999979, -26.426039199999931 ], [ -49.229836399999961, -26.426107699999928 ], [ -49.229992799999934, -26.426943 ], [ -49.225103499999932, -26.427327699999989 ], [ -49.224868799999967, -26.427346199999935 ], [ -49.223283599999945, -26.427470899999953 ], [ -49.222136499999976, -26.427969499999964 ], [ -49.221932299999942, -26.428058199999946 ], [ -49.221389, -26.428294399999977 ], [ -49.220767099999932, -26.428564699999978 ], [ -49.2204359, -26.428709499999975 ], [ -49.219222799999955, -26.429235899999981 ], [ -49.221090899999986, -26.431429399999949 ], [ -49.221993599999962, -26.431149 ], [ -49.222151899999972, -26.431068699999972 ], [ -49.222329499999944, -26.430972 ], [ -49.222394, -26.430936099999933 ], [ -49.222524199999953, -26.430971499999941 ], [ -49.22263769999995, -26.431000799999929 ], [ -49.22274, -26.431026299999921 ], [ -49.222788199999975, -26.43103939999996 ], [ -49.222812499999975, -26.431047499999973 ], [ -49.222842299999968, -26.431060299999945 ], [ -49.222875, -26.431077799999954 ], [ -49.222906199999962, -26.43109619999996 ], [ -49.22292269999997, -26.431107399999977 ], [ -49.222940399999978, -26.43112109999991 ], [ -49.222959799999956, -26.431138399999952 ], [ -49.222970199999963, -26.431149 ], [ -49.222981199999936, -26.431161199999959 ], [ -49.222992799999979, -26.431175399999979 ], [ -49.223004899999978, -26.431191799999961 ], [ -49.223017699999964, -26.431210599999925 ], [ -49.223031199999987, -26.431232299999984 ], [ -49.223058299999934, -26.431281099999975 ], [ -49.223074599999968, -26.431311299999944 ], [ -49.223103, -26.431367699999956 ], [ -49.223147799999936, -26.431459099999984 ], [ -49.223161599999969, -26.431486099999983 ], [ -49.223176399999943, -26.431510699999922 ], [ -49.223190699999975, -26.431528399999937 ], [ -49.223209299999951, -26.431547899999941 ], [ -49.223232799999948, -26.431569699999947 ], [ -49.223261399999956, -26.431593599999932 ], [ -49.223283, -26.431610299999928 ], [ -49.223318499999955, -26.43163549999997 ], [ -49.223343799999952, -26.431651699999968 ], [ -49.223429199999934, -26.431701399999948 ], [ -49.223456899999967, -26.431718799999938 ], [ -49.223477499999944, -26.431733199999943 ], [ -49.223491299999985, -26.431744199999969 ], [ -49.223499299999958, -26.431752 ], [ -49.223503499999936, -26.431758399999985 ], [ -49.223505499999938, -26.431764899999944 ], [ -49.223506199999974, -26.431772 ], [ -49.223505599999953, -26.431779599999974 ], [ -49.223503599999958, -26.431788099999945 ], [ -49.223499199999935, -26.431799399999935 ], [ -49.223488499999974, -26.431822699999937 ], [ -49.223469, -26.431859699999968 ], [ -49.223460899999971, -26.431873 ], [ -49.223452399999978, -26.431885 ], [ -49.223395799999942, -26.431956899999925 ], [ -49.223357399999941, -26.432008199999931 ], [ -49.223335799999973, -26.432040499999982 ], [ -49.223326, -26.432057899999968 ], [ -49.223319, -26.432073499999941 ], [ -49.223312299999975, -26.432095799999949 ], [ -49.223309599999943, -26.432111099999922 ], [ -49.223308, -26.432135299999974 ], [ -49.22330919999996, -26.432161 ], [ -49.223313199999957, -26.432189199999979 ], [ -49.223319699999941, -26.432221299999981 ], [ -49.223345799999947, -26.432335699999943 ], [ -49.223351299999933, -26.432367099999972 ], [ -49.223354799999981, -26.432398699999968 ], [ -49.223359399999936, -26.432473 ], [ -49.22336329999996, -26.432575599999957 ], [ -49.223365099999967, -26.432666 ], [ -49.223366599999963, -26.432812 ], [ -49.2233677, -26.432863899999973 ], [ -49.223370599999946, -26.432909899999963 ], [ -49.223374, -26.432937499999966 ], [ -49.223378599999933, -26.432963 ], [ -49.223381399999937, -26.432975099999972 ], [ -49.223384599999974, -26.432986699999958 ], [ -49.223392099999963, -26.433008799999982 ], [ -49.223405299999968, -26.433039199999943 ], [ -49.223429, -26.433087199999935 ], [ -49.223456099999964, -26.433149099999977 ], [ -49.223461699999973, -26.433164299999927 ], [ -49.223467899999939, -26.433183699999972 ], [ -49.223478299999947, -26.43322459999996 ], [ -49.223485899999964, -26.433263 ], [ -49.223493899999937, -26.433312899999965 ], [ -49.223506199999981, -26.433411099999937 ], [ -49.223513599999933, -26.433487399999926 ], [ -49.223516699999948, -26.433527399999953 ], [ -49.22352159999997, -26.433608599999957 ], [ -49.223521799999958, -26.433619899999925 ], [ -49.223520599999972, -26.433643399999934 ], [ -49.223513399999945, -26.43370879999998 ], [ -49.223513399999945, -26.433717899999973 ], [ -49.223513899999944, -26.433721299999942 ], [ -49.223515799999973, -26.433726799999928 ], [ -49.22352079999996, -26.433734 ], [ -49.223531799999932, -26.433744099999949 ], [ -49.223543499999948, -26.433752299999981 ], [ -49.223581399999951, -26.433776 ], [ -49.223597199999972, -26.433788099999955 ], [ -49.223603499999967, -26.433794199999976 ], [ -49.223608499999948, -26.433800399999946 ], [ -49.223612099999968, -26.433807 ], [ -49.22361449999994, -26.433814599999952 ], [ -49.223615699999989, -26.433823899999933 ], [ -49.223615399999979, -26.433842199999951 ], [ -49.223612, -26.433872899999987 ], [ -49.223604099999925, -26.433923099999959 ], [ -49.223602099999937, -26.433939699999943 ], [ -49.223601199999962, -26.433956099999929 ], [ -49.223601799999983, -26.43397259999994 ], [ -49.22360439999995, -26.433990599999955 ], [ -49.223612499999945, -26.434024599999926 ], [ -49.223621299999927, -26.434054499999945 ], [ -49.223638499999936, -26.434107599999955 ], [ -49.223657099999969, -26.434160099999918 ], [ -49.223668499999974, -26.434188799999951 ], [ -49.223678499999949, -26.434210799999963 ], [ -49.223687899999959, -26.434228099999917 ], [ -49.223697199999947, -26.43424239999996 ], [ -49.223712399999954, -26.434262199999974 ], [ -49.22375969999996, -26.43431639999995 ], [ -49.223764199999948, -26.434322699999942 ], [ -49.223767699999947, -26.434328899999961 ], [ -49.223770799999961, -26.434339099999939 ], [ -49.223771199999931, -26.434352099999948 ], [ -49.223769699999934, -26.434363299999973 ], [ -49.223752599999955, -26.434442899999969 ], [ -49.223746599999963, -26.434477699999952 ], [ -49.22374, -26.434523699999936 ], [ -49.223737499999977, -26.434546199999936 ], [ -49.22373459999995, -26.4345762 ], [ -49.223733399999965, -26.434591899999923 ], [ -49.223733299999935, -26.434599299999938 ], [ -49.22373319999997, -26.434605199999961 ], [ -49.223734099999945, -26.434610299999978 ], [ -49.223737099999944, -26.434615599999969 ], [ -49.223759899999948, -26.43463979999996 ], [ -49.223820599999954, -26.43467639999994 ], [ -49.223895299999981, -26.434730299999952 ], [ -49.223936799999926, -26.434764399999946 ], [ -49.223977599999962, -26.43480279999994 ], [ -49.224015699999939, -26.434835899999946 ], [ -49.223988699999957, -26.434881399999941 ], [ -49.223968399999933, -26.434927099999985 ], [ -49.223954099999958, -26.434972799999972 ], [ -49.223944899999928, -26.435018 ], [ -49.223940199999966, -26.435062499999955 ], [ -49.223939499999979, -26.435106 ], [ -49.223942199999961, -26.435148599999938 ], [ -49.223948199999938, -26.435190299999935 ], [ -49.223957299999931, -26.435231399999964 ], [ -49.223969199999942, -26.435271899999961 ], [ -49.22398359999994, -26.435312099999969 ], [ -49.22400029999995, -26.435351899999944 ], [ -49.224019099999957, -26.435391699999965 ], [ -49.224039799999964, -26.43543149999994 ], [ -49.224062599999975, -26.435471699999944 ], [ -49.224088, -26.435512599999978 ], [ -49.224116199999976, -26.435554399999937 ], [ -49.224147599999981, -26.435597599999937 ], [ -49.224169199999949, -26.435625199999944 ], [ -49.224182699999965, -26.435642499999968 ], [ -49.224221599999964, -26.435689399999944 ], [ -49.22426489999998, -26.435738699999938 ], [ -49.224312799999957, -26.435790599999955 ], [ -49.224365699999957, -26.435845599999944 ], [ -49.224424099999958, -26.435904299999944 ], [ -49.224488299999962, -26.4359669 ], [ -49.224558799999961, -26.436034 ], [ -49.224636, -26.436106099999954 ], [ -49.224720199999979, -26.43618349999997 ], [ -49.224811799999941, -26.436266799999931 ], [ -49.225016099999955, -26.436450099999941 ], [ -49.225458199999927, -26.436844499999953 ], [ -49.225665699999986, -26.437031599999955 ], [ -49.225759699999962, -26.437117899999983 ], [ -49.225846199999978, -26.437199299999978 ], [ -49.225924899999946, -26.43727679999995 ], [ -49.225995499999954, -26.437351299999925 ], [ -49.226057899999944, -26.437423599999917 ], [ -49.226111799999963, -26.437494499999946 ], [ -49.226156899999985, -26.437565 ], [ -49.226192899999944, -26.437635899999975 ], [ -49.226219499999956, -26.437708099999938 ], [ -49.226234799999986, -26.437783 ], [ -49.226237, -26.437861699999921 ], [ -49.226224099999968, -26.43794569999995 ], [ -49.2261941, -26.438036299999965 ], [ -49.226145099999947, -26.438134799999943 ], [ -49.226075099999953, -26.438242399999975 ], [ -49.225867299999948, -26.438402199999935 ], [ -49.22571, -26.438457499999977 ], [ -49.225154199999963, -26.438543799999916 ], [ -49.224908199999952, -26.438572 ], [ -49.224697099999965, -26.438592899999939 ], [ -49.2245147, -26.438607499999925 ], [ -49.224354799999958, -26.438617199999946 ], [ -49.224211199999957, -26.438623099999958 ], [ -49.224077699999953, -26.438626399999979 ], [ -49.223949199999936, -26.438628099999953 ], [ -49.223824899999954, -26.438628 ], [ -49.223705099999961, -26.438625699999942 ], [ -49.22359, -26.438620799999971 ], [ -49.22347989999998, -26.438612899999956 ], [ -49.223375099999942, -26.43860149999994 ], [ -49.223275799999954, -26.438586299999944 ], [ -49.223182299999962, -26.438566799999933 ], [ -49.223094499999952, -26.438542799999929 ], [ -49.223011199999974, -26.438514399999974 ], [ -49.222930899999938, -26.438482199999946 ], [ -49.222852, -26.438446299999946 ], [ -49.22277279999998, -26.438407199999968 ], [ -49.222691899999973, -26.438365299999926 ], [ -49.222518699999966, -26.438274299999932 ], [ -49.222423599999956, -26.438225899999953 ], [ -49.222219, -26.438123399999942 ], [ -49.222111799999944, -26.438069299999938 ], [ -49.222003, -26.438013 ], [ -49.221893799999982, -26.437954599999948 ], [ -49.22178519999995, -26.437894 ], [ -49.221678699999984, -26.437831099999979 ], [ -49.221599199999964, -26.437781299999969 ], [ -49.221367899999969, -26.437630899999927 ], [ -49.221260899999947, -26.437562299999957 ], [ -49.221148699999958, -26.437493699999948 ], [ -49.221029399999956, -26.437425699999952 ], [ -49.220900699999966, -26.43735909999997 ], [ -49.220760699999971, -26.437294299999962 ], [ -49.220608099999943, -26.437232 ], [ -49.220445199999965, -26.437172299999929 ], [ -49.220275099999988, -26.437115299999952 ], [ -49.220101, -26.437061299999989 ], [ -49.219926099999945, -26.437010399999966 ], [ -49.219753299999986, -26.436962599999951 ], [ -49.219586, -26.436918299999945 ], [ -49.219427199999984, -26.43687739999995 ], [ -49.219279, -26.43684 ], [ -49.21887849999996, -26.436740399999966 ], [ -49.218751, -26.436708399999926 ], [ -49.218622099999955, -26.436675499999968 ], [ -49.218489299999931, -26.436640699999938 ], [ -49.218375499999979, -26.436628 ], [ -49.218220699999961, -26.436616799999971 ], [ -49.218034099999961, -26.436614499999962 ], [ -49.217871699999939, -26.436597399999986 ], [ -49.217752499999953, -26.436570099999983 ], [ -49.217614399999938, -26.436527499999951 ], [ -49.217443799999963, -26.436419899999969 ], [ -49.217416299999968, -26.436403 ], [ -49.217337099999952, -26.436354099999949 ], [ -49.217019599999951, -26.436214099999976 ], [ -49.21676169999995, -26.436136799999936 ], [ -49.216484899999948, -26.436054599999974 ], [ -49.216358299999968, -26.436017699999987 ], [ -49.216240299999981, -26.435984099999921 ], [ -49.216131699999949, -26.435954199999966 ], [ -49.216033, -26.435928099999948 ], [ -49.215944499999978, -26.435906299999942 ], [ -49.215865699999938, -26.435888699999964 ], [ -49.215795599999979, -26.435875099999983 ], [ -49.215733099999966, -26.435865399999962 ], [ -49.215677499999977, -26.435859499999932 ], [ -49.215627599999955, -26.435857299999959 ], [ -49.215582499999989, -26.435858599999957 ], [ -49.215541399999957, -26.435863399999967 ], [ -49.215503299999966, -26.435871499999951 ], [ -49.215467599999947, -26.435883199999978 ], [ -49.215434, -26.435898699999939 ], [ -49.215401899999961, -26.435918199999946 ], [ -49.215340399999953, -26.435970199999915 ], [ -49.215310099999954, -26.436003199999959 ], [ -49.215279399999979, -26.436041199999977 ], [ -49.215247899999959, -26.436084399999963 ], [ -49.215215499999942, -26.436133299999945 ], [ -49.215182199999951, -26.4361881 ], [ -49.215147899999977, -26.436249199999967 ], [ -49.215112499999982, -26.436317 ], [ -49.215076, -26.436391799999967 ], [ -49.215038299999954, -26.436474099999948 ], [ -49.214999399999954, -26.436564099999941 ], [ -49.21495909999993, -26.436662099999971 ], [ -49.214917299999968, -26.436767099999948 ], [ -49.214828299999965, -26.436993899999941 ], [ -49.214780699999949, -26.437113399999937 ], [ -49.2147308, -26.437235599999955 ], [ -49.21467819999998, -26.437359199999936 ], [ -49.214622899999938, -26.437483299999933 ], [ -49.21456459999996, -26.437606899999928 ], [ -49.214503, -26.437729799999936 ], [ -49.214438, -26.437852 ], [ -49.21436939999996, -26.437973699999933 ], [ -49.214296799999943, -26.438094799999927 ], [ -49.21422009999997, -26.438215299999971 ], [ -49.214139, -26.438335399999964 ], [ -49.214053299999932, -26.438455 ], [ -49.213962899999963, -26.438574 ], [ -49.213868099999964, -26.438692499999942 ], [ -49.213769399999933, -26.43881 ], [ -49.213667099999952, -26.438926499999976 ], [ -49.213561599999935, -26.439041599999946 ], [ -49.213453399999935, -26.439155199999952 ], [ -49.213342799999964, -26.439267 ], [ -49.213230399999986, -26.439376899999946 ], [ -49.213116599999978, -26.439484499999928 ], [ -49.213002299999971, -26.439589099999971 ], [ -49.2128886, -26.439690099999957 ], [ -49.212776299999973, -26.439786499999965 ], [ -49.212666499999962, -26.439877799999959 ], [ -49.212560199999984, -26.439963 ], [ -49.212458399999946, -26.440041499999957 ], [ -49.21236209999995, -26.440112499999934 ], [ -49.212271899999962, -26.440175499999953 ], [ -49.212187399999948, -26.440231 ], [ -49.212107899999985, -26.440279799999928 ], [ -49.212032399999941, -26.440322599999945 ], [ -49.211960399999953, -26.440360199999922 ], [ -49.211890899999965, -26.440393399999959 ], [ -49.211823199999969, -26.440422899999934 ], [ -49.211756599999944, -26.440449499999936 ], [ -49.211690299999987, -26.440473799999943 ], [ -49.211624099999945, -26.440496199999927 ], [ -49.211557599999935, -26.440516899999981 ], [ -49.211490799999986, -26.440536 ], [ -49.211423399999951, -26.44055359999993 ], [ -49.211355199999957, -26.44057 ], [ -49.21128589999995, -26.440585399999975 ], [ -49.211215399999951, -26.4406 ], [ -49.211143499999935, -26.440613799999941 ], [ -49.211070599999971, -26.440627099999976 ], [ -49.210997, -26.440639799999932 ], [ -49.21084959999996, -26.440664 ], [ -49.21067979999998, -26.440691099999974 ], [ -49.210656399999948, -26.440694899999976 ], [ -49.210073399999942, -26.440782299999963 ], [ -49.209461199999964, -26.440833699999928 ], [ -49.208889499999941, -26.440826599999966 ], [ -49.208438899999983, -26.44075859999997 ], [ -49.208056399999975, -26.440625499999957 ], [ -49.207862599999935, -26.440535699999948 ], [ -49.207714199999941, -26.443444199999924 ], [ -49.207585099999967, -26.443518 ], [ -49.20727629999994, -26.443441599999975 ], [ -49.206934599999954, -26.443272099999945 ], [ -49.206611199999941, -26.443135799999936 ], [ -49.205993899999946, -26.442778 ], [ -49.204892199999961, -26.442182199999937 ], [ -49.203941699999973, -26.441851099999944 ], [ -49.203273899999942, -26.441599599999964 ], [ -49.202983599999982, -26.441712799999948 ], [ -49.202919299999969, -26.442271699999928 ], [ -49.202871799999969, -26.442688299999926 ], [ -49.202661099999943, -26.442933799999942 ], [ -49.202291799999962, -26.443229599999942 ], [ -49.201515799999981, -26.443753799999968 ], [ -49.200945499999932, -26.444209 ], [ -49.200731599999983, -26.444381299999971 ], [ -49.200466599999977, -26.444539599999928 ], [ -49.200130399999978, -26.444740399999947 ], [ -49.199643499999986, -26.445076899999936 ], [ -49.199223699999955, -26.445544799999944 ], [ -49.199080299999935, -26.445801 ], [ -49.1990335, -26.446225099999939 ], [ -49.199182, -26.446556299999941 ], [ -49.199582099999979, -26.44663109999993 ], [ -49.20026479999995, -26.446550499999944 ], [ -49.201277699999942, -26.446633699999939 ], [ -49.201333, -26.446729199999929 ], [ -49.201363299999969, -26.446781599999952 ], [ -49.201505599999962, -26.44702749999994 ], [ -49.201458, -26.447646499999962 ], [ -49.201583899999946, -26.448131399999966 ], [ -49.201784899999957, -26.448790599999938 ], [ -49.202012099999934, -26.449281 ], [ -49.202282499999974, -26.449749899999969 ], [ -49.202516199999941, -26.449924499999945 ], [ -49.202590599999951, -26.450190499999955 ], [ -49.202477399999964, -26.450567899999946 ], [ -49.202252199999982, -26.451022899999934 ], [ -49.202223199999935, -26.451573699999983 ], [ -49.202268799999956, -26.451917799999933 ], [ -49.202578599999981, -26.452155 ], [ -49.203174599999961, -26.452244499999956 ], [ -49.203694799999937, -26.452391599999938 ], [ -49.204222399999935, -26.452703199999963 ], [ -49.204806799999979, -26.45289629999996 ], [ -49.205508199999933, -26.453287099999947 ], [ -49.205828299999951, -26.453348299999952 ], [ -49.206112899999937, -26.453429599999939 ], [ -49.206582899999944, -26.453626199999967 ], [ -49.206996499999946, -26.453480199999948 ], [ -49.207166799999982, -26.453285599999955 ], [ -49.207604799999956, -26.453091 ], [ -49.208067, -26.453066599999946 ], [ -49.208810899999946, -26.453243099999948 ], [ -49.209367599999943, -26.453625 ], [ -49.209499199999989, -26.453715399999968 ], [ -49.209664099999948, -26.453794099999978 ], [ -49.211042399999947, -26.452884799999946 ], [ -49.211185, -26.452676399999969 ], [ -49.21510619999998, -26.453338199999955 ], [ -49.214323, -26.454377 ], [ -49.216064299999971, -26.455576 ], [ -49.21629159999997, -26.457086 ], [ -49.215609699999966, -26.457865399999946 ], [ -49.219896199999937, -26.45819009999996 ], [ -49.219993599999952, -26.456014399999965 ], [ -49.218629699999951, -26.45591689999997 ], [ -49.22158479999996, -26.452409799999948 ], [ -49.222074, -26.448396199999937 ], [ -49.220119499999953, -26.446277299999959 ], [ -49.218274599999972, -26.445132599999958 ], [ -49.216927899999973, -26.443102 ], [ -49.216720799999962, -26.443039399999975 ], [ -49.216594799999939, -26.442927099999967 ], [ -49.213734299999942, -26.442748899999962 ], [ -49.213843899999972, -26.441876099999938 ], [ -49.215330299999948, -26.441800199999932 ], [ -49.216977199999981, -26.441777899999973 ], [ -49.21737029999997, -26.441847099999958 ], [ -49.21777479999998, -26.441847099999947 ], [ -49.21825309999997, -26.441952399999934 ], [ -49.218684299999957, -26.442075199999977 ], [ -49.218989399999941, -26.442210099999958 ], [ -49.219326, -26.442409799999957 ], [ -49.219647799999969, -26.442671399999934 ], [ -49.219922199999985, -26.442838699999989 ], [ -49.220106899999969, -26.44297029999996 ], [ -49.220259799999951, -26.443075899999947 ], [ -49.220609299999978, -26.443299399999937 ], [ -49.221072799999952, -26.443331899999976 ], [ -49.22156659999996, -26.443232299999977 ], [ -49.22203, -26.443297899999951 ], [ -49.222357, -26.443496499999974 ], [ -49.222519499999983, -26.443758599999967 ], [ -49.222818299999972, -26.443992499999968 ], [ -49.223316599999976, -26.444058299999938 ], [ -49.223705, -26.444018199999963 ], [ -49.223953199999983, -26.443992499999975 ], [ -49.22437089999994, -26.443959099999969 ], [ -49.224660699999966, -26.444246199999945 ], [ -49.224831399999971, -26.444520699999945 ], [ -49.224706799999986, -26.444772099999977 ], [ -49.224501099999941, -26.445081799999958 ], [ -49.224544399999957, -26.445430499999922 ], [ -49.224633199999971, -26.44590479999993 ], [ -49.224601, -26.446274399999922 ], [ -49.224536299999954, -26.446662 ], [ -49.224435099999937, -26.447045499999934 ], [ -49.224568199999965, -26.44732549999998 ], [ -49.224897399999975, -26.447425099999975 ], [ -49.225326199999984, -26.447225799999956 ], [ -49.225524899999982, -26.446862699999937 ], [ -49.225854599999934, -26.446533099999947 ], [ -49.226251, -26.446567499999947 ], [ -49.226608899999981, -26.446793099999979 ], [ -49.226711399999942, -26.447058599999927 ], [ -49.226713399999937, -26.447524299999941 ], [ -49.22667979999995, -26.448016299999946 ], [ -49.226939199999954, -26.448149299999955 ], [ -49.227238499999949, -26.44818309999993 ], [ -49.227374899999973, -26.448304399999984 ], [ -49.227305599999958, -26.448579399999968 ], [ -49.227738799999948, -26.448679 ], [ -49.228033299999943, -26.448876099999943 ], [ -49.228100299999944, -26.44919409999995 ], [ -49.228072699999984, -26.449495799999966 ], [ -49.228, -26.450394 ], [ -49.228197899999941, -26.451119799999962 ], [ -49.228524899999968, -26.451154399999957 ], [ -49.228825799999981, -26.451087499999964 ], [ -49.229302399999931, -26.450405099999958 ], [ -49.229759699999939, -26.449762499999977 ], [ -49.23019249999993, -26.449439199999965 ], [ -49.230633499999961, -26.449120799999942 ], [ -49.23097219999994, -26.448873899999967 ], [ -49.231487299999969, -26.447362499999947 ], [ -49.231516599999956, -26.447244599999987 ], [ -49.231569699999959, -26.447249699999933 ], [ -49.231622799999975, -26.4472555 ], [ -49.231675699999982, -26.447261899999944 ], [ -49.231728199999964, -26.447269 ], [ -49.23177969999994, -26.447276699999975 ], [ -49.231830199999933, -26.447284799999981 ], [ -49.231879299999953, -26.447293399999982 ], [ -49.231926699999974, -26.447302399999955 ], [ -49.231972299999939, -26.44731169999994 ], [ -49.232015899999972, -26.447321399999954 ], [ -49.232057199999986, -26.447331299999973 ], [ -49.232096, -26.447341499999926 ], [ -49.232132099999951, -26.447351799999979 ], [ -49.232165299999963, -26.447362299999956 ], [ -49.232195499999932, -26.447373 ], [ -49.232222899999954, -26.447383799999951 ], [ -49.232247699999959, -26.447394799999973 ], [ -49.232270299999982, -26.447406199999943 ], [ -49.232291, -26.447417899999945 ], [ -49.232309899999962, -26.447429899999968 ], [ -49.232327599999969, -26.447442499999955 ], [ -49.232345699999946, -26.447457 ], [ -49.232359899999949, -26.447469299999966 ], [ -49.232375099999956, -26.447484099999947 ], [ -49.232390099999982, -26.447500499999926 ], [ -49.232405099999937, -26.447519 ], [ -49.232420299999951, -26.44754 ], [ -49.232436099999966, -26.447564199999935 ], [ -49.232452599999931, -26.447592 ], [ -49.232470299999939, -26.447623799999974 ], [ -49.23248909999996, -26.44766 ], [ -49.232508699999983, -26.447699599999957 ], [ -49.232548799999961, -26.447784499999944 ], [ -49.232586799999979, -26.447869399999956 ], [ -49.232619099999958, -26.447944899999978 ], [ -49.2326432, -26.448004599999926 ], [ -49.232661399999984, -26.448053199999954 ], [ -49.23269449999998, -26.448147499999944 ], [ -49.232750499999959, -26.448304199999935 ], [ -49.232772299999965, -26.448368799999969 ], [ -49.232781699999983, -26.448398899999976 ], [ -49.23278989999995, -26.448426899999951 ], [ -49.23279679999996, -26.448453 ], [ -49.232802599999957, -26.448477599999929 ], [ -49.232807299999941, -26.448501199999953 ], [ -49.232811199999958, -26.448524199999955 ], [ -49.23281419999995, -26.448546899999926 ], [ -49.232816699999951, -26.44857 ], [ -49.232818499999958, -26.448593699999943 ], [ -49.232821, -26.448644099999967 ], [ -49.232822, -26.448697199999973 ], [ -49.232821899999969, -26.448724299999981 ], [ -49.232820699999941, -26.448778499999932 ], [ -49.23281819999994, -26.448831399999957 ], [ -49.232809599999946, -26.448967899999953 ], [ -49.232808799999979, -26.44899089999997 ], [ -49.232808799999987, -26.449009199999988 ], [ -49.232809399999951, -26.449026699999933 ], [ -49.232810699999959, -26.449044 ], [ -49.232812699999947, -26.44906159999994 ], [ -49.232815599999981, -26.449080199999962 ], [ -49.232824, -26.449122499999927 ], [ -49.232836399999947, -26.449175299999975 ], [ -49.232860699999947, -26.449273399999978 ], [ -49.232877899999949, -26.449345699999981 ], [ -49.232893899999965, -26.449418699999978 ], [ -49.232900899999947, -26.449454299999957 ], [ -49.232912799999959, -26.449522699999921 ], [ -49.232922399999943, -26.449586899999925 ], [ -49.232943, -26.449748 ], [ -49.2329491, -26.449789799999962 ], [ -49.232955499999946, -26.449825099999945 ], [ -49.232959099999967, -26.449840299999952 ], [ -49.232963, -26.44985389999993 ], [ -49.232967199999969, -26.449866 ], [ -49.23297169999995, -26.449876799999974 ], [ -49.232976599999979, -26.449886399999958 ], [ -49.23298189999997, -26.449895199999965 ], [ -49.232987599999944, -26.449903199999941 ], [ -49.232993599999986, -26.449910699999982 ], [ -49.233007, -26.449924899999925 ], [ -49.2330305, -26.449947399999925 ], [ -49.233048399999973, -26.44996579999998 ], [ -49.233068399999986, -26.44998929999996 ], [ -49.233105899999948, -26.450042399999976 ], [ -49.233113099999969, -26.450053199999946 ], [ -49.233136199999933, -26.450090299999943 ], [ -49.23315859999996, -26.450127899999927 ], [ -49.233199399999933, -26.450198299999951 ], [ -49.233218599999979, -26.450229199999974 ], [ -49.233228, -26.450243099999959 ], [ -49.233237599999939, -26.450255899999931 ], [ -49.233247199999937, -26.450267599999965 ], [ -49.233257199999962, -26.450278399999945 ], [ -49.233268, -26.450288599999961 ], [ -49.233279699999969, -26.450298599999936 ], [ -49.233292699999943, -26.450308799999959 ], [ -49.233307299999986, -26.450319399999955 ], [ -49.233342599999965, -26.450343299999926 ], [ -49.233491399999934, -26.450440599999972 ], [ -49.233544399999971, -26.450475899999958 ], [ -49.233593699999972, -26.45051009999997 ], [ -49.233616599999948, -26.450527 ], [ -49.233638299999946, -26.450544099999945 ], [ -49.233658699999978, -26.450561599999958 ], [ -49.233677799999953, -26.450579699999924 ], [ -49.233695499999946, -26.450598599999978 ], [ -49.233711699999965, -26.450618599999917 ], [ -49.233726499999932, -26.450639699999954 ], [ -49.23374, -26.45066189999994 ], [ -49.233752399999958, -26.450685199999935 ], [ -49.2337639, -26.450709399999944 ], [ -49.233774599999947, -26.450734399999934 ], [ -49.233794599999953, -26.450786599999951 ], [ -49.233852799999966, -26.450948799999939 ], [ -49.233871899999947, -26.450998 ], [ -49.233881399999973, -26.4510203 ], [ -49.233890799999983, -26.451040899999949 ], [ -49.233900299999959, -26.451059799999932 ], [ -49.23391, -26.451077099999956 ], [ -49.23392019999995, -26.451092799999962 ], [ -49.233931, -26.451107199999971 ], [ -49.233942599999978, -26.451120399999983 ], [ -49.233955199999968, -26.451132499999975 ], [ -49.233969, -26.451143499999951 ], [ -49.233984, -26.45115369999996 ], [ -49.234000299999941, -26.451162899999936 ], [ -49.234017899999962, -26.451171399999957 ], [ -49.234036599999968, -26.451178899999949 ], [ -49.234056499999951, -26.451185699999947 ], [ -49.234077399999933, -26.451191599999955 ], [ -49.234099299999968, -26.451196599999946 ], [ -49.234122199999938, -26.451200899999936 ], [ -49.234146099999975, -26.451204399999934 ], [ -49.234170899999988, -26.451207099999984 ], [ -49.23419679999995, -26.451209199999937 ], [ -49.234223899999968, -26.451210599999971 ], [ -49.234252099999935, -26.45121139999997 ], [ -49.234312699999982, -26.451211499999953 ], [ -49.234379199999978, -26.45121 ], [ -49.234594599999987, -26.451201699999956 ], [ -49.234662, -26.451199899999938 ], [ -49.234724699999965, -26.451199499999966 ], [ -49.234754899999984, -26.4512 ], [ -49.234784699999977, -26.451201 ], [ -49.23481419999996, -26.451202499999969 ], [ -49.23484389999993, -26.451204699999941 ], [ -49.234873799999946, -26.451207499999942 ], [ -49.23490419999996, -26.451210899999964 ], [ -49.23492669999996, -26.451213899999956 ], [ -49.234995099999935, -26.451224199999963 ], [ -49.235051599999963, -26.451234199999924 ], [ -49.235123, -26.451248499999963 ], [ -49.235160699999938, -26.451257199999922 ], [ -49.235177699999952, -26.451261799999944 ], [ -49.235194099999951, -26.451266799999924 ], [ -49.2352102, -26.451272299999975 ], [ -49.235226599999976, -26.451278699999929 ], [ -49.235243599999933, -26.451286 ], [ -49.235261699999967, -26.451294299999965 ], [ -49.2353, -26.451313699999957 ], [ -49.235339099999983, -26.451335199999956 ], [ -49.235376599999938, -26.45135759999993 ], [ -49.235410199999933, -26.451379199999959 ], [ -49.2354256, -26.451389799999959 ], [ -49.235455599999966, -26.451412199999925 ], [ -49.235487599999949, -26.451438299999946 ], [ -49.235624899999955, -26.451557199999964 ], [ -49.235645299999931, -26.451574199999978 ], [ -49.235682899999972, -26.451604699999955 ], [ -49.235712899999953, -26.451627899999938 ], [ -49.235743199999945, -26.451650199999957 ], [ -49.235773499999937, -26.451671099999938 ], [ -49.235803899999958, -26.451690699999961 ], [ -49.235834099999977, -26.451709 ], [ -49.235864299999953, -26.451726199999928 ], [ -49.235894199999969, -26.451742299999971 ], [ -49.235924, -26.451757399999959 ], [ -49.235953599999959, -26.451771699999927 ], [ -49.236011899999937, -26.451797799999948 ], [ -49.236531199999945, -26.451430799999969 ], [ -49.236772599999938, -26.451266199999964 ], [ -49.238455599999952, -26.449695299999973 ], [ -49.236232399999949, -26.448576 ], [ -49.233820199999968, -26.445481399999945 ], [ -49.231317099999949, -26.444387 ], [ -49.231217199999953, -26.44432809999995 ], [ -49.231513699999937, -26.443772499999977 ], [ -49.231498399999964, -26.443165699999938 ], [ -49.231998299999987, -26.443165699999952 ], [ -49.232231099999979, -26.443119899999939 ], [ -49.232414299999959, -26.443009199999953 ], [ -49.232559299999934, -26.442810799999958 ], [ -49.232097599999975, -26.442287899999936 ], [ -49.232223499999982, -26.442024599999971 ], [ -49.232334199999968, -26.441711599999969 ], [ -49.232686199999932, -26.441688799999945 ], [ -49.23296009999995, -26.441475 ], [ -49.233017399999937, -26.441114299999974 ], [ -49.232929499999955, -26.440734599999935 ], [ -49.233198699999953, -26.440382099999962 ], [ -49.233475299999952, -26.440494199999932 ], [ -49.233669899999938, -26.440524699999965 ], [ -49.233940899999943, -26.440486599999925 ], [ -49.23419, -26.440445199999939 ], [ -49.234423099999965, -26.440188399999965 ], [ -49.234362299999979, -26.439789699999952 ], [ -49.234093, -26.439544 ], [ -49.233578299999984, -26.43926249999992 ], [ -49.232725699999946, -26.439026 ], [ -49.232320499999965, -26.438869699999938 ], [ -49.231920699999932, -26.438770599999948 ], [ -49.231897699999934, -26.438763499999933 ], [ -49.231738399999983, -26.43876 ], [ -49.231597799999975, -26.438755099999977 ], [ -49.232021199999963, -26.43867009999996 ], [ -49.232651, -26.438551199999939 ], [ -49.233149199999957, -26.438441499999946 ], [ -49.233832799999959, -26.438276399999946 ], [ -49.234545299999979, -26.438067199999985 ], [ -49.234598899999973, -26.43849879999993 ], [ -49.234626499999933, -26.438829299999938 ], [ -49.234637199999952, -26.438968799999934 ], [ -49.234688199999937, -26.439171199999986 ], [ -49.234698399999949, -26.439288399999946 ], [ -49.234713499999934, -26.439450899999926 ], [ -49.234738299999947, -26.439625499999977 ], [ -49.234812599999934, -26.439773499999944 ], [ -49.234891699999935, -26.439980599999952 ], [ -49.235046899999986, -26.440117099999956 ], [ -49.235208299999954, -26.440149199999944 ], [ -49.235439699999972, -26.440195199999955 ], [ -49.235681899999982, -26.44023379999993 ], [ -49.235895299999989, -26.440266099999967 ], [ -49.236240799999969, -26.440322 ], [ -49.236917399999982, -26.440442 ], [ -49.237542299999973, -26.440551699999958 ], [ -49.238049299999943, -26.44086 ], [ -49.238318299999946, -26.441009 ], [ -49.238620399999945, -26.441207599999935 ], [ -49.238585099999966, -26.443249799999922 ], [ -49.239525599999979, -26.44329939999994 ], [ -49.240266399999946, -26.443332899999969 ], [ -49.240334299999979, -26.442425699999941 ], [ -49.240907899999961, -26.442734699999964 ], [ -49.241208099999945, -26.442896499999964 ], [ -49.241262599999978, -26.443264499999938 ], [ -49.241460199999949, -26.443530899999928 ], [ -49.241738099999964, -26.444022699999952 ], [ -49.242117499999949, -26.44445989999997 ], [ -49.242090099999984, -26.445285299999963 ], [ -49.242149599999948, -26.445788099999962 ], [ -49.242570599999972, -26.446024299999969 ], [ -49.243073399999957, -26.445706299999976 ], [ -49.243382899999972, -26.445596899999941 ], [ -49.243624599999976, -26.445539699999983 ], [ -49.244082899999967, -26.446217199999978 ], [ -49.244079, -26.446369899999986 ], [ -49.244193099999968, -26.446853599999944 ], [ -49.244081, -26.446994 ], [ -49.2439581, -26.447148099999918 ], [ -49.243859499999985, -26.447271499999943 ], [ -49.2438284, -26.447419699999966 ], [ -49.243802099999989, -26.447546399999961 ], [ -49.243793299999943, -26.447603599999972 ], [ -49.243849799999964, -26.44775669999995 ], [ -49.243902499999933, -26.447897799999957 ], [ -49.24398929999996, -26.44813019999998 ], [ -49.244167699999942, -26.448198499999926 ], [ -49.244292599999937, -26.448246299999933 ], [ -49.244403799999986, -26.448289199999984 ], [ -49.244475899999941, -26.448281399999932 ], [ -49.244598799999949, -26.448265799999941 ], [ -49.244736299999943, -26.448251099999915 ], [ -49.244861199999953, -26.448091499999965 ], [ -49.245070799999951, -26.447825899999945 ], [ -49.245217399999937, -26.447639599999931 ], [ -49.245293799999956, -26.447542699999925 ], [ -49.245377599999983, -26.447436399999944 ], [ -49.2454317, -26.447367599999957 ], [ -49.245527299999942, -26.447245699999936 ], [ -49.245626699999953, -26.447118899999964 ], [ -49.245837399999971, -26.447115 ], [ -49.24599539999997, -26.447113 ], [ -49.246112399999951, -26.447111099999969 ], [ -49.246236299999964, -26.44718319999998 ], [ -49.246398199999938, -26.447276899999967 ], [ -49.246534699999977, -26.447473899999977 ], [ -49.246702399999947, -26.447718699999932 ], [ -49.246869399999973, -26.44796 ], [ -49.247030099999961, -26.448189699999947 ], [ -49.247172499999984, -26.448394499999942 ], [ -49.247349, -26.44865 ], [ -49.247991299999967, -26.449369399999966 ], [ -49.248865399999943, -26.450887699999953 ], [ -49.250529599999943, -26.453778599999968 ], [ -49.252794299999955, -26.45611069999995 ], [ -49.257206599999961, -26.460148899999982 ] ] ] } }
]
}
