{
"type": "FeatureCollection",
"name": "4205803",
"crs": { "type": "name", "properties": { "name": "urn:ogc:def:crs:OGC:1.3:CRS84" } },
"features": [
{ "type": "Feature", "properties": { "CD_MUN": "4205803", "NM_MUN": "Garuva" }, "geometry": { "type": "MultiPolygon", "coordinates": [ [ [ [ -48.869482499999947, -26.105041599999943 ], [ -48.869648599999955, -26.105102099999954 ], [ -48.870046799999947, -26.105358299999978 ], [ -48.870250899999981, -26.105448899999939 ], [ -48.870438799999938, -26.105609399999935 ], [ -48.8706165, -26.105809299999972 ], [ -48.870835699999986, -26.106113099999963 ], [ -48.871194499999952, -26.106665599999936 ], [ -48.871610399999945, -26.107307699999978 ], [ -48.871808499999986, -26.107760099999958 ], [ -48.871989499999984, -26.10827089999998 ], [ -48.872310699999957, -26.109176 ], [ -48.872543899999989, -26.109813499999969 ], [ -48.872846599999946, -26.110675099999973 ], [ -48.872905599999967, -26.110843099999951 ], [ -48.873069, -26.111308199999936 ], [ -48.873309499999948, -26.111906699999967 ], [ -48.873618599999986, -26.112830099999933 ], [ -48.873757, -26.113119899999962 ], [ -48.874015699999973, -26.113470899999978 ], [ -48.87433139999996, -26.113820799999932 ], [ -48.874645299999941, -26.114181099999943 ], [ -48.874926499999951, -26.114498899999944 ], [ -48.875060099999985, -26.114604599999957 ], [ -48.876228899999951, -26.1159153 ], [ -48.877388899999971, -26.117205499999962 ], [ -48.878220499999948, -26.11811409999995 ], [ -48.880100099999943, -26.120194099999939 ], [ -48.881575299999959, -26.121807799999939 ], [ -48.883087, -26.123503699999947 ], [ -48.883489, -26.123926699999974 ], [ -48.884664899999962, -26.123943599999961 ], [ -48.883889199999942, -26.123072099999945 ], [ -48.882882499999944, -26.121900399999955 ], [ -48.8809457, -26.119662799999951 ], [ -48.87960239999996, -26.11809779999993 ], [ -48.878249499999974, -26.11654179999994 ], [ -48.87706309999993, -26.11515629999997 ], [ -48.876365599999986, -26.114338 ], [ -48.875914699999946, -26.113684099999933 ], [ -48.875275699999982, -26.11261 ], [ -48.873357099999964, -26.108987499999952 ], [ -48.872715699999958, -26.107741099999945 ], [ -48.871667499999944, -26.105830499999978 ], [ -48.871485599999971, -26.105424 ], [ -48.870884399999973, -26.104258399999935 ], [ -48.870409199999983, -26.103301899999959 ], [ -48.869999, -26.102589 ], [ -48.869548099999975, -26.101748599999944 ], [ -48.868583399999977, -26.10402959999994 ], [ -48.868483599999941, -26.104200399999961 ], [ -48.868821499999967, -26.104534299999958 ], [ -48.869050299999969, -26.104747099999937 ], [ -48.869264, -26.104903499999981 ], [ -48.869482499999947, -26.105041599999943 ] ] ], [ [ [ -48.816484099999968, -26.070172 ], [ -48.816245899999956, -26.069951299999961 ], [ -48.815879899999963, -26.069672399999948 ], [ -48.815624299999975, -26.069451599999976 ], [ -48.8155139, -26.06928319999998 ], [ -48.815484799999986, -26.069129199999974 ], [ -48.815577799999971, -26.069013 ], [ -48.815714299999968, -26.068923 ], [ -48.816103599999963, -26.06883 ], [ -48.816289499999975, -26.068821299999968 ], [ -48.816475399999945, -26.068832899999954 ], [ -48.817425199999953, -26.069007199999927 ], [ -48.817837699999984, -26.068998499999967 ], [ -48.818084599999963, -26.068928799999977 ], [ -48.818247299999946, -26.068690599999972 ], [ -48.818200799999943, -26.068429199999976 ], [ -48.81805559999998, -26.068214199999947 ], [ -48.817863899999963, -26.068051499999967 ], [ -48.817631499999955, -26.06798759999997 ], [ -48.817387499999938, -26.067987599999984 ], [ -48.81703889999995, -26.067952799999944 ], [ -48.816882, -26.067836599999964 ], [ -48.816794899999934, -26.067662299999924 ], [ -48.816800699999931, -26.067273 ], [ -48.816864599999974, -26.067081299999927 ], [ -48.81702149999996, -26.066808299999934 ], [ -48.81724219999996, -26.066558499999942 ], [ -48.817718599999985, -26.066151799999954 ], [ -48.817718599999985, -26.065994899999975 ], [ -48.817451399999982, -26.065861299999927 ], [ -48.8171086, -26.065762599999964 ], [ -48.816742599999934, -26.065681199999968 ], [ -48.816539299999931, -26.065565 ], [ -48.816341699999953, -26.065315199999926 ], [ -48.816190699999936, -26.065018899999927 ], [ -48.81610359999997, -26.064769099999978 ], [ -48.815836299999944, -26.064583199999948 ], [ -48.815505199999961, -26.064490299999935 ], [ -48.815389, -26.064397299999939 ], [ -48.815429599999966, -26.064234599999967 ], [ -48.815621399999948, -26.064077799999943 ], [ -48.815975699999967, -26.064031299999954 ], [ -48.816370799999959, -26.063944199999973 ], [ -48.816672899999965, -26.063798899999934 ], [ -48.816957599999967, -26.06357819999992 ], [ -48.817166699999966, -26.063456199999962 ], [ -48.817387499999938, -26.063432899999952 ], [ -48.817596599999938, -26.063589799999946 ], [ -48.817683799999948, -26.063845399999931 ], [ -48.81774189999993, -26.064461199999986 ], [ -48.81786969999996, -26.064705199999931 ], [ -48.81805559999998, -26.064774899999971 ], [ -48.818299599999932, -26.064682 ], [ -48.818468, -26.064513499999968 ], [ -48.818561, -26.064292699999957 ], [ -48.818607499999985, -26.064095199999951 ], [ -48.818659799999978, -26.063816299999921 ], [ -48.818752699999948, -26.063554899999925 ], [ -48.818828199999984, -26.063403899999972 ], [ -48.818805, -26.063159899999949 ], [ -48.818851499999944, -26.062997199999916 ], [ -48.818950199999961, -26.062974 ], [ -48.819234899999969, -26.06299139999992 ], [ -48.819386, -26.062852 ], [ -48.8194673, -26.062671899999941 ], [ -48.819606699999945, -26.062567299999944 ], [ -48.819839099999967, -26.062538199999956 ], [ -48.820071499999983, -26.062468499999969 ], [ -48.820356199999935, -26.062410399999973 ], [ -48.820687299999982, -26.062381399999946 ], [ -48.820844199999954, -26.062340699999943 ], [ -48.820838399999964, -26.062259399999956 ], [ -48.820780299999974, -26.062160599999981 ], [ -48.820768599999951, -26.061974699999944 ], [ -48.820780299999967, -26.061823699999941 ], [ -48.820809299999958, -26.061707499999951 ], [ -48.820733799999971, -26.061579699999974 ], [ -48.820710499999961, -26.061469299999949 ], [ -48.820794799999938, -26.061363299999979 ], [ -48.820772, -26.057190499999937 ], [ -48.820381699999984, -26.057212699999976 ], [ -48.819688299999939, -26.057260899999967 ], [ -48.818412199999962, -26.057349499999926 ], [ -48.817553899999957, -26.057407699999935 ], [ -48.816959899999972, -26.057443299999928 ], [ -48.815863699999966, -26.057524099999963 ], [ -48.815388, -26.057551299999947 ], [ -48.814392599999969, -26.057602899999956 ], [ -48.814069, -26.057628199999943 ], [ -48.813888599999977, -26.057637799999949 ], [ -48.813710499999956, -26.057637899999978 ], [ -48.81353519999994, -26.057623499999977 ], [ -48.813433799999977, -26.057599699999969 ], [ -48.813029499999971, -26.057316899999922 ], [ -48.812721, -26.057041199999954 ], [ -48.812676399999923, -26.056944499999936 ], [ -48.812657599999966, -26.056841799999969 ], [ -48.8127042, -26.056748099999929 ], [ -48.812973799999952, -26.056433399999946 ], [ -48.813039299999964, -26.056353399999978 ], [ -48.81319649999994, -26.056161199999963 ], [ -48.813568099999948, -26.05575379999993 ], [ -48.812045, -26.054853399999956 ], [ -48.811963299999945, -26.054981599999959 ], [ -48.811907299999973, -26.055077499999978 ], [ -48.811869799999947, -26.055158699999929 ], [ -48.811845, -26.055252899999957 ], [ -48.811840299999972, -26.055328799999923 ], [ -48.811844699999945, -26.055387299999961 ], [ -48.811851399999973, -26.055426699999931 ], [ -48.811873399999961, -26.055506299999923 ], [ -48.811932699999943, -26.055673299999963 ], [ -48.811969099999942, -26.055792 ], [ -48.811990099999939, -26.055884 ], [ -48.812004699999932, -26.056000899999962 ], [ -48.812003599999976, -26.05606569999998 ], [ -48.812001, -26.056145899999933 ], [ -48.811989199999978, -26.056202299999942 ], [ -48.811956599999981, -26.056279799999967 ], [ -48.811906299999976, -26.056343299999973 ], [ -48.81183649999997, -26.056397499999939 ], [ -48.811788199999967, -26.056424599999946 ], [ -48.81171919999997, -26.0564515 ], [ -48.81167889999994, -26.05645649999996 ], [ -48.811599599999965, -26.056461199999944 ], [ -48.811532599999971, -26.056450599999948 ], [ -48.811465299999952, -26.056432799999978 ], [ -48.811194699999938, -26.056331499999949 ], [ -48.811069099999941, -26.056289199999974 ], [ -48.810930599999942, -26.056249699999963 ], [ -48.810858699999983, -26.056233699999947 ], [ -48.810741399999984, -26.05621619999993 ], [ -48.810614599999958, -26.056208499999965 ], [ -48.810533699999958, -26.056212799999969 ], [ -48.810482899999954, -26.056220599999961 ], [ -48.81043139999997, -26.056232599999927 ], [ -48.8103771, -26.05624859999995 ], [ -48.810293, -26.05627909999998 ], [ -48.810185799999942, -26.056327899999921 ], [ -48.810089, -26.056386599999939 ], [ -48.810016099999984, -26.056443299999955 ], [ -48.809841899999981, -26.056612199999964 ], [ -48.80978139999997, -26.05667579999994 ], [ -48.809711499999942, -26.056754699999942 ], [ -48.809634699999954, -26.056859699999961 ], [ -48.809592399999978, -26.056940499999939 ], [ -48.809571099999971, -26.056994299999921 ], [ -48.8095479, -26.057072799999958 ], [ -48.809533899999956, -26.05714589999997 ], [ -48.809529199999986, -26.057211599999963 ], [ -48.809534099999951, -26.05726819999995 ], [ -48.809550599999966, -26.057320699999934 ], [ -48.809566899999936, -26.057353 ], [ -48.809597599999961, -26.057393299999951 ], [ -48.809619199999986, -26.057411 ], [ -48.809649399999955, -26.057428899999934 ], [ -48.809716399999957, -26.05745839999998 ], [ -48.809948899999938, -26.057538799999964 ], [ -48.810145199999965, -26.057600499999975 ], [ -48.810265799999968, -26.057647599999932 ], [ -48.81044019999996, -26.057721 ], [ -48.810569299999948, -26.05778029999993 ], [ -48.810689099999934, -26.057840199999923 ], [ -48.810796299999943, -26.057900499999946 ], [ -48.810888299999931, -26.057961199999966 ], [ -48.810966899999983, -26.058024299999943 ], [ -48.811036699999939, -26.058092499999926 ], [ -48.811101, -26.058167599999937 ], [ -48.811174699999981, -26.058273099999955 ], [ -48.81121719999993, -26.058351199999951 ], [ -48.811247799999933, -26.058427099999964 ], [ -48.81126739999997, -26.058501799999924 ], [ -48.811278699999946, -26.058599299999965 ], [ -48.811277599999983, -26.05868549999996 ], [ -48.811268199999979, -26.058753799999973 ], [ -48.811242599999957, -26.058829299999964 ], [ -48.811207199999963, -26.058894099999979 ], [ -48.811153299999944, -26.058962599999969 ], [ -48.81109859999998, -26.059014299999955 ], [ -48.811031299999975, -26.059065099999934 ], [ -48.810951499999923, -26.059102399999968 ], [ -48.810892599999931, -26.059123699999923 ], [ -48.810830599999974, -26.059140099999979 ], [ -48.810766699999938, -26.059151 ], [ -48.810702099999965, -26.059156299999977 ], [ -48.810602099999976, -26.059156099999935 ], [ -48.810343099999955, -26.059142099999981 ], [ -48.810187599999956, -26.059138 ], [ -48.810042899999985, -26.059143 ], [ -48.80994759999993, -26.059154 ], [ -48.809867799999942, -26.059171799999945 ], [ -48.80980249999994, -26.059196899999961 ], [ -48.809747899999934, -26.059229799999969 ], [ -48.809715499999989, -26.059256299999959 ], [ -48.809685899999984, -26.059286699999966 ], [ -48.809659, -26.05932109999997 ], [ -48.809623099999961, -26.059380799999932 ], [ -48.809593199999938, -26.059449 ], [ -48.809566, -26.059546 ], [ -48.80955669999998, -26.05964349999994 ], [ -48.809568, -26.059770099999973 ], [ -48.809585399999946, -26.059850799999939 ], [ -48.809640699999932, -26.060014599999935 ], [ -48.809703699999936, -26.06014109999996 ], [ -48.809778599999959, -26.060245899999941 ], [ -48.80983429999997, -26.060300699999971 ], [ -48.809928299999967, -26.060369799999926 ], [ -48.810036399999944, -26.060432399999968 ], [ -48.810230699999977, -26.060511499999961 ], [ -48.810368699999977, -26.060535499999951 ], [ -48.810490499999965, -26.060542499999936 ], [ -48.810619899999949, -26.060539699999943 ], [ -48.810749399999956, -26.060526899999967 ], [ -48.810872599999982, -26.060505899999963 ], [ -48.811017099999951, -26.060469 ], [ -48.811220399999975, -26.060384599999967 ], [ -48.811325399999923, -26.060322799999941 ], [ -48.811404499999981, -26.060265399999938 ], [ -48.811512099999966, -26.060171399999952 ], [ -48.811563099999944, -26.060119299999954 ], [ -48.811649799999941, -26.060011099999933 ], [ -48.811684299999968, -26.059956699999926 ], [ -48.811713599999962, -26.05990259999993 ], [ -48.81174979999998, -26.059822399999959 ], [ -48.811796899999933, -26.059685499999951 ], [ -48.811857399999951, -26.059454599999981 ], [ -48.811885099999984, -26.059312499999972 ], [ -48.81192329999994, -26.059044899999947 ], [ -48.811943899999967, -26.058946599999956 ], [ -48.811962, -26.058878199999974 ], [ -48.811997899999945, -26.058767299999943 ], [ -48.812042899999938, -26.058647599999961 ], [ -48.812134599999979, -26.058420899999934 ], [ -48.812178, -26.058325399999944 ], [ -48.812229599999966, -26.058238099999986 ], [ -48.812273499999954, -26.058183299999936 ], [ -48.812329899999952, -26.058133099999949 ], [ -48.81240379999997, -26.058090299999954 ], [ -48.812500099999959, -26.058057799999968 ], [ -48.81264689999994, -26.057996 ], [ -48.812709199999972, -26.057974099999974 ], [ -48.812860699999938, -26.057936199999965 ], [ -48.813030199999957, -26.05792449999996 ], [ -48.813229899999953, -26.057938499999977 ], [ -48.813361099999952, -26.057955199999977 ], [ -48.813507799999968, -26.057977399999974 ], [ -48.813673, -26.058007299999915 ], [ -48.813982899999978, -26.058075399999936 ], [ -48.814333599999941, -26.058164799999918 ], [ -48.814526099999973, -26.058225099999952 ], [ -48.8146498, -26.058275 ], [ -48.814722399999937, -26.058310399999982 ], [ -48.81478629999998, -26.058346399999955 ], [ -48.814841299999962, -26.058382299999948 ], [ -48.814886199999933, -26.058417299999974 ], [ -48.814922899999949, -26.058452399999958 ], [ -48.814952299999959, -26.05848879999996 ], [ -48.814975599999968, -26.058527799999975 ], [ -48.814993799999975, -26.058569299999935 ], [ -48.815007699999967, -26.058615299999918 ], [ -48.815017499999954, -26.0586623 ], [ -48.815025699999978, -26.058734499999957 ], [ -48.815026899999964, -26.058782599999965 ], [ -48.815021299999948, -26.058854 ], [ -48.81500519999998, -26.058923799999935 ], [ -48.814988299999982, -26.058968699999983 ], [ -48.81495469999993, -26.059031599999965 ], [ -48.814927399999931, -26.059069399999945 ], [ -48.814879899999937, -26.059118699999939 ], [ -48.814824499999986, -26.059159799999964 ], [ -48.814760899999953, -26.059193899999968 ], [ -48.814687099999965, -26.059222499999972 ], [ -48.814629799999985, -26.059239299999948 ], [ -48.814527799999951, -26.059262099999962 ], [ -48.814448599999935, -26.059275899999946 ], [ -48.814270299999968, -26.059298499999958 ], [ -48.81392789999996, -26.059322199999944 ], [ -48.813829199999979, -26.059331599999954 ], [ -48.813684799999976, -26.059353499999929 ], [ -48.813547299999989, -26.059385 ], [ -48.81346079999998, -26.059411299999962 ], [ -48.8133792, -26.059441799999945 ], [ -48.813265399999977, -26.059495899999945 ], [ -48.813160599999946, -26.059561099999947 ], [ -48.813095, -26.0596111 ], [ -48.813032799999981, -26.059665099999961 ], [ -48.812917299999981, -26.059756099999962 ], [ -48.812804399999948, -26.059883599999978 ], [ -48.812724499999945, -26.059983099999958 ], [ -48.812662299999943, -26.060086399999939 ], [ -48.812622399999952, -26.060203699999935 ], [ -48.812589199999934, -26.060366399999953 ], [ -48.812560399999946, -26.060565499999925 ], [ -48.812552399999959, -26.060997099999945 ], [ -48.812500099999973, -26.061435899999932 ], [ -48.812462299999936, -26.061545199999948 ], [ -48.812384799999954, -26.061745499999962 ], [ -48.81234569999998, -26.061836599999936 ], [ -48.812268, -26.062001199999944 ], [ -48.812193099999945, -26.062142799999936 ], [ -48.812122199999976, -26.062262499999981 ], [ -48.812019299999967, -26.0624079 ], [ -48.811984599999953, -26.062449 ], [ -48.811912699999937, -26.062522899999976 ], [ -48.811835899999949, -26.062588199999933 ], [ -48.811755499999947, -26.062646199999957 ], [ -48.811673199999973, -26.062697699999948 ], [ -48.811550199999949, -26.062764599999976 ], [ -48.811426199999971, -26.062820399999961 ], [ -48.811337099999946, -26.062851199999951 ], [ -48.811238299999957, -26.06287679999997 ], [ -48.811184299999979, -26.06288759999995 ], [ -48.811068, -26.062904499999942 ], [ -48.81100679999998, -26.062910299999931 ], [ -48.810880699999984, -26.062916 ], [ -48.810816799999941, -26.062915499999963 ], [ -48.810689699999955, -26.062907099999954 ], [ -48.810564199999931, -26.062889399999957 ], [ -48.8103771, -26.062849299999982 ], [ -48.809866899999975, -26.062707 ], [ -48.80973849999998, -26.062674299999962 ], [ -48.809610699999951, -26.062646499999982 ], [ -48.809415899999976, -26.062615199999986 ], [ -48.809280299999948, -26.062601699999952 ], [ -48.80913739999994, -26.062594399999966 ], [ -48.808989099999955, -26.062593 ], [ -48.808841099999938, -26.062597 ], [ -48.808633399999962, -26.062611799999956 ], [ -48.808455099999946, -26.062635599999954 ], [ -48.808297499999981, -26.062669 ], [ -48.808146299999976, -26.062713299999924 ], [ -48.807997, -26.06276889999998 ], [ -48.807903799999963, -26.062812199999932 ], [ -48.807860399999981, -26.062835599999964 ], [ -48.807782299999985, -26.062886099999954 ], [ -48.807747699999936, -26.062912899999962 ], [ -48.807686899999965, -26.062969199999944 ], [ -48.807660299999952, -26.062998399999969 ], [ -48.807613599999975, -26.063058199999951 ], [ -48.80755719999997, -26.063150099999966 ], [ -48.807526699999983, -26.063214899999931 ], [ -48.807500099999977, -26.063285499999949 ], [ -48.807464699999969, -26.063408299999939 ], [ -48.807362499999954, -26.063823399999929 ], [ -48.807263399999954, -26.064159199999946 ], [ -48.807153, -26.064491599999933 ], [ -48.806973399999947, -26.06496 ], [ -48.806936399999984, -26.065063299999963 ], [ -48.806902899999955, -26.065169399999938 ], [ -48.806861399999946, -26.06534 ], [ -48.806841199999951, -26.065466799999964 ], [ -48.806827899999973, -26.065603599999971 ], [ -48.80682239999993, -26.065752299999939 ], [ -48.806825699999941, -26.06591369999996 ], [ -48.806838499999969, -26.066088499999974 ], [ -48.806860299999983, -26.066273699999964 ], [ -48.806889, -26.066462599999966 ], [ -48.806922399999962, -26.066648599999954 ], [ -48.806977599999982, -26.066908499999947 ], [ -48.807018399999947, -26.067066699999938 ], [ -48.807064899999951, -26.067214299999925 ], [ -48.807118799999955, -26.067352499999956 ], [ -48.807149199999962, -26.067418399999955 ], [ -48.807215899999953, -26.067544099999967 ], [ -48.807365599999969, -26.06777139999997 ], [ -48.807484199999976, -26.067921099999978 ], [ -48.807566, -26.068010299999969 ], [ -48.8076521, -26.06809029999993 ], [ -48.807744299999968, -26.06816009999994 ], [ -48.807793199999935, -26.068191099999982 ], [ -48.807894899999951, -26.068245599999962 ], [ -48.808049399999959, -26.068312299999949 ], [ -48.80836769999997, -26.068428299999923 ], [ -48.808596199999954, -26.068526799999972 ], [ -48.808922499999937, -26.068705199999947 ], [ -48.809102799999948, -26.06881949999995 ], [ -48.80929059999994, -26.068951099999929 ], [ -48.809418299999948, -26.069048799999972 ], [ -48.80968409999997, -26.069266599999931 ], [ -48.809832, -26.069383699999943 ], [ -48.810087499999959, -26.069564899999932 ], [ -48.810279499999979, -26.069685399999965 ], [ -48.810503699999963, -26.0698207 ], [ -48.810758699999951, -26.069953299999959 ], [ -48.810924299999954, -26.070036 ], [ -48.811081199999933, -26.07010409999998 ], [ -48.811243599999955, -26.070159899999958 ], [ -48.811331299999949, -26.070184099999942 ], [ -48.811528499999952, -26.070226 ], [ -48.811760299999946, -26.070260099999938 ], [ -48.812028099999964, -26.070285399999925 ], [ -48.812333199999948, -26.070301299999976 ], [ -48.812500099999973, -26.070305399999935 ], [ -48.813098199999956, -26.070391299999987 ], [ -48.813337, -26.070430199999979 ], [ -48.813541899999962, -26.070467199999932 ], [ -48.813718, -26.070502899999948 ], [ -48.813869899999986, -26.070537799999958 ], [ -48.814002499999958, -26.07057269999995 ], [ -48.81412059999996, -26.070608 ], [ -48.814228399999934, -26.070644199999947 ], [ -48.81432719999998, -26.070681599999951 ], [ -48.814417699999979, -26.07072009999996 ], [ -48.814500599999974, -26.070759699999929 ], [ -48.81457659999996, -26.070800499999962 ], [ -48.814646399999958, -26.070842399999954 ], [ -48.814710699999978, -26.070885599999944 ], [ -48.81482509999995, -26.070975499999971 ], [ -48.814922199999955, -26.071069099999935 ], [ -48.81500079999995, -26.071163699999946 ], [ -48.815059699999942, -26.071256699999925 ], [ -48.815081499999962, -26.071301699999925 ], [ -48.815097899999955, -26.071345499999953 ], [ -48.815109299999968, -26.07138829999996 ], [ -48.815116, -26.071430499999973 ], [ -48.815118299999945, -26.071469299999933 ], [ -48.815589399999958, -26.071432699999949 ], [ -48.816251699999953, -26.071293299999969 ], [ -48.816733899999974, -26.07109579999997 ], [ -48.816879099999937, -26.070909799999981 ], [ -48.816844299999964, -26.070689099999989 ], [ -48.816687399999985, -26.070416 ], [ -48.816484099999968, -26.070172 ] ] ], [ [ [ -48.862958799999937, -26.06709 ], [ -48.862022799999977, -26.055853 ], [ -48.862065299999983, -26.05227519999994 ], [ -48.862065299999983, -26.052221099999933 ], [ -48.862065599999944, -26.052170699999973 ], [ -48.862189, -26.041865399999949 ], [ -48.862189099999966, -26.041856599999957 ], [ -48.862189199999939, -26.041849199999941 ], [ -48.8622094, -26.040154699999967 ], [ -48.863011, -26.033658899999971 ], [ -48.863012499999968, -26.033647499999976 ], [ -48.863013599999924, -26.033637899999974 ], [ -48.863270099999966, -26.03156 ], [ -48.865765, -26.031882399999976 ], [ -48.866176499999938, -26.02836539999992 ], [ -48.866180099999951, -26.028334899999937 ], [ -48.866182899999963, -26.028310699999956 ], [ -48.866404199999984, -26.026418699999972 ], [ -48.863939399999936, -26.026126499999975 ], [ -48.861275199999966, -26.026831099999981 ], [ -48.857951299999968, -26.026353799999981 ], [ -48.85793149999995, -26.026251699999939 ], [ -48.857888799999955, -26.026101099999952 ], [ -48.857794799999972, -26.025923 ], [ -48.857739399999964, -26.025761799999938 ], [ -48.85769, -26.025566399999946 ], [ -48.857672699999966, -26.025386799999978 ], [ -48.857637499999946, -26.025249299999928 ], [ -48.857617299999959, -26.025046 ], [ -48.857459599999977, -26.02453389999993 ], [ -48.857408299999982, -26.024440399999936 ], [ -48.857217499999926, -26.023694 ], [ -48.856839599999944, -26.022215699999951 ], [ -48.856721199999981, -26.022210099999942 ], [ -48.856519699999978, -26.022182899999962 ], [ -48.856296399999962, -26.022139299999939 ], [ -48.856154799999956, -26.022068499999929 ], [ -48.856038599999977, -26.022043099999962 ], [ -48.855958699999974, -26.022005 ], [ -48.855877, -26.021936 ], [ -48.855740799999971, -26.021854299999958 ], [ -48.855661, -26.02177439999997 ], [ -48.855535, -26.021672399999947 ], [ -48.855489799999937, -26.021646399999963 ], [ -48.855150899999963, -26.021318 ], [ -48.855047599999978, -26.021231899999972 ], [ -48.854977599999984, -26.021197599999933 ], [ -48.854929499999969, -26.021180899999941 ], [ -48.854891799999962, -26.021167299999941 ], [ -48.854849, -26.021154499999966 ], [ -48.854720099999952, -26.021108099999946 ], [ -48.854504599999984, -26.020991299999931 ], [ -48.854310199999986, -26.02086439999994 ], [ -48.854225299999939, -26.020783799999951 ], [ -48.854021, -26.020507299999956 ], [ -48.853971599999966, -26.020422299999947 ], [ -48.853904599999971, -26.020241499999937 ], [ -48.853871099999935, -26.020093899999946 ], [ -48.853849099999934, -26.019936399999946 ], [ -48.853793899999971, -26.019720599999967 ], [ -48.853641199999977, -26.019472299999951 ], [ -48.853405399999986, -26.019121299999927 ], [ -48.853386299999954, -26.019018 ], [ -48.853370899999959, -26.01884229999996 ], [ -48.853344399999969, -26.018667899999969 ], [ -48.85333039999994, -26.018532899999975 ], [ -48.853313399999934, -26.018438399999972 ], [ -48.853272599999968, -26.018333199999965 ], [ -48.853212, -26.018241099999951 ], [ -48.853142599999956, -26.018176299999944 ], [ -48.853096699999988, -26.018116899999935 ], [ -48.853078399999966, -26.018054099999969 ], [ -48.853083, -26.017988699999929 ], [ -48.85309429999996, -26.01792909999995 ], [ -48.853116399999983, -26.017877799999948 ], [ -48.853146199999969, -26.017812699999983 ], [ -48.853166199999983, -26.017725599999938 ], [ -48.853168, -26.017642399999939 ], [ -48.853131199999957, -26.017556799999966 ], [ -48.853064, -26.017513299999951 ], [ -48.853024199999936, -26.017493799999947 ], [ -48.8529372, -26.017471799999957 ], [ -48.85287169999998, -26.017433 ], [ -48.852766499999973, -26.017366899999949 ], [ -48.8524829, -26.017215899999947 ], [ -48.852291799999939, -26.017120899999952 ], [ -48.85212659999997, -26.017045399999965 ], [ -48.852002299999981, -26.01701009999994 ], [ -48.851876599999969, -26.016985799999929 ], [ -48.851669899999933, -26.017243399999924 ], [ -48.85148149999997, -26.017397699999943 ], [ -48.851331399999935, -26.017465699999953 ], [ -48.851290199999937, -26.017485399999938 ], [ -48.85124379999997, -26.017504199999962 ], [ -48.850982699999975, -26.017587299999942 ], [ -48.850579799999934, -26.01771129999997 ], [ -48.84958679999994, -26.018095 ], [ -48.849256499999967, -26.018310099999947 ], [ -48.848972599999968, -26.018495799999968 ], [ -48.848532, -26.018809399999952 ], [ -48.848187899999971, -26.019110099999988 ], [ -48.847139, -26.019994699999973 ], [ -48.846734499999968, -26.020283699999943 ], [ -48.846531, -26.020344499999961 ], [ -48.846121799999935, -26.020408 ], [ -48.845966499999975, -26.02047239999996 ], [ -48.845862099999977, -26.020557899999979 ], [ -48.845739599999952, -26.020582199999982 ], [ -48.84561129999998, -26.020568699999959 ], [ -48.845368299999954, -26.020480599999939 ], [ -48.844968199999983, -26.020176699999976 ], [ -48.844845499999963, -26.020051599999924 ], [ -48.84481169999998, -26.01997979999993 ], [ -48.844792699999978, -26.019893799999981 ], [ -48.844798799999978, -26.019729599999952 ], [ -48.844776899999943, -26.019633499999934 ], [ -48.84468279999993, -26.019475399999969 ], [ -48.844539499999939, -26.019264699999948 ], [ -48.844401199999929, -26.019124 ], [ -48.844212099999943, -26.018998299999961 ], [ -48.844157599999967, -26.018933899999983 ], [ -48.844104899999934, -26.018853399999962 ], [ -48.84405849999996, -26.018680699999937 ], [ -48.844041599999969, -26.018655099999933 ], [ -48.843946199999955, -26.01861789999997 ], [ -48.843899099999938, -26.018587099999927 ], [ -48.843809299999982, -26.018493099999933 ], [ -48.84373329999994, -26.018310099999951 ], [ -48.843686099999957, -26.018026299999985 ], [ -48.84371729999998, -26.017688399999937 ], [ -48.84376089999995, -26.017486099999921 ], [ -48.843864899999971, -26.017270399999965 ], [ -48.84411, -26.016976299999953 ], [ -48.844243099999979, -26.016797899999968 ], [ -48.844337499999938, -26.016555699999966 ], [ -48.844372499999963, -26.016276499999936 ], [ -48.844387899999958, -26.01571069999995 ], [ -48.844373499999961, -26.015408199999964 ], [ -48.844313499999942, -26.015147899999931 ], [ -48.83944519999995, -26.017324499999962 ], [ -48.839407199999982, -26.017339899999961 ], [ -48.830282199999949, -26.02092109999996 ], [ -48.831425199999963, -26.022576 ], [ -48.822305899999947, -26.027971099999938 ], [ -48.822110699999946, -26.028124499999929 ], [ -48.822004299999946, -26.028348099999949 ], [ -48.823927799999979, -26.0282711 ], [ -48.825076099999933, -26.028215099999958 ], [ -48.825773, -26.028190399999964 ], [ -48.827549, -26.028094899999935 ], [ -48.829201499999954, -26.028029 ], [ -48.83004, -26.027997699999958 ], [ -48.830245599999955, -26.027987799999945 ], [ -48.830371799999966, -26.032571299999972 ], [ -48.830391199999951, -26.033834899999935 ], [ -48.836114499999944, -26.033699699999946 ], [ -48.839613799999938, -26.034118399999961 ], [ -48.844032899999945, -26.034977699999949 ], [ -48.843889499999932, -26.035318399999937 ], [ -48.843782199999964, -26.036316399999965 ], [ -48.843736399999955, -26.03644519999995 ], [ -48.84369159999995, -26.036536499999947 ], [ -48.843590699999943, -26.036731399999951 ], [ -48.843409099999974, -26.03689109999992 ], [ -48.843242099999948, -26.037148899999984 ], [ -48.843060499999979, -26.037363199999962 ], [ -48.842962499999949, -26.037493899999951 ], [ -48.842828199999985, -26.03764269999995 ], [ -48.842722899999956, -26.037733499999948 ], [ -48.842603, -26.037973199999957 ], [ -48.842512299999953, -26.038241899999942 ], [ -48.842475899999954, -26.038372599999949 ], [ -48.842356099999968, -26.038503299999938 ], [ -48.848244499999964, -26.041033299999974 ], [ -48.84814369999998, -26.041292099999975 ], [ -48.847972699999957, -26.041599 ], [ -48.84784929999995, -26.041738599999977 ], [ -48.847697799999935, -26.041842699999968 ], [ -48.847505399999932, -26.04189249999995 ], [ -48.847356599999955, -26.04193789999994 ], [ -48.847259599999965, -26.041959899999938 ], [ -48.8471416, -26.041997899999959 ], [ -48.847088299999946, -26.042022799999987 ], [ -48.846622699999955, -26.042214499999954 ], [ -48.846491699999945, -26.042277399999946 ], [ -48.846436799999942, -26.042309599999946 ], [ -48.8463948, -26.042347599999967 ], [ -48.846294599999958, -26.042468899999964 ], [ -48.846233199999979, -26.042524499999963 ], [ -48.84615239999993, -26.042569799999963 ], [ -48.84608929999996, -26.042597599999961 ], [ -48.845970299999976, -26.042624799999924 ], [ -48.845581599999953, -26.04270019999996 ], [ -48.845289, -26.042770499999957 ], [ -48.845078799999953, -26.042856899999954 ], [ -48.845022299999982, -26.042929199999943 ], [ -48.844980899999946, -26.042966099999941 ], [ -48.844857799999943, -26.04304629999994 ], [ -48.844765, -26.043130699999946 ], [ -48.844679499999984, -26.04322389999993 ], [ -48.84466869999995, -26.043235699999965 ], [ -48.844392799999987, -26.043569199999965 ], [ -48.844353499999961, -26.043608499999941 ], [ -48.844313899999975, -26.043638699999967 ], [ -48.844215399999939, -26.043698099999965 ], [ -48.844150199999952, -26.043728 ], [ -48.844113099999959, -26.043744499999939 ], [ -48.844037699999951, -26.043771499999934 ], [ -48.843832499999969, -26.043834499999932 ], [ -48.843695399999945, -26.043886599999954 ], [ -48.843548099999957, -26.043959499999975 ], [ -48.843514899999953, -26.043978299999928 ], [ -48.843489599999934, -26.043996599999961 ], [ -48.843466699999972, -26.044020399999962 ], [ -48.843453499999953, -26.044041399999973 ], [ -48.8434453, -26.044064699999971 ], [ -48.843442599999946, -26.044089299999932 ], [ -48.843448799999976, -26.044121499999967 ], [ -48.84349659999998, -26.044208699999956 ], [ -48.8434999, -26.044230499999969 ], [ -48.843496199999954, -26.044253799999971 ], [ -48.843482599999966, -26.044274499999965 ], [ -48.843448299999977, -26.044307899999975 ], [ -48.843386299999963, -26.044357599999966 ], [ -48.843333199999961, -26.044395599999973 ], [ -48.843286699999958, -26.044424 ], [ -48.843246199999946, -26.044443099999967 ], [ -48.843116699999939, -26.044491099999966 ], [ -48.843047499999955, -26.044510199999934 ], [ -48.842873299999951, -26.044548499999959 ], [ -48.842812499999987, -26.044568499999961 ], [ -48.842678099999944, -26.044620599999966 ], [ -48.842603899999965, -26.044644599999973 ], [ -48.842437899999929, -26.044690199999934 ], [ -48.842329899999989, -26.044712599999965 ], [ -48.842216299999954, -26.04472189999996 ], [ -48.842106299999962, -26.044719799999932 ], [ -48.842016799999953, -26.044710699999946 ], [ -48.841925799999949, -26.044690799999955 ], [ -48.841813899999977, -26.044651199999972 ], [ -48.841390699999984, -26.044469399999965 ], [ -48.841246, -26.044410899999946 ], [ -48.841145899999958, -26.044374399999977 ], [ -48.840663099999979, -26.044224 ], [ -48.840452, -26.044174 ], [ -48.840271299999984, -26.044122699999949 ], [ -48.840218599999965, -26.04411279999994 ], [ -48.840100099999979, -26.044104899999983 ], [ -48.839889, -26.04410479999995 ], [ -48.839621799999975, -26.044116699999961 ], [ -48.839622199999951, -26.044731 ], [ -48.839622299999981, -26.044753 ], [ -48.839622299999981, -26.04477629999997 ], [ -48.839634499999939, -26.058613799999936 ], [ -48.839634799999935, -26.058663299999981 ], [ -48.841135699999931, -26.058830599999968 ], [ -48.842095599999944, -26.058960899999921 ], [ -48.842709099999986, -26.059012699999968 ], [ -48.843076399999973, -26.059017099999949 ], [ -48.843407299999967, -26.059038 ], [ -48.844375699999944, -26.05925649999995 ], [ -48.844797599999943, -26.059383399999952 ], [ -48.845068399999946, -26.059495 ], [ -48.845541699999956, -26.059572399999976 ], [ -48.845718799999986, -26.059592199999944 ], [ -48.845880199999954, -26.059611 ], [ -48.845975399999986, -26.059622199999975 ], [ -48.846144, -26.05964809999994 ], [ -48.846456699999983, -26.059699199999955 ], [ -48.847575699999936, -26.059920599999941 ], [ -48.847595799999965, -26.060073 ], [ -48.847564799999986, -26.061288699999981 ], [ -48.847561, -26.061428799999927 ], [ -48.851163199999974, -26.062654 ], [ -48.852002499999962, -26.062970099999973 ], [ -48.852645399999972, -26.063435299999973 ], [ -48.853169899999955, -26.064069799999967 ], [ -48.853965099999982, -26.064780399999965 ], [ -48.854658799999989, -26.065025699999968 ], [ -48.855499499999951, -26.065247399999969 ], [ -48.855740499999968, -26.071900599999932 ], [ -48.857241299999941, -26.072287199999948 ], [ -48.857407899999949, -26.072289799999972 ], [ -48.857790899999941, -26.072153099999976 ], [ -48.858108399999935, -26.071900299999974 ], [ -48.858385599999956, -26.07174149999998 ], [ -48.858650699999941, -26.071605 ], [ -48.860800199999979, -26.07134869999993 ], [ -48.860922, -26.071319899999942 ], [ -48.86114009999995, -26.071293399999956 ], [ -48.86134039999996, -26.071266 ], [ -48.86169, -26.071239499999919 ], [ -48.861982199999943, -26.071258499999935 ], [ -48.862164699999937, -26.071333599999946 ], [ -48.862507499999928, -26.071510399999966 ], [ -48.862919, -26.071733499999947 ], [ -48.863368199999975, -26.07200539999997 ], [ -48.863501299999946, -26.072179399999982 ], [ -48.864163099999985, -26.072700599999965 ], [ -48.864600599999953, -26.073028 ], [ -48.864969599999945, -26.073166199999939 ], [ -48.865291499999962, -26.073240899999963 ], [ -48.865556499999968, -26.073294299999922 ], [ -48.865711399999959, -26.073342399999948 ], [ -48.866264099999974, -26.073470299999929 ], [ -48.867078499999934, -26.073654099999928 ], [ -48.867764099999931, -26.07378789999996 ], [ -48.868022699999983, -26.073864599999975 ], [ -48.868161799999946, -26.073926099999923 ], [ -48.868273899999963, -26.073998 ], [ -48.868400399999985, -26.074110499999964 ], [ -48.868485899999939, -26.074234 ], [ -48.868567799999944, -26.074423199999959 ], [ -48.868610899999972, -26.074469399999931 ], [ -48.868613199999963, -26.074592499999934 ], [ -48.868644599999989, -26.074753399999956 ], [ -48.868671899999981, -26.074860699999931 ], [ -48.868768099999954, -26.075040099999963 ], [ -48.868951, -26.075212899999936 ], [ -48.86928979999994, -26.075424599999959 ], [ -48.869525299999971, -26.075562699999967 ], [ -48.869670099999951, -26.075670099999972 ], [ -48.869744399999945, -26.075766499999919 ], [ -48.869819299999968, -26.075895599999956 ], [ -48.869906599999979, -26.076147399999968 ], [ -48.869939699999975, -26.076327099999954 ], [ -48.869975899999986, -26.076553399999966 ], [ -48.870160299999952, -26.076875 ], [ -48.870275699999986, -26.077156 ], [ -48.8703498, -26.077375699999941 ], [ -48.870410699999987, -26.077666699999941 ], [ -48.870419799999979, -26.077818399999956 ], [ -48.871234699999953, -26.077461199999959 ], [ -48.8703, -26.075306099999978 ], [ -48.870284899999945, -26.073988499999924 ], [ -48.86592289999993, -26.06993429999995 ], [ -48.863340899999962, -26.071678 ], [ -48.862961899999959, -26.067126899999945 ], [ -48.862960299999948, -26.067108199999943 ], [ -48.862958799999937, -26.06709 ] ] ], [ [ [ -48.873296499999981, -26.006050799999961 ], [ -48.87371289999993, -26.005727799999939 ], [ -48.874131799999986, -26.00540549999992 ], [ -48.879081599999957, -26.001204199999965 ], [ -48.879527599999967, -26.000785 ], [ -48.879984199999974, -26.00025869999995 ], [ -48.880289199999943, -25.999784 ], [ -48.881710499999933, -25.996482299999972 ], [ -48.882056299999931, -25.995684599999944 ], [ -48.882396599999936, -25.995 ], [ -48.883375099999967, -25.993464899999928 ], [ -48.883393299999973, -25.993435799999926 ], [ -48.883413, -25.99340439999996 ], [ -48.885027099999945, -25.990875299999963 ], [ -48.885314599999958, -25.990525099999953 ], [ -48.885629799999954, -25.99019689999994 ], [ -48.886557399999958, -25.989123899999985 ], [ -48.886912, -25.988611299999949 ], [ -48.887114499999939, -25.988175399999935 ], [ -48.887307899999939, -25.987547599999967 ], [ -48.887450399999985, -25.986837599999948 ], [ -48.887480399999959, -25.985068 ], [ -48.887525099999941, -25.984694199999982 ], [ -48.88752809999994, -25.984669 ], [ -48.887534099999982, -25.984652499999985 ], [ -48.887687799999981, -25.984224799999936 ], [ -48.887921699999943, -25.983699399999974 ], [ -48.888120299999969, -25.983347899999952 ], [ -48.88846829999995, -25.98282369999998 ], [ -48.888704699999955, -25.982482299999955 ], [ -48.88871289999998, -25.982470099999947 ], [ -48.888721299999986, -25.982457599999961 ], [ -48.889265199999961, -25.981548199999963 ], [ -48.890611799999931, -25.981520299999946 ], [ -48.882688, -25.981602 ], [ -48.880479699999967, -25.981631 ], [ -48.88057079999993, -25.982311399999958 ], [ -48.880656199999983, -25.982923399999944 ], [ -48.880690299999969, -25.983293399999976 ], [ -48.880678899999964, -25.983452799999945 ], [ -48.880587799999944, -25.98397939999996 ], [ -48.88055369999995, -25.984420699999927 ], [ -48.880468499999957, -25.984793699999944 ], [ -48.880382899999972, -25.985120899999977 ], [ -48.880363, -25.985260399999955 ], [ -48.880300299999924, -25.985416899999965 ], [ -48.880223499999943, -25.985752799999936 ], [ -48.8801438, -25.986105799999962 ], [ -48.88011529999995, -25.986205399999964 ], [ -48.880081199999957, -25.986376199999931 ], [ -48.880004299999939, -25.986732099999983 ], [ -48.879958799999947, -25.987810899999946 ], [ -48.879967299999976, -25.987902 ], [ -48.879992899999934, -25.987998799999954 ], [ -48.880086899999981, -25.98805 ], [ -48.881626799999935, -25.988297599999946 ], [ -48.881729299999961, -25.988320399999957 ], [ -48.882045299999959, -25.988343199999978 ], [ -48.882164799999941, -25.988366 ], [ -48.882247399999983, -25.988422899999936 ], [ -48.882270199999937, -25.988485499999964 ], [ -48.882267299999967, -25.988522499999924 ], [ -48.882176199999947, -25.988630699999931 ], [ -48.881937099999959, -25.988832799999955 ], [ -48.881817599999984, -25.988949499999936 ], [ -48.881641099999975, -25.989077599999966 ], [ -48.88127389999994, -25.989444799999948 ], [ -48.88077, -25.989888899999979 ], [ -48.879964499999971, -25.990685899999956 ], [ -48.879751, -25.990953499999929 ], [ -48.879289799999981, -25.991380499999931 ], [ -48.878751799999982, -25.991705 ], [ -48.878346599999986, -25.991915099999964 ], [ -48.878042899999976, -25.992193499999928 ], [ -48.877749799999947, -25.992462099999958 ], [ -48.877451, -25.992704099999969 ], [ -48.87732, -25.992835 ], [ -48.877220399999942, -25.993005799999924 ], [ -48.877129299999972, -25.99319939999998 ], [ -48.877018299999982, -25.993509699999944 ], [ -48.876730799999962, -25.99382849999995 ], [ -48.876565699999965, -25.993953699999963 ], [ -48.876218399999971, -25.994113099999932 ], [ -48.875318899999968, -25.994602699999973 ], [ -48.875213599999938, -25.994713799999939 ], [ -48.875099699999964, -25.994921599999941 ], [ -48.8747863, -25.995590499999931 ], [ -48.87462149999994, -25.995812499999943 ], [ -48.874513299999933, -25.995932099999951 ], [ -48.874066399999954, -25.996245199999962 ], [ -48.873687799999978, -25.996435899999941 ], [ -48.873138399999966, -25.996680699999953 ], [ -48.872796899999969, -25.996888499999958 ], [ -48.872441, -25.997030799999951 ], [ -48.871817599999986, -25.997244299999977 ], [ -48.871413399999938, -25.997398 ], [ -48.871274, -25.997477799999952 ], [ -48.871140199999957, -25.997591599999961 ], [ -48.870906799999943, -25.997953099999958 ], [ -48.870795699999974, -25.998092599999943 ], [ -48.870701799999956, -25.998189399999951 ], [ -48.870553799999982, -25.998234899999947 ], [ -48.87032319999998, -25.998363 ], [ -48.86959729999996, -25.998721699999969 ], [ -48.869156099999948, -25.998855499999934 ], [ -48.870395499999972, -26.007547699999986 ], [ -48.870943199999942, -26.007351799999988 ], [ -48.871482099999987, -26.007116199999935 ], [ -48.872048699999937, -26.006831799999926 ], [ -48.872926199999938, -26.006318399999945 ], [ -48.873296499999981, -26.006050799999961 ] ] ] ] } }
]
}
