{
"type": "FeatureCollection",
"name": "4210001",
"crs": { "type": "name", "properties": { "name": "urn:ogc:def:crs:OGC:1.3:CRS84" } },
"features": [
{ "type": "Feature", "properties": { "CD_MUN": "4210001", "NM_MUN": "Luiz Alves" }, "geometry": { "type": "MultiPolygon", "coordinates": [ [ [ [ -48.838162399999938, -26.747223299999959 ], [ -48.837968399999966, -26.747643699999966 ], [ -48.837847099999976, -26.747864299999947 ], [ -48.837715399999986, -26.748537299999938 ], [ -48.8376856, -26.748816099999939 ], [ -48.837713799999968, -26.749153399999951 ], [ -48.837873, -26.749781099999947 ], [ -48.837972, -26.750163799999935 ], [ -48.838051799999967, -26.750326099999931 ], [ -48.838496599999985, -26.750853499999941 ], [ -48.838587299999972, -26.751127499999939 ], [ -48.838697099999941, -26.751571399999929 ], [ -48.83896389999996, -26.751893699999972 ], [ -48.839351799999974, -26.752324599999959 ], [ -48.839610499999942, -26.752517 ], [ -48.840507299999963, -26.752894399999938 ], [ -48.840693, -26.75317519999993 ], [ -48.840791899999942, -26.753606599999959 ], [ -48.840845099999967, -26.754084499999969 ], [ -48.840754, -26.754640099999968 ], [ -48.840660299999968, -26.755027899999956 ], [ -48.840729099999983, -26.755347699999952 ], [ -48.840993, -26.755769 ], [ -48.841371199999976, -26.756236799999954 ], [ -48.841642599999943, -26.756644 ], [ -48.841744099999964, -26.756926799999974 ], [ -48.841766199999938, -26.757125499999965 ], [ -48.841783799999973, -26.757283199999957 ], [ -48.843669399999953, -26.757051799999935 ], [ -48.843661299999951, -26.757032299999931 ], [ -48.843644199999979, -26.75696339999995 ], [ -48.843623499999978, -26.756837399999938 ], [ -48.843582699999956, -26.756457799999961 ], [ -48.84353549999998, -26.756116 ], [ -48.843502, -26.755826099999982 ], [ -48.843445599999932, -26.755574199999955 ], [ -48.843322, -26.754974799999957 ], [ -48.843314099999986, -26.754916499999982 ], [ -48.843308199999974, -26.754872699999964 ], [ -48.84328979999998, -26.754842499999942 ], [ -48.843271399999935, -26.754812299999958 ], [ -48.843042, -26.754607 ], [ -48.842956299999976, -26.754526599999966 ], [ -48.842885, -26.75441329999995 ], [ -48.842869499999949, -26.754335699999952 ], [ -48.842833, -26.754123099999955 ], [ -48.842807399999963, -26.753833699999973 ], [ -48.842753, -26.753541899999949 ], [ -48.842675699999972, -26.753170899999933 ], [ -48.842660199999955, -26.753096799999977 ], [ -48.842641599999979, -26.753008099999921 ], [ -48.842646199999933, -26.752971099999961 ], [ -48.84267379999995, -26.752912499999976 ], [ -48.842745, -26.752814299999951 ], [ -48.842925499999978, -26.752566899999959 ], [ -48.843000799999963, -26.752494799999965 ], [ -48.84308, -26.752451 ], [ -48.843188399999974, -26.752423499999963 ], [ -48.843252499999949, -26.752413399999973 ], [ -48.843375099999946, -26.752425799999962 ], [ -48.843456499999952, -26.752446199999952 ], [ -48.84347589999993, -26.752453099999968 ], [ -48.84348909999995, -26.752462699999956 ], [ -48.843510099999953, -26.752482699999963 ], [ -48.843529699999969, -26.752511099999936 ], [ -48.843586799999962, -26.752602599999939 ], [ -48.843617699999982, -26.752642 ], [ -48.843688, -26.752689299999915 ], [ -48.843929, -26.752843699999975 ], [ -48.844022499999937, -26.752891599999934 ], [ -48.84426609999997, -26.752948799999949 ], [ -48.844355199999939, -26.752959099999941 ], [ -48.844697599999961, -26.752998699999974 ], [ -48.84512639999997, -26.753007599999936 ], [ -48.845192799999943, -26.753025099999945 ], [ -48.845236299999954, -26.753056699999952 ], [ -48.845324299999952, -26.753143799999968 ], [ -48.845364499999967, -26.75319979999994 ], [ -48.845396699999981, -26.75327419999995 ], [ -48.845439, -26.75338969999995 ], [ -48.84554959999997, -26.753634 ], [ -48.845682, -26.753895199999931 ], [ -48.845739299999934, -26.753983699999925 ], [ -48.845774, -26.754032199999976 ], [ -48.845850699999971, -26.75411 ], [ -48.845906799999959, -26.754163499999937 ], [ -48.845956699999931, -26.754227299999961 ], [ -48.846036599999934, -26.754331199999967 ], [ -48.84607, -26.754365899999978 ], [ -48.846160499999939, -26.754357899999945 ], [ -48.84652559999995, -26.754313399999948 ], [ -48.846949299999956, -26.754273299999959 ], [ -48.847248799999932, -26.754246 ], [ -48.847282899999989, -26.754231499999953 ], [ -48.847322199999958, -26.7542 ], [ -48.84747949999997, -26.753979799999971 ], [ -48.847551299999964, -26.753923399999962 ], [ -48.847627199999984, -26.753873 ], [ -48.84768669999994, -26.75387359999996 ], [ -48.847734499999945, -26.753886799999968 ], [ -48.847877599999954, -26.753942399999968 ], [ -48.848049499999945, -26.754002099999987 ], [ -48.848084299999982, -26.754001699999936 ], [ -48.84810669999996, -26.75399519999997 ], [ -48.848308399999951, -26.753859299999931 ], [ -48.848469799999975, -26.753777699999944 ], [ -48.848541299999972, -26.753741499999926 ], [ -48.848844399999962, -26.753634899999955 ], [ -48.84894589999994, -26.753585499999929 ], [ -48.848986, -26.753552499999948 ], [ -48.849103699999951, -26.753458 ], [ -48.849185199999972, -26.753397899999989 ], [ -48.849175, -26.753352599999964 ], [ -48.849128, -26.753202199999976 ], [ -48.849099799999976, -26.753047099999947 ], [ -48.849090399999966, -26.752746199999923 ], [ -48.849090399999959, -26.752609899999975 ], [ -48.849034, -26.752417199999964 ], [ -48.849019799999951, -26.752299599999962 ], [ -48.848977499999933, -26.752135099999979 ], [ -48.848977499999933, -26.751918899999964 ], [ -48.848986899999943, -26.751839 ], [ -48.849048099999948, -26.751759099999955 ], [ -48.849142099999938, -26.751571 ], [ -48.849151499999948, -26.751495799999926 ], [ -48.849175, -26.751331299999933 ], [ -48.849146799999971, -26.751242 ], [ -48.849071599999952, -26.751115099999922 ], [ -48.848930499999938, -26.750943499999938 ], [ -48.848958699999962, -26.750717899999977 ], [ -48.848972799999963, -26.750572099999932 ], [ -48.848930499999931, -26.75046169999997 ], [ -48.8489211, -26.750306599999934 ], [ -48.848947, -26.750005699999964 ], [ -48.849153799999954, -26.74914779999996 ], [ -48.849146799999978, -26.749096099999971 ], [ -48.848817699999984, -26.748663699999963 ], [ -48.848573299999941, -26.748219499999944 ], [ -48.848542699999932, -26.748090199999979 ], [ -48.848495699999937, -26.747883399999974 ], [ -48.848437, -26.747685899999968 ], [ -48.848371199999974, -26.747523799999954 ], [ -48.848246599999989, -26.747413299999938 ], [ -48.848044499999958, -26.74729339999994 ], [ -48.847823499999947, -26.747081899999952 ], [ -48.847691899999973, -26.746821 ], [ -48.847575699999943, -26.746144399999935 ], [ -48.847560299999948, -26.746054799999968 ], [ -48.847485099999972, -26.745716299999973 ], [ -48.847419299999956, -26.745502499999933 ], [ -48.847348799999963, -26.745347299999938 ], [ -48.84708789999997, -26.74491959999995 ], [ -48.846923299999958, -26.744480099999976 ], [ -48.846822299999985, -26.74435549999998 ], [ -48.846345199999973, -26.743819599999934 ], [ -48.846262899999942, -26.743671499999955 ], [ -48.846220599999974, -26.743528199999957 ], [ -48.84622759999997, -26.74340129999997 ], [ -48.846248799999955, -26.743159199999983 ], [ -48.846232299999947, -26.74259509999996 ], [ -48.846187699999973, -26.742479899999982 ], [ -48.845912699999985, -26.742040399999947 ], [ -48.845882099999983, -26.741918199999937 ], [ -48.84578949999996, -26.741226699999959 ], [ -48.845493299999937, -26.741350699999931 ], [ -48.845122199999935, -26.74146559999997 ], [ -48.844851599999977, -26.741565499999972 ], [ -48.844721299999946, -26.741627399999967 ], [ -48.844617299999982, -26.741694299999939 ], [ -48.84452639999995, -26.741766199999972 ], [ -48.844431499999985, -26.741863 ], [ -48.844221199999943, -26.742119799999948 ], [ -48.844021699999978, -26.742357899999952 ], [ -48.843843199999981, -26.742571599999966 ], [ -48.843562899999931, -26.742900599999931 ], [ -48.843423, -26.743054499999971 ], [ -48.843316, -26.743142699999968 ], [ -48.843238299999939, -26.743216899999922 ], [ -48.84308679999998, -26.74339609999992 ], [ -48.84295179999998, -26.743568899999964 ], [ -48.84288429999998, -26.74365059999996 ], [ -48.842597, -26.743939399999931 ], [ -48.842478699999951, -26.744065199999955 ], [ -48.842389099999934, -26.744200899999953 ], [ -48.84230249999996, -26.744322499999949 ], [ -48.842224299999941, -26.744393899999984 ], [ -48.842077899999936, -26.744498699999959 ], [ -48.841879199999944, -26.744599 ], [ -48.841784299999972, -26.744633199999949 ], [ -48.841668699999964, -26.744661499999957 ], [ -48.841521899999975, -26.744674299999915 ], [ -48.841373299999987, -26.744673899999963 ], [ -48.841207099999963, -26.744658299999969 ], [ -48.840886, -26.744593299999959 ], [ -48.840793899999937, -26.744588199999949 ], [ -48.840655599999941, -26.744597299999946 ], [ -48.840515099999948, -26.744608399999951 ], [ -48.84038319999997, -26.744610099999935 ], [ -48.840178, -26.744595599999979 ], [ -48.840067599999934, -26.744582799999922 ], [ -48.839955699999962, -26.744571699999934 ], [ -48.839871799999969, -26.744579799999951 ], [ -48.839762699999937, -26.744593199999933 ], [ -48.839590199999975, -26.744637499999946 ], [ -48.83944269999995, -26.744689699999981 ], [ -48.839280099999939, -26.744764299999922 ], [ -48.839089499999943, -26.744877799999987 ], [ -48.839010499999972, -26.744939199999987 ], [ -48.83894, -26.745013199999963 ], [ -48.838873, -26.745100899999965 ], [ -48.838827399999964, -26.745184699999978 ], [ -48.838794299999968, -26.74527809999995 ], [ -48.838766299999975, -26.74542609999996 ], [ -48.838749899999989, -26.745519699999932 ], [ -48.838729899999976, -26.745582299999967 ], [ -48.838688799999936, -26.745649299999975 ], [ -48.838631, -26.745717899999928 ], [ -48.838562899999943, -26.745777 ], [ -48.838482499999934, -26.745822699999977 ], [ -48.838404499999967, -26.745849699999948 ], [ -48.8383348, -26.745869199999966 ], [ -48.838370899999973, -26.745986399999929 ], [ -48.838492299999984, -26.746382699999977 ], [ -48.838420199999973, -26.746664299999964 ], [ -48.838162399999938, -26.747223299999959 ] ] ], [ [ [ -48.875391399999955, -26.727227899999942 ], [ -48.8759826, -26.727418199999939 ], [ -48.876682499999951, -26.727710399999978 ], [ -48.876920299999938, -26.727893799999947 ], [ -48.877389199999982, -26.728335499999961 ], [ -48.878123099999982, -26.729015 ], [ -48.87849, -26.729361599999944 ], [ -48.878578299999958, -26.729538299999941 ], [ -48.878789, -26.729898399999971 ], [ -48.87918309999997, -26.73052359999997 ], [ -48.879359799999975, -26.730652699999943 ], [ -48.879665599999953, -26.730829399999944 ], [ -48.87985579999998, -26.730951699999942 ], [ -48.880277099999944, -26.731638 ], [ -48.880481, -26.732032099999962 ], [ -48.880528599999934, -26.732229199999949 ], [ -48.880610099999956, -26.732698099999936 ], [ -48.880718799999961, -26.732983499999946 ], [ -48.88098389999994, -26.733391199999971 ], [ -48.881262499999934, -26.733873599999981 ], [ -48.881459499999956, -26.734294899999949 ], [ -48.881595399999981, -26.734723 ], [ -48.881772099999985, -26.735375399999956 ], [ -48.881901199999966, -26.735681199999927 ], [ -48.882050699999979, -26.735878199999949 ], [ -48.882370099999946, -26.736163599999937 ], [ -48.882580699999949, -26.736313099999961 ], [ -48.882859299999957, -26.736421899999979 ], [ -48.883015599999972, -26.736612099999945 ], [ -48.883185499999961, -26.736904299999932 ], [ -48.883260299999968, -26.737155699999967 ], [ -48.883797099999981, -26.73735279999994 ], [ -48.884442599999943, -26.737597399999967 ], [ -48.885169699999949, -26.737896399999943 ], [ -48.885380399999974, -26.738093499999938 ], [ -48.885570599999937, -26.738365299999934 ], [ -48.885835699999973, -26.738786599999962 ], [ -48.886012299999948, -26.738963299999952 ], [ -48.886365699999949, -26.739146799999954 ], [ -48.886800599999958, -26.739377799999943 ], [ -48.887357799999961, -26.739568099999932 ], [ -48.887588799999953, -26.73956129999992 ], [ -48.887765499999944, -26.739629199999957 ], [ -48.887894599999981, -26.739771899999933 ], [ -48.887989699999935, -26.73981269999997 ], [ -48.88827509999993, -26.739914599999967 ], [ -48.888485799999955, -26.740050499999938 ], [ -48.88873719999998, -26.740111699999932 ], [ -48.888900299999932, -26.74017959999998 ], [ -48.889104199999963, -26.740329099999943 ], [ -48.889342, -26.740383499999947 ], [ -48.889566199999933, -26.740410699999927 ], [ -48.889641, -26.740553399999953 ], [ -48.889749699999982, -26.740702899999974 ], [ -48.889933199999973, -26.740784399999939 ], [ -48.8901982, -26.740825199999961 ], [ -48.890402099999967, -26.740818399999959 ], [ -48.890633099999945, -26.74074359999997 ], [ -48.890891299999971, -26.740777599999955 ], [ -48.891183499999947, -26.740818399999963 ], [ -48.89161839999997, -26.740818399999956 ], [ -48.89191059999996, -26.740899899999935 ], [ -48.892209599999944, -26.741015399999977 ], [ -48.892393099999943, -26.74109019999996 ], [ -48.892508599999985, -26.741226099999952 ], [ -48.89261049999994, -26.74126009999997 ], [ -48.892848299999969, -26.741226099999945 ], [ -48.893031799999967, -26.741280499999945 ], [ -48.89322889999994, -26.741450299999951 ], [ -48.893405599999937, -26.741722099999937 ], [ -48.893412299999966, -26.741864799999966 ], [ -48.893541499999969, -26.74196 ], [ -48.8937385, -26.741987199999976 ], [ -48.893922, -26.742123099999965 ], [ -48.893935599999971, -26.742279399999969 ], [ -48.893867599999965, -26.742415299999951 ], [ -48.89390839999993, -26.742578299999945 ], [ -48.89400349999994, -26.742646299999933 ], [ -48.894146199999966, -26.742659899999975 ], [ -48.894316099999969, -26.742673499999956 ], [ -48.894438399999956, -26.742748199999941 ], [ -48.894553899999941, -26.742857 ], [ -48.894900499999949, -26.743054 ], [ -48.895274199999953, -26.743339399999968 ], [ -48.895743099999954, -26.743597599999937 ], [ -48.895947, -26.743706399999937 ], [ -48.896069299999972, -26.743706399999947 ], [ -48.896273099999974, -26.743686 ], [ -48.896640099999956, -26.743686 ], [ -48.896932299999946, -26.743808299999955 ], [ -48.89714969999995, -26.743869399999934 ], [ -48.897455499999985, -26.74384909999997 ], [ -48.897768099999958, -26.743889799999966 ], [ -48.897951599999949, -26.743985 ], [ -48.898250599999983, -26.744066499999978 ], [ -48.898549599999967, -26.74411409999993 ], [ -48.898603899999955, -26.744182 ], [ -48.89876019999997, -26.744406299999973 ], [ -48.898950499999955, -26.744549 ], [ -48.89914749999997, -26.744671299999933 ], [ -48.899344599999949, -26.744752799999965 ], [ -48.899460099999942, -26.744746 ], [ -48.89958919999998, -26.744664499999942 ], [ -48.899711499999967, -26.744542199999959 ], [ -48.899820299999931, -26.744508199999931 ], [ -48.899942599999974, -26.74452859999996 ], [ -48.900085299999951, -26.744684899999974 ], [ -48.900275499999964, -26.744786799999925 ], [ -48.900445399999967, -26.744827599999955 ], [ -48.9007036, -26.744827599999947 ], [ -48.900921099999955, -26.744841199999936 ], [ -48.901118199999985, -26.74489549999992 ], [ -48.901281199999971, -26.745011 ], [ -48.901423899999941, -26.745153699999943 ], [ -48.901600599999938, -26.745235299999933 ], [ -48.901709299999936, -26.745180899999973 ], [ -48.901722899999989, -26.745048399999973 ], [ -48.901716099999938, -26.744902299999982 ], [ -48.901797699999982, -26.744756199999973 ], [ -48.901892799999985, -26.744674699999965 ], [ -48.902093299999933, -26.744569399999932 ], [ -48.902351499999959, -26.744494599999928 ], [ -48.902596099999982, -26.744365499999954 ], [ -48.902915499999949, -26.744209199999943 ], [ -48.903132899999946, -26.744158199999948 ], [ -48.903268799999978, -26.74415139999995 ], [ -48.903465899999958, -26.744175199999972 ], [ -48.903601799999926, -26.744243199999975 ], [ -48.903673199999957, -26.744338299999978 ], [ -48.90377849999993, -26.744508199999927 ], [ -48.90386, -26.744545599999984 ], [ -48.903955199999984, -26.744545599999974 ], [ -48.904029899999955, -26.744491199999974 ], [ -48.904159, -26.744399499999933 ], [ -48.904060499999957, -26.744229599999979 ], [ -48.903866799999946, -26.743893199999953 ], [ -48.903751299999954, -26.743753899999938 ], [ -48.903598399999971, -26.743580599999969 ], [ -48.903540699999958, -26.743376799999957 ], [ -48.903544099999976, -26.743142399999954 ], [ -48.903584799999976, -26.742948699999936 ], [ -48.903713899999957, -26.742690499999973 ], [ -48.903866799999946, -26.742510399999965 ], [ -48.904077499999964, -26.742296299999953 ], [ -48.904159, -26.74210609999994 ], [ -48.904196399999933, -26.741878399999955 ], [ -48.904288099999967, -26.741715399999972 ], [ -48.904369699999961, -26.741586199999968 ], [ -48.904583699999932, -26.741406199999972 ], [ -48.904597299999978, -26.741304199999941 ], [ -48.904566699999975, -26.74122269999998 ], [ -48.904536199999932, -26.741059599999971 ], [ -48.90456329999995, -26.740927099999968 ], [ -48.904774, -26.740774199999976 ], [ -48.90494729999994, -26.740679099999959 ], [ -48.904991399999972, -26.740580499999961 ], [ -48.904967699999986, -26.740471799999955 ], [ -48.904892899999936, -26.740369899999969 ], [ -48.904791, -26.740257799999938 ], [ -48.904675499999946, -26.740060699999962 ], [ -48.904509, -26.73972769999995 ], [ -48.904407, -26.739513699999968 ], [ -48.904227, -26.739425399999956 ], [ -48.903802299999938, -26.739279299999954 ], [ -48.903703699999937, -26.739187499999961 ], [ -48.903615399999978, -26.738990499999943 ], [ -48.903489699999966, -26.738756 ], [ -48.90337419999998, -26.738484199999963 ], [ -48.903289199999961, -26.73836869999996 ], [ -48.903109199999953, -26.7381377 ], [ -48.902867899999933, -26.737957599999948 ], [ -48.902704799999974, -26.737835299999968 ], [ -48.902633499999979, -26.737685799999937 ], [ -48.902677699999977, -26.737556699999963 ], [ -48.902840699999949, -26.737488699999975 ], [ -48.903037799999936, -26.737492099999937 ], [ -48.90320429999997, -26.737515899999948 ], [ -48.903445499999982, -26.737617799999953 ], [ -48.903625599999948, -26.737658599999975 ], [ -48.903802299999946, -26.737621199999964 ], [ -48.903931399999969, -26.737532899999959 ], [ -48.90400609999994, -26.737447899999957 ], [ -48.904019699999935, -26.737335799999979 ], [ -48.904002699999978, -26.737237299999936 ], [ -48.903951799999966, -26.737094599999985 ], [ -48.903955199999984, -26.736938299999956 ], [ -48.904023099999954, -26.736788799999932 ], [ -48.904084299999965, -26.736581499999932 ], [ -48.904135199999985, -26.736269 ], [ -48.904148799999973, -26.73597679999995 ], [ -48.904131799999966, -26.735857899999925 ], [ -48.904036699999949, -26.735691399999954 ], [ -48.903978899999963, -26.735538499999965 ], [ -48.9039959, -26.73534479999995 ], [ -48.904046899999976, -26.735185099999963 ], [ -48.904084299999965, -26.73495069999996 ], [ -48.904046899999976, -26.734774 ], [ -48.903968799999973, -26.73463809999998 ], [ -48.903758099999941, -26.734407099999945 ], [ -48.903455699999931, -26.734186199999954 ], [ -48.903354599999943, -26.734093299999987 ], [ -48.903119399999987, -26.733877 ], [ -48.902871299999958, -26.733686799999933 ], [ -48.902551899999935, -26.733415 ], [ -48.902456799999989, -26.733265499999966 ], [ -48.902191799999976, -26.732762599999948 ], [ -48.902066099999963, -26.732582499999985 ], [ -48.901882599999972, -26.732443199999977 ], [ -48.901502099999959, -26.732266599999942 ], [ -48.901342399999983, -26.732229199999949 ], [ -48.900829399999964, -26.732164599999983 ], [ -48.900656099999942, -26.732117099999979 ], [ -48.900425, -26.732001599999936 ], [ -48.899963, -26.73173649999995 ], [ -48.899742099999969, -26.731651599999957 ], [ -48.900030899999933, -26.731600599999979 ], [ -48.900425, -26.731485099999929 ], [ -48.90078519999998, -26.731362799999939 ], [ -48.900778399999972, -26.73108419999993 ], [ -48.901073, -26.730948899999923 ], [ -48.901079299999928, -26.730847899999965 ], [ -48.901083899999946, -26.73079389999997 ], [ -48.901107499999974, -26.730615299999943 ], [ -48.901096499999944, -26.730452699999947 ], [ -48.901097099999959, -26.730422499999975 ], [ -48.901103299999939, -26.730408299999969 ], [ -48.901128, -26.73038369999994 ], [ -48.901177499999967, -26.730361699999939 ], [ -48.901228099999969, -26.73034279999996 ], [ -48.901261599999948, -26.730325299999947 ], [ -48.901276799999955, -26.730311 ], [ -48.901289899999945, -26.730298699999938 ], [ -48.901331199999952, -26.730270699999949 ], [ -48.901385099999963, -26.730265699999947 ], [ -48.90148819999996, -26.730256199999936 ], [ -48.901546, -26.730230499999937 ], [ -48.901607799999965, -26.730217199999966 ], [ -48.901674399999933, -26.730223499999958 ], [ -48.901796899999972, -26.730247199999948 ], [ -48.901863299999945, -26.730271099999971 ], [ -48.901922299999967, -26.730273599999979 ], [ -48.901969099999974, -26.730271699999953 ], [ -48.902048, -26.730258099999951 ], [ -48.902120299999979, -26.730216299999935 ], [ -48.902152299999962, -26.730181699999953 ], [ -48.902176499999939, -26.73012429999994 ], [ -48.902191799999969, -26.730068199999952 ], [ -48.902207, -26.730048799999953 ], [ -48.902255199999956, -26.730031499999932 ], [ -48.902320799999984, -26.730001299999966 ], [ -48.902360399999964, -26.72997109999994 ], [ -48.902401799999943, -26.729910699999952 ], [ -48.902414499999963, -26.729863099999932 ], [ -48.902454199999966, -26.729769299999919 ], [ -48.902520799999934, -26.729691199999916 ], [ -48.902555399999976, -26.729642899999941 ], [ -48.902556799999957, -26.729602599999968 ], [ -48.902546699999959, -26.729577499999941 ], [ -48.902522699999963, -26.72956169999998 ], [ -48.902487299999954, -26.729561699999977 ], [ -48.902435699999955, -26.729568899999954 ], [ -48.902406299999939, -26.729562599999955 ], [ -48.902393, -26.72954749999997 ], [ -48.902382799999941, -26.729523399999945 ], [ -48.902375899999981, -26.729481899999943 ], [ -48.902374799999961, -26.729450099999958 ], [ -48.902385199999969, -26.729431099999935 ], [ -48.902407399999959, -26.729415499999959 ], [ -48.902520699999968, -26.729410899999934 ], [ -48.902602799999954, -26.729428199999969 ], [ -48.902634199999966, -26.729452 ], [ -48.902671, -26.729504599999917 ], [ -48.902782599999973, -26.729603 ], [ -48.902878799999947, -26.729671399999965 ], [ -48.90293389999993, -26.729697199999976 ], [ -48.903008599999964, -26.729718099999953 ], [ -48.903054599999962, -26.729720899999954 ], [ -48.903101, -26.729707799999982 ], [ -48.903224299999977, -26.729660399999936 ], [ -48.903310199999964, -26.729618799999962 ], [ -48.903439299999953, -26.729546 ], [ -48.903640099999961, -26.729439299999964 ], [ -48.903847599999956, -26.729348599999984 ], [ -48.903965299999982, -26.729312199999981 ], [ -48.90409139999997, -26.729304699999943 ], [ -48.904236399999945, -26.729324499999954 ], [ -48.904351299999973, -26.729342199999948 ], [ -48.904429299999954, -26.729346599999932 ], [ -48.904500499999983, -26.729335 ], [ -48.90457739999993, -26.729298 ], [ -48.904674499999949, -26.729234299999973 ], [ -48.904753299999982, -26.729190899999935 ], [ -48.904912299999978, -26.729131299999953 ], [ -48.905052599999976, -26.729124 ], [ -48.905261499999938, -26.729143199999946 ], [ -48.905397399999977, -26.729174 ], [ -48.905605599999951, -26.729229899999954 ], [ -48.905873099999951, -26.729337599999958 ], [ -48.906146499999977, -26.729412 ], [ -48.906303299999934, -26.729463799999959 ], [ -48.906418, -26.729495899999957 ], [ -48.906601199999947, -26.729556099999954 ], [ -48.906726299999946, -26.729602699999923 ], [ -48.906947399999979, -26.729720799999946 ], [ -48.907068599999945, -26.729780099999967 ], [ -48.907110899999964, -26.729791899999952 ], [ -48.907151499999934, -26.729796599999936 ], [ -48.907339199999967, -26.729806599999957 ], [ -48.907567, -26.729802599999967 ], [ -48.907838599999934, -26.729790899999951 ], [ -48.907965599999955, -26.729786899999965 ], [ -48.908062699999959, -26.729783799999936 ], [ -48.908201499999961, -26.729809599999939 ], [ -48.908317799999963, -26.729847199999934 ], [ -48.908364699999936, -26.729860099999943 ], [ -48.908416, -26.72987419999998 ], [ -48.908488599999949, -26.729876699999966 ], [ -48.908578099999943, -26.729862799999978 ], [ -48.908658499999952, -26.72983959999992 ], [ -48.908714699999962, -26.729831499999925 ], [ -48.908866499999931, -26.729826699999943 ], [ -48.909306399999934, -26.729983399999973 ], [ -48.909605399999975, -26.730173599999947 ], [ -48.910196599999956, -26.730296 ], [ -48.910794599999981, -26.730547399999974 ], [ -48.911188699999968, -26.730588099999959 ], [ -48.911576, -26.730581399999942 ], [ -48.912228399999954, -26.730493 ], [ -48.913009799999941, -26.730146499999947 ], [ -48.913553399999955, -26.729861099999926 ], [ -48.91370969999997, -26.729548499999964 ], [ -48.913988299999978, -26.729276699999954 ], [ -48.914491199999986, -26.72907959999997 ], [ -48.914817399999947, -26.728916499999958 ], [ -48.915231899999988, -26.728841799999941 ], [ -48.915340599999979, -26.728692299999974 ], [ -48.915442499999983, -26.728529199999969 ], [ -48.915992899999935, -26.728345699999984 ], [ -48.916339499999935, -26.728196199999942 ], [ -48.916604499999949, -26.728230199999917 ], [ -48.916971399999966, -26.728338899999983 ], [ -48.917419899999977, -26.728454399999968 ], [ -48.917698499999979, -26.728481599999949 ], [ -48.91795, -26.728447599999978 ], [ -48.918228599999964, -26.728474799999951 ], [ -48.918493599999977, -26.728712699999964 ], [ -48.918554699999966, -26.728991299999947 ], [ -48.918541199999943, -26.729426199999978 ], [ -48.918649899999934, -26.72951449999994 ], [ -48.919152699999977, -26.729643599999974 ], [ -48.919472099999943, -26.729765899999961 ], [ -48.919730299999976, -26.73005129999996 ], [ -48.919954599999976, -26.730275599999977 ], [ -48.92026709999994, -26.730309499999969 ], [ -48.920450599999981, -26.730234799999941 ], [ -48.920493099999931, -26.730374099999946 ], [ -48.920397899999955, -26.730809 ], [ -48.920357199999955, -26.731026399999966 ], [ -48.920207699999935, -26.731196299999958 ], [ -48.919871299999961, -26.731254099999937 ], [ -48.919653899999965, -26.731301599999927 ], [ -48.919470399999959, -26.731376399999935 ], [ -48.919293699999969, -26.731689 ], [ -48.919219, -26.732062699999979 ], [ -48.919083099999973, -26.732212199999925 ], [ -48.918852, -26.732354899999969 ], [ -48.918274399999973, -26.732504399999979 ], [ -48.917921099999951, -26.732864599999967 ], [ -48.917852499999981, -26.733309599999917 ], [ -48.917907499999956, -26.733686799999923 ], [ -48.917982199999983, -26.734026499999967 ], [ -48.91808419999996, -26.734203199999968 ], [ -48.918084199999953, -26.734359499999982 ], [ -48.917832699999963, -26.734488599999956 ], [ -48.917635699999948, -26.734726399999943 ], [ -48.917567699999942, -26.734971099999939 ], [ -48.917404599999934, -26.73517489999994 ], [ -48.917391099999975, -26.73548749999998 ], [ -48.917282299999954, -26.735759299999987 ], [ -48.917214399999978, -26.735936 ], [ -48.917214399999978, -26.736126299999963 ], [ -48.917431799999974, -26.736384499999929 ], [ -48.917785199999976, -26.736466 ], [ -48.918206499999947, -26.736438799999963 ], [ -48.918519099999976, -26.736398099999974 ], [ -48.9186074, -26.736384499999929 ], [ -48.918614199999979, -26.736235 ], [ -48.918566599999963, -26.736065099999966 ], [ -48.918573399999964, -26.735976799999953 ], [ -48.918797699999971, -26.735902 ], [ -48.919164599999924, -26.735881599999971 ], [ -48.919368499999955, -26.735827299999979 ], [ -48.919687799999963, -26.735847699999951 ], [ -48.920231499999943, -26.735983599999923 ], [ -48.920516899999932, -26.736173799999953 ], [ -48.920727499999948, -26.736432099999941 ], [ -48.92083619999994, -26.736608699999977 ], [ -48.920945, -26.736690299999953 ], [ -48.921230399999956, -26.736737799999947 ], [ -48.921441, -26.736737799999961 ], [ -48.921774, -26.736846599999971 ], [ -48.922052599999972, -26.737009599999972 ], [ -48.922399099999943, -26.737261099999955 ], [ -48.922813699999949, -26.737431 ], [ -48.923160199999984, -26.737587199999943 ], [ -48.923316499999942, -26.737702799999962 ], [ -48.923418399999946, -26.737893 ], [ -48.923506799999984, -26.738103699999947 ], [ -48.923601899999944, -26.7381784 ], [ -48.924002799999975, -26.738198799999967 ], [ -48.924288199999978, -26.738307499999969 ], [ -48.924553199999934, -26.738484199999952 ], [ -48.924954199999945, -26.738681299999939 ], [ -48.925293899999986, -26.738932699999967 ], [ -48.925504599999954, -26.738987099999978 ], [ -48.925783199999955, -26.738980299999973 ], [ -48.928290599999968, -26.737995 ], [ -48.928841, -26.737831899999954 ], [ -48.92922839999995, -26.737750299999963 ], [ -48.929507, -26.737451299999965 ], [ -48.929588499999959, -26.73724749999996 ], [ -48.929867099999967, -26.737152299999938 ], [ -48.930016599999931, -26.737261099999959 ], [ -48.930166099999951, -26.737458099999966 ], [ -48.93032919999996, -26.73743769999993 ], [ -48.93052629999994, -26.737403799999967 ], [ -48.930689299999983, -26.737424199999964 ], [ -48.930743699999944, -26.73727469999994 ], [ -48.930648599999984, -26.737186299999955 ], [ -48.930499099999963, -26.73697569999997 ], [ -48.930478699999988, -26.736710699999936 ], [ -48.930471899999986, -26.736574799999968 ], [ -48.930757299999982, -26.736493199999934 ], [ -48.931001899999956, -26.736615499999978 ], [ -48.931226199999969, -26.736805799999956 ], [ -48.931423199999976, -26.736792199999957 ], [ -48.931498, -26.736622299999969 ], [ -48.93152519999996, -26.73605149999997 ], [ -48.931498, -26.735671 ], [ -48.931443599999966, -26.735378799999978 ], [ -48.931199, -26.734271199999963 ], [ -48.931117399999948, -26.733870199999956 ], [ -48.931063099999967, -26.733571299999941 ], [ -48.930913599999947, -26.733347 ], [ -48.930546599999957, -26.73277619999994 ], [ -48.930295199999939, -26.732334499999975 ], [ -48.930268, -26.732049099999987 ], [ -48.93023409999995, -26.731743299999948 ], [ -48.93027479999995, -26.731546299999945 ], [ -48.930412399999973, -26.731281299999978 ], [ -48.930561899999987, -26.731192899999936 ], [ -48.930935699999964, -26.731077399999947 ], [ -48.93094259999998, -26.731077399999943 ], [ -48.931431699999962, -26.7309959 ], [ -48.931914199999937, -26.731016199999949 ], [ -48.932175799999982, -26.73099419999993 ], [ -48.932552699999981, -26.730884799999963 ], [ -48.932622, -26.730722299999957 ], [ -48.932821499999932, -26.730593599999956 ], [ -48.933075199999962, -26.730576599999949 ], [ -48.933629099999962, -26.730574499999939 ], [ -48.933862399999953, -26.730492799999983 ], [ -48.933894599999974, -26.730321199999924 ], [ -48.933372499999962, -26.72979029999993 ], [ -48.933152099999973, -26.7295501 ], [ -48.933035299999979, -26.729340499999978 ], [ -48.932991, -26.729076799999973 ], [ -48.933120299999985, -26.728624299999968 ], [ -48.933524199999965, -26.727889699999938 ], [ -48.933730199999964, -26.727208499999961 ], [ -48.933837699999962, -26.726635 ], [ -48.933914399999928, -26.726477199999977 ], [ -48.933951599999943, -26.726314799999955 ], [ -48.933874399999979, -26.726124899999938 ], [ -48.933735099999979, -26.726017099999986 ], [ -48.933443399999923, -26.72554109999993 ], [ -48.933193099999976, -26.725127099999948 ], [ -48.933000899999961, -26.724772399999942 ], [ -48.932764499999969, -26.724543499999982 ], [ -48.932456299999956, -26.724312599999951 ], [ -48.932255699999978, -26.72406529999995 ], [ -48.932117099999971, -26.723939099999928 ], [ -48.932302199999981, -26.723867499999979 ], [ -48.932547899999975, -26.723669399999942 ], [ -48.933463499999952, -26.723119499999932 ], [ -48.933967, -26.722775399999939 ], [ -48.934211899999973, -26.722467299999952 ], [ -48.934316199999955, -26.722168 ], [ -48.934356899999955, -26.721878799999956 ], [ -48.934344299999964, -26.721566199999977 ], [ -48.934366, -26.721385 ], [ -48.93447, -26.721062499999956 ], [ -48.934727099999968, -26.720710599999958 ], [ -48.934928299999967, -26.720320699999938 ], [ -48.935080199999959, -26.719912399999934 ], [ -48.935303599999941, -26.719711299999961 ], [ -48.935638799999936, -26.719629599999955 ], [ -48.935902099999957, -26.719638799999927 ], [ -48.936200199999966, -26.719710199999948 ], [ -48.936457699999949, -26.719860499999982 ], [ -48.937896099999925, -26.720848699999973 ], [ -48.939266399999951, -26.721386599999963 ], [ -48.939668, -26.721533899999944 ], [ -48.940272, -26.721569899999963 ], [ -48.940755, -26.721194599999915 ], [ -48.941123199999929, -26.720831699999966 ], [ -48.941725499999961, -26.720561399999955 ], [ -48.943344199999956, -26.719479399999951 ], [ -48.943594, -26.719399599999971 ], [ -48.943850499999947, -26.71942569999992 ], [ -48.944072799999958, -26.719490199999935 ], [ -48.944498899999985, -26.719449299999948 ], [ -48.945213399999936, -26.719315199999986 ], [ -48.945696499999947, -26.719302699999957 ], [ -48.946035099999968, -26.71926179999997 ], [ -48.946229599999974, -26.719023599999954 ], [ -48.946134699999959, -26.718592299999958 ], [ -48.946006199999943, -26.71839429999994 ], [ -48.945919899999978, -26.718255399999975 ], [ -48.945919699999926, -26.718112799999968 ], [ -48.945986299999959, -26.718007699999919 ], [ -48.946136199999955, -26.717881499999972 ], [ -48.946956099999973, -26.717622099999971 ], [ -48.948708199999942, -26.717296799999922 ], [ -48.948931299999977, -26.717270399999968 ], [ -48.9492183, -26.717322699999951 ], [ -48.949359, -26.717330299999951 ], [ -48.949532899999951, -26.717290799999951 ], [ -48.949687099999949, -26.717159899999963 ], [ -48.949782399999947, -26.716973399999972 ], [ -48.949780399999959, -26.716765199999937 ], [ -48.949702399999978, -26.716508099999938 ], [ -48.9496635, -26.716378899999931 ], [ -48.949677299999962, -26.716179499999946 ], [ -48.949663199999975, -26.716044399999923 ], [ -48.94953959999998, -26.715897 ], [ -48.949403699999955, -26.715635499999969 ], [ -48.948921, -26.715182 ], [ -48.948866199999948, -26.715335499999984 ], [ -48.948719299999937, -26.71550429999996 ], [ -48.948008199999947, -26.715643099999951 ], [ -48.947175099999988, -26.71614889999994 ], [ -48.946609799999983, -26.716461299999924 ], [ -48.94544939999998, -26.717458099999931 ], [ -48.944828199999961, -26.717807499999935 ], [ -48.944483499999933, -26.718311599999922 ], [ -48.944274299999968, -26.718617599999952 ], [ -48.943277599999938, -26.718842699999975 ], [ -48.94216839999995, -26.71921239999994 ], [ -48.9410592, -26.719614299999925 ], [ -48.939773199999934, -26.719791099999945 ], [ -48.938905099999943, -26.720016199999968 ], [ -48.937956699999972, -26.719742899999972 ], [ -48.936509899999969, -26.719035599999984 ], [ -48.935722199999987, -26.71887479999997 ], [ -48.934677299999976, -26.719132 ], [ -48.934208399999939, -26.719680699999969 ], [ -48.933423399999988, -26.720209099999973 ], [ -48.932475, -26.720016199999968 ], [ -48.931872799999944, -26.719145799999971 ], [ -48.930986399999931, -26.718195899999955 ], [ -48.930151599999931, -26.717782299999953 ], [ -48.930130199999944, -26.717771699999957 ], [ -48.930107799999973, -26.717760599999966 ], [ -48.926698199999983, -26.716071399999972 ], [ -48.924895699999979, -26.713110099999945 ], [ -48.920850099999939, -26.710924699999964 ], [ -48.919150099999968, -26.709344099999957 ], [ -48.917206699999952, -26.706667799999945 ], [ -48.91399679999995, -26.704408899999983 ], [ -48.913919899999939, -26.701783299999917 ], [ -48.908728299999957, -26.701729599999961 ], [ -48.908730599999956, -26.70544309999995 ], [ -48.905137, -26.706735199999965 ], [ -48.90409939999995, -26.707498399999967 ], [ -48.904064299999959, -26.707524099999933 ], [ -48.903797699999984, -26.707227599999939 ], [ -48.903539099999932, -26.707027499999974 ], [ -48.903218399999957, -26.706915199999973 ], [ -48.902709099999981, -26.706852599999937 ], [ -48.902413199999955, -26.706785 ], [ -48.902133099999958, -26.706593299999948 ], [ -48.901974399999972, -26.706390299999953 ], [ -48.901856899999977, -26.706103 ], [ -48.901684799999948, -26.705747699999968 ], [ -48.901010699999972, -26.705082799999946 ], [ -48.900748299999982, -26.704643099999942 ], [ -48.900625, -26.704123299999925 ], [ -48.900612, -26.70323789999998 ], [ -48.900666299999955, -26.702727 ], [ -48.900761799999941, -26.702297399999964 ], [ -48.901086599999985, -26.701920099999946 ], [ -48.901333899999941, -26.701670499999981 ], [ -48.901719499999963, -26.701538399999937 ], [ -48.901913099999945, -26.701373399999969 ], [ -48.90229949999997, -26.700738399999974 ], [ -48.902332399999985, -26.700309699999924 ], [ -48.902393, -26.699990899999932 ], [ -48.902586099999951, -26.699651199999945 ], [ -48.902708299999972, -26.699071399999983 ], [ -48.903052499999944, -26.698665799999951 ], [ -48.903265499999982, -26.698343399999938 ], [ -48.903414299999952, -26.697810899999983 ], [ -48.903514, -26.697519899999978 ], [ -48.903630499999963, -26.697178199999943 ], [ -48.903654499999959, -26.696867 ], [ -48.903736199999969, -26.69577489999995 ], [ -48.903798499999937, -26.695425 ], [ -48.903956799999953, -26.694457599999971 ], [ -48.905042499999986, -26.693905299999983 ], [ -48.905760699999973, -26.693683699999955 ], [ -48.906355899999937, -26.69373609999996 ], [ -48.906589099999962, -26.693742199999985 ], [ -48.906731899999947, -26.693681799999975 ], [ -48.906754199999966, -26.693520399999954 ], [ -48.906717799999974, -26.693333199999984 ], [ -48.906608199999937, -26.693160799999919 ], [ -48.906554699999958, -26.693003799999929 ], [ -48.906584099999975, -26.692899099999977 ], [ -48.906649199999947, -26.692821099999936 ], [ -48.90681109999997, -26.692733799999921 ], [ -48.906954, -26.692682699999963 ], [ -48.907103699999944, -26.692684199999977 ], [ -48.90696139999995, -26.692385299999948 ], [ -48.90689679999997, -26.692033 ], [ -48.906923, -26.691621599999962 ], [ -48.906807499999957, -26.691381399999951 ], [ -48.906406299999958, -26.691045799999976 ], [ -48.905957699999924, -26.69076269999994 ], [ -48.904735699999947, -26.690125499999962 ], [ -48.904242099999976, -26.689829599999936 ], [ -48.904056599999933, -26.689684199999931 ], [ -48.90389619999997, -26.689558599999945 ], [ -48.903690099999942, -26.689261399999971 ], [ -48.903693499999974, -26.688965 ], [ -48.903896699999962, -26.688468 ], [ -48.903947, -26.6882414 ], [ -48.903903799999966, -26.687938299999924 ], [ -48.903766299999972, -26.687685899999963 ], [ -48.903414099999964, -26.687147899999957 ], [ -48.902577699999938, -26.685657199999987 ], [ -48.902112399999965, -26.685234499999979 ], [ -48.902042499999936, -26.684938899999963 ], [ -48.902136599999956, -26.68415889999994 ], [ -48.901185099999964, -26.682416899999961 ], [ -48.90003309999998, -26.681115599999931 ], [ -48.8994024, -26.680621699999957 ], [ -48.89909149999994, -26.680454899999969 ], [ -48.898931199999936, -26.680157299999955 ], [ -48.898775299999954, -26.679681599999981 ], [ -48.898555799999933, -26.6792 ], [ -48.89845559999997, -26.678857399999977 ], [ -48.897889599999985, -26.677750599999968 ], [ -48.897459099999935, -26.677364599999979 ], [ -48.897279899999944, -26.677234799999955 ], [ -48.897145499999958, -26.677058299999953 ], [ -48.896599899999956, -26.67647049999994 ], [ -48.896307699999966, -26.676053799999977 ], [ -48.896210599999961, -26.675847599999933 ], [ -48.896146299999941, -26.675656 ], [ -48.896187299999951, -26.675533199999954 ], [ -48.896019299999978, -26.674994099999942 ], [ -48.895778, -26.674631699999974 ], [ -48.895579099999964, -26.674249899999946 ], [ -48.89530579999996, -26.673997699999976 ], [ -48.894861399999975, -26.673785099999961 ], [ -48.894551799999931, -26.673585699999943 ], [ -48.894049499999937, -26.672864 ], [ -48.893475099999932, -26.672396599999946 ], [ -48.892468799999961, -26.671956399999942 ], [ -48.892428, -26.672608399999945 ], [ -48.892232899999961, -26.672835499999959 ], [ -48.891823899999963, -26.672871599999944 ], [ -48.891680299999969, -26.673087499999941 ], [ -48.891587099999981, -26.673565099999955 ], [ -48.891352799999936, -26.673642199999961 ], [ -48.891140199999938, -26.673777499999971 ], [ -48.891290799999972, -26.674031399999933 ], [ -48.890880399999965, -26.673933299999923 ], [ -48.89070159999995, -26.673801099999942 ], [ -48.890414099999923, -26.673296 ], [ -48.889916699999958, -26.672961799999943 ], [ -48.88931039999995, -26.672876299999924 ], [ -48.888959399999983, -26.672877099999937 ], [ -48.888887499999953, -26.673043599999968 ], [ -48.888566099999935, -26.673287099999978 ], [ -48.888334699999966, -26.673481 ], [ -48.888248799999985, -26.673765599999967 ], [ -48.887989199999943, -26.673801099999938 ], [ -48.887740499999957, -26.67368459999993 ], [ -48.887227499999931, -26.673552399999963 ], [ -48.887247, -26.673984099999931 ], [ -48.887520299999942, -26.674236299999965 ], [ -48.887719199999943, -26.674618199999948 ], [ -48.8879606, -26.674980499999936 ], [ -48.888052499999958, -26.675236599999955 ], [ -48.888128599999952, -26.675519599999973 ], [ -48.888087499999983, -26.67564249999997 ], [ -48.888151799999946, -26.675834 ], [ -48.888249, -26.676040199999928 ], [ -48.888541199999963, -26.676456899999955 ], [ -48.888785299999931, -26.676722399999967 ], [ -48.889086799999973, -26.677044699999957 ], [ -48.889221199999959, -26.67722119999997 ], [ -48.889400299999984, -26.677351 ], [ -48.889830899999936, -26.677737 ], [ -48.890190599999983, -26.678431099999958 ], [ -48.890396799999962, -26.678843799999974 ], [ -48.890497099999948, -26.679186399999928 ], [ -48.890716599999962, -26.679668099999958 ], [ -48.890872499999944, -26.680143699999974 ], [ -48.891032799999955, -26.680441399999946 ], [ -48.891343699999936, -26.680608199999945 ], [ -48.891519399999936, -26.68075889999994 ], [ -48.891974399999988, -26.681102 ], [ -48.892163399999966, -26.681318799999922 ], [ -48.892411199999977, -26.681603 ], [ -48.893126399999971, -26.682403299999972 ], [ -48.89334659999998, -26.682883199999935 ], [ -48.893666599999953, -26.683471599999965 ], [ -48.893889, -26.683821499999969 ], [ -48.894077799999934, -26.684145399999984 ], [ -48.894067499999949, -26.684437899999971 ], [ -48.893983799999951, -26.684925399999923 ], [ -48.894053599999943, -26.685220899999933 ], [ -48.894270899999981, -26.685385 ], [ -48.894519, -26.685643599999931 ], [ -48.895355399999978, -26.687134299999961 ], [ -48.895707599999987, -26.687672299999978 ], [ -48.895845099999974, -26.68792469999994 ], [ -48.895888199999945, -26.688227799999932 ], [ -48.895838, -26.688454399999955 ], [ -48.895634799999982, -26.688951499999963 ], [ -48.895631399999957, -26.689247799999983 ], [ -48.895837499999978, -26.689545 ], [ -48.896183399999984, -26.689816 ], [ -48.89661, -26.690075699999959 ], [ -48.897440799999977, -26.690513099999979 ], [ -48.897898899999973, -26.690749199999956 ], [ -48.898347599999965, -26.691032199999942 ], [ -48.898748799999964, -26.691367799999966 ], [ -48.898864299999964, -26.691608099999936 ], [ -48.898838, -26.692019499999962 ], [ -48.898902699999951, -26.692371699999967 ], [ -48.89909339999997, -26.692772399999967 ], [ -48.899421399999937, -26.693073799999972 ], [ -48.899651599999977, -26.69337569999993 ], [ -48.899828699999951, -26.693816399999946 ], [ -48.899913099999942, -26.694410299999959 ], [ -48.89975469999996, -26.695377699999934 ], [ -48.899692499999951, -26.695727599999934 ], [ -48.899586799999959, -26.697130899999927 ], [ -48.899470199999946, -26.697472599999973 ], [ -48.899439399999942, -26.69756249999994 ], [ -48.899370599999941, -26.697763499999954 ], [ -48.899221799999971, -26.698296099999936 ], [ -48.899008699999975, -26.698618499999949 ], [ -48.898664499999931, -26.699024099999981 ], [ -48.89854239999994, -26.69960389999995 ], [ -48.89834929999995, -26.699941599999946 ], [ -48.898288699999966, -26.700262399999932 ], [ -48.898255799999959, -26.700691099999979 ], [ -48.897869399999934, -26.70132609999995 ], [ -48.897675799999945, -26.701491099999945 ], [ -48.897290099999971, -26.701623199999965 ], [ -48.897042799999952, -26.701872799999933 ], [ -48.89671809999993, -26.702250099999954 ], [ -48.896622599999937, -26.702679699999983 ], [ -48.896568299999956, -26.703190599999978 ], [ -48.896581199999957, -26.704076 ], [ -48.896704499999949, -26.704595799999939 ], [ -48.896967, -26.705035499999951 ], [ -48.89764109999993, -26.705700399999959 ], [ -48.897813099999951, -26.706055699999979 ], [ -48.897930699999968, -26.706343 ], [ -48.898089399999947, -26.706546 ], [ -48.898369499999944, -26.706737699999955 ], [ -48.89866539999997, -26.706805299999928 ], [ -48.899174699999946, -26.706867899999956 ], [ -48.899495299999955, -26.706980199999975 ], [ -48.899754099999939, -26.707180499999936 ], [ -48.900020599999948, -26.707476699999969 ], [ -48.900044499999979, -26.70767179999995 ], [ -48.902259899999933, -26.707509499999954 ], [ -48.902568399999957, -26.707623099999974 ], [ -48.902728, -26.708007599999966 ], [ -48.902761799999951, -26.708563099999928 ], [ -48.902698199999975, -26.709127199999958 ], [ -48.903063099999947, -26.70910019999997 ], [ -48.903061399999956, -26.709145899999946 ], [ -48.903061, -26.709190399999947 ], [ -48.903063399999951, -26.709243199999939 ], [ -48.903068199999957, -26.709313 ], [ -48.903071199999943, -26.709343699999973 ], [ -48.903074899999979, -26.709373399999944 ], [ -48.903085, -26.709439699999969 ], [ -48.903093499999954, -26.709483099999943 ], [ -48.903099499999939, -26.709505899999947 ], [ -48.903105799999942, -26.709525799999934 ], [ -48.903113599999976, -26.709547199999978 ], [ -48.903119099999969, -26.709559399999925 ], [ -48.903130899999951, -26.709575499999975 ], [ -48.903139199999941, -26.70957959999998 ], [ -48.903148599999952, -26.709584299999953 ], [ -48.903164299999958, -26.709586699999932 ], [ -48.903198799999984, -26.709588099999955 ], [ -48.903280499999937, -26.709588399999969 ], [ -48.903336799999984, -26.709588099999966 ], [ -48.903412399999986, -26.709586799999951 ], [ -48.903438699999981, -26.709586899999969 ], [ -48.90351169999996, -26.709590199999976 ], [ -48.903535499999975, -26.709592 ], [ -48.903553599999952, -26.709594099999943 ], [ -48.90357379999994, -26.709597599999938 ], [ -48.903597699999978, -26.709603299999959 ], [ -48.903684099999957, -26.709627299999948 ], [ -48.90373, -26.70963919999997 ], [ -48.903761299999985, -26.709646399999933 ], [ -48.903824, -26.709659399999964 ], [ -48.903855199999953, -26.709667 ], [ -48.903881, -26.709675699999938 ], [ -48.90390309999998, -26.709685899999958 ], [ -48.903918899999951, -26.709694799999966 ], [ -48.903929299999966, -26.709701499999934 ], [ -48.903939499999979, -26.709709099999941 ], [ -48.903969899999936, -26.709734899999933 ], [ -48.903990199999946, -26.709756 ], [ -48.904027399999961, -26.709799499999974 ], [ -48.904045799999949, -26.709823099999944 ], [ -48.904052199999967, -26.709834 ], [ -48.904058199999952, -26.709848699999956 ], [ -48.904060899999926, -26.709859399999974 ], [ -48.904062499999952, -26.709873299999963 ], [ -48.904061899999924, -26.709887 ], [ -48.904060099999974, -26.709897399999932 ], [ -48.904055399999947, -26.709910799999939 ], [ -48.904050099999949, -26.709920299999958 ], [ -48.904040699999932, -26.70993319999997 ], [ -48.904022599999969, -26.709954899999961 ], [ -48.903981, -26.709999499999984 ], [ -48.903966199999964, -26.710016699999976 ], [ -48.903922899999941, -26.710074 ], [ -48.903898499999968, -26.710103499999942 ], [ -48.903861899999974, -26.710143499999965 ], [ -48.903800699999977, -26.710207099999931 ], [ -48.903769599999983, -26.710242299999944 ], [ -48.903755399999966, -26.710260199999933 ], [ -48.903744899999928, -26.710275 ], [ -48.903734699999973, -26.710292 ], [ -48.903726399999975, -26.710308599999951 ], [ -48.903717799999988, -26.710329599999959 ], [ -48.903712299999938, -26.710350399999967 ], [ -48.903709299999946, -26.710375299999953 ], [ -48.903708599999952, -26.710392499999962 ], [ -48.903708899999977, -26.710404099999938 ], [ -48.903711499999986, -26.710425399999952 ], [ -48.903716399999951, -26.710445 ], [ -48.903724799999964, -26.710469199999974 ], [ -48.903731, -26.710483399999926 ], [ -48.903735599999941, -26.71049249999993 ], [ -48.903746099999971, -26.710509199999933 ], [ -48.903761399999958, -26.710528 ], [ -48.903816, -26.71058359999995 ], [ -48.903857899999942, -26.710631899999957 ], [ -48.90386959999995, -26.710644399999978 ], [ -48.903882599999974, -26.710656499999978 ], [ -48.9038973, -26.710668099999957 ], [ -48.903913399999972, -26.710678899999948 ], [ -48.903924699999948, -26.710685499999958 ], [ -48.90395419999993, -26.710700299999917 ], [ -48.90399089999994, -26.710715499999935 ], [ -48.904054199999962, -26.710739 ], [ -48.904075099999943, -26.710748299999977 ], [ -48.904090299999957, -26.710756699999937 ], [ -48.904100199999959, -26.710763199999978 ], [ -48.90411, -26.710770499999953 ], [ -48.904119699999967, -26.710778799999964 ], [ -48.904133699999939, -26.710792699999953 ], [ -48.904146899999951, -26.710808499999924 ], [ -48.904203499999937, -26.710886199999948 ], [ -48.904220099999982, -26.710907199999951 ], [ -48.904243299999962, -26.710934499999958 ], [ -48.90426089999994, -26.710954 ], [ -48.90428419999995, -26.710978199999932 ], [ -48.9043554, -26.711048499999936 ], [ -48.904376899999939, -26.711073099999961 ], [ -48.904398, -26.711102399999969 ], [ -48.904407599999956, -26.711117699999928 ], [ -48.904415899999947, -26.711132499999962 ], [ -48.904427299999952, -26.711157499999956 ], [ -48.904457799999939, -26.711233699999973 ], [ -48.90447469999998, -26.711270399999922 ], [ -48.904485199999954, -26.7112906 ], [ -48.904496199999983, -26.711309599999932 ], [ -48.904508399999941, -26.711329 ], [ -48.904522799999938, -26.711350199999966 ], [ -48.904545299999945, -26.711381199999952 ], [ -48.904563799999949, -26.711404899999927 ], [ -48.904589499999986, -26.711435799999936 ], [ -48.904644499999961, -26.711499499999938 ], [ -48.90466, -26.711518299999963 ], [ -48.904673899999977, -26.711536699999961 ], [ -48.904691899999939, -26.711564199999934 ], [ -48.904727099999945, -26.711626399999933 ], [ -48.904743499999931, -26.711653899999931 ], [ -48.904766, -26.711688099999954 ], [ -48.90478329999997, -26.711711499999975 ], [ -48.904806899999976, -26.711740199999955 ], [ -48.904879299999948, -26.711823 ], [ -48.90493749999996, -26.711894 ], [ -48.904984899999931, -26.711949399999984 ], [ -48.905005399999943, -26.71197559999996 ], [ -48.905017799999939, -26.711993699999933 ], [ -48.905028699999939, -26.712011799999978 ], [ -48.905063799999937, -26.712077299999976 ], [ -48.90508159999996, -26.712113299999945 ], [ -48.905105, -26.712167899999947 ], [ -48.905112599999939, -26.712182899999959 ], [ -48.905125599999955, -26.712204299999946 ], [ -48.905140699999947, -26.712224799999944 ], [ -48.905157699999961, -26.712245099999954 ], [ -48.90521659999996, -26.712308699999941 ], [ -48.90525, -26.712346499999963 ], [ -48.905269, -26.712369499999955 ], [ -48.905293499999964, -26.712401199999935 ], [ -48.905318199999954, -26.712434899999955 ], [ -48.905347499999948, -26.712476299999928 ], [ -48.905484, -26.712675199999982 ], [ -48.905508899999965, -26.712709499999953 ], [ -48.9055575, -26.712774399999944 ], [ -48.905584099999949, -26.712811799999933 ], [ -48.905616399999985, -26.712861 ], [ -48.905653199999961, -26.712917199999925 ], [ -48.905694199999971, -26.712977799999969 ], [ -48.905225399999956, -26.713131 ], [ -48.905171699999983, -26.713148499999928 ], [ -48.905102799999952, -26.713170799999933 ], [ -48.904871599999986, -26.713246699999964 ], [ -48.902474599999955, -26.714194299999964 ], [ -48.901105099999945, -26.715933 ], [ -48.898866299999959, -26.716754699999957 ], [ -48.89584149999996, -26.718362299999981 ], [ -48.891185299999968, -26.718279 ], [ -48.889923, -26.718683899999977 ], [ -48.889055399999961, -26.7194909 ], [ -48.889038599999942, -26.719505699999957 ], [ -48.889019299999966, -26.719524499999977 ], [ -48.888282299999958, -26.720211899999981 ], [ -48.885981199999947, -26.720232 ], [ -48.884329799999932, -26.720173799999944 ], [ -48.884306599999945, -26.720172899999969 ], [ -48.884276799999952, -26.720171899999972 ], [ -48.88363819999995, -26.720150299999951 ], [ -48.883608699999975, -26.72015 ], [ -48.88358379999994, -26.720149299999953 ], [ -48.883255099999985, -26.720136699999951 ], [ -48.880838199999978, -26.720222599999936 ], [ -48.879646, -26.720547499999959 ], [ -48.879618, -26.720555399999959 ], [ -48.879589399999986, -26.720562599999933 ], [ -48.8792663, -26.720641599999965 ], [ -48.879118099999971, -26.720660699999943 ], [ -48.879095099999972, -26.720664399999979 ], [ -48.879081499999984, -26.720670599999952 ], [ -48.878813099999945, -26.720800499999935 ], [ -48.877433099999962, -26.722295799999976 ], [ -48.876358899999957, -26.723305499999974 ], [ -48.87497319999995, -26.723788899999935 ], [ -48.872944799999978, -26.724251399999961 ], [ -48.872958899999958, -26.724315099999949 ], [ -48.872958399999959, -26.724377099999963 ], [ -48.872948799999953, -26.724438699999954 ], [ -48.872945099999974, -26.724578299999965 ], [ -48.872958799999935, -26.724648799999954 ], [ -48.873024899999962, -26.724852099999957 ], [ -48.873085299999957, -26.725059499999929 ], [ -48.873095, -26.725193799999936 ], [ -48.873089799999946, -26.725280199999933 ], [ -48.87307009999995, -26.725328 ], [ -48.873016499999942, -26.725341299999968 ], [ -48.872993899999983, -26.725348599999961 ], [ -48.87297929999994, -26.725360899999934 ], [ -48.872972699999934, -26.725386699999952 ], [ -48.872979799999946, -26.72540239999995 ], [ -48.873011899999938, -26.725425899999948 ], [ -48.873041699999938, -26.725441 ], [ -48.873153, -26.725481699999943 ], [ -48.873088499999938, -26.725718599999944 ], [ -48.873083199999932, -26.725765499999962 ], [ -48.873119499999966, -26.725911699999983 ], [ -48.873162499999985, -26.726085 ], [ -48.873147299999978, -26.726248499999947 ], [ -48.873132799999944, -26.726346 ], [ -48.873123099999923, -26.726411799999923 ], [ -48.873127799999963, -26.726463899999931 ], [ -48.873151599999971, -26.726521799999944 ], [ -48.873172399999937, -26.72657259999994 ], [ -48.87318149999993, -26.72660379999996 ], [ -48.873195099999975, -26.726665199999964 ], [ -48.873300599999943, -26.726579399999949 ], [ -48.87337279999997, -26.726535 ], [ -48.873463799999975, -26.726494199999927 ], [ -48.873535199999935, -26.726495199999931 ], [ -48.873570699999966, -26.72650589999995 ], [ -48.87361709999994, -26.726538599999969 ], [ -48.873735099999976, -26.726660099999943 ], [ -48.873825399999923, -26.726752499999968 ], [ -48.873877, -26.726798199999958 ], [ -48.873988599999961, -26.726871299999971 ], [ -48.874053899999979, -26.726899299999946 ], [ -48.874132499999973, -26.72691559999998 ], [ -48.87421819999998, -26.72691529999997 ], [ -48.874234, -26.726913799999974 ], [ -48.874311599999949, -26.726882899999957 ], [ -48.874443699999972, -26.726793699999966 ], [ -48.874595799999959, -26.726699899999971 ], [ -48.874673599999944, -26.726657199999977 ], [ -48.874741699999959, -26.726634599999961 ], [ -48.874831699999966, -26.726627399999924 ], [ -48.875000099999966, -26.72662959999996 ], [ -48.875060699999949, -26.726636699999961 ], [ -48.875157299999955, -26.726647 ], [ -48.875269599999967, -26.72665759999995 ], [ -48.875282399999946, -26.726843199999955 ], [ -48.875300799999934, -26.727111099999949 ], [ -48.875391399999955, -26.727227899999942 ] ] ] ] } }
]
}
