{
"type": "FeatureCollection",
"name": "4213609",
"crs": { "type": "name", "properties": { "name": "urn:ogc:def:crs:OGC:1.3:CRS84" } },
"features": [
{ "type": "Feature", "properties": { "CD_MUN": "4213609", "NM_MUN": "Porto União" }, "geometry": { "type": "MultiPolygon", "coordinates": [ [ [ [ -50.875951499999985, -26.38490969999998 ], [ -50.875948, -26.384964799999974 ], [ -50.875944499999946, -26.385031799999972 ], [ -50.875917799999968, -26.385634499999981 ], [ -50.875915399999947, -26.385682699999958 ], [ -50.875860699999976, -26.385765 ], [ -50.875809899999979, -26.386549599999963 ], [ -50.875685399999952, -26.388419 ], [ -50.875590299999942, -26.389122899999947 ], [ -50.875580799999966, -26.389624499999968 ], [ -50.875584599999968, -26.390062099999973 ], [ -50.875622399999941, -26.390363699999959 ], [ -50.875676, -26.390366699999952 ], [ -50.878522699999962, -26.390525399999955 ], [ -50.878596, -26.390529399999934 ], [ -50.878687199999952, -26.390535199999928 ], [ -50.879732799999942, -26.390594599999925 ], [ -50.879682199999934, -26.391209399999969 ], [ -50.879678199999944, -26.391265199999971 ], [ -50.879964699999967, -26.39128379999994 ], [ -50.882327499999967, -26.391431099999973 ], [ -50.882527699999969, -26.389062599999932 ], [ -50.88254, -26.388917199999984 ], [ -50.882555599999932, -26.388739199999971 ], [ -50.882705699999981, -26.38702939999995 ], [ -50.882709599999941, -26.386980899999955 ], [ -50.882713799999976, -26.386928299999969 ], [ -50.882923, -26.384337299999974 ], [ -50.882929599999962, -26.384259699999962 ], [ -50.882934699999971, -26.384188499999937 ], [ -50.883091, -26.382321099999956 ], [ -50.883272799999986, -26.380172699999935 ], [ -50.881929599999971, -26.381099699999936 ], [ -50.881443399999974, -26.381507099999972 ], [ -50.880539899999981, -26.382255099999963 ], [ -50.880037299999969, -26.382603499999966 ], [ -50.879534799999924, -26.382863499999928 ], [ -50.878890399999932, -26.383039799999942 ], [ -50.878049199999964, -26.38322909999993 ], [ -50.876965199999979, -26.383473 ], [ -50.876803799999948, -26.383526399999937 ], [ -50.876642499999946, -26.383579799999957 ], [ -50.87627249999997, -26.383702299999985 ], [ -50.876238, -26.383713699999912 ], [ -50.876007299999969, -26.38379 ], [ -50.875996799999939, -26.383793499999957 ], [ -50.875951499999985, -26.38490969999998 ] ] ], [ [ [ -50.991261599999973, -26.374044099999935 ], [ -50.991210499999958, -26.374042399999961 ], [ -50.991159299999936, -26.374040599999937 ], [ -50.990555, -26.374011599999957 ], [ -50.989708099999973, -26.374079 ], [ -50.989651199999969, -26.374084199999974 ], [ -50.989591299999972, -26.37408869999997 ], [ -50.989469099999944, -26.374097799999966 ], [ -50.988373199999955, -26.377117399999968 ], [ -50.988633399999976, -26.37734769999998 ], [ -50.988670499999955, -26.377381199999956 ], [ -50.988709, -26.377414499999915 ], [ -50.989650799999936, -26.378224599999957 ], [ -50.991587099999954, -26.378337 ], [ -50.992765899999931, -26.378404799999945 ], [ -50.994456, -26.376965799999937 ], [ -50.994472799999976, -26.37667869999995 ], [ -50.994475499999972, -26.376625099999959 ], [ -50.994478, -26.376575299999953 ], [ -50.99456379999998, -26.374956299999948 ], [ -50.991725499999973, -26.374068299999976 ], [ -50.991261599999973, -26.374044099999935 ] ] ], [ [ [ -51.079313199999945, -26.381967599999935 ], [ -51.079335299999968, -26.381912 ], [ -51.082027599999947, -26.375144699999971 ], [ -51.085860799999978, -26.375838599999938 ], [ -51.086048799999958, -26.375312099999988 ], [ -51.086376499999972, -26.374444499999985 ], [ -51.085888399999938, -26.374319899999929 ], [ -51.085369199999946, -26.374137799999975 ], [ -51.085382099999947, -26.374093499999955 ], [ -51.086514299999976, -26.370498699999928 ], [ -51.07714469999997, -26.367902099999981 ], [ -51.077583299999965, -26.366932899999938 ], [ -51.074814699999934, -26.366251299999941 ], [ -51.074752099999948, -26.366235499999963 ], [ -51.074693199999956, -26.366221599999953 ], [ -51.07376789999995, -26.365992199999926 ], [ -51.072152199999948, -26.370581499999965 ], [ -51.072556299999974, -26.370689599999928 ], [ -51.072623399999941, -26.370707599999946 ], [ -51.072701499999937, -26.370728199999974 ], [ -51.076727199999944, -26.371790899999954 ], [ -51.077077899999956, -26.378520499999976 ], [ -51.077155699999935, -26.380069199999976 ], [ -51.077202199999931, -26.380996499999977 ], [ -51.078643599999964, -26.380925599999951 ], [ -51.078720299999979, -26.380922599999963 ], [ -51.078795299999975, -26.381144 ], [ -51.07903859999994, -26.381549499999942 ], [ -51.079313199999945, -26.381967599999935 ] ] ], [ [ [ -51.043871599999932, -26.261581199999963 ], [ -51.043255, -26.260799099999929 ], [ -51.042372, -26.259656599999964 ], [ -51.041896799999961, -26.259053399999971 ], [ -51.041158799999955, -26.258079399999922 ], [ -51.040255599999966, -26.256876299999931 ], [ -51.039382699999976, -26.255757399999943 ], [ -51.03905519999995, -26.255760299999956 ], [ -51.031014, -26.255836 ], [ -51.028594699999985, -26.255858799999942 ], [ -51.03020609999998, -26.262820499999986 ], [ -51.030798599999969, -26.265249199999985 ], [ -51.03661569999997, -26.267949699999964 ], [ -51.038097, -26.268964799999942 ], [ -51.039317299999944, -26.269025799999937 ], [ -51.047086799999938, -26.264314099999979 ], [ -51.046261099999988, -26.263778299999952 ], [ -51.045614, -26.263380599999948 ], [ -51.045226399999933, -26.263096 ], [ -51.045172599999944, -26.263057099999969 ], [ -51.045132199999962, -26.263016699999977 ], [ -51.044545699999958, -26.262430199999979 ], [ -51.043948499999942, -26.261678099999983 ], [ -51.043908799999947, -26.261628099999943 ], [ -51.043871599999932, -26.261581199999963 ] ] ], [ [ [ -51.099077199999954, -26.274355899999932 ], [ -51.09912879999996, -26.274357399999925 ], [ -51.103773799999942, -26.274477099999952 ], [ -51.103809499999961, -26.274477899999969 ], [ -51.103840099999957, -26.274477099999945 ], [ -51.104492199999981, -26.274473199999925 ], [ -51.104516299999943, -26.274473 ], [ -51.104523299999983, -26.274471399999975 ], [ -51.104518899999952, -26.274140399999968 ], [ -51.104510699999942, -26.273967599999935 ], [ -51.10450249999996, -26.273794799999962 ], [ -51.104480899999942, -26.273562499999958 ], [ -51.104583, -26.273401399999944 ], [ -51.104681499999963, -26.27319 ], [ -51.104719799999941, -26.273136799999971 ], [ -51.104856699999978, -26.272946799999939 ], [ -51.105002799999959, -26.272793299999918 ], [ -51.105144799999948, -26.27265059999996 ], [ -51.105130199999969, -26.272510199999942 ], [ -51.10508509999994, -26.272474099999954 ], [ -51.105034699999976, -26.272433799999927 ], [ -51.104870299999966, -26.27242519999993 ], [ -51.104824699999938, -26.272452599999951 ], [ -51.104716799999949, -26.272517399999966 ], [ -51.104510799999957, -26.272645199999939 ], [ -51.104219699999938, -26.272844199999948 ], [ -51.104038199999934, -26.272929 ], [ -51.103896499999962, -26.27304649999996 ], [ -51.103735499999971, -26.273095499999943 ], [ -51.103555799999974, -26.27313 ], [ -51.103538499999956, -26.273133399999942 ], [ -51.103478399999972, -26.273126899999962 ], [ -51.103296299999954, -26.273107399999954 ], [ -51.103129799999984, -26.273099399999982 ], [ -51.103115799999955, -26.273098699999935 ], [ -51.102931199999944, -26.273093499999959 ], [ -51.102618799999959, -26.273044 ], [ -51.10229309999994, -26.272990899999975 ], [ -51.102246199999968, -26.272983199999935 ], [ -51.102050599999984, -26.272895199999937 ], [ -51.101911, -26.272811199999982 ], [ -51.101808199999944, -26.272673599999955 ], [ -51.1018021, -26.27249 ], [ -51.101776299999983, -26.272273899999949 ], [ -51.101806499999959, -26.272083499999958 ], [ -51.101849399999935, -26.27182119999997 ], [ -51.10192009999998, -26.271587899999925 ], [ -51.101994799999943, -26.271361899999935 ], [ -51.102097399999927, -26.271150399999957 ], [ -51.102167499999958, -26.27097109999994 ], [ -51.10222969999996, -26.27078819999997 ], [ -51.102224, -26.27057079999997 ], [ -51.102185499999969, -26.270415799999967 ], [ -51.102145799999967, -26.270298399999948 ], [ -51.102142699999945, -26.270289499999929 ], [ -51.102035399999977, -26.270195 ], [ -51.101891599999938, -26.270132599999943 ], [ -51.101866399999956, -26.270129899999965 ], [ -51.101707199999971, -26.270113 ], [ -51.10147139999998, -26.270028199999956 ], [ -51.101327399999946, -26.269979699999961 ], [ -51.101204099999961, -26.269885099999946 ], [ -51.101064699999931, -26.269783199999939 ], [ -51.101014299999981, -26.269624399999941 ], [ -51.101012099999934, -26.26944809999998 ], [ -51.101017899999931, -26.269286199999964 ], [ -51.101075699999974, -26.269135599999967 ], [ -51.101157399999977, -26.268998199999938 ], [ -51.101275199999975, -26.268866099999972 ], [ -51.10135669999994, -26.268748099999971 ], [ -51.101431899999966, -26.268616399999921 ], [ -51.10147939999996, -26.268533199999965 ], [ -51.101551, -26.268388299999959 ], [ -51.101569599999948, -26.268350499999933 ], [ -51.101629299999956, -26.268030799999966 ], [ -51.101643599999932, -26.267818599999941 ], [ -51.101662, -26.267595699999951 ], [ -51.101628, -26.267476899999952 ], [ -51.101611699999978, -26.267420099999985 ], [ -51.101553799999976, -26.267210899999952 ], [ -51.101468099999984, -26.266969099999979 ], [ -51.101434399999967, -26.266747099999971 ], [ -51.101439599999935, -26.266668 ], [ -51.101443899999936, -26.266603199999949 ], [ -51.101510299999973, -26.266402299999974 ], [ -51.101568399999969, -26.266222899999953 ], [ -51.101594799999987, -26.266007199999915 ], [ -51.101580699999943, -26.265827199999929 ], [ -51.101562699999931, -26.265629099999945 ], [ -51.101472899999976, -26.265405299999948 ], [ -51.101378099999984, -26.265260499999954 ], [ -51.101219099999973, -26.265126 ], [ -51.10111559999995, -26.265049599999951 ], [ -51.100955099999972, -26.265041 ], [ -51.100776099999969, -26.265084799999951 ], [ -51.100741899999946, -26.265093099999948 ], [ -51.100675099999926, -26.265132599999955 ], [ -51.100556199999964, -26.265203099999955 ], [ -51.100346, -26.265341599999939 ], [ -51.100144399999976, -26.265433399999957 ], [ -51.100003499999957, -26.265475299999931 ], [ -51.09989829999995, -26.265479799999984 ], [ -51.099886499999975, -26.265480299999972 ], [ -51.099863, -26.265481299999969 ], [ -51.099702799999939, -26.265458399999947 ], [ -51.099603099999968, -26.265399899999974 ], [ -51.099563799999942, -26.265323799999962 ], [ -51.099559399999976, -26.265315399999967 ], [ -51.099493, -26.265186699999973 ], [ -51.099428699999976, -26.264819099999947 ], [ -51.099478899999951, -26.264628799999965 ], [ -51.099625199999927, -26.264464599999936 ], [ -51.099840899999947, -26.264175 ], [ -51.100100599999955, -26.263907299999975 ], [ -51.100196699999969, -26.263808299999933 ], [ -51.100292799999977, -26.26370919999993 ], [ -51.100375199999974, -26.2636242 ], [ -51.100457699999936, -26.263539199999972 ], [ -51.100608099999931, -26.263353399999964 ], [ -51.100788299999977, -26.263016699999977 ], [ -51.100863199999935, -26.262765499999933 ], [ -51.100882, -26.262506599999934 ], [ -51.10088, -26.262484499999964 ], [ -51.10086049999996, -26.262268899999981 ], [ -51.100830499999972, -26.262077899999955 ], [ -51.100735799999939, -26.261922399999957 ], [ -51.100564299999967, -26.261830899999957 ], [ -51.100360499999965, -26.261795099999979 ], [ -51.100328, -26.261789299999982 ], [ -51.100254199999938, -26.261791099999982 ], [ -51.100058899999965, -26.26179569999994 ], [ -51.099994899999963, -26.261797199999918 ], [ -51.099794499999973, -26.261802199999977 ], [ -51.09949759999995, -26.261799599999964 ], [ -51.099313, -26.261805199999969 ], [ -51.099028099999941, -26.261802699999969 ], [ -51.099019599999963, -26.261804 ], [ -51.098742699999946, -26.261847 ], [ -51.098449099999975, -26.261920099999944 ], [ -51.098035199999977, -26.261974 ], [ -51.097757599999966, -26.26204359999997 ], [ -51.096921199999947, -26.262371799999968 ], [ -51.096887199999969, -26.262385099999968 ], [ -51.096882799999946, -26.262385599999956 ], [ -51.096854499999957, -26.262388599999962 ], [ -51.096851899999933, -26.262388899999962 ], [ -51.096821799999987, -26.262392099999936 ], [ -51.096670599999982, -26.262408399999977 ], [ -51.096458299999945, -26.262374199999964 ], [ -51.096242599999982, -26.262286 ], [ -51.095815699999946, -26.262066399999981 ], [ -51.095536399999958, -26.261799199999924 ], [ -51.095546099999986, -26.261644599999954 ], [ -51.095544099999984, -26.261457499999949 ], [ -51.095539099999947, -26.261176799999919 ], [ -51.095525699999939, -26.260935599999982 ], [ -51.095492799999924, -26.260632699999974 ], [ -51.09549229999994, -26.260614699999959 ], [ -51.095487, -26.260431199999971 ], [ -51.09544649999998, -26.260236899999942 ], [ -51.095441199999989, -26.260211299999973 ], [ -51.095362299999984, -26.260084699999918 ], [ -51.09531539999994, -26.259976299999941 ], [ -51.095288799999942, -26.259832199999945 ], [ -51.095283799999947, -26.259555 ], [ -51.095285799999935, -26.259368 ], [ -51.095377299999939, -26.259070099999974 ], [ -51.095508599999967, -26.258797799999968 ], [ -51.095627399999962, -26.258575699999927 ], [ -51.095677, -26.258496199999968 ], [ -51.095770299999977, -26.258346699999944 ], [ -51.095885599999974, -26.258067 ], [ -51.095959199999982, -26.257941699999929 ], [ -51.095969599999933, -26.257916099999928 ], [ -51.096033399999953, -26.257758799999976 ], [ -51.096047099999971, -26.257665 ], [ -51.096050699999978, -26.257640299999931 ], [ -51.096057299999984, -26.257595499999962 ], [ -51.096062699999948, -26.257558599999967 ], [ -51.096065, -26.257542499999957 ], [ -51.096068, -26.257521699999984 ], [ -51.096076599999947, -26.257403899999936 ], [ -51.096077499999978, -26.25739219999997 ], [ -51.096090899999979, -26.257259199999972 ], [ -51.096148199999959, -26.257149199999958 ], [ -51.096245899999985, -26.257020499999953 ], [ -51.09636739999997, -26.256920899999947 ], [ -51.096490099999983, -26.256840599999968 ], [ -51.096524899999963, -26.256817899999941 ], [ -51.096656699999983, -26.256763 ], [ -51.096694199999952, -26.256747399999938 ], [ -51.096871499999956, -26.256680499999963 ], [ -51.097096799999974, -26.256624899999952 ], [ -51.097128599999962, -26.256619699999934 ], [ -51.097285699999986, -26.256594199999945 ], [ -51.09739849999994, -26.256548399999929 ], [ -51.097499599999928, -26.256473699999958 ], [ -51.097689799999955, -26.256327799999955 ], [ -51.097812, -26.256151599999946 ], [ -51.097815199999957, -26.256141199999945 ], [ -51.097852899999964, -26.25601609999995 ], [ -51.097866099999976, -26.255972199999967 ], [ -51.097884199999946, -26.255781599999985 ], [ -51.09786169999996, -26.255629799999948 ], [ -51.097858, -26.255605099999954 ], [ -51.097818699999948, -26.255529299999971 ], [ -51.097775499999962, -26.255446 ], [ -51.097737099999968, -26.255361099999963 ], [ -51.097716699999978, -26.255316 ], [ -51.097605599999952, -26.255196299999962 ], [ -51.09757349999996, -26.255170199999942 ], [ -51.097466399999966, -26.255083499999955 ], [ -51.0973269, -26.255003199999987 ], [ -51.097187, -26.25495519999998 ], [ -51.096915199999948, -26.254855699999958 ], [ -51.09650709999994, -26.254724799999963 ], [ -51.096115199999986, -26.254602699999971 ], [ -51.096087199999943, -26.254594399999974 ], [ -51.0960525, -26.254584099999928 ], [ -51.095932199999936, -26.254548599999961 ], [ -51.095375399999966, -26.254384 ], [ -51.094268299999953, -26.253806299999958 ], [ -51.094246699999985, -26.253795 ], [ -51.092860199999961, -26.252678499999941 ], [ -51.092814699999963, -26.252641899999944 ], [ -51.092525699999953, -26.252289899999941 ], [ -51.092351699999945, -26.252054399999963 ], [ -51.092253899999946, -26.251922 ], [ -51.092252799999983, -26.251920499999983 ], [ -51.091533499999969, -26.250996699999973 ], [ -51.090981199999931, -26.250322 ], [ -51.090930499999956, -26.250265 ], [ -51.090924499999979, -26.250258499999976 ], [ -51.089957499999969, -26.249282599999955 ], [ -51.089839699999978, -26.249164299999958 ], [ -51.089706899999953, -26.249021 ], [ -51.089183299999945, -26.248474699999974 ], [ -51.089141599999955, -26.248432199999975 ], [ -51.089126499999956, -26.248416899999935 ], [ -51.089007599999945, -26.248263899999976 ], [ -51.088992499999954, -26.248244499999949 ], [ -51.08896029999994, -26.248203099999955 ], [ -51.088887399999969, -26.248122099999932 ], [ -51.088793899999985, -26.248018199999937 ], [ -51.088746499999964, -26.247956799999933 ], [ -51.08870289999993, -26.247913099999941 ], [ -51.088672899999949, -26.247861299999951 ], [ -51.088651399999947, -26.247833399999941 ], [ -51.088508599999955, -26.247577 ], [ -51.088285399999968, -26.247176499999963 ], [ -51.088273699999938, -26.24709559999997 ], [ -51.088259299999947, -26.246996399999954 ], [ -51.088210099999969, -26.246726099999933 ], [ -51.0881141, -26.246302299999964 ], [ -51.088087599999938, -26.246185299999976 ], [ -51.08790989999995, -26.245179499999949 ], [ -51.087846, -26.2448596 ], [ -51.087814799999933, -26.244703699999945 ], [ -51.087734, -26.244192899999977 ], [ -51.087731899999937, -26.244181299999976 ], [ -51.087697899999966, -26.244009799999962 ], [ -51.087646199999938, -26.243750899999952 ], [ -51.087637099999931, -26.243705499999976 ], [ -51.087478099999949, -26.242460399999974 ], [ -51.087475299999937, -26.24244189999995 ], [ -51.08730979999995, -26.241327199999951 ], [ -51.087245799999948, -26.240945199999949 ], [ -51.087088, -26.239957799999953 ], [ -51.087043899999969, -26.23965689999995 ], [ -51.087040199999933, -26.239632399999962 ], [ -51.087033899999938, -26.239588799999975 ], [ -51.086953599999958, -26.239040399999965 ], [ -51.086751099999958, -26.237736 ], [ -51.086593199999982, -26.236762899999974 ], [ -51.086503499999935, -26.236304799999953 ], [ -51.086440799999934, -26.236057599999967 ], [ -51.08629, -26.235493199999951 ], [ -51.086163899999974, -26.234966099999948 ], [ -51.086041799999975, -26.234484799999962 ], [ -51.08578909999995, -26.233570899999968 ], [ -51.085784499999932, -26.233556199999946 ], [ -51.08573679999995, -26.233413 ], [ -51.085722899999958, -26.233371299999924 ], [ -51.085606199999972, -26.233021199999939 ], [ -51.08544969999997, -26.23266359999996 ], [ -51.085385099999947, -26.232721699999946 ], [ -51.085355199999981, -26.232703799999953 ], [ -51.085328, -26.232687499999933 ], [ -51.085281499999951, -26.23265959999998 ], [ -51.084929599999953, -26.232185199999943 ], [ -51.084571399999952, -26.231760199999947 ], [ -51.084501899999971, -26.231677699999974 ], [ -51.08446449999996, -26.231614799999932 ], [ -51.084029199999975, -26.230883299999959 ], [ -51.083661799999959, -26.230291199999947 ], [ -51.083515899999952, -26.230056199999968 ], [ -51.083279499999946, -26.229665499999946 ], [ -51.082967799999949, -26.22918419999996 ], [ -51.082731599999931, -26.228779099999944 ], [ -51.082714799999955, -26.228763899999937 ], [ -51.082455, -26.228528 ], [ -51.082004599999948, -26.228268599999979 ], [ -51.081532399999958, -26.228069599999962 ], [ -51.081481499999931, -26.22804809999997 ], [ -51.08116629999995, -26.227890599999974 ], [ -51.0806262, -26.227763599999953 ], [ -51.078873199999975, -26.227423799999944 ], [ -51.078872699999984, -26.227427 ], [ -51.078808099999947, -26.227873 ], [ -51.078612699999951, -26.228438299999926 ], [ -51.078349599999967, -26.229136799999932 ], [ -51.078243799999932, -26.229417899999923 ], [ -51.077991699999984, -26.229995299999935 ], [ -51.0776815, -26.230736 ], [ -51.077374, -26.231237299999968 ], [ -51.07704039999993, -26.231566 ], [ -51.076543, -26.232084599999951 ], [ -51.076505199999986, -26.232129299999947 ], [ -51.076087599999937, -26.232622399999954 ], [ -51.075661599999933, -26.233040699999943 ], [ -51.075450299999943, -26.233266199999949 ], [ -51.074971099999971, -26.2337775 ], [ -51.074374899999953, -26.234339199999962 ], [ -51.073701699999958, -26.234881399999946 ], [ -51.073319899999937, -26.235234499999933 ], [ -51.073148299999957, -26.235393099999957 ], [ -51.072541699999931, -26.235898899999953 ], [ -51.071861, -26.236485099999971 ], [ -51.07111, -26.237077 ], [ -51.069697499999954, -26.238212699999977 ], [ -51.069348, -26.23853129999997 ], [ -51.068917099999958, -26.238924 ], [ -51.068144, -26.239597599999961 ], [ -51.067191899999962, -26.240285399999951 ], [ -51.067086299999971, -26.240360199999945 ], [ -51.066540499999981, -26.240747499999941 ], [ -51.065809899999977, -26.241208699999966 ], [ -51.065121199999965, -26.241528199999941 ], [ -51.063953799999979, -26.242124599999951 ], [ -51.063175, -26.24250509999996 ], [ -51.062934099999957, -26.242601299999929 ], [ -51.063196199999936, -26.243349699999943 ], [ -51.063132599999967, -26.243499899999957 ], [ -51.063107299999956, -26.243601699999932 ], [ -51.063084, -26.24369049999995 ], [ -51.063026499999971, -26.243828699999938 ], [ -51.062941599999938, -26.244015599999955 ], [ -51.062858399999989, -26.2441482 ], [ -51.062664, -26.244347099999978 ], [ -51.062593799999945, -26.244410499999969 ], [ -51.0625, -26.244459099999968 ], [ -51.062288299999977, -26.244589499999964 ], [ -51.062241899999947, -26.24460379999994 ], [ -51.062195499999966, -26.244618099999968 ], [ -51.061974899999939, -26.244643899999975 ], [ -51.061237199999937, -26.244807199999965 ], [ -51.06088619999997, -26.244929 ], [ -51.060648699999945, -26.245036199999962 ], [ -51.060486699999949, -26.245160299999956 ], [ -51.060408499999937, -26.24527229999995 ], [ -51.060389599999951, -26.245404399999927 ], [ -51.060389599999951, -26.245543099999967 ], [ -51.060414, -26.245657499999936 ], [ -51.060473499999944, -26.245730399999957 ], [ -51.060573399999946, -26.245800899999953 ], [ -51.060676, -26.245866599999946 ], [ -51.060800299999983, -26.245890899999949 ], [ -51.060861899999971, -26.245893599999924 ], [ -51.061019, -26.245900499999941 ], [ -51.06135919999997, -26.2459052 ], [ -51.061594099999986, -26.245912399999941 ], [ -51.061777699999936, -26.245929399999962 ], [ -51.061850099999958, -26.245952299999939 ], [ -51.061919299999943, -26.245999399999963 ], [ -51.061967, -26.246055799999972 ], [ -51.061995, -26.246126499999942 ], [ -51.062005299999953, -26.24619719999998 ], [ -51.061997, -26.24625519999995 ], [ -51.06196639999996, -26.246375799999957 ], [ -51.06190909999998, -26.246481299999967 ], [ -51.061835, -26.246554599999968 ], [ -51.061722699999969, -26.246597699999931 ], [ -51.061476599999942, -26.246664599999974 ], [ -51.061022499999986, -26.246748799999985 ], [ -51.060663599999941, -26.246837699999947 ], [ -51.0604398, -26.246917399999962 ], [ -51.060317199999986, -26.246979399999926 ], [ -51.060082899999948, -26.247123799999937 ], [ -51.059931, -26.247259799999945 ], [ -51.059723499999954, -26.24748749999997 ], [ -51.059531599999957, -26.247648899999948 ], [ -51.059243899999956, -26.24788239999997 ], [ -51.059022699999964, -26.248032399999943 ], [ -51.058799599999986, -26.248174799999948 ], [ -51.058739499999945, -26.24822869999997 ], [ -51.058651899999973, -26.248323699999961 ], [ -51.058577699999944, -26.248404099999959 ], [ -51.058502699999956, -26.248507399999937 ], [ -51.058468399999974, -26.248597599999965 ], [ -51.058412899999951, -26.248784399999977 ], [ -51.058385499999986, -26.248928699999961 ], [ -51.058392599999941, -26.249038 ], [ -51.058413599999938, -26.249126299999936 ], [ -51.058476599999949, -26.249204 ], [ -51.058535, -26.249241899999959 ], [ -51.058619, -26.249264899999947 ], [ -51.058703, -26.249264899999957 ], [ -51.058772899999958, -26.249237599999962 ], [ -51.05882889999998, -26.249170299999953 ], [ -51.058910499999968, -26.249035699999968 ], [ -51.059003699999955, -26.248844299999966 ], [ -51.059105399999972, -26.248696599999949 ], [ -51.059157799999987, -26.248634799999934 ], [ -51.059227199999953, -26.248595499999958 ], [ -51.059269199999953, -26.248583799999949 ], [ -51.059324899999986, -26.248575099999972 ], [ -51.059383, -26.248574299999969 ], [ -51.059445099999955, -26.248578599999966 ], [ -51.0595, -26.248592399999943 ], [ -51.059555699999976, -26.248618599999933 ], [ -51.059663899999975, -26.248691599999965 ], [ -51.059744499999972, -26.248771599999952 ], [ -51.059814699999954, -26.248838599999932 ], [ -51.059895299999937, -26.248875799999958 ], [ -51.059963399999958, -26.248885 ], [ -51.060110599999973, -26.248890699999951 ], [ -51.060215899999939, -26.248886899999938 ], [ -51.060337799999957, -26.248903599999952 ], [ -51.060390599999941, -26.248919299999944 ], [ -51.06044959999997, -26.248949 ], [ -51.060482, -26.248985399999974 ], [ -51.060497199999986, -26.249015499999928 ], [ -51.060492199999942, -26.249067499999974 ], [ -51.060473099999967, -26.249142699999933 ], [ -51.060433199999984, -26.249248499999958 ], [ -51.060417299999983, -26.24934959999996 ], [ -51.060417299999983, -26.24943089999994 ], [ -51.060433099999962, -26.249514699999967 ], [ -51.060461799999985, -26.249558599999947 ], [ -51.060500399999967, -26.249587 ], [ -51.060574899999949, -26.249619199999984 ], [ -51.060713899999939, -26.249659199999929 ], [ -51.060857399999975, -26.249695599999935 ], [ -51.060949099999966, -26.249729199999944 ], [ -51.061000699999965, -26.24976269999997 ], [ -51.061049399999945, -26.24981819999994 ], [ -51.06109239999995, -26.24988779999995 ], [ -51.061132099999952, -26.250000299999943 ], [ -51.061093199999959, -26.250107599999975 ], [ -51.061052899999936, -26.250154399999925 ], [ -51.060992899999981, -26.250185599999941 ], [ -51.060916799999973, -26.250213599999935 ], [ -51.060800199999967, -26.250222399999927 ], [ -51.060624499999967, -26.250216499999965 ], [ -51.060516199999938, -26.250221 ], [ -51.060416099999941, -26.25025949999997 ], [ -51.060320899999958, -26.250318699999983 ], [ -51.060227, -26.250426 ], [ -51.060104, -26.250680399999965 ], [ -51.059935899999971, -26.25095419999996 ], [ -51.059848899999963, -26.251080799999954 ], [ -51.059760499999982, -26.251166299999966 ], [ -51.059702099999988, -26.251187399999939 ], [ -51.059622799999943, -26.251186299999965 ], [ -51.059560399999953, -26.251176899999958 ], [ -51.059521399999937, -26.251159399999953 ], [ -51.059500499999956, -26.251139499999958 ], [ -51.059462799999956, -26.251056299999952 ], [ -51.059445799999935, -26.250960599999914 ], [ -51.059460399999978, -26.250732499999977 ], [ -51.059466199999974, -26.250580599999978 ], [ -51.059455899999939, -26.250494799999956 ], [ -51.059407499999963, -26.250419499999957 ], [ -51.059354699999972, -26.250372 ], [ -51.0593004, -26.250337699999946 ], [ -51.059244699999965, -26.250321899999957 ], [ -51.059146499999947, -26.250308699999952 ], [ -51.05911279999998, -26.250315299999961 ], [ -51.059073299999966, -26.25032989999994 ], [ -51.059045399999953, -26.250358899999984 ], [ -51.059016099999951, -26.250419699999942 ], [ -51.058999299999982, -26.250585899999979 ], [ -51.058995, -26.250799199999964 ], [ -51.058983299999966, -26.25089459999997 ], [ -51.058951299999926, -26.250976499999975 ], [ -51.058838399999956, -26.251121799999972 ], [ -51.058668899999986, -26.251318 ], [ -51.058589399999967, -26.25145579999997 ], [ -51.058461799999975, -26.251716899999956 ], [ -51.05838209999996, -26.251935 ], [ -51.058362599999946, -26.252043499999949 ], [ -51.058373099999983, -26.252141299999952 ], [ -51.05842279999996, -26.252234499999929 ], [ -51.05850589999995, -26.252311599999928 ], [ -51.05856719999997, -26.252338799999976 ], [ -51.058640899999943, -26.252351299999926 ], [ -51.058731599999923, -26.25234759999995 ], [ -51.058907499999975, -26.252301099999951 ], [ -51.059139099999989, -26.252223699999941 ], [ -51.059277899999977, -26.252198499999963 ], [ -51.059417799999956, -26.25219559999994 ], [ -51.059619899999973, -26.252226299999961 ], [ -51.059733899999976, -26.252264599999926 ], [ -51.059852099999944, -26.252338299999963 ], [ -51.059953299999968, -26.252431899999976 ], [ -51.060064, -26.252579399999934 ], [ -51.060118699999975, -26.252693699999956 ], [ -51.060138, -26.252819399999968 ], [ -51.060124799999976, -26.252994899999969 ], [ -51.060086499999954, -26.25313309999995 ], [ -51.060011099999947, -26.253286299999957 ], [ -51.059901899999943, -26.253392699999946 ], [ -51.05982529999995, -26.253443199999932 ], [ -51.059755899999971, -26.253467199999935 ], [ -51.059670399999952, -26.253475199999968 ], [ -51.059521299999972, -26.253459299999978 ], [ -51.059252799999967, -26.253423499999929 ], [ -51.058990199999982, -26.25341429999996 ], [ -51.058803499999954, -26.253438799999973 ], [ -51.058650099999973, -26.253488 ], [ -51.058532099999987, -26.253549199999949 ], [ -51.058381699999984, -26.253682199999954 ], [ -51.058267399999977, -26.253821599999977 ], [ -51.058185499999979, -26.253991899999949 ], [ -51.058114299999943, -26.254278799999952 ], [ -51.058106, -26.254600499999981 ], [ -51.058131299999957, -26.254814299999964 ], [ -51.058205199999968, -26.255031 ], [ -51.05831869999998, -26.25532619999996 ], [ -51.058400799999959, -26.255504 ], [ -51.0585521, -26.255714 ], [ -51.058830099999966, -26.256031299999965 ], [ -51.059046599999931, -26.256235599999968 ], [ -51.059168499999942, -26.256326399999971 ], [ -51.059333299999942, -26.256397199999984 ], [ -51.059521, -26.256445699999972 ], [ -51.059573199999932, -26.256471499999986 ], [ -51.059599799999944, -26.256484699999923 ], [ -51.059660299999962, -26.256530799999933 ], [ -51.059711499999935, -26.256593399999932 ], [ -51.05975489999998, -26.256712899999965 ], [ -51.05978, -26.256940699999969 ], [ -51.059772199999948, -26.257085 ], [ -51.059701299999972, -26.257323699999972 ], [ -51.059554799999951, -26.257675399999989 ], [ -51.059387399999942, -26.258097499999959 ], [ -51.059262399999966, -26.258561599999943 ], [ -51.059214699999984, -26.258753699999932 ], [ -51.059198699999975, -26.258818199999943 ], [ -51.059075099999966, -26.259143299999952 ], [ -51.058993799999946, -26.259357 ], [ -51.058821099999932, -26.259865299999941 ], [ -51.058592799999985, -26.260551899999943 ], [ -51.058420099999978, -26.261004399999926 ], [ -51.058256699999951, -26.261547799999949 ], [ -51.058121599999929, -26.261928499999954 ], [ -51.057841899999971, -26.262721899999971 ], [ -51.057662099999959, -26.263179899999948 ], [ -51.057490399999949, -26.26364309999996 ], [ -51.057326699999976, -26.264146199999967 ], [ -51.057151299999987, -26.264655499999943 ], [ -51.05693169999995, -26.265234599999925 ], [ -51.056729099999984, -26.265788 ], [ -51.056467, -26.266539399999935 ], [ -51.056269, -26.267243 ], [ -51.056265199999984, -26.26726009999993 ], [ -51.056122699999946, -26.267893599999979 ], [ -51.05602829999998, -26.268316899999956 ], [ -51.055781099999933, -26.268872399999967 ], [ -51.055690599999934, -26.26904189999993 ], [ -51.055596599999944, -26.269219799999973 ], [ -51.055509799999982, -26.269335099999978 ], [ -51.055395899999958, -26.269486399999952 ], [ -51.055089499999951, -26.269837699999975 ], [ -51.054876799999931, -26.270105799999946 ], [ -51.054718799999932, -26.270315199999974 ], [ -51.054488799999945, -26.270567799999974 ], [ -51.054224399999953, -26.270944199999974 ], [ -51.053786099999968, -26.271508799999943 ], [ -51.053373499999964, -26.272062799999958 ], [ -51.053024299999954, -26.272544899999946 ], [ -51.052652499999972, -26.273040899999963 ], [ -51.052229, -26.27356009999993 ], [ -51.051901199999968, -26.274022799999962 ], [ -51.051589699999973, -26.274400299999972 ], [ -51.051280799999972, -26.27480879999996 ], [ -51.051149699999939, -26.27498219999995 ], [ -51.050775899999962, -26.275425299999934 ], [ -51.050637799999954, -26.275615099999982 ], [ -51.050492199999951, -26.275815199999947 ], [ -51.0500517, -26.276427899999923 ], [ -51.049919299999942, -26.276600299999938 ], [ -51.049607299999934, -26.277006899999943 ], [ -51.049327, -26.277351199999934 ], [ -51.04929809999993, -26.277394199999936 ], [ -51.049096099999986, -26.277695399999974 ], [ -51.048778399999954, -26.278121499999948 ], [ -51.048476599999965, -26.278474099999972 ], [ -51.048133399999983, -26.278933 ], [ -51.04789859999994, -26.27922279999995 ], [ -51.047696199999962, -26.279483 ], [ -51.04743579999996, -26.279757899999939 ], [ -51.047222699999963, -26.280027 ], [ -51.047059299999944, -26.280275399999937 ], [ -51.047003199999949, -26.280409499999969 ], [ -51.046961799999963, -26.280624899999964 ], [ -51.046942299999955, -26.28087619999997 ], [ -51.046897699999931, -26.281158099999963 ], [ -51.046893599999969, -26.281184 ], [ -51.046825099999971, -26.281475299999954 ], [ -51.046746599999949, -26.281756599999934 ], [ -51.046718799999951, -26.281864299999945 ], [ -51.046697099999967, -26.281989399999922 ], [ -51.046687299999981, -26.282082599999967 ], [ -51.04899979999994, -26.283158 ], [ -51.049058, -26.283185799999952 ], [ -51.04911089999996, -26.283208 ], [ -51.050027899999982, -26.283592 ], [ -51.050949099999968, -26.283878 ], [ -51.051726, -26.283851 ], [ -51.052619199999988, -26.28341 ], [ -51.054027799999972, -26.282371 ], [ -51.056527, -26.280015499999926 ], [ -51.056565099999943, -26.279979499999975 ], [ -51.056602099999964, -26.279943099999965 ], [ -51.057567, -26.278997 ], [ -51.060168, -26.271484 ], [ -51.066995399999939, -26.275361699999962 ], [ -51.064881699999951, -26.277002599999943 ], [ -51.061450199999967, -26.280068499999956 ], [ -51.06651979999998, -26.283188299999949 ], [ -51.066880799999979, -26.283410399999973 ], [ -51.070040599999977, -26.280089199999967 ], [ -51.071317199999953, -26.277983899999978 ], [ -51.074687199999971, -26.279830899999972 ], [ -51.074692399999954, -26.279702299999936 ], [ -51.074794599999962, -26.276945099999978 ], [ -51.074797399999966, -26.276869099999939 ], [ -51.074810099999979, -26.276784299999974 ], [ -51.075070499999988, -26.275036499999931 ], [ -51.07521, -26.274369899999957 ], [ -51.077354499999949, -26.274367799999933 ], [ -51.077412699999968, -26.274367699999967 ], [ -51.077461499999963, -26.274367699999967 ], [ -51.079804099999933, -26.274367299999952 ], [ -51.086235299999942, -26.274374099999935 ], [ -51.098273299999967, -26.274360299999955 ], [ -51.098336399999944, -26.274360299999952 ], [ -51.098396499999978, -26.274359899999972 ], [ -51.099026599999945, -26.274356199999932 ], [ -51.099077199999954, -26.274355899999932 ] ] ] ] } }
]
}
