{
"type": "FeatureCollection",
"name": "4214300",
"crs": { "type": "name", "properties": { "name": "urn:ogc:def:crs:OGC:1.3:CRS84" } },
"features": [
{ "type": "Feature", "properties": { "CD_MUN": "4214300", "NM_MUN": "Rancho Queimado" }, "geometry": { "type": "MultiPolygon", "coordinates": [ [ [ [ -49.111463899999933, -27.705617299999972 ], [ -49.110468199999957, -27.705364899999946 ], [ -49.1096156, -27.705037599999969 ], [ -49.108640399999956, -27.704430599999963 ], [ -49.107440099999963, -27.703844099999966 ], [ -49.106212399999954, -27.703100699999936 ], [ -49.106194799999969, -27.703050299999976 ], [ -49.105750399999977, -27.702938699999947 ], [ -49.104962699999938, -27.702672699999926 ], [ -49.104898099999957, -27.702579699999948 ], [ -49.104635299999984, -27.702703399999951 ], [ -49.102446099999952, -27.703368399999935 ], [ -49.098302899999965, -27.705117699999967 ], [ -49.098016399999949, -27.706018 ], [ -49.097075299999972, -27.706488599999947 ], [ -49.097136699999965, -27.707204699999977 ], [ -49.097975499999961, -27.707961699999945 ], [ -49.099121299999979, -27.707900299999945 ], [ -49.099735099999982, -27.707511599999972 ], [ -49.102272199999959, -27.706611299999963 ], [ -49.102354, -27.706897799999975 ], [ -49.101965299999961, -27.707470599999958 ], [ -49.102006199999948, -27.708493599999937 ], [ -49.101228699999979, -27.708555 ], [ -49.101065, -27.709127899999931 ], [ -49.102047099999936, -27.709762199999947 ], [ -49.104011299999968, -27.709782599999976 ], [ -49.104389799999986, -27.710509 ], [ -49.10524909999998, -27.711143199999981 ], [ -49.106251699999973, -27.710631699999958 ], [ -49.114384599999944, -27.708933499999937 ], [ -49.114578899999962, -27.707112599999959 ], [ -49.114734299999945, -27.705796299999982 ], [ -49.114493, -27.705586799999921 ], [ -49.113944699999934, -27.70547579999992 ], [ -49.11352519999997, -27.705424599999962 ], [ -49.113494599999974, -27.705423299999953 ], [ -49.1132712, -27.705617299999957 ], [ -49.112827899999957, -27.705750299999966 ], [ -49.112272099999984, -27.705781 ], [ -49.111463899999933, -27.705617299999972 ] ] ], [ [ [ -49.010319699999968, -27.688400399999974 ], [ -49.010288699999933, -27.688286599999973 ], [ -49.01020589999996, -27.68809 ], [ -49.010137, -27.687945199999941 ], [ -49.010102499999967, -27.687859 ], [ -49.01007489999995, -27.687745199999942 ], [ -49.01006109999998, -27.687665899999949 ], [ -49.010064599999964, -27.687614199999917 ], [ -49.010064599999964, -27.687528 ], [ -49.010057699999948, -27.687476299999954 ], [ -49.010037, -27.687369399999962 ], [ -49.01001279999997, -27.687200399999938 ], [ -49.010016299999961, -27.687152099999928 ], [ -49.010037, -27.687117599999972 ], [ -49.01006109999998, -27.687090099999967 ], [ -49.010109399999983, -27.687059 ], [ -49.010181799999941, -27.687055599999955 ], [ -49.010247299999946, -27.687076299999937 ], [ -49.010324899999937, -27.687030599999957 ], [ -49.010397299999966, -27.687034 ], [ -49.010538699999984, -27.687037499999978 ], [ -49.010621399999934, -27.687020199999949 ], [ -49.010655899999968, -27.686992599999932 ], [ -49.010683499999978, -27.686927099999931 ], [ -49.010731799999981, -27.686858199999961 ], [ -49.010821399999941, -27.686761599999954 ], [ -49.010869699999951, -27.686703 ], [ -49.010924899999964, -27.686640899999922 ], [ -49.011004199999938, -27.686582299999941 ], [ -49.011138699999947, -27.686496099999939 ], [ -49.0113214, -27.686375399999971 ], [ -49.011469699999964, -27.686285699999928 ], [ -49.01153869999996, -27.686234 ], [ -49.011593799999957, -27.686220199999987 ], [ -49.011645599999959, -27.686216799999944 ], [ -49.011718, -27.686220199999973 ], [ -49.011776599999969, -27.686213299999952 ], [ -49.011842099999974, -27.686185699999957 ], [ -49.011938699999973, -27.686075399999936 ], [ -49.012007599999954, -27.685954699999968 ], [ -49.012218, -27.685768499999938 ], [ -49.01230419999996, -27.685713299999961 ], [ -49.012383499999949, -27.685703 ], [ -49.012466199999949, -27.685678899999971 ], [ -49.012559399999979, -27.685692699999951 ], [ -49.012624899999935, -27.685716799999973 ], [ -49.012693799999958, -27.685765099999973 ], [ -49.012742099999969, -27.685796099999955 ], [ -49.01274559999996, -27.685830599999964 ], [ -49.012718, -27.685851299999964 ], [ -49.012655899999977, -27.685865099999944 ], [ -49.012576599999932, -27.685872 ], [ -49.012566199999981, -27.685923699999933 ], [ -49.012572699999971, -27.685969 ], [ -49.01260069999995, -27.685996099999954 ], [ -49.012635199999984, -27.685989199999945 ], [ -49.012685199999957, -27.685963299999973 ], [ -49.013036499999949, -27.685832799999968 ], [ -49.013216199999931, -27.685818499999975 ], [ -49.01332309999998, -27.685797799999932 ], [ -49.013395499999945, -27.685773699999963 ], [ -49.013585199999966, -27.68569089999994 ], [ -49.013805899999973, -27.685566799999943 ], [ -49.013878299999938, -27.685497799999954 ], [ -49.013888599999973, -27.685428899999973 ], [ -49.013885199999947, -27.685394399999943 ], [ -49.013861099999986, -27.685328899999945 ], [ -49.013836899999944, -27.68522889999997 ], [ -49.01383, -27.685122 ], [ -49.013850699999978, -27.685049599999946 ], [ -49.013878299999931, -27.685001299999954 ], [ -49.013902399999957, -27.684946099999937 ], [ -49.013909299999966, -27.684890899999981 ], [ -49.013919699999974, -27.684697799999984 ], [ -49.013933499999958, -27.684590899999925 ], [ -49.013952399999937, -27.684524599999975 ], [ -49.014021399999926, -27.68438319999996 ], [ -49.014104199999963, -27.684248699999955 ], [ -49.014145499999984, -27.684155599999944 ], [ -49.014138599999967, -27.684090099999921 ], [ -49.014097299999946, -27.684010799999953 ], [ -49.014066199999945, -27.683924599999951 ], [ -49.01399379999998, -27.683752199999951 ], [ -49.01388, -27.683448699999914 ], [ -49.013742099999945, -27.683086599999974 ], [ -49.013614499999967, -27.682761599999939 ], [ -49.013604199999975, -27.68273059999995 ], [ -49.013597299999965, -27.682637499999931 ], [ -49.013597299999958, -27.682551299999936 ], [ -49.013624799999945, -27.68227949999994 ], [ -49.013697299999933, -27.681841 ], [ -49.013700699999966, -27.681706499999951 ], [ -49.013700699999958, -27.681703499999973 ], [ -49.01369829999993, -27.681603499999934 ], [ -49.01368, -27.681485799999955 ], [ -49.013655899999947, -27.681375499999941 ], [ -49.013624899999975, -27.681220299999939 ], [ -49.013569699999955, -27.680864299999943 ], [ -49.013545499999964, -27.680774599999953 ], [ -49.013521399999938, -27.680591899999964 ], [ -49.013466199999982, -27.680285 ], [ -49.013421399999977, -27.679985 ], [ -49.013377899999966, -27.679762899999965 ], [ -49.014597599999945, -27.678478899999956 ], [ -49.016943599999927, -27.678588899999966 ], [ -49.01903509999994, -27.677189699999914 ], [ -49.020116799999975, -27.677566699999939 ], [ -49.021620699999971, -27.677509899999976 ], [ -49.022950599999952, -27.674637699999934 ], [ -49.024311599999976, -27.67573219999996 ], [ -49.025939, -27.67558059999994 ], [ -49.028076899999974, -27.676874499999933 ], [ -49.028314499999972, -27.675525 ], [ -49.026126, -27.674352399999972 ], [ -49.026065399999936, -27.673503299999926 ], [ -49.026110899999942, -27.67273 ], [ -49.026151299999981, -27.672426799999972 ], [ -49.026040099999939, -27.672229699999942 ], [ -49.025795, -27.672121 ], [ -49.025671099999961, -27.672123499999934 ], [ -49.025350199999927, -27.672045199999967 ], [ -49.024905399999966, -27.671956699999956 ], [ -49.02377069999995, -27.671947299999928 ], [ -49.023756099999957, -27.668383199999937 ], [ -49.022122399999937, -27.668451299999948 ], [ -49.021295499999951, -27.667881099999935 ], [ -49.017952399999956, -27.667809799999933 ], [ -49.016183699999949, -27.667986 ], [ -49.016100899999977, -27.667999799999969 ], [ -49.015137, -27.668475199999936 ], [ -49.01287769999994, -27.668899199999942 ], [ -49.011350799999946, -27.6692657 ], [ -49.009548299999949, -27.66966519999994 ], [ -49.006437, -27.671905899999956 ], [ -49.005549599999945, -27.672291 ], [ -49.003135099999952, -27.671353299999954 ], [ -49.003038799999949, -27.671317599999949 ], [ -49.002898, -27.671278199999961 ], [ -49.00276949999995, -27.671231099999947 ], [ -49.00258139999994, -27.671147899999934 ], [ -49.002418499999976, -27.671011099999919 ], [ -49.002309399999945, -27.670936499999968 ], [ -49.002159499999948, -27.67086 ], [ -48.9993085, -27.671828699999939 ], [ -48.99927229999998, -27.67200619999992 ], [ -48.999246499999963, -27.672085499999969 ], [ -48.999129199999977, -27.672506099999964 ], [ -48.999039599999954, -27.672837 ], [ -48.999005099999977, -27.673064599999968 ], [ -48.999046499999956, -27.673333499999949 ], [ -48.999108599999943, -27.673457599999953 ], [ -48.999232699999943, -27.673623099999926 ], [ -48.999405, -27.67383679999995 ], [ -48.999331299999938, -27.673829 ], [ -48.999207199999951, -27.67384619999995 ], [ -48.99899, -27.673849699999945 ], [ -48.998741799999948, -27.673822099999942 ], [ -48.998734499999955, -27.673885099999957 ], [ -48.998819499999968, -27.674004099999934 ], [ -48.998839399999945, -27.67407779999996 ], [ -48.998803699999939, -27.674175 ], [ -48.998754899999945, -27.674246599999954 ], [ -48.998729099999942, -27.674409699999952 ], [ -48.998612299999934, -27.674668799999964 ], [ -48.998445199999928, -27.674822799999962 ], [ -48.998355099999976, -27.67492609999994 ], [ -48.998323499999977, -27.674996299999975 ], [ -48.998394299999973, -27.675103 ], [ -48.998684, -27.675209299999953 ], [ -48.998871299999962, -27.675198899999934 ], [ -48.999057899999976, -27.67512489999995 ], [ -48.999253899999985, -27.675190699999977 ], [ -48.999456, -27.675311099999931 ], [ -48.999685599999964, -27.675121799999939 ], [ -48.999975199999938, -27.674991099999936 ], [ -49.000309099999981, -27.674917699999984 ], [ -49.000570399999958, -27.675242599999937 ], [ -49.000869299999977, -27.675632299999965 ], [ -49.001277899999934, -27.676245 ], [ -49.001427099999944, -27.676434 ], [ -49.001516099999954, -27.676530599999982 ], [ -49.0016265, -27.676614799999985 ], [ -49.001734299999953, -27.676676699999959 ], [ -49.001882299999977, -27.676736 ], [ -49.002058099999942, -27.676774399999939 ], [ -49.002256199999977, -27.676808499999932 ], [ -49.002658899999972, -27.676862799999977 ], [ -49.002846599999948, -27.676894 ], [ -49.003043099999957, -27.676909199999947 ], [ -49.003186199999959, -27.676964399999981 ], [ -49.00335089999993, -27.67705049999995 ], [ -49.00348589999993, -27.677143699999927 ], [ -49.003591299999982, -27.677233 ], [ -49.003705499999967, -27.677366 ], [ -49.003868899999986, -27.677591899999985 ], [ -49.00406769999995, -27.677947699999951 ], [ -49.004141299999958, -27.678038799999968 ], [ -49.004320399999983, -27.678153099999975 ], [ -49.004814899999985, -27.678314199999924 ], [ -49.004920599999934, -27.678353899999927 ], [ -49.005030799999986, -27.6784019 ], [ -49.005138299999949, -27.67849769999998 ], [ -49.005216699999941, -27.67859 ], [ -49.005308399999933, -27.678766299999946 ], [ -49.005433899999964, -27.679112799999935 ], [ -49.005523199999963, -27.679224199999972 ], [ -49.005654499999935, -27.679330599999954 ], [ -49.005814499999985, -27.679419 ], [ -49.006049799999964, -27.679538899999955 ], [ -49.00613, -27.679656699999956 ], [ -49.0061884, -27.679796299999957 ], [ -49.005895, -27.680280699999958 ], [ -49.005790199999986, -27.680411299999946 ], [ -49.005650399999979, -27.680497099999958 ], [ -49.0055397, -27.680582299999973 ], [ -49.005532399999936, -27.680730899999958 ], [ -49.005574199999955, -27.680859 ], [ -49.005694899999988, -27.681038299999948 ], [ -49.00572939999995, -27.681114199999964 ], [ -49.005770699999978, -27.681176199999989 ], [ -49.005839699999974, -27.681293499999988 ], [ -49.005880299999944, -27.681321099999941 ], [ -49.005898799999962, -27.681584599999944 ], [ -49.005932099999946, -27.681862499999966 ], [ -49.005964799999958, -27.682064199999967 ], [ -49.006041099999948, -27.682434799999953 ], [ -49.006054899999981, -27.682675299999971 ], [ -49.006050799999969, -27.682837599999974 ], [ -49.006010199999935, -27.682979699999976 ], [ -49.005949899999962, -27.683124399999937 ], [ -49.005734, -27.683458199999961 ], [ -49.005612299999946, -27.683569699999964 ], [ -49.005422299999964, -27.683675499999936 ], [ -49.005206, -27.683783399999978 ], [ -49.003076399999941, -27.684594599999961 ], [ -49.005468399999984, -27.688512699999936 ], [ -49.010402499999941, -27.688831399999962 ], [ -49.010378299999957, -27.688631399999956 ], [ -49.010357699999986, -27.688507299999962 ], [ -49.010319699999968, -27.688400399999974 ] ] ], [ [ [ -49.097494099999956, -27.642038799999956 ], [ -49.097515699999974, -27.64207749999996 ], [ -49.097539, -27.64211929999993 ], [ -49.096770499999927, -27.64558709999994 ], [ -49.097183099999938, -27.645526899999933 ], [ -49.097799799999969, -27.645204099999951 ], [ -49.098096899999973, -27.645033599999969 ], [ -49.098251799999964, -27.64491189999994 ], [ -49.098494699999947, -27.645111499999931 ], [ -49.098821099999952, -27.645221099999947 ], [ -49.099161199999969, -27.645333899999954 ], [ -49.099734299999973, -27.645529899999925 ], [ -49.100583099999945, -27.645638199999951 ], [ -49.100989299999988, -27.645592199999957 ], [ -49.101352, -27.645589199999971 ], [ -49.101641, -27.64559949999995 ], [ -49.101894399999935, -27.645593099999925 ], [ -49.102154199999973, -27.645740399999962 ], [ -49.102538299999928, -27.645931199999946 ], [ -49.102821099999971, -27.64608579999997 ], [ -49.103014799999976, -27.646189699999983 ], [ -49.103283099999942, -27.646337499999959 ], [ -49.103837799999951, -27.646554 ], [ -49.104294799999941, -27.64664619999996 ], [ -49.104674499999931, -27.64669849999996 ], [ -49.105295099999978, -27.646707 ], [ -49.105877699999958, -27.646598899999958 ], [ -49.106207599999948, -27.646497099999984 ], [ -49.106560399999985, -27.646366899999975 ], [ -49.107026499999961, -27.646121199999982 ], [ -49.107326899999983, -27.645894299999952 ], [ -49.107490399999961, -27.645761199999971 ], [ -49.107822599999963, -27.645462799999958 ], [ -49.108096099999962, -27.645078699999935 ], [ -49.108255399999969, -27.644813499999934 ], [ -49.108372699999968, -27.644558599999979 ], [ -49.108462399999951, -27.644343399999968 ], [ -49.108488799999975, -27.644268899999926 ], [ -49.108531699999958, -27.644166699999971 ], [ -49.108554699999956, -27.6441 ], [ -49.10864509999994, -27.643902199999953 ], [ -49.108958099999938, -27.643860299999968 ], [ -49.1091881, -27.64375259999996 ], [ -49.109455499999974, -27.643885599999976 ], [ -49.109640899999931, -27.644033099999945 ], [ -49.109760599999959, -27.644103699999956 ], [ -49.109808699999974, -27.644138 ], [ -49.110232599999961, -27.644408799999951 ], [ -49.110630499999964, -27.64455079999993 ], [ -49.110683, -27.644568599999953 ], [ -49.110780199999965, -27.644665199999963 ], [ -49.111070899999952, -27.644896899999928 ], [ -49.111392, -27.64511239999996 ], [ -49.111901499999938, -27.645373599999974 ], [ -49.112495, -27.645549499999959 ], [ -49.112860599999976, -27.645615599999935 ], [ -49.11302859999995, -27.645665799999957 ], [ -49.11320929999993, -27.645812299999928 ], [ -49.113438699999953, -27.646590199999935 ], [ -49.113581599999975, -27.646846699999983 ], [ -49.113766599999963, -27.647160699999969 ], [ -49.114111399999956, -27.647800099999984 ], [ -49.114143899999938, -27.648202199999947 ], [ -49.114303499999941, -27.64873009999997 ], [ -49.114488, -27.649103599999933 ], [ -49.114666699999987, -27.649395399999946 ], [ -49.115037, -27.649884 ], [ -49.1154916, -27.650263399999968 ], [ -49.115853699999953, -27.650493699999966 ], [ -49.116129399999977, -27.650649599999944 ], [ -49.116398899999979, -27.65077789999998 ], [ -49.116727, -27.650923 ], [ -49.11711779999996, -27.651048099999961 ], [ -49.117512199999965, -27.651151499999969 ], [ -49.11785469999996, -27.651196 ], [ -49.11802229999995, -27.651218199999949 ], [ -49.118337, -27.65117349999997 ], [ -49.118637099999944, -27.651079099999951 ], [ -49.118628199999932, -27.651111299999965 ], [ -49.118637, -27.651148399999947 ], [ -49.11865419999998, -27.651172599999942 ], [ -49.118701499999986, -27.651201899999933 ], [ -49.118741399999976, -27.651232899999972 ], [ -49.118796699999962, -27.651277099999962 ], [ -49.118854, -27.651328699999972 ], [ -49.118909199999962, -27.651379299999963 ], [ -49.118964399999989, -27.651429 ], [ -49.119041899999957, -27.651494299999964 ], [ -49.119103599999953, -27.65152739999996 ], [ -49.119172899999974, -27.651542199999934 ], [ -49.119259199999938, -27.651674599999975 ], [ -49.119273499999963, -27.651734699999952 ], [ -49.119295899999941, -27.651800699999956 ], [ -49.1193234, -27.651851399999952 ], [ -49.119365099999989, -27.651903599999969 ], [ -49.119468299999937, -27.652021899999976 ], [ -49.119501899999932, -27.652069099999949 ], [ -49.119578399999973, -27.652203299999929 ], [ -49.119616699999945, -27.652282299999971 ], [ -49.119645, -27.652322 ], [ -49.119691099999955, -27.652363599999951 ], [ -49.119753799999955, -27.65240319999997 ], [ -49.119783199999979, -27.652415799999957 ], [ -49.119855399999949, -27.652431499999981 ], [ -49.1199577, -27.652443299999966 ], [ -49.119999899999989, -27.652456499999964 ], [ -49.120030299999939, -27.65246969999998 ], [ -49.120045299999951, -27.652483699999944 ], [ -49.120055099999945, -27.652502799999976 ], [ -49.120055799999932, -27.652528899999925 ], [ -49.120050399999968, -27.652561299999949 ], [ -49.120040099999976, -27.652585199999979 ], [ -49.120021799999961, -27.652607699999976 ], [ -49.119992099999934, -27.652628799999949 ], [ -49.119970799999976, -27.652638799999977 ], [ -49.11995479999996, -27.652648 ], [ -49.119937499999942, -27.652663099999984 ], [ -49.119921699999963, -27.652683199999956 ], [ -49.119909799999959, -27.652704899999939 ], [ -49.119902199999963, -27.652728599999921 ], [ -49.119897399999957, -27.652759399999979 ], [ -49.119895499999977, -27.652787699999976 ], [ -49.119895799999938, -27.652817299999988 ], [ -49.119897699999967, -27.652846899999933 ], [ -49.119904499999961, -27.652881699999959 ], [ -49.119905, -27.652908699999958 ], [ -49.119901399999939, -27.65292879999998 ], [ -49.119892799999946, -27.652947099999956 ], [ -49.119875599999943, -27.65296449999995 ], [ -49.119845699999985, -27.652979499999951 ], [ -49.119780699999978, -27.652995699999963 ], [ -49.119746699999951, -27.653010199999983 ], [ -49.119718699999972, -27.653028499999952 ], [ -49.119681499999956, -27.653069899999942 ], [ -49.119653499999963, -27.653106199999961 ], [ -49.119577199999981, -27.653193299999941 ], [ -49.119411699999944, -27.65335859999993 ], [ -49.119339799999977, -27.653417699999981 ], [ -49.1194455, -27.65415129999996 ], [ -49.119640199999928, -27.654762599999962 ], [ -49.119781899999964, -27.655260399999971 ], [ -49.119867099999965, -27.655443399999964 ], [ -49.119914499999943, -27.655725799999981 ], [ -49.120002299999953, -27.655701099999938 ], [ -49.120007899999955, -27.655861099999974 ], [ -49.120000799999957, -27.656014099999929 ], [ -49.119996599999979, -27.656264099999923 ], [ -49.12002629999995, -27.656614199999979 ], [ -49.120126599999935, -27.657064299999938 ], [ -49.120253799999944, -27.657356399999973 ], [ -49.120308899999941, -27.657515 ], [ -49.120468099999982, -27.65784479999996 ], [ -49.120682299999942, -27.658269899999929 ], [ -49.120950599999958, -27.658670899999958 ], [ -49.121000599999945, -27.658755599999946 ], [ -49.121117099999935, -27.658953499999935 ], [ -49.12139719999994, -27.659376099999967 ], [ -49.121577899999977, -27.659643199999952 ], [ -49.121716, -27.659803 ], [ -49.121698099999946, -27.65982479999996 ], [ -49.12207559999996, -27.660395399999963 ], [ -49.122323899999969, -27.660573299999964 ], [ -49.122384899999986, -27.660551299999941 ], [ -49.122456199999931, -27.660542699999951 ], [ -49.122558, -27.66054 ], [ -49.122721199999944, -27.660540899999948 ], [ -49.122778499999981, -27.660543899999933 ], [ -49.122839699999986, -27.660534499999983 ], [ -49.122954099999951, -27.660498899999936 ], [ -49.123090599999955, -27.660386599999981 ], [ -49.123212199999962, -27.660165399999975 ], [ -49.123286, -27.660023399999933 ], [ -49.12333689999997, -27.659907 ], [ -49.123379, -27.659797699999942 ], [ -49.123481199999965, -27.659569099999942 ], [ -49.123557099999964, -27.65944159999998 ], [ -49.123667299999973, -27.659297599999945 ], [ -49.124297099999978, -27.658751299999956 ], [ -49.125136199999986, -27.657285 ], [ -49.125890899999945, -27.65526 ], [ -49.126068, -27.654513799999965 ], [ -49.125714199999955, -27.653764199999948 ], [ -49.12559879999997, -27.65355529999993 ], [ -49.125063599999983, -27.651865899999954 ], [ -49.125092799999948, -27.650968799999927 ], [ -49.124978599999963, -27.650534 ], [ -49.124961099999958, -27.650479599999976 ], [ -49.124974699999939, -27.650365299999979 ], [ -49.124969699999959, -27.65003 ], [ -49.124946299999976, -27.64980379999998 ], [ -49.124891299999945, -27.649459499999974 ], [ -49.124819599999967, -27.649265499999949 ], [ -49.124769, -27.649087499999947 ], [ -49.124652099999935, -27.648821599999948 ], [ -49.124487599999952, -27.648468199999968 ], [ -49.124149, -27.648029699999931 ], [ -49.123927199999969, -27.647799699999947 ], [ -49.123765599999956, -27.647639299999984 ], [ -49.123663, -27.647537699999933 ], [ -49.123396699999951, -27.647288699999933 ], [ -49.12319679999996, -27.647116099999945 ], [ -49.122959299999934, -27.646923 ], [ -49.122706099999959, -27.646739399999944 ], [ -49.122609, -27.646605199999943 ], [ -49.122299099999964, -27.646265899999953 ], [ -49.121925499999975, -27.645965699999973 ], [ -49.121534299999958, -27.645731599999976 ], [ -49.121250099999941, -27.645605799999935 ], [ -49.12066029999994, -27.64537119999995 ], [ -49.120177, -27.645337699999974 ], [ -49.119956, -27.645307499999941 ], [ -49.119629, -27.645360099999959 ], [ -49.119629399999958, -27.645337799999925 ], [ -49.118307299999977, -27.64319329999995 ], [ -49.11726909999993, -27.640825499999945 ], [ -49.117025199999951, -27.640772799999972 ], [ -49.114840899999933, -27.640296299999918 ], [ -49.114554099999964, -27.640170399999921 ], [ -49.114014599999955, -27.639816 ], [ -49.113067099999967, -27.639302099999949 ], [ -49.112586599999986, -27.639314099999968 ], [ -49.112182, -27.639180799999959 ], [ -49.111309099999971, -27.639008599999958 ], [ -49.110985699999958, -27.638998099999984 ], [ -49.110686899999962, -27.638979 ], [ -49.11028819999995, -27.638966399999958 ], [ -49.110158299999966, -27.638949899999954 ], [ -49.110124599999942, -27.638947799999979 ], [ -49.110072799999955, -27.638945599999943 ], [ -49.10923809999997, -27.638742 ], [ -49.108613399999967, -27.638455799999974 ], [ -49.106577799999968, -27.63758949999994 ], [ -49.105100199999981, -27.638461199999938 ], [ -49.10387859999998, -27.639174299999983 ], [ -49.103189499999978, -27.639981099999947 ], [ -49.102792699999959, -27.640151199999924 ], [ -49.102529899999986, -27.640069199999974 ], [ -49.10194259999998, -27.64009979999997 ], [ -49.101469399999985, -27.640121499999964 ], [ -49.101171199999953, -27.639920499999963 ], [ -49.100683899999979, -27.639519299999954 ], [ -49.100448699999959, -27.63932409999995 ], [ -49.099789499999986, -27.639074299999951 ], [ -49.099422899999972, -27.6389354 ], [ -49.09903079999998, -27.638905099999921 ], [ -49.098632399999985, -27.6388449 ], [ -49.097879, -27.638939199999978 ], [ -49.097369199999946, -27.639070099999977 ], [ -49.097462499999956, -27.641857699999942 ], [ -49.097466199999985, -27.641985699999964 ], [ -49.097466299999951, -27.641989199999951 ], [ -49.097474399999953, -27.642003599999953 ], [ -49.097494099999956, -27.642038799999956 ] ] ], [ [ [ -48.986277, -27.638832799999932 ], [ -48.986201199999982, -27.638901699999973 ], [ -48.986139099999946, -27.638984499999939 ], [ -48.986090899999972, -27.63915 ], [ -48.986008099999935, -27.639487799999984 ], [ -48.985939199999962, -27.63996359999992 ], [ -48.985884, -27.640494499999924 ], [ -48.985877099999989, -27.640763399999969 ], [ -48.985904699999935, -27.640880599999949 ], [ -48.9860288, -27.641004699999947 ], [ -48.986414899999943, -27.641218399999953 ], [ -48.98669069999994, -27.641351199999974 ], [ -48.986918199999934, -27.641420099999948 ], [ -48.987104399999971, -27.641475299999971 ], [ -48.987256099999968, -27.641578699999968 ], [ -48.987359499999968, -27.641682099999962 ], [ -48.987387099999978, -27.641889 ], [ -48.987338799999975, -27.642061399999921 ], [ -48.987276799999961, -27.642261299999966 ], [ -48.987283699999978, -27.642406099999963 ], [ -48.987428499999965, -27.642606099999973 ], [ -48.987566399999928, -27.642799099999934 ], [ -48.987628399999949, -27.642930099999937 ], [ -48.987635299999965, -27.643081799999951 ], [ -48.987607699999963, -27.643240399999964 ], [ -48.987538799999982, -27.643474799999975 ], [ -48.9874698, -27.643695499999961 ], [ -48.987331899999958, -27.643943699999966 ], [ -48.987214699999988, -27.644088499999956 ], [ -48.98698719999993, -27.644385 ], [ -48.986697599999964, -27.644729699999964 ], [ -48.986759699999944, -27.644815899999966 ], [ -48.986880299999939, -27.644853799999964 ], [ -48.987011299999949, -27.644850399999939 ], [ -48.987132, -27.644836599999962 ], [ -48.987228499999958, -27.644784899999927 ], [ -48.987414699999931, -27.644633199999934 ], [ -48.987511199999972, -27.644564199999941 ], [ -48.987556, -27.644553899999941 ], [ -48.987625, -27.644574599999938 ], [ -48.987693899999954, -27.644615899999977 ], [ -48.987769799999974, -27.644667599999938 ], [ -48.987821499999939, -27.644712499999976 ], [ -48.987876599999936, -27.644719399999921 ], [ -48.988004199999985, -27.644681399999961 ], [ -48.988118, -27.644647 ], [ -48.988193799999976, -27.644633199999927 ], [ -48.988276599999942, -27.644643499999976 ], [ -48.98838, -27.644678 ], [ -48.988521299999945, -27.644743499999947 ], [ -48.988683399999957, -27.644805499999961 ], [ -48.988742, -27.644815899999973 ], [ -48.988821299999984, -27.644809 ], [ -48.988897099999981, -27.644795199999976 ], [ -48.988962599999979, -27.644767599999966 ], [ -48.989024699999952, -27.644719399999918 ], [ -48.989086699999966, -27.644636599999949 ], [ -48.989131499999985, -27.644533199999955 ], [ -48.989155699999969, -27.644433199999977 ], [ -48.989166, -27.644322899999956 ], [ -48.989152199999978, -27.644205699999944 ], [ -48.989107399999959, -27.644026399999984 ], [ -48.989055699999938, -27.64387129999994 ], [ -48.988978099999933, -27.643684299999975 ], [ -48.988909199999966, -27.643501499999953 ], [ -48.988864399999962, -27.643370499999946 ], [ -48.98884709999993, -27.643243 ], [ -48.988857499999945, -27.643139599999976 ], [ -48.988905699999975, -27.643008499999944 ], [ -48.988985, -27.642829299999967 ], [ -48.989050499999955, -27.642670699999943 ], [ -48.989074699999946, -27.642539699999933 ], [ -48.989093299999979, -27.642532199999948 ], [ -48.989131399999955, -27.642517 ], [ -48.989214099999963, -27.642530799999978 ], [ -48.98936219999996, -27.642565199999979 ], [ -48.989444899999974, -27.642558399999928 ], [ -48.989486199999938, -27.642544599999958 ], [ -48.989548299999967, -27.642489399999935 ], [ -48.989617199999941, -27.64241369999997 ], [ -48.989668799999947, -27.642337899999973 ], [ -48.989748099999986, -27.642293099999954 ], [ -48.989872099999957, -27.642265499999954 ], [ -48.990034, -27.642244799999954 ], [ -48.990168399999959, -27.642241399999925 ], [ -48.990345799999943, -27.642262099999979 ], [ -48.990459499999986, -27.642269 ], [ -48.990521499999943, -27.642286199999948 ], [ -48.990590399999974, -27.642313699999939 ], [ -48.990676499999942, -27.642348199999951 ], [ -48.990776499999988, -27.642362 ], [ -48.990876399999934, -27.642355099999971 ], [ -48.990938399999955, -27.64230689999993 ], [ -48.990996899999971, -27.642238 ], [ -48.991034799999966, -27.642162199999976 ], [ -48.991048599999935, -27.642100099999933 ], [ -48.991055499999959, -27.642038099999986 ], [ -48.991052099999926, -27.641934799999952 ], [ -48.991065899999967, -27.641810799999984 ], [ -48.991076199999959, -27.641766 ], [ -48.991082699999943, -27.641624699999973 ], [ -48.991131, -27.641459299999944 ], [ -48.991124099999986, -27.641293899999937 ], [ -48.991034499999955, -27.641169899999959 ], [ -48.9909105, -27.641073399999982 ], [ -48.99073819999996, -27.641004499999951 ], [ -48.990641, -27.640967499999935 ], [ -48.990593499999939, -27.640949299999914 ], [ -48.990572199999981, -27.640892299999958 ], [ -48.990573199999972, -27.64083619999996 ], [ -48.990598299999931, -27.640796799999968 ], [ -48.990629399999932, -27.640762799999951 ], [ -48.990398899999946, -27.640460499999957 ], [ -48.990395799999931, -27.640384099999945 ], [ -48.99037019999998, -27.640307499999945 ], [ -48.990335699999946, -27.640222699999981 ], [ -48.990301399999971, -27.640125899999923 ], [ -48.9902805, -27.640037299999943 ], [ -48.990277299999946, -27.639965 ], [ -48.990278799999942, -27.639884699999978 ], [ -48.990280099999957, -27.639808499999958 ], [ -48.990272699999935, -27.639724099999963 ], [ -48.990269299999973, -27.63965979999994 ], [ -48.990270799999962, -27.639579499999961 ], [ -48.990271899999982, -27.639519299999954 ], [ -48.990277499999927, -27.639459199999976 ], [ -48.990296099999966, -27.639431399999989 ], [ -48.990297099999971, -27.639375199999957 ], [ -48.990297899999966, -27.639331099999929 ], [ -48.990293699999938, -27.639314899999917 ], [ -48.990285299999975, -27.639278699999977 ], [ -48.990268199999946, -27.639230299999952 ], [ -48.990250699999933, -27.639201899999932 ], [ -48.990233599999961, -27.639149499999967 ], [ -48.990234499999985, -27.639101299999947 ], [ -48.99023539999996, -27.639053199999974 ], [ -48.990236199999977, -27.639005 ], [ -48.990227899999979, -27.638968799999923 ], [ -48.990220199999953, -27.638896399999972 ], [ -48.99022089999994, -27.63886029999998 ], [ -48.990221899999938, -27.638804099999962 ], [ -48.99024959999997, -27.638768399999947 ], [ -48.990255299999944, -27.63870419999995 ], [ -48.990257199999974, -27.638595899999927 ], [ -48.990254299999954, -27.638511599999955 ], [ -48.990237899999961, -27.638423 ], [ -48.990225599999974, -27.63835459999995 ], [ -48.990204199999937, -27.638290099999942 ], [ -48.990196499999968, -27.638217699999927 ], [ -48.990179699999942, -27.638153199999973 ], [ -48.99016289999998, -27.638084799999941 ], [ -48.990150099999937, -27.638044399999941 ], [ -48.990124, -27.637995899999961 ], [ -48.990097499999933, -27.637963399999933 ], [ -48.990067099999969, -27.637902699999977 ], [ -48.99003179999994, -27.63786209999996 ], [ -48.989982699999977, -27.637833299999961 ], [ -48.989938399999978, -27.637792499999929 ], [ -48.989880699999965, -27.637743499999935 ], [ -48.989872499999933, -27.637699199999922 ], [ -48.989869099999957, -27.637638899999956 ], [ -48.989866, -27.637562599999971 ], [ -48.989867099999969, -27.637498399999959 ], [ -48.98985469999996, -27.637438 ], [ -48.989837399999942, -27.637397599999915 ], [ -48.989806599999945, -27.637361099999964 ], [ -48.98978, -27.637332599999976 ], [ -48.989730899999984, -27.637307799999963 ], [ -48.989673, -27.63727079999995 ], [ -48.989642099999969, -27.637234299999935 ], [ -48.989625, -27.637185799999941 ], [ -48.989621599999964, -27.637121599999936 ], [ -48.989604699999973, -27.637061099999976 ], [ -48.989587199999967, -27.637032799999933 ], [ -48.989560599999947, -27.637008299999938 ], [ -48.989529699999935, -27.636971699999936 ], [ -48.989494299999933, -27.636939099999953 ], [ -48.989467699999977, -27.63691059999995 ], [ -48.989436799999964, -27.636878 ], [ -48.989410699999958, -27.636825499999919 ], [ -48.989407399999948, -27.63676119999996 ], [ -48.989411899999944, -27.636730699999934 ], [ -48.989233299999967, -27.636636199999941 ], [ -48.989214299999951, -27.636666 ], [ -48.989097099999988, -27.636803899999958 ], [ -48.988821299999984, -27.637093499999928 ], [ -48.98861439999996, -27.637328 ], [ -48.98850409999995, -27.637486499999969 ], [ -48.988442, -27.637674399999977 ], [ -48.988386899999959, -27.637846799999977 ], [ -48.988297199999977, -27.638095 ], [ -48.988221399999986, -27.638274299999985 ], [ -48.988124899999946, -27.638412199999941 ], [ -48.987987, -27.638529399999971 ], [ -48.987766299999969, -27.638625899999955 ], [ -48.987587099999985, -27.638667299999952 ], [ -48.987421599999948, -27.638694899999958 ], [ -48.987235399999967, -27.638722499999979 ], [ -48.987049299999974, -27.63875 ], [ -48.986801, -27.63875 ], [ -48.98655279999997, -27.63875 ], [ -48.98639419999995, -27.638777599999969 ], [ -48.986277, -27.638832799999932 ] ] ] ] } }
]
}
