{
"type": "FeatureCollection",
"name": "4218806",
"crs": { "type": "name", "properties": { "name": "urn:ogc:def:crs:OGC:1.3:CRS84" } },
"features": [
{ "type": "Feature", "properties": { "CD_MUN": "4218806", "NM_MUN": "Turvo" }, "geometry": { "type": "MultiPolygon", "coordinates": [ [ [ [ -49.685285399999941, -28.930760299999978 ], [ -49.685369699999967, -28.930684299999946 ], [ -49.685859, -28.93023 ], [ -49.686625, -28.930926799999948 ], [ -49.688062099999968, -28.932205 ], [ -49.689884299999967, -28.933788899999968 ], [ -49.690385, -28.933293099999947 ], [ -49.687948899999988, -28.931136199999965 ], [ -49.686719399999959, -28.930066499999946 ], [ -49.688168, -28.928729 ], [ -49.689788, -28.930214299999925 ], [ -49.690923, -28.929222199999966 ], [ -49.690805799999964, -28.929121299999959 ], [ -49.690243, -28.928656399999959 ], [ -49.689651199999957, -28.928174399999936 ], [ -49.6892797, -28.927868299999947 ], [ -49.691055499999948, -28.926292 ], [ -49.692183499999942, -28.927249599999989 ], [ -49.692885599999954, -28.926587599999952 ], [ -49.692080899999951, -28.92587669999995 ], [ -49.693565699999965, -28.924522199999945 ], [ -49.69359529999997, -28.924496499999975 ], [ -49.694172699999967, -28.924998399999939 ], [ -49.694257599999958, -28.925068199999934 ], [ -49.694271699999938, -28.925055099999948 ], [ -49.695236399999949, -28.924204199999952 ], [ -49.696363499999961, -28.922993899999945 ], [ -49.696468199999977, -28.922842399999972 ], [ -49.696478799999966, -28.922715799999942 ], [ -49.696506899999974, -28.922638399999986 ], [ -49.696559699999966, -28.922497699999955 ], [ -49.696594799999964, -28.92237109999996 ], [ -49.696647599999949, -28.922290199999967 ], [ -49.696742599999936, -28.922212799999947 ], [ -49.696798799999954, -28.92216349999995 ], [ -49.696829299999941, -28.922079399999976 ], [ -49.696529099999964, -28.92179839999995 ], [ -49.695745399999964, -28.921110499999934 ], [ -49.695586299999952, -28.920991499999971 ], [ -49.695405899999962, -28.920970899999944 ], [ -49.695213199999955, -28.920949 ], [ -49.695426199999986, -28.920732299999944 ], [ -49.694074099999966, -28.919556 ], [ -49.69332659999997, -28.918919899999938 ], [ -49.694649699999964, -28.917738299999932 ], [ -49.694997599999965, -28.91740979999997 ], [ -49.695404, -28.917042099999943 ], [ -49.695583299999953, -28.916878699999987 ], [ -49.695769799999937, -28.916715199999942 ], [ -49.696939699999973, -28.915670499999969 ], [ -49.697324099999946, -28.915311699999965 ], [ -49.698487199999931, -28.914244099999955 ], [ -49.698678299999983, -28.914072099999942 ], [ -49.699727899999978, -28.913113799999973 ], [ -49.700141799999983, -28.912753399999932 ], [ -49.700577, -28.912342099999936 ], [ -49.700881099999954, -28.912065199999983 ], [ -49.701160299999977, -28.911852299999964 ], [ -49.701404, -28.911727699999972 ], [ -49.702515299999959, -28.911178799999956 ], [ -49.703479699999946, -28.910701099999979 ], [ -49.705024, -28.909936099999971 ], [ -49.705896899999971, -28.90951309999997 ], [ -49.70705259999994, -28.908943799999971 ], [ -49.707407299999943, -28.908769799999959 ], [ -49.70829219999996, -28.908326 ], [ -49.708677899999941, -28.908074299999949 ], [ -49.708696499999974, -28.908062399999956 ], [ -49.708725399999935, -28.908046099999979 ], [ -49.71054189999996, -28.906857899999974 ], [ -49.71072989999994, -28.906734799999985 ], [ -49.712436799999978, -28.905617299999967 ], [ -49.712801099999979, -28.905371599999963 ], [ -49.713803299999938, -28.904718399999979 ], [ -49.714273399999975, -28.904412 ], [ -49.714296299999944, -28.904395199999961 ], [ -49.714315099999972, -28.904382699999921 ], [ -49.715548199999944, -28.903568099999969 ], [ -49.715803599999958, -28.903407599999976 ], [ -49.716254099999965, -28.903105199999974 ], [ -49.716565299999964, -28.902895399999966 ], [ -49.716602, -28.90287149999995 ], [ -49.71663719999998, -28.902856599999946 ], [ -49.717074499999967, -28.902670499999939 ], [ -49.717923899999967, -28.90230849999994 ], [ -49.717967699999974, -28.90228979999997 ], [ -49.718013099999951, -28.902271299999924 ], [ -49.718782799999985, -28.901956599999952 ], [ -49.721513899999941, -28.900869 ], [ -49.72171469999995, -28.900788899999956 ], [ -49.722295199999969, -28.900522899999928 ], [ -49.72284719999994, -28.900290299999934 ], [ -49.724149799999964, -28.899651299999963 ], [ -49.724705399999955, -28.899383499999939 ], [ -49.727262599999968, -28.898151199999973 ], [ -49.72834179999996, -28.897631099999952 ], [ -49.729329899999982, -28.897158199999975 ], [ -49.730061399999954, -28.896786599999935 ], [ -49.731115399999972, -28.896277399999967 ], [ -49.731211799999983, -28.896230799999952 ], [ -49.731388199999977, -28.89614749999998 ], [ -49.731926299999948, -28.895885199999949 ], [ -49.732882599999982, -28.89541069999995 ], [ -49.73413979999998, -28.894807899999925 ], [ -49.735530899999965, -28.894144299999926 ], [ -49.737284499999923, -28.893307 ], [ -49.737301599999967, -28.893298799999972 ], [ -49.73732119999994, -28.893289099999954 ], [ -49.7377719, -28.893064699999965 ], [ -49.738237899999945, -28.892822799999969 ], [ -49.739834599999938, -28.892058399999939 ], [ -49.74056, -28.891711499999918 ], [ -49.741587799999934, -28.89121839999995 ], [ -49.741607199999976, -28.891208299999963 ], [ -49.741631699999971, -28.891197299999927 ], [ -49.742330099999947, -28.890853 ], [ -49.741628, -28.890244099999961 ], [ -49.74159659999998, -28.890216299999974 ], [ -49.741549799999973, -28.890174499999944 ], [ -49.74092829999995, -28.88954839999997 ], [ -49.740165399999974, -28.889925 ], [ -49.740145399999967, -28.889934799999942 ], [ -49.740120799999943, -28.889946399999928 ], [ -49.739126399999968, -28.890423899999984 ], [ -49.738390399999957, -28.890777799999974 ], [ -49.736855699999978, -28.891512699999961 ], [ -49.736763799999949, -28.891556299999927 ], [ -49.736542099999959, -28.891671699999961 ], [ -49.736522799999939, -28.891682099999962 ], [ -49.736499, -28.891694399999956 ], [ -49.736297899999947, -28.891798199999979 ], [ -49.735802099999944, -28.89204639999998 ], [ -49.73407439999994, -28.892869 ], [ -49.732665699999984, -28.893541399999943 ], [ -49.731424499999946, -28.894146299999935 ], [ -49.730473399999944, -28.894609899999963 ], [ -49.729914099999974, -28.894881 ], [ -49.7296712, -28.894996799999937 ], [ -49.728587399999981, -28.895520099999946 ], [ -49.728406199999938, -28.895612199999949 ], [ -49.727855799999979, -28.89589169999995 ], [ -49.727296699999954, -28.896158599999971 ], [ -49.72686769999995, -28.896364599999963 ], [ -49.725788499999965, -28.89688469999993 ], [ -49.723231399999975, -28.898117 ], [ -49.722675699999968, -28.89838479999997 ], [ -49.721373099999937, -28.899023799999959 ], [ -49.721295399999974, -28.899055699999959 ], [ -49.720821099999974, -28.899256399999953 ], [ -49.720240599999954, -28.899522399999967 ], [ -49.720039799999931, -28.899602499999951 ], [ -49.718288799999989, -28.900301599999985 ], [ -49.717099899999937, -28.900771199999948 ], [ -49.716507799999938, -28.901012799999936 ], [ -49.716049099999957, -28.901211399999966 ], [ -49.715838499999968, -28.901032099999945 ], [ -49.715114599999936, -28.90043059999994 ], [ -49.714984799999968, -28.900320399999941 ], [ -49.714870399999946, -28.900212199999935 ], [ -49.71474139999998, -28.900085499999939 ], [ -49.71455659999998, -28.899802499999961 ], [ -49.714372499999961, -28.899422499999964 ], [ -49.714053899999954, -28.898594699999929 ], [ -49.713617599999964, -28.897547399999958 ], [ -49.713124099999959, -28.896327499999984 ], [ -49.713077199999987, -28.89620879999994 ], [ -49.712776399999939, -28.895435899999935 ], [ -49.712625199999934, -28.895047399999939 ], [ -49.711765699999944, -28.895514399999964 ], [ -49.711732499999989, -28.895532399999972 ], [ -49.711687, -28.895557099999976 ], [ -49.710876699999972, -28.895997299999962 ], [ -49.711328799999926, -28.897158699999977 ], [ -49.71137559999994, -28.89727739999995 ], [ -49.711481299999946, -28.897538799999964 ], [ -49.711869099999944, -28.898497299999971 ], [ -49.712071199999968, -28.898982499999935 ], [ -49.712305399999934, -28.899544499999926 ], [ -49.712624099999971, -28.900372399999988 ], [ -49.712808099999968, -28.900752299999969 ], [ -49.712992899999968, -28.901035399999966 ], [ -49.713121899999983, -28.901162 ], [ -49.713236299999949, -28.901270199999939 ], [ -49.71336969999993, -28.901384 ], [ -49.713613799999955, -28.901587699999933 ], [ -49.714304899999945, -28.902162199999953 ], [ -49.714049499999931, -28.902322699999957 ], [ -49.713570499999946, -28.90263919999995 ], [ -49.712789699999973, -28.903155099999942 ], [ -49.7118167, -28.903795 ], [ -49.7114711, -28.904021299999947 ], [ -49.710963, -28.904354199999943 ], [ -49.7092646, -28.905467899999959 ], [ -49.709240799999968, -28.905482299999957 ], [ -49.709220399999936, -28.905495599999938 ], [ -49.709041399999933, -28.905612499999961 ], [ -49.707204599999962, -28.906815899999959 ], [ -49.707187, -28.906827399999941 ], [ -49.707167899999945, -28.90684 ], [ -49.706800599999951, -28.907084099999963 ], [ -49.704405199999933, -28.908271299999967 ], [ -49.703597899999984, -28.908661799999944 ], [ -49.701048899999932, -28.909924399999973 ], [ -49.701023699999951, -28.909936899999934 ], [ -49.700998099999936, -28.909949499999982 ], [ -49.69991239999996, -28.910485799999943 ], [ -49.699668599999939, -28.910610399999932 ], [ -49.699389499999938, -28.91082339999997 ], [ -49.699241699999959, -28.910950099999976 ], [ -49.699120299999954, -28.911067199999923 ], [ -49.698650099999952, -28.911511499999953 ], [ -49.69823619999994, -28.911872 ], [ -49.697186699999975, -28.912830299999946 ], [ -49.696995499999957, -28.913002199999948 ], [ -49.696571, -28.913388799999939 ], [ -49.69599, -28.913917799999982 ], [ -49.69585, -28.914045199999961 ], [ -49.695539399999973, -28.914330199999945 ], [ -49.6942782, -28.915473299999977 ], [ -49.694121799999948, -28.915615799999955 ], [ -49.69392739999995, -28.915793 ], [ -49.693199599999957, -28.916452299999946 ], [ -49.691879399999948, -28.917636699999946 ], [ -49.691776499999946, -28.917731799999945 ], [ -49.691746799999976, -28.917759299999933 ], [ -49.689966199999951, -28.916223899999977 ], [ -49.689916799999942, -28.916254199999962 ], [ -49.689891, -28.916266899999968 ], [ -49.689779199999975, -28.916321799999928 ], [ -49.689721299999974, -28.916347599999945 ], [ -49.689526399999984, -28.916414 ], [ -49.689340799999968, -28.916445699999951 ], [ -49.689187599999961, -28.916437899999938 ], [ -49.689077899999972, -28.916419199999954 ], [ -49.689039799999932, -28.916407499999938 ], [ -49.68895039999996, -28.916377599999976 ], [ -49.688733099999979, -28.916251599999953 ], [ -49.688575199999946, -28.916157899999963 ], [ -49.688386, -28.916064 ], [ -49.688312099999962, -28.916041099999962 ], [ -49.688240399999984, -28.916023599999971 ], [ -49.688103099999978, -28.916007599999933 ], [ -49.68801979999995, -28.916004699999981 ], [ -49.687969199999941, -28.916004499999929 ], [ -49.687917399999947, -28.916006599999939 ], [ -49.687878299999973, -28.916012599999931 ], [ -49.687842499999931, -28.916021599999954 ], [ -49.687797599999961, -28.91603479999997 ], [ -49.687679299999949, -28.916119599999941 ], [ -49.687660699999981, -28.91613179999996 ], [ -49.685413899999965, -28.914214299999966 ], [ -49.685316099999973, -28.914184499999969 ], [ -49.68522159999997, -28.914211 ], [ -49.682587699999942, -28.916711899999935 ], [ -49.682564199999952, -28.916734199999944 ], [ -49.680746599999971, -28.918374099999944 ], [ -49.680681799999952, -28.918432599999953 ], [ -49.679521499999964, -28.919470199999974 ], [ -49.679476899999941, -28.919432599999936 ], [ -49.6765276, -28.91682549999997 ], [ -49.675970899999975, -28.917338299999983 ], [ -49.675952299999956, -28.917355499999925 ], [ -49.675933599999951, -28.917372699999927 ], [ -49.674449899999964, -28.91873929999997 ], [ -49.673033699999962, -28.917563499999972 ], [ -49.672774399999973, -28.917336 ], [ -49.672759599999942, -28.917323 ], [ -49.67274279999998, -28.91730839999996 ], [ -49.671025399999962, -28.915811399999935 ], [ -49.669691899999975, -28.914671199999923 ], [ -49.668813699999923, -28.913898199999942 ], [ -49.667545299999972, -28.912814 ], [ -49.667150599999957, -28.912469499999926 ], [ -49.665174899999961, -28.910745 ], [ -49.664067799999941, -28.909742699999978 ], [ -49.664049, -28.909724799999932 ], [ -49.662630099999951, -28.910926199999949 ], [ -49.66193739999995, -28.910254499999947 ], [ -49.66179539999996, -28.910080899999969 ], [ -49.661595199999972, -28.909846399999932 ], [ -49.661465699999951, -28.909649799999933 ], [ -49.661311599999976, -28.909443899999935 ], [ -49.661094799999944, -28.909102199999939 ], [ -49.660877, -28.908734099999943 ], [ -49.660780799999934, -28.908561199999951 ], [ -49.660581599999951, -28.908130899999943 ], [ -49.660472, -28.907872399999977 ], [ -49.660318299999972, -28.90750989999998 ], [ -49.660144299999956, -28.907102199999944 ], [ -49.660058099999951, -28.906902399999982 ], [ -49.659803299999965, -28.906305 ], [ -49.659649699999939, -28.905944699999967 ], [ -49.659191899999939, -28.904871299999968 ], [ -49.658926399999984, -28.90422279999995 ], [ -49.658026, -28.902048199999975 ], [ -49.656904599999962, -28.903058499999915 ], [ -49.655671299999938, -28.904166199999963 ], [ -49.6541893, -28.905508399999974 ], [ -49.653276799999958, -28.906316499999946 ], [ -49.651991399999986, -28.907482699999942 ], [ -49.650091299999985, -28.909194699999937 ], [ -49.64975689999995, -28.909493299999944 ], [ -49.646923299999969, -28.912017899999981 ], [ -49.647750299999984, -28.912763499999983 ], [ -49.648812499999963, -28.913672899999955 ], [ -49.64937, -28.914139 ], [ -49.650140199999953, -28.914791399999942 ], [ -49.650705099999982, -28.915294 ], [ -49.651234099999954, -28.915737499999985 ], [ -49.651844299999937, -28.91625449999998 ], [ -49.652287499999943, -28.916627399999982 ], [ -49.653253699999937, -28.917467199999976 ], [ -49.653632599999987, -28.917790499999967 ], [ -49.653970499999957, -28.918079399999961 ], [ -49.654217, -28.918305099999944 ], [ -49.654243899999983, -28.918329799999984 ], [ -49.654245799999963, -28.918331499999962 ], [ -49.6542606, -28.918344199999982 ], [ -49.654767099999965, -28.918778099999937 ], [ -49.65548119999994, -28.919363 ], [ -49.656010699999975, -28.919815699999972 ], [ -49.6562244, -28.920004899999977 ], [ -49.656562899999983, -28.920304499999926 ], [ -49.656747599999967, -28.920468 ], [ -49.657185499999962, -28.920840699999928 ], [ -49.658803899999953, -28.922203299999985 ], [ -49.659221899999977, -28.922613 ], [ -49.659800299999979, -28.923091499999931 ], [ -49.659884499999976, -28.923176299999962 ], [ -49.659985399999982, -28.923258299999926 ], [ -49.660234199999941, -28.923460499999962 ], [ -49.660419, -28.923610699999987 ], [ -49.660668099999953, -28.923816699999954 ], [ -49.660845499999937, -28.923963399999945 ], [ -49.661262099999931, -28.924319499999964 ], [ -49.661719199999936, -28.924704 ], [ -49.661935799999988, -28.92489529999995 ], [ -49.662278799999974, -28.925198 ], [ -49.662770799999969, -28.925632199999924 ], [ -49.66351949999995, -28.926270699999968 ], [ -49.66376, -28.926476299999926 ], [ -49.66548, -28.927972299999958 ], [ -49.667057, -28.929343899999935 ], [ -49.666025699999977, -28.930264099999928 ], [ -49.667450799999983, -28.9314846 ], [ -49.667417499999942, -28.931514799999938 ], [ -49.667125399999975, -28.931785 ], [ -49.665140199999939, -28.9336 ], [ -49.667043599999936, -28.93541069999997 ], [ -49.667735799999946, -28.936045099999944 ], [ -49.668530199999971, -28.936778199999935 ], [ -49.668595399999958, -28.936831099999949 ], [ -49.666404799999953, -28.938883299999929 ], [ -49.668278599999958, -28.94051649999993 ], [ -49.668665199999964, -28.940148499999957 ], [ -49.669490799999956, -28.939373799999935 ], [ -49.670497699999949, -28.938441799999957 ], [ -49.672280299999962, -28.940025199999972 ], [ -49.672388399999932, -28.940121199999965 ], [ -49.672410499999955, -28.940100299999987 ], [ -49.673213899999951, -28.939362899999928 ], [ -49.673235899999952, -28.939342799999956 ], [ -49.673261899999943, -28.939319299999958 ], [ -49.673654899999981, -28.938949799999929 ], [ -49.67384119999997, -28.939003599999982 ], [ -49.673896099999972, -28.939013599999946 ], [ -49.674230099999932, -28.939083399999955 ], [ -49.674419599999972, -28.939103299999939 ], [ -49.674668799999949, -28.939118299999961 ], [ -49.674783499999933, -28.939103299999953 ], [ -49.67490319999996, -28.939083399999955 ], [ -49.675162399999977, -28.939312699999963 ], [ -49.675202299999974, -28.939307699999969 ], [ -49.675272099999965, -28.939242899999961 ], [ -49.675336899999934, -28.939163199999935 ], [ -49.675426699999953, -28.939092099999975 ], [ -49.67560119999996, -28.938987399999981 ], [ -49.675725799999952, -28.938917599999961 ], [ -49.675775699999967, -28.938778 ], [ -49.675835499999941, -28.938658399999952 ], [ -49.675890299999942, -28.938583599999955 ], [ -49.6748942, -28.937806799999983 ], [ -49.674877099999939, -28.937793399999986 ], [ -49.674903, -28.937769699999937 ], [ -49.675828899999942, -28.93692469999996 ], [ -49.676586199999974, -28.936248399999947 ], [ -49.676624499999946, -28.936210699999947 ], [ -49.679042699999968, -28.934042899999945 ], [ -49.680509599999937, -28.932704299999937 ], [ -49.681690799999963, -28.931635799999977 ], [ -49.682260699999965, -28.931135799999936 ], [ -49.68350049999998, -28.932371099999948 ], [ -49.68370189999996, -28.932187399999975 ], [ -49.685285399999941, -28.930760299999978 ] ] ], [ [ [ -49.754292299999967, -28.882112099999983 ], [ -49.754478699999929, -28.881837399999938 ], [ -49.754805499999975, -28.881458199999951 ], [ -49.75506, -28.88107319999995 ], [ -49.755268599999965, -28.880796499999974 ], [ -49.755533299999961, -28.880434399999949 ], [ -49.755837399999969, -28.880030299999927 ], [ -49.756095099999989, -28.879635199999932 ], [ -49.756204199999964, -28.879409899999924 ], [ -49.756288399999967, -28.879190899999955 ], [ -49.756315499999971, -28.8789978 ], [ -49.756349299999961, -28.878818199999955 ], [ -49.756417899999974, -28.878691599999975 ], [ -49.756503699999939, -28.878593099999929 ], [ -49.756617699999936, -28.878498 ], [ -49.756777299999953, -28.878425 ], [ -49.75699689999994, -28.878346299999979 ], [ -49.757286799999974, -28.878290099999965 ], [ -49.757456599999948, -28.878245099999958 ], [ -49.757751499999983, -28.878145 ], [ -49.758031499999959, -28.878023499999987 ], [ -49.758216, -28.877932099999949 ], [ -49.758615, -28.877664799999934 ], [ -49.758984799999951, -28.87741379999995 ], [ -49.7594089, -28.877103 ], [ -49.7598847, -28.876831199999963 ], [ -49.760151599999979, -28.876638199999938 ], [ -49.760591599999948, -28.876200199999953 ], [ -49.761004699999944, -28.875865799999929 ], [ -49.761357, -28.875599099999935 ], [ -49.761494599999942, -28.875502099999938 ], [ -49.760336, -28.874349 ], [ -49.760301699999957, -28.874315099999926 ], [ -49.760263599999973, -28.874277199999941 ], [ -49.759624699999961, -28.873642299999972 ], [ -49.759188699999982, -28.873154599999957 ], [ -49.755410899999958, -28.875468199999943 ], [ -49.75407359999997, -28.876431 ], [ -49.753532, -28.87678539999996 ], [ -49.753311299999957, -28.876945899999946 ], [ -49.752888899999959, -28.877417 ], [ -49.751538599999954, -28.876308099999957 ], [ -49.751058799999953, -28.876861399999932 ], [ -49.753024399999958, -28.878472899999952 ], [ -49.752798199999972, -28.878747199999957 ], [ -49.75197959999997, -28.879744199999941 ], [ -49.751782799999951, -28.879987399999955 ], [ -49.751534799999952, -28.880287699999947 ], [ -49.751519399999943, -28.880307499999955 ], [ -49.752255799999951, -28.880940099999979 ], [ -49.75228419999997, -28.880965 ], [ -49.754024899999941, -28.882489799999981 ], [ -49.754292299999967, -28.882112099999983 ] ] ], [ [ [ -49.784698, -28.858551 ], [ -49.784872599999971, -28.858419099999928 ], [ -49.785107799999928, -28.858208299999937 ], [ -49.785508799999938, -28.857717299999933 ], [ -49.786345599999947, -28.856554199999948 ], [ -49.787364299999979, -28.855218399999963 ], [ -49.787376199999983, -28.85520269999995 ], [ -49.78739, -28.855183699999959 ], [ -49.788073, -28.854240499999943 ], [ -49.78826619999996, -28.853931299999946 ], [ -49.787550499999959, -28.853528599999954 ], [ -49.78748209999997, -28.853490099999931 ], [ -49.787421299999949, -28.853456799999947 ], [ -49.786635799999942, -28.85301389999994 ], [ -49.786182399999973, -28.853629899999934 ], [ -49.785091199999954, -28.85506079999994 ], [ -49.784254399999952, -28.856224 ], [ -49.784049399999958, -28.856475 ], [ -49.783853399999941, -28.856715 ], [ -49.783618099999956, -28.856925799999942 ], [ -49.783443599999941, -28.857057699999924 ], [ -49.783147299999932, -28.857251 ], [ -49.783129699999961, -28.857261599999958 ], [ -49.783111299999973, -28.857273599999914 ], [ -49.782930699999959, -28.857391199999928 ], [ -49.780116, -28.85921 ], [ -49.779754399999945, -28.85937749999994 ], [ -49.779467599999982, -28.859475199999959 ], [ -49.779297099999958, -28.859511299999962 ], [ -49.778200199999951, -28.859716699999968 ], [ -49.778413, -28.860522399999979 ], [ -49.778430399999934, -28.8605884 ], [ -49.778446799999983, -28.860650199999945 ], [ -49.778664499999934, -28.861467299999948 ], [ -49.780551499999952, -28.861004599999941 ], [ -49.780722, -28.860968599999971 ], [ -49.781008799999938, -28.860870799999915 ], [ -49.781370399999957, -28.860703299999955 ], [ -49.784185099999945, -28.85889149999996 ], [ -49.784698, -28.858551 ] ] ], [ [ [ -49.719054299999989, -28.842352499999958 ], [ -49.718929199999934, -28.842202 ], [ -49.7188594, -28.842114699999968 ], [ -49.718826399999955, -28.842098199999938 ], [ -49.718852499999969, -28.84204949999998 ], [ -49.718863199999937, -28.842040399999966 ], [ -49.718873099999939, -28.842031899999945 ], [ -49.718941, -28.841973899999964 ], [ -49.719039399999978, -28.841907899999963 ], [ -49.719129699999947, -28.841862399999975 ], [ -49.719149499999958, -28.841848699999964 ], [ -49.719175399999983, -28.841826699999967 ], [ -49.719187599999941, -28.84180079999992 ], [ -49.71918839999995, -28.841787899999922 ], [ -49.719180899999969, -28.841763099999977 ], [ -49.719176, -28.84175439999996 ], [ -49.719164, -28.841745499999941 ], [ -49.719157299999956, -28.841743 ], [ -49.71910639999993, -28.841734 ], [ -49.719047699999983, -28.841728699999972 ], [ -49.719005699999968, -28.841722599999976 ], [ -49.718961099999945, -28.84170679999994 ], [ -49.718916899999961, -28.841689 ], [ -49.718857899999925, -28.841665899999942 ], [ -49.718795699999937, -28.841635499999928 ], [ -49.718625599999932, -28.841505199999979 ], [ -49.718506599999955, -28.841400399999934 ], [ -49.718471499999957, -28.841359099999963 ], [ -49.718449699999944, -28.84130569999996 ], [ -49.718452299999967, -28.841236599999938 ], [ -49.718486799999944, -28.841183 ], [ -49.718543699999941, -28.841156 ], [ -49.718602399999952, -28.841152699999949 ], [ -49.718651299999976, -28.841151799999981 ], [ -49.718728499999941, -28.841152499999964 ], [ -49.718851099999938, -28.841151599999932 ], [ -49.719076699999967, -28.841141299999951 ], [ -49.719258899999943, -28.841132399999946 ], [ -49.718477099999973, -28.840412 ], [ -49.718447199999957, -28.840383899999956 ], [ -49.719444199999934, -28.839478899999964 ], [ -49.720290899999959, -28.838700199999952 ], [ -49.720425299999931, -28.838576599999943 ], [ -49.720670699999971, -28.838350899999952 ], [ -49.720978399999979, -28.838065499999978 ], [ -49.72075109999998, -28.837874499999941 ], [ -49.71998479999997, -28.837243099999974 ], [ -49.718734399999953, -28.836164 ], [ -49.718487399999965, -28.836186499999947 ], [ -49.718425099999934, -28.836184399999979 ], [ -49.718341699999939, -28.836150599999936 ], [ -49.718272899999931, -28.836101399999961 ], [ -49.717980799999964, -28.835809599999941 ], [ -49.717709299999967, -28.835567199999961 ], [ -49.717449099999953, -28.835373099999959 ], [ -49.717179099999953, -28.835179799999942 ], [ -49.717085, -28.835132699999974 ], [ -49.717039799999952, -28.835121399999935 ], [ -49.716980199999973, -28.835125199999929 ], [ -49.716912599999951, -28.835141299999979 ], [ -49.71679, -28.835208799999986 ], [ -49.71665669999993, -28.835298199999954 ], [ -49.716531599999932, -28.835360599999948 ], [ -49.715853399999951, -28.837171699999931 ], [ -49.717268899999965, -28.838648 ], [ -49.715307, -28.840112399999956 ], [ -49.715288699999974, -28.840127699999986 ], [ -49.715262, -28.840149799999942 ], [ -49.714075599999944, -28.841184299999956 ], [ -49.713726599999973, -28.841016 ], [ -49.713513299999924, -28.840977099999975 ], [ -49.7133391, -28.840996699999941 ], [ -49.713218499999989, -28.841118699999978 ], [ -49.713022, -28.841397199999946 ], [ -49.712658, -28.842159 ], [ -49.711111799999976, -28.842465199999939 ], [ -49.71077079999997, -28.842488499999948 ], [ -49.710461599999981, -28.842489099999966 ], [ -49.710408799999982, -28.842485499999963 ], [ -49.710347299999967, -28.8424879 ], [ -49.71026279999996, -28.842491399999968 ], [ -49.710174199999983, -28.842465299999958 ], [ -49.709887599999938, -28.842300899999934 ], [ -49.709616599999947, -28.842281399999933 ], [ -49.709464199999957, -28.842280199999951 ], [ -49.709270699999934, -28.842330599999968 ], [ -49.70915059999993, -28.842415499999952 ], [ -49.70891789999996, -28.842704299999973 ], [ -49.708739, -28.842890499999953 ], [ -49.708567899999935, -28.84304069999995 ], [ -49.708421199999975, -28.84317649999997 ], [ -49.708298599999971, -28.843305799999939 ], [ -49.708145599999966, -28.843589799999943 ], [ -49.708096399999931, -28.843704799999948 ], [ -49.708074599999975, -28.84377139999998 ], [ -49.708041899999955, -28.843827 ], [ -49.70802759999998, -28.843834399999942 ], [ -49.70799059999996, -28.843838099999971 ], [ -49.707962199999947, -28.843829299999975 ], [ -49.707930799999986, -28.843816799999956 ], [ -49.707915199999952, -28.843803099999938 ], [ -49.707675, -28.84354269999994 ], [ -49.707449, -28.843305599999951 ], [ -49.707319699999978, -28.843221799999984 ], [ -49.707248, -28.843196 ], [ -49.707102099999986, -28.843142099999966 ], [ -49.706753399999968, -28.843101699999977 ], [ -49.706503099999971, -28.84305589999996 ], [ -49.706375199999961, -28.84303679999994 ], [ -49.706316799999968, -28.843034399999965 ], [ -49.706286, -28.843036399999967 ], [ -49.706235099999958, -28.843043399999939 ], [ -49.70620519999995, -28.843050599999966 ], [ -49.706169799999941, -28.843076599999961 ], [ -49.706088099999931, -28.843186499999941 ], [ -49.706066, -28.843247099999928 ], [ -49.706005, -28.84342739999995 ], [ -49.705961899999977, -28.843554699999974 ], [ -49.705885499999965, -28.843723099999988 ], [ -49.705828499999946, -28.843836799999952 ], [ -49.705782499999941, -28.843897499999986 ], [ -49.705732499999954, -28.843947099999962 ], [ -49.705669799999953, -28.843984099999943 ], [ -49.705488799999962, -28.844065 ], [ -49.705371199999945, -28.844156299999938 ], [ -49.705213899999933, -28.844291799999951 ], [ -49.705126299999968, -28.844446499999943 ], [ -49.705093, -28.844564899999966 ], [ -49.70509149999998, -28.844639099999924 ], [ -49.705091799999934, -28.84466 ], [ -49.70509329999993, -28.844682199999959 ], [ -49.705100099999974, -28.844807899999989 ], [ -49.705107399999974, -28.844869299999971 ], [ -49.705102499999953, -28.844922099999962 ], [ -49.705095899999947, -28.844957799999985 ], [ -49.70508719999998, -28.844975199999954 ], [ -49.705072399999949, -28.8449826 ], [ -49.705059099999971, -28.844987499999931 ], [ -49.70502879999998, -28.844988 ], [ -49.705001499999973, -28.844980699999958 ], [ -49.704957699999966, -28.844964 ], [ -49.704791899999968, -28.845415099999965 ], [ -49.704841699999982, -28.845473 ], [ -49.704874899999929, -28.845511599999959 ], [ -49.705509, -28.844972299999927 ], [ -49.705906899999952, -28.844597899999933 ], [ -49.706174199999971, -28.844388199999962 ], [ -49.706301099999962, -28.844299099999947 ], [ -49.706375399999956, -28.844271 ], [ -49.706396399999967, -28.844317199999985 ], [ -49.706939499999976, -28.8463 ], [ -49.70775249999997, -28.846143799999936 ], [ -49.709788899999978, -28.84581489999993 ], [ -49.710710399999982, -28.845643699999982 ], [ -49.7107822, -28.845630199999956 ], [ -49.71442339999993, -28.84504979999998 ], [ -49.716233, -28.844790599999946 ], [ -49.716952, -28.844620599999928 ], [ -49.717735099999977, -28.844028099999932 ], [ -49.719292899999971, -28.842574299999967 ], [ -49.719054299999989, -28.842352499999958 ] ] ] ] } }
]
}
