{
"type": "FeatureCollection",
"name": "4218301",
"crs": { "type": "name", "properties": { "name": "urn:ogc:def:crs:OGC:1.3:CRS84" } },
"features": [
{ "type": "Feature", "properties": { "CD_MUN": "4218301", "NM_MUN": "Três Barras" }, "geometry": { "type": "MultiPolygon", "coordinates": [ [ [ [ -50.371223399999963, -26.156282499999971 ], [ -50.371306199999943, -26.156248599999969 ], [ -50.371387399999946, -26.156214599999952 ], [ -50.371467899999963, -26.156180199999945 ], [ -50.371801199999936, -26.156035099999944 ], [ -50.371892099999968, -26.155995899999937 ], [ -50.371987599999954, -26.155955399999964 ], [ -50.372087, -26.155913799999954 ], [ -50.372189199999987, -26.15587179999995 ], [ -50.372293299999967, -26.155829899999954 ], [ -50.372398199999964, -26.155788699999952 ], [ -50.37250279999995, -26.155748599999971 ], [ -50.37260619999995, -26.155710399999968 ], [ -50.372707299999945, -26.155674399999956 ], [ -50.372805299999989, -26.155641099999968 ], [ -50.372900199999947, -26.155610399999937 ], [ -50.372992399999923, -26.155581799999933 ], [ -50.373082, -26.155555 ], [ -50.373169399999945, -26.155529699999921 ], [ -50.373502099999946, -26.15543619999994 ], [ -50.373583, -26.155413 ], [ -50.373664199999943, -26.155389099999979 ], [ -50.37374669999997, -26.155364099999932 ], [ -50.373831199999977, -26.155337599999939 ], [ -50.373918499999945, -26.155309199999976 ], [ -50.374009399999984, -26.155278599999974 ], [ -50.374104699999975, -26.155245399999963 ], [ -50.374418499999933, -26.15513159999994 ], [ -50.374548799999957, -26.155085399999965 ], [ -50.374645399999963, -26.155052199999947 ], [ -50.3747623, -26.155014099999953 ], [ -50.374880699999949, -26.15497819999996 ], [ -50.375, -26.154955099999931 ], [ -50.375098199999975, -26.154914699999942 ], [ -50.375891299999978, -26.154754799999971 ], [ -50.376110099999948, -26.154752299999927 ], [ -50.376272099999944, -26.1547768 ], [ -50.376362399999941, -26.154828299999966 ], [ -50.376407199999967, -26.154883299999938 ], [ -50.376448599999947, -26.154934099999942 ], [ -50.376500699999951, -26.155070499999962 ], [ -50.376547799999962, -26.155428 ], [ -50.376613199999952, -26.155843 ], [ -50.376791799999978, -26.156462199999964 ], [ -50.376999499999954, -26.157138799999931 ], [ -50.377078399999959, -26.157783299999956 ], [ -50.37708989999993, -26.157877699999961 ], [ -50.377120399999967, -26.158519299999956 ], [ -50.377207299999959, -26.159193499999954 ], [ -50.377313299999969, -26.1595139 ], [ -50.377426399999933, -26.159761599999968 ], [ -50.377641299999937, -26.160123599999963 ], [ -50.377943, -26.160411799999967 ], [ -50.378298699999959, -26.160731399999957 ], [ -50.378649199999984, -26.161228599999966 ], [ -50.378830199999982, -26.161678599999956 ], [ -50.378936, -26.161960599999929 ], [ -50.379069299999976, -26.162145 ], [ -50.379962399999961, -26.163060599999934 ], [ -50.38087859999996, -26.164021599999959 ], [ -50.38170579999997, -26.164611899999944 ], [ -50.382461599999942, -26.164909199999954 ], [ -50.383537199999985, -26.165094599999971 ], [ -50.383981499999955, -26.165219 ], [ -50.38407459999997, -26.165308799999934 ], [ -50.384167699999971, -26.165398599999946 ], [ -50.384261699999961, -26.165613499999946 ], [ -50.384264299999984, -26.165766699999953 ], [ -50.384241899999942, -26.165832499999972 ], [ -50.384219399999957, -26.165898199999958 ], [ -50.383980199999939, -26.166188299999938 ], [ -50.383754499999959, -26.166478399999964 ], [ -50.383658599999926, -26.166668299999976 ], [ -50.383645, -26.166944 ], [ -50.383732099999982, -26.167134899999954 ], [ -50.383950499999976, -26.167342 ], [ -50.384288499999968, -26.167515699999964 ], [ -50.384337, -26.167537799999938 ], [ -50.384742899999942, -26.167723199999955 ], [ -50.385741099999962, -26.168293 ], [ -50.386013699999978, -26.16841 ], [ -50.386235699999986, -26.168505199999952 ], [ -50.386618599999963, -26.168623799999981 ], [ -50.387034599999929, -26.168752399999956 ], [ -50.387359299999957, -26.168878599999964 ], [ -50.387617699999964, -26.169069599999947 ], [ -50.387903399999963, -26.169225099999963 ], [ -50.388080499999937, -26.169291199999972 ], [ -50.388162499999957, -26.169321799999981 ], [ -50.388406299999978, -26.169318099999941 ], [ -50.388687399999981, -26.169295399999957 ], [ -50.388973799999974, -26.169239199999929 ], [ -50.389076099999954, -26.16918359999994 ], [ -50.389191799999935, -26.169120599999921 ], [ -50.389451299999955, -26.168895199999959 ], [ -50.389569699999981, -26.168792399999973 ], [ -50.389774099999954, -26.168597299999927 ], [ -50.389965899999936, -26.168233099999963 ], [ -50.39002679999993, -26.167721799999981 ], [ -50.389976699999984, -26.167171799999945 ], [ -50.389934099999955, -26.16674909999994 ], [ -50.389926, -26.166669099999979 ], [ -50.389933399999961, -26.166258799999987 ], [ -50.389973299999951, -26.165867 ], [ -50.390120099999926, -26.165495799999977 ], [ -50.39054219999997, -26.164984 ], [ -50.391005, -26.164558099999955 ], [ -50.391082499999989, -26.1644305 ], [ -50.391105599999946, -26.164273799999933 ], [ -50.391060099999947, -26.164030399999948 ], [ -50.390885099999927, -26.163834699999946 ], [ -50.39067179999995, -26.163641599999956 ], [ -50.390562899999971, -26.163584799999974 ], [ -50.390164899999945, -26.1634304 ], [ -50.389847699999962, -26.163372199999969 ], [ -50.389139599999972, -26.163290799999963 ], [ -50.388168399999984, -26.163022899999937 ], [ -50.387158599999964, -26.162837399999937 ], [ -50.386637499999949, -26.162782899999968 ], [ -50.386014099999954, -26.162825199999929 ], [ -50.385631199999978, -26.16281929999997 ], [ -50.385272499999985, -26.162761199999981 ], [ -50.385032299999978, -26.162646 ], [ -50.384820499999933, -26.162506899999986 ], [ -50.384669699999961, -26.162342599999935 ], [ -50.384612099999977, -26.162197799999934 ], [ -50.384440699999978, -26.161800799999973 ], [ -50.38429009999993, -26.16159 ], [ -50.384174199999961, -26.161514199999942 ], [ -50.383997799999968, -26.161468299999964 ], [ -50.383757199999934, -26.161439099999924 ], [ -50.383467799999956, -26.161481499999983 ], [ -50.383152099999954, -26.16153109999993 ], [ -50.383017799999948, -26.161516399999982 ], [ -50.382910299999942, -26.161448299999968 ], [ -50.382826399999942, -26.161342099999956 ], [ -50.382769399999972, -26.161186799999939 ], [ -50.382765499999948, -26.161018199999937 ], [ -50.382813399999975, -26.160842099999968 ], [ -50.382900099999972, -26.160722 ], [ -50.383197, -26.160452499999963 ], [ -50.383393099999978, -26.1602238 ], [ -50.383466899999966, -26.160028899999944 ], [ -50.383420699999931, -26.159845899999937 ], [ -50.383338799999933, -26.159705399999964 ], [ -50.383211299999978, -26.159630299999939 ], [ -50.382971699999985, -26.159567199999966 ], [ -50.382834, -26.159568399999955 ], [ -50.382678299999952, -26.15962269999995 ], [ -50.382441499999977, -26.159772499999981 ], [ -50.382230399999969, -26.160065099999933 ], [ -50.382134899999983, -26.160284699999981 ], [ -50.382046, -26.160717299999931 ], [ -50.382038399999942, -26.161387299999934 ], [ -50.382052399999964, -26.162105 ], [ -50.381998099999976, -26.162300899999934 ], [ -50.38190689999994, -26.162435399999932 ], [ -50.381770699999947, -26.162518199999965 ], [ -50.381640799999957, -26.162538899999959 ], [ -50.381487299999947, -26.162548899999937 ], [ -50.381345799999963, -26.162527 ], [ -50.381165199999934, -26.16245349999997 ], [ -50.381034, -26.162335799999926 ], [ -50.38091349999997, -26.162180599999949 ], [ -50.380849799999957, -26.161955 ], [ -50.380825599999987, -26.161681599999948 ], [ -50.38081509999995, -26.161062899999941 ], [ -50.380870699999946, -26.160600599999949 ], [ -50.381109099999946, -26.160152699999973 ], [ -50.381402599999944, -26.159782199999935 ], [ -50.38193549999994, -26.159240899999908 ], [ -50.382512, -26.158529499999933 ], [ -50.382798799999932, -26.158365099999962 ], [ -50.382976199999966, -26.158307299999912 ], [ -50.383171, -26.158286799999928 ], [ -50.38334569999995, -26.158344299999943 ], [ -50.383737799999956, -26.158594399999963 ], [ -50.384025099999981, -26.158807599999932 ], [ -50.384216299999935, -26.159099399999931 ], [ -50.384384, -26.159377 ], [ -50.384574099999952, -26.1595215 ], [ -50.384735099999943, -26.159568399999959 ], [ -50.384919, -26.159572899999947 ], [ -50.385037199999942, -26.159532599999984 ], [ -50.38518339999996, -26.159401899999985 ], [ -50.385530099999976, -26.158942 ], [ -50.385850099999971, -26.158415399999964 ], [ -50.385985499999947, -26.158288099999936 ], [ -50.386121399999979, -26.158247899999925 ], [ -50.386296499999965, -26.15824159999994 ], [ -50.38644979999998, -26.158263499999979 ], [ -50.386595, -26.158345699999945 ], [ -50.386831899999947, -26.158556099999934 ], [ -50.387005099999961, -26.158895799999982 ], [ -50.387143399999957, -26.159216699999938 ], [ -50.387282099999936, -26.159401799999955 ], [ -50.387417899999946, -26.159455699999967 ], [ -50.3875556, -26.159456299999921 ], [ -50.38771509999998, -26.159423199999928 ], [ -50.387847199999953, -26.159352799999965 ], [ -50.387910599999948, -26.159271499999932 ], [ -50.387962799999968, -26.159069399999968 ], [ -50.387943299999961, -26.15870579999995 ], [ -50.38792059999998, -26.158610099999969 ], [ -50.387858099999967, -26.158430699999943 ], [ -50.387693199999944, -26.15800049999995 ], [ -50.387602599999987, -26.157622799999956 ], [ -50.387599299999984, -26.157489699999928 ], [ -50.38765369999993, -26.157243299999944 ], [ -50.387754899999955, -26.157071599999945 ], [ -50.387911699999961, -26.156915099999935 ], [ -50.388264599999957, -26.156700499999943 ], [ -50.388547099999982, -26.156520299999951 ], [ -50.388747399999943, -26.156365799999939 ], [ -50.388811, -26.156225899999981 ], [ -50.388827399999968, -26.156103499999972 ], [ -50.388792799999976, -26.155957899999965 ], [ -50.388714599999957, -26.155856399999944 ], [ -50.388608799999986, -26.155777899999972 ], [ -50.388377, -26.155716599999945 ], [ -50.387997399999961, -26.155716699999964 ], [ -50.387695299999962, -26.15579 ], [ -50.387490299999968, -26.155881399999938 ], [ -50.387201799999957, -26.156128599999928 ], [ -50.386894699999978, -26.15637269999996 ], [ -50.386638399999988, -26.156494 ], [ -50.386504599999959, -26.156491699999947 ], [ -50.386314, -26.156471299999961 ], [ -50.386176499999983, -26.156424599999969 ], [ -50.385865299999985, -26.156279099999949 ], [ -50.385778199999947, -26.156194499999959 ], [ -50.385691099999981, -26.156109799999957 ], [ -50.385511299999969, -26.155812499999975 ], [ -50.385387499999979, -26.155440399999978 ], [ -50.385379199999932, -26.155129799999937 ], [ -50.385451399999958, -26.154906 ], [ -50.385631599999947, -26.154679599999952 ], [ -50.38595179999998, -26.154374 ], [ -50.38621889999996, -26.154203399999982 ], [ -50.386512599999946, -26.1541 ], [ -50.386772399999984, -26.15406739999996 ], [ -50.387022, -26.154093299999932 ], [ -50.387281899999948, -26.154200899999974 ], [ -50.387634799999944, -26.154420699999946 ], [ -50.38801559999996, -26.154682099999942 ], [ -50.388168899999982, -26.154707599999931 ], [ -50.388265299999944, -26.154704399999964 ], [ -50.388375599999968, -26.154660499999974 ], [ -50.388474399999957, -26.154575799999979 ], [ -50.388575699999933, -26.154400499999948 ], [ -50.388644599999964, -26.154127 ], [ -50.38863379999998, -26.153767399999936 ], [ -50.388565599999936, -26.153444299999929 ], [ -50.388489899999975, -26.153243499999974 ], [ -50.388333699999976, -26.153028099999972 ], [ -50.388037599999954, -26.152851199999937 ], [ -50.387721499999948, -26.152652 ], [ -50.387572699999964, -26.152514799999945 ], [ -50.387504499999977, -26.152395599999974 ], [ -50.387487499999956, -26.15226069999995 ], [ -50.387523599999959, -26.152126799999962 ], [ -50.387583299999953, -26.151983299999984 ], [ -50.387700099999961, -26.151834799999961 ], [ -50.387869899999941, -26.151739499999959 ], [ -50.388023599999947, -26.15165339999993 ], [ -50.388345299999969, -26.151602499999957 ], [ -50.388652699999973, -26.151499099999956 ], [ -50.388751499999955, -26.151400199999959 ], [ -50.388797299999965, -26.151292099999974 ], [ -50.388809899999949, -26.151155499999948 ], [ -50.388790599999936, -26.151070299999965 ], [ -50.388655599999936, -26.150900099999937 ], [ -50.388068, -26.150432699999968 ], [ -50.387750299999936, -26.150139499999966 ], [ -50.387590399999965, -26.149953799999928 ], [ -50.387045699999931, -26.149413799999937 ], [ -50.386868199999981, -26.149332499999957 ], [ -50.3864205, -26.149194 ], [ -50.386063099999944, -26.149087799999958 ], [ -50.385899199999983, -26.148992299999971 ], [ -50.385752599999925, -26.148823099999959 ], [ -50.385669499999949, -26.148542299999988 ], [ -50.385655899999968, -26.148135299999971 ], [ -50.385833899999966, -26.14721429999997 ], [ -50.385982399999932, -26.146651499999962 ], [ -50.386113399999942, -26.146269799999974 ], [ -50.386276399999986, -26.145808799999934 ], [ -50.386296799999968, -26.145727799999982 ], [ -50.386362599999984, -26.145466599999953 ], [ -50.386500499999954, -26.14374129999992 ], [ -50.386355299999927, -26.143107799999942 ], [ -50.386128099999951, -26.142541899999962 ], [ -50.385831899999964, -26.141808199999964 ], [ -50.3857053, -26.141487 ], [ -50.385132799999951, -26.140567299999919 ], [ -50.384728199999984, -26.139995299999949 ], [ -50.384370199999978, -26.140118799999989 ], [ -50.383412599999986, -26.140448 ], [ -50.382989799999969, -26.140597399999933 ], [ -50.382162199999982, -26.140878 ], [ -50.380386599999952, -26.141518 ], [ -50.379184699999939, -26.141922399999945 ], [ -50.378285, -26.14223029999993 ], [ -50.37742129999998, -26.142403 ], [ -50.376734299999953, -26.142441099999932 ], [ -50.376283499999943, -26.142430499999932 ], [ -50.375437299999938, -26.142302699999949 ], [ -50.374533, -26.142065399999979 ], [ -50.373924399999964, -26.141770199999929 ], [ -50.373061199999938, -26.14127539999998 ], [ -50.370683099999944, -26.139922499999951 ], [ -50.370601899999947, -26.139988199999934 ], [ -50.370523299999952, -26.140035599999976 ], [ -50.370493199999949, -26.140051299999982 ], [ -50.370463099999938, -26.140067 ], [ -50.370400199999956, -26.140094799999929 ], [ -50.370353, -26.140116699999975 ], [ -50.370258, -26.140155199999988 ], [ -50.369810299999976, -26.140406 ], [ -50.369362599999931, -26.140656799999931 ], [ -50.368111499999941, -26.141375199999974 ], [ -50.367238299999947, -26.141876599999936 ], [ -50.365352899999948, -26.142876199999936 ], [ -50.364410899999939, -26.143397899999961 ], [ -50.364124399999987, -26.14316679999995 ], [ -50.363943399999989, -26.143428399999948 ], [ -50.363536599999975, -26.143751699999942 ], [ -50.362781, -26.144172199999968 ], [ -50.362255399999981, -26.14459839999995 ], [ -50.362043899999954, -26.144829899999927 ], [ -50.361934199999951, -26.144949699999987 ], [ -50.36196549999994, -26.145154599999962 ], [ -50.363074699999963, -26.148839499999955 ], [ -50.347435899999937, -26.146053099999953 ], [ -50.341764199999943, -26.145666899999981 ], [ -50.3414863, -26.149392799999926 ], [ -50.341445599999986, -26.149937899999927 ], [ -50.345236399999976, -26.16185449999994 ], [ -50.347080399999982, -26.159848699999955 ], [ -50.348007699999982, -26.158956899999964 ], [ -50.349680799999931, -26.158186299999958 ], [ -50.349604799999959, -26.157571499999957 ], [ -50.349504899999936, -26.156364799999949 ], [ -50.348538899999944, -26.155798599999962 ], [ -50.348455099999974, -26.155757899999966 ], [ -50.348372599999948, -26.155719099999935 ], [ -50.348291699999955, -26.155682199999951 ], [ -50.348212499999931, -26.155646899999965 ], [ -50.348135099999972, -26.155613399999933 ], [ -50.348047299999969, -26.155576499999942 ], [ -50.347986499999934, -26.155551299999946 ], [ -50.347723499999979, -26.155444 ], [ -50.347666799999956, -26.15542019999998 ], [ -50.347614299999968, -26.155397499999946 ], [ -50.347566399999948, -26.155375699999976 ], [ -50.347522599999934, -26.155354399999958 ], [ -50.347482699999944, -26.155333299999942 ], [ -50.347446099999964, -26.155312 ], [ -50.347412599999984, -26.15529 ], [ -50.347381599999949, -26.155267 ], [ -50.347352899999976, -26.155242499999922 ], [ -50.347326, -26.155216199999931 ], [ -50.34730049999996, -26.155187799999954 ], [ -50.347276399999934, -26.155157499999969 ], [ -50.347253699999953, -26.155125699999925 ], [ -50.347232499999961, -26.15509289999995 ], [ -50.347212699999936, -26.155059299999941 ], [ -50.347194399999985, -26.155025399999943 ], [ -50.347177499999987, -26.15499159999996 ], [ -50.347162099999935, -26.154958199999957 ], [ -50.347148199999943, -26.154925599999945 ], [ -50.347135799999933, -26.154893599999976 ], [ -50.34712479999996, -26.154862 ], [ -50.347115199999955, -26.154830599999958 ], [ -50.347106899999972, -26.154799299999972 ], [ -50.3471, -26.154767899999964 ], [ -50.347094399999946, -26.154736099999983 ], [ -50.347090099999939, -26.154703799999925 ], [ -50.347087, -26.154670699999944 ], [ -50.347085099999966, -26.154636799999938 ], [ -50.347084399999964, -26.154601899999925 ], [ -50.34708489999997, -26.154565799999947 ], [ -50.347086399999966, -26.154528399999947 ], [ -50.347089, -26.154489599999977 ], [ -50.347092699999962, -26.154449199999927 ], [ -50.347097399999939, -26.154407099999965 ], [ -50.347103, -26.154363299999947 ], [ -50.347109699999976, -26.154318199999981 ], [ -50.347117299999979, -26.154272399999964 ], [ -50.347125799999958, -26.154226399999981 ], [ -50.347137299999979, -26.154172499999959 ], [ -50.347145799999964, -26.154135899999964 ], [ -50.34715719999997, -26.154092599999963 ], [ -50.34716949999995, -26.154051299999928 ], [ -50.347182699999969, -26.154012499999958 ], [ -50.347196899999972, -26.153975899999971 ], [ -50.347212199999944, -26.153941399999951 ], [ -50.347228699999967, -26.153908699999938 ], [ -50.34724639999996, -26.15387759999993 ], [ -50.347265299999947, -26.153847699999968 ], [ -50.347285699999986, -26.153819 ], [ -50.347307599999972, -26.153791 ], [ -50.347330899999974, -26.153763599999937 ], [ -50.347355599999958, -26.153736899999952 ], [ -50.347381599999949, -26.153711 ], [ -50.347408599999937, -26.153686 ], [ -50.347436599999988, -26.153661899999957 ], [ -50.347465299999953, -26.153638899999986 ], [ -50.347494599999948, -26.153617099999963 ], [ -50.347524399999948, -26.153596599999947 ], [ -50.347554499999951, -26.153577499999979 ], [ -50.347585, -26.153559799999975 ], [ -50.347616099999982, -26.153543399999929 ], [ -50.347647799999947, -26.153528199999982 ], [ -50.347680199999957, -26.153514299999976 ], [ -50.347713499999948, -26.153501499999944 ], [ -50.347747899999945, -26.153489899999954 ], [ -50.347783299999939, -26.153479299999958 ], [ -50.347819899999934, -26.153469799999986 ], [ -50.347857699999963, -26.153461299999947 ], [ -50.347896399999968, -26.15345369999994 ], [ -50.347935899999982, -26.153446899999949 ], [ -50.347976199999948, -26.153440799999945 ], [ -50.348017099999936, -26.153435499999944 ], [ -50.348058399999964, -26.153430699999934 ], [ -50.348142, -26.153422799999934 ], [ -50.348184299999964, -26.153419699999972 ], [ -50.348227, -26.153417199999986 ], [ -50.348270099999986, -26.153415399999965 ], [ -50.348313899999937, -26.153414399999978 ], [ -50.348358299999973, -26.153414299999955 ], [ -50.348403599999983, -26.15341519999998 ], [ -50.348449699999954, -26.153417099999949 ], [ -50.348496899999986, -26.153420099999959 ], [ -50.34854549999995, -26.153424299999973 ], [ -50.348595899999971, -26.153429799999959 ], [ -50.348648499999967, -26.15343659999996 ], [ -50.348703899999975, -26.153444699999973 ], [ -50.348762399999941, -26.153454199999942 ], [ -50.348824399999955, -26.15346529999993 ], [ -50.348890299999944, -26.153477799999965 ], [ -50.348960599999941, -26.153492 ], [ -50.349035099999988, -26.153507799999932 ], [ -50.349113699999975, -26.153525199999933 ], [ -50.349196199999938, -26.153544199999928 ], [ -50.349282499999951, -26.153564699999951 ], [ -50.349372399999936, -26.153586899999937 ], [ -50.349465799999962, -26.1536106 ], [ -50.349562499999941, -26.153635899999973 ], [ -50.349662199999962, -26.15366269999992 ], [ -50.349763799999955, -26.153690799999925 ], [ -50.349866, -26.15372 ], [ -50.349967499999934, -26.153749899999976 ], [ -50.350067199999962, -26.153780399999963 ], [ -50.350163599999981, -26.153811099999931 ], [ -50.350255599999969, -26.153841899999975 ], [ -50.350341799999967, -26.153872399999955 ], [ -50.35037269999998, -26.153884 ], [ -50.350561499999969, -26.153962 ], [ -50.350623199999973, -26.153992099999982 ], [ -50.35068, -26.154022599999962 ], [ -50.350732599999958, -26.154053899999958 ], [ -50.350781299999937, -26.154086199999934 ], [ -50.350826899999966, -26.15411969999996 ], [ -50.35086959999996, -26.154154799999958 ], [ -50.350909899999976, -26.154191399999949 ], [ -50.350947699999949, -26.154229799999932 ], [ -50.350983199999973, -26.15427 ], [ -50.35101659999998, -26.154312099999974 ], [ -50.351048, -26.154356299999957 ], [ -50.351077499999974, -26.154402599999962 ], [ -50.351105299999979, -26.1544512 ], [ -50.351131499999958, -26.154501899999964 ], [ -50.351156299999957, -26.154554199999943 ], [ -50.351179899999984, -26.15460719999993 ], [ -50.351245399999982, -26.154762399999981 ], [ -50.351266199999941, -26.154810199999918 ], [ -50.351286699999953, -26.154854599999961 ], [ -50.351307299999974, -26.154895 ], [ -50.351328599999931, -26.154931799999929 ], [ -50.351351399999942, -26.15496539999998 ], [ -50.35137659999998, -26.154996299999937 ], [ -50.351405, -26.155024899999937 ], [ -50.351437199999964, -26.155051699999955 ], [ -50.351474099999962, -26.155077199999937 ], [ -50.351516499999946, -26.155101899999984 ], [ -50.351564899999978, -26.155126099999965 ], [ -50.351618199999969, -26.155149599999959 ], [ -50.351675299999954, -26.155172299999947 ], [ -50.351735, -26.155193899999983 ], [ -50.351795799999934, -26.155214099999974 ], [ -50.3518567, -26.155232599999977 ], [ -50.351916199999948, -26.155249299999987 ], [ -50.351973299999933, -26.15526379999994 ], [ -50.352026899999942, -26.155276 ], [ -50.352077399999985, -26.15528629999994 ], [ -50.352125799999953, -26.155295199999969 ], [ -50.352265299999949, -26.155318599999923 ], [ -50.352312499999982, -26.155326899999977 ], [ -50.352339899999954, -26.155332299999937 ], [ -50.352412699999945, -26.155347499999941 ], [ -50.352466, -26.15536 ], [ -50.352521099999933, -26.155373899999969 ], [ -50.352577799999949, -26.155389 ], [ -50.352635599999985, -26.155405099999939 ], [ -50.352694299999939, -26.155422199999975 ], [ -50.352753499999942, -26.155440099999968 ], [ -50.352812799999988, -26.155458499999956 ], [ -50.3530454, -26.15553339999996 ], [ -50.353100499999982, -26.155550599999973 ], [ -50.353153599999985, -26.155566399999941 ], [ -50.353204399999981, -26.155580399999963 ], [ -50.353252499999947, -26.155592399999946 ], [ -50.353297699999985, -26.155602 ], [ -50.353340299999964, -26.155609299999984 ], [ -50.35338059999998, -26.155614699999937 ], [ -50.353419299999977, -26.155618399999977 ], [ -50.353456699999981, -26.155620599999963 ], [ -50.353493199999939, -26.155621599999968 ], [ -50.353529399999957, -26.155621699999983 ], [ -50.353565599999975, -26.155621 ], [ -50.35363909999996, -26.155618499999942 ], [ -50.353773399999959, -26.155613 ], [ -50.353848599999935, -26.155611399999938 ], [ -50.353878899999984, -26.155611699999948 ], [ -50.353907799999945, -26.155612699999946 ], [ -50.353935599999943, -26.155614199999949 ], [ -50.353962499999959, -26.155616399999936 ], [ -50.353989, -26.155619199999929 ], [ -50.354041899999963, -26.155626299999938 ], [ -50.354096899999945, -26.15563549999996 ], [ -50.35412569999994, -26.155640899999973 ], [ -50.354155399999968, -26.155647199999972 ], [ -50.354185899999948, -26.155654499999969 ], [ -50.354217199999937, -26.155662899999982 ], [ -50.354249299999935, -26.155672599999946 ], [ -50.354282299999966, -26.155683799999963 ], [ -50.354316, -26.155696599999938 ], [ -50.354350599999975, -26.155711199999935 ], [ -50.354385899999961, -26.155727599999981 ], [ -50.354422299999946, -26.155745799999984 ], [ -50.354459599999984, -26.155766 ], [ -50.354497899999949, -26.155788199999964 ], [ -50.35453739999997, -26.155812299999976 ], [ -50.354578, -26.155838599999981 ], [ -50.354619899999932, -26.155866799999959 ], [ -50.354663099999982, -26.155897199999977 ], [ -50.354707, -26.155929299999965 ], [ -50.35475119999996, -26.155962799999934 ], [ -50.354795, -26.15599729999996 ], [ -50.354838, -26.156032499999984 ], [ -50.354879699999977, -26.156068 ], [ -50.354919399999964, -26.156103299999987 ], [ -50.354956699999946, -26.156138299999952 ], [ -50.354991099999957, -26.156172599999937 ], [ -50.355023, -26.156206599999962 ], [ -50.355052899999968, -26.156240899999947 ], [ -50.355078599999963, -26.156272799999943 ], [ -50.355108599999944, -26.156312599999982 ], [ -50.355135299999965, -26.156351099999927 ], [ -50.355162, -26.156392099999952 ], [ -50.355177799999979, -26.156417899999948 ], [ -50.355216899999959, -26.156483599999945 ], [ -50.355245299999979, -26.156533599999928 ], [ -50.355384499999964, -26.156785899999921 ], [ -50.355409499999951, -26.156829599999973 ], [ -50.355432899999983, -26.156868899999953 ], [ -50.355455199999945, -26.156904 ], [ -50.355477, -26.156935399999945 ], [ -50.355499, -26.156963699999942 ], [ -50.355521899999985, -26.156989399999922 ], [ -50.355546099999977, -26.1570129 ], [ -50.355572499999944, -26.157034899999928 ], [ -50.355601499999985, -26.157055799999959 ], [ -50.355633699999949, -26.157076 ], [ -50.355668699999967, -26.157095499999961 ], [ -50.355705899999968, -26.157113799999927 ], [ -50.355744699999946, -26.157130799999948 ], [ -50.355784699999951, -26.157146299999965 ], [ -50.35582519999997, -26.157159899999943 ], [ -50.355865699999981, -26.157171499999951 ], [ -50.355905699999937, -26.157180699999966 ], [ -50.355944499999964, -26.157187399999938 ], [ -50.355982099999949, -26.157191699999949 ], [ -50.356018199999944, -26.1571939 ], [ -50.356052599999948, -26.157194099999959 ], [ -50.356085199999939, -26.157192499999955 ], [ -50.356115899999963, -26.157189399999922 ], [ -50.356144299999983, -26.157184899999947 ], [ -50.356170399999947, -26.157179399999954 ], [ -50.356194099999982, -26.157172699999947 ], [ -50.35621569999995, -26.157164799999979 ], [ -50.356235399999946, -26.157155299999946 ], [ -50.356253499999973, -26.157143699999938 ], [ -50.356270499999937, -26.15712979999995 ], [ -50.356286699999941, -26.157113199999973 ], [ -50.356302299999982, -26.157093399999962 ], [ -50.35631779999995, -26.157070199999957 ], [ -50.35633329999996, -26.15704329999993 ], [ -50.356349099999932, -26.157013199999945 ], [ -50.356365099999948, -26.156980399999956 ], [ -50.356432099999957, -26.156833699999936 ], [ -50.35644979999995, -26.15679589999996 ], [ -50.356467899999984, -26.15675879999997 ], [ -50.356486399999937, -26.15672249999994 ], [ -50.356505199999958, -26.156687199999961 ], [ -50.35652429999994, -26.15665289999998 ], [ -50.356543399999964, -26.156619899999949 ], [ -50.356562599999961, -26.156588299999964 ], [ -50.356581699999943, -26.156558199999946 ], [ -50.356600699999944, -26.156529699999965 ], [ -50.356619599999931, -26.156502899999968 ], [ -50.35663859999994, -26.156478 ], [ -50.356657899999959, -26.156454899999961 ], [ -50.35667779999995, -26.156433799999935 ], [ -50.356698699999981, -26.156414699999964 ], [ -50.356720799999948, -26.156397699999957 ], [ -50.356744399999968, -26.156382799999964 ], [ -50.356769699999965, -26.15637 ], [ -50.356797, -26.156359399999925 ], [ -50.356825899999933, -26.156350899999946 ], [ -50.356856, -26.156344299999944 ], [ -50.356886899999949, -26.156339399999979 ], [ -50.356918, -26.156335899999938 ], [ -50.356949, -26.156333799999974 ], [ -50.356979399999943, -26.156332899999931 ], [ -50.357008799999967, -26.156332899999942 ], [ -50.357036899999969, -26.156333799999974 ], [ -50.357063699999976, -26.156335599999963 ], [ -50.357089499999972, -26.156338399999978 ], [ -50.357114399999936, -26.15634249999993 ], [ -50.35713879999998, -26.156347899999961 ], [ -50.357162699999947, -26.156354799999974 ], [ -50.357186499999948, -26.156363399999982 ], [ -50.357210399999985, -26.156373699999957 ], [ -50.357234399999982, -26.156385799999949 ], [ -50.357258699999932, -26.156399799999978 ], [ -50.357283099999961, -26.156415399999947 ], [ -50.357307799999944, -26.156432499999934 ], [ -50.35733259999995, -26.156451 ], [ -50.357357499999978, -26.156470799999962 ], [ -50.357382499999972, -26.15649169999995 ], [ -50.357407599999938, -26.156513599999982 ], [ -50.357432699999947, -26.156536399999933 ], [ -50.357457799999963, -26.156560199999944 ], [ -50.357482799999964, -26.156585099999958 ], [ -50.3575077, -26.156611199999929 ], [ -50.357532399999961, -26.15663869999997 ], [ -50.357556899999963, -26.15666749999998 ], [ -50.357581, -26.1566979 ], [ -50.357604899999956, -26.156729899999959 ], [ -50.357628299999924, -26.156763599999984 ], [ -50.357651199999964, -26.156799199999959 ], [ -50.35767339999996, -26.156836599999959 ], [ -50.357694899999956, -26.156876 ], [ -50.357715599999942, -26.156917499999953 ], [ -50.357735299999945, -26.156961 ], [ -50.357754, -26.157006799999969 ], [ -50.357771499999949, -26.157054799999969 ], [ -50.35778769999996, -26.157105 ], [ -50.357802799999945, -26.157157199999979 ], [ -50.357816699999944, -26.157210799999977 ], [ -50.357829699999968, -26.157265499999927 ], [ -50.357841799999953, -26.157320899999942 ], [ -50.35785309999995, -26.157376499999938 ], [ -50.357866899999976, -26.15745 ], [ -50.357902, -26.157643599999968 ], [ -50.357907599999976, -26.157672099999964 ], [ -50.357921599999948, -26.157738499999933 ], [ -50.357932299999959, -26.157781899999968 ], [ -50.357944099999948, -26.157822099999979 ], [ -50.357957, -26.157858899999955 ], [ -50.357971299999981, -26.157892 ], [ -50.357987099999946, -26.157921499999922 ], [ -50.358004499999936, -26.15794759999994 ], [ -50.358023299999957, -26.157970699999957 ], [ -50.358043799999962, -26.157991 ], [ -50.358065899999986, -26.158008699999989 ], [ -50.358089599999978, -26.158024099999963 ], [ -50.358115, -26.158037399999952 ], [ -50.358142099999952, -26.158049 ], [ -50.35817059999993, -26.158058699999977 ], [ -50.35820039999993, -26.158066699999956 ], [ -50.35823119999997, -26.15807279999996 ], [ -50.358262799999977, -26.158077299999942 ], [ -50.358295, -26.15808 ], [ -50.358327399999951, -26.158081 ], [ -50.358359899999982, -26.158080199999961 ], [ -50.358392299999934, -26.158077799999941 ], [ -50.358424299999974, -26.158073599999966 ], [ -50.358455799999952, -26.158067599999974 ], [ -50.358486599999942, -26.15806 ], [ -50.358516499999958, -26.158050499999945 ], [ -50.358545499999934, -26.158039299999921 ], [ -50.358573299999932, -26.158026199999938 ], [ -50.358599699999957, -26.158011299999945 ], [ -50.3586246, -26.157994699999961 ], [ -50.358648099999982, -26.157976299999973 ], [ -50.358670399999944, -26.157956399999929 ], [ -50.358691599999986, -26.157935 ], [ -50.358711899999946, -26.157912399999926 ], [ -50.358731299999931, -26.157888599999975 ], [ -50.358750199999974, -26.157863899999942 ], [ -50.358768499999947, -26.15783829999998 ], [ -50.358826399999941, -26.157750299999964 ], [ -50.358874, -26.157675799999936 ], [ -50.358891599999936, -26.15764889999997 ], [ -50.358909499999989, -26.157622499999945 ], [ -50.358927699999981, -26.157596799999968 ], [ -50.358946199999934, -26.157571899999937 ], [ -50.358964899999933, -26.157547799999975 ], [ -50.358983899999942, -26.157524699999954 ], [ -50.359003199999954, -26.157502499999975 ], [ -50.359022699999969, -26.157481299999972 ], [ -50.359042299999942, -26.157461299999962 ], [ -50.3590622, -26.157442399999969 ], [ -50.359082099999974, -26.15742479999993 ], [ -50.359102099999973, -26.157408399999952 ], [ -50.359122, -26.157393199999952 ], [ -50.359141699999952, -26.15737909999995 ], [ -50.359161099999945, -26.157366199999956 ], [ -50.359179899999958, -26.157354399999971 ], [ -50.35919819999998, -26.157343699999952 ], [ -50.359232499999962, -26.157325399999934 ], [ -50.359248799999932, -26.15731779999993 ], [ -50.359264799999949, -26.157311299999943 ], [ -50.359280799999965, -26.15730579999995 ], [ -50.359297199999965, -26.15730139999993 ], [ -50.359314199999972, -26.157298099999934 ], [ -50.359332199999983, -26.157295899999951 ], [ -50.35935139999998, -26.157294799999931 ], [ -50.359372099999973, -26.157294799999931 ], [ -50.359394199999947, -26.15729609999994 ], [ -50.359417499999957, -26.157298799999985 ], [ -50.359441899999979, -26.157303099999975 ], [ -50.359467299999949, -26.15730909999996 ], [ -50.359497, -26.157318299999933 ], [ -50.359520399999951, -26.157326799999968 ], [ -50.359547799999973, -26.15733889999996 ], [ -50.359575599999978, -26.157353199999928 ], [ -50.359603799999945, -26.15737 ], [ -50.359632599999941, -26.157389399999936 ], [ -50.359661899999942, -26.157411499999959 ], [ -50.359691899999966, -26.157436399999924 ], [ -50.359722499999968, -26.15746439999997 ], [ -50.35975389999993, -26.157495499999985 ], [ -50.359786099999951, -26.157529899999933 ], [ -50.359819, -26.157567499999971 ], [ -50.359852399999973, -26.157607799999944 ], [ -50.359885599999984, -26.15765 ], [ -50.359918099999959, -26.157693299999938 ], [ -50.359949599999936, -26.157736899999975 ], [ -50.359979399999979, -26.15778 ], [ -50.360007099999962, -26.15782189999992 ], [ -50.360032199999985, -26.157861899999936 ], [ -50.360054399999967, -26.157899199999971 ], [ -50.360074, -26.157934399999927 ], [ -50.360091599999976, -26.157968 ], [ -50.360107599999935, -26.158000599999969 ], [ -50.360122799999942, -26.158032799999948 ], [ -50.360184599999975, -26.15816929999993 ], [ -50.360220499999969, -26.15824559999993 ], [ -50.360273399999983, -26.158352399999956 ], [ -50.360296, -26.158396399999958 ], [ -50.360314199999948, -26.158430399999919 ], [ -50.360331699999968, -26.158461799999941 ], [ -50.36034879999994, -26.158490799999981 ], [ -50.360365699999925, -26.158517599999978 ], [ -50.360382799999975, -26.158542299999965 ], [ -50.360400299999988, -26.15856529999996 ], [ -50.360418699999975, -26.158586599999975 ], [ -50.360438099999946, -26.158606399999936 ], [ -50.360458899999969, -26.158625099999934 ], [ -50.360481399999969, -26.158642699999977 ], [ -50.360505199999977, -26.158659299999947 ], [ -50.360530299999944, -26.158674799999961 ], [ -50.360556299999985, -26.158689099999947 ], [ -50.36058289999994, -26.158702299999963 ], [ -50.3606099, -26.158714299999918 ], [ -50.360637, -26.158724899999982 ], [ -50.360663899999956, -26.158734299999924 ], [ -50.360690499999983, -26.158742299999979 ], [ -50.360716599999932, -26.158749099999955 ], [ -50.36074229999997, -26.15875449999993 ], [ -50.36076769999994, -26.158758799999923 ], [ -50.360792699999934, -26.158761799999976 ], [ -50.360817299999951, -26.158763799999974 ], [ -50.360841599999958, -26.158764599999984 ], [ -50.360865499999939, -26.158764499999961 ], [ -50.360889199999974, -26.158763299999968 ], [ -50.360912799999944, -26.158761099999925 ], [ -50.360936599999953, -26.158758 ], [ -50.360960699999964, -26.158753899999965 ], [ -50.360985399999954, -26.158748899999978 ], [ -50.36101089999994, -26.158743 ], [ -50.361037399999987, -26.158736199999975 ], [ -50.361094299999934, -26.158719899999941 ], [ -50.36112479999997, -26.158710199999973 ], [ -50.361156499999936, -26.158699299999959 ], [ -50.361189299999971, -26.158686899999971 ], [ -50.361223099999961, -26.158673 ], [ -50.361257799999976, -26.158657199999947 ], [ -50.361293199999977, -26.158639399999981 ], [ -50.361329199999943, -26.158619399999967 ], [ -50.36136579999993, -26.158597099999959 ], [ -50.361402799999951, -26.158573099999945 ], [ -50.361515099999963, -26.158496 ], [ -50.361552599999982, -26.158470599999919 ], [ -50.361590099999944, -26.158446299999973 ], [ -50.361627199999987, -26.158423799999969 ], [ -50.361664199999943, -26.158403399999944 ], [ -50.361701, -26.158385099999972 ], [ -50.361738, -26.158368599999971 ], [ -50.361775299999977, -26.158353599999934 ], [ -50.361813399999953, -26.158339899999934 ], [ -50.36185229999996, -26.15832719999997 ], [ -50.361892399999931, -26.158315299999959 ], [ -50.36193389999994, -26.158303899999964 ], [ -50.361957199999949, -26.158297799999961 ], [ -50.362021499999969, -26.158282 ], [ -50.362067399999951, -26.158271899999928 ], [ -50.362114499999961, -26.158262399999952 ], [ -50.362162499999954, -26.158253799999951 ], [ -50.362211499999944, -26.158246199999954 ], [ -50.362261099999962, -26.158239799999922 ], [ -50.362311199999958, -26.15823469999998 ], [ -50.362361699999951, -26.158231 ], [ -50.362412699999936, -26.158228399999931 ], [ -50.362464, -26.158226699999947 ], [ -50.362620599999957, -26.158223199999952 ], [ -50.362673699999959, -26.158221599999937 ], [ -50.362727399999983, -26.15821909999994 ], [ -50.362781499999983, -26.158215599999938 ], [ -50.362836499999965, -26.158210899999961 ], [ -50.362892499999987, -26.158205 ], [ -50.362949799999967, -26.158197799999979 ], [ -50.363008599999937, -26.158189399999966 ], [ -50.36306929999995, -26.158179599999986 ], [ -50.363132099999973, -26.158168299999943 ], [ -50.363197299999975, -26.158155699999945 ], [ -50.363265, -26.158141599999958 ], [ -50.363335099999979, -26.158126099999951 ], [ -50.363407199999983, -26.15810939999994 ], [ -50.363481099999952, -26.158091699999943 ], [ -50.363632899999971, -26.158053799999944 ], [ -50.363866499999972, -26.157992799999931 ], [ -50.364277599999987, -26.157883 ], [ -50.364555399999972, -26.157809799999939 ], [ -50.364857299999983, -26.157732199999938 ], [ -50.36506769999994, -26.157679399999946 ], [ -50.365351799999985, -26.157609199999964 ], [ -50.365529599999945, -26.157566299999935 ], [ -50.366060799999957, -26.15744009999997 ], [ -50.366190199999956, -26.157410399999947 ], [ -50.366251599999941, -26.157397099999972 ], [ -50.366311, -26.157385099999932 ], [ -50.366368299999976, -26.15737439999997 ], [ -50.366423799999957, -26.157365199999955 ], [ -50.366477499999974, -26.157357699999963 ], [ -50.366529599999978, -26.157351899999981 ], [ -50.366580499999941, -26.157347899999927 ], [ -50.366630499999985, -26.157345799999959 ], [ -50.366679899999951, -26.157345499999959 ], [ -50.366728899999941, -26.157347099999974 ], [ -50.366777899999938, -26.157350799999964 ], [ -50.366827099999966, -26.157356499999928 ], [ -50.366876799999943, -26.157364199999968 ], [ -50.366926799999924, -26.157373699999923 ], [ -50.367030699999987, -26.157396799999958 ], [ -50.367128099999945, -26.157419499999953 ], [ -50.367177899999952, -26.157430799999933 ], [ -50.367227299999968, -26.157441199999937 ], [ -50.367276099999977, -26.157450299999933 ], [ -50.367324499999938, -26.157458 ], [ -50.367372799999941, -26.157464199999943 ], [ -50.367421299999933, -26.157468799999947 ], [ -50.367470299999979, -26.157471899999958 ], [ -50.36752, -26.157473399999954 ], [ -50.367570699999931, -26.157473199999966 ], [ -50.367622599999955, -26.157471199999968 ], [ -50.367676099999983, -26.157467499999939 ], [ -50.367731699999979, -26.157461699999949 ], [ -50.367790099999979, -26.157453799999921 ], [ -50.367851799999983, -26.157443399999966 ], [ -50.367917399999953, -26.157430599999937 ], [ -50.36798749999997, -26.157414899999921 ], [ -50.368062699999939, -26.157396299999967 ], [ -50.368143599999947, -26.157374599999969 ], [ -50.368230499999989, -26.157349599999975 ], [ -50.368322299999932, -26.15732189999995 ], [ -50.368417799999968, -26.157292 ], [ -50.368515499999944, -26.15726049999995 ], [ -50.368614, -26.157227899999949 ], [ -50.368712099999982, -26.157194899999975 ], [ -50.368808399999971, -26.157161899999952 ], [ -50.36899039999998, -26.157098499999957 ], [ -50.369388499999957, -26.156956799999936 ], [ -50.369537499999986, -26.156904299999951 ], [ -50.36997149999997, -26.156755299999933 ], [ -50.370099, -26.156710299999929 ], [ -50.37015729999996, -26.156688899999946 ], [ -50.37031479999996, -26.15662889999993 ], [ -50.37045449999993, -26.156575099999944 ], [ -50.370562499999942, -26.156533599999936 ], [ -50.370964599999986, -26.156383199999919 ], [ -50.371051599999923, -26.15635 ], [ -50.371138299999984, -26.15631639999998 ], [ -50.371223399999963, -26.156282499999971 ] ] ], [ [ [ -50.317850399999941, -26.155011599999963 ], [ -50.317962299999976, -26.155472299999921 ], [ -50.318112299999932, -26.156434099999959 ], [ -50.319711299999945, -26.156729 ], [ -50.319592, -26.156177099999979 ], [ -50.332058699999948, -26.154403799999951 ], [ -50.331718499999965, -26.149876099999975 ], [ -50.330193799999961, -26.14923 ], [ -50.329186399999969, -26.148808699999947 ], [ -50.328364099999931, -26.148452399999933 ], [ -50.325962699999934, -26.148038599999943 ], [ -50.325099, -26.147889799999984 ], [ -50.323676899999953, -26.147436899999938 ], [ -50.323484599999972, -26.147320199999974 ], [ -50.322536299999967, -26.146758599999938 ], [ -50.322422499999959, -26.14666079999995 ], [ -50.322162099999957, -26.145760899999974 ], [ -50.321595199999933, -26.144777399999953 ], [ -50.321314899999948, -26.144499299999953 ], [ -50.319983, -26.143726299999965 ], [ -50.319099899999969, -26.143129599999956 ], [ -50.318140399999955, -26.142409099999949 ], [ -50.316828499999986, -26.14172329999997 ], [ -50.315539899999976, -26.140574099999977 ], [ -50.314851399999952, -26.13983549999994 ], [ -50.317024199999935, -26.138115599999935 ], [ -50.318099, -26.139685899999957 ], [ -50.320365099999954, -26.137128 ], [ -50.320603, -26.136000299999985 ], [ -50.3214761, -26.13560939999995 ], [ -50.321086199999968, -26.135051 ], [ -50.32036549999998, -26.134434099999961 ], [ -50.320206699999972, -26.134025199999936 ], [ -50.320111599999962, -26.133131499999919 ], [ -50.319989199999952, -26.130958399999948 ], [ -50.320089, -26.130011499999959 ], [ -50.32037889999998, -26.128542299999932 ], [ -50.320740899999976, -26.126802199999933 ], [ -50.320969899999973, -26.125622099999937 ], [ -50.321162, -26.124703899999936 ], [ -50.321135499999968, -26.123975199999968 ], [ -50.321003199999957, -26.123197899999983 ], [ -50.320708699999955, -26.122095299999959 ], [ -50.320198299999959, -26.120539699999931 ], [ -50.319503399999974, -26.118140499999988 ], [ -50.319004899999982, -26.11644369999993 ], [ -50.317965899999933, -26.11306309999997 ], [ -50.317699799999957, -26.111921499999923 ], [ -50.317589699999985, -26.111280499999967 ], [ -50.317526, -26.110505799999945 ], [ -50.317517299999963, -26.110393 ], [ -50.317574399999963, -26.110368799999939 ], [ -50.317629099999976, -26.110347 ], [ -50.317650399999934, -26.110337599999983 ], [ -50.317662599999949, -26.110331399999961 ], [ -50.31767329999996, -26.110325099999955 ], [ -50.317682899999966, -26.11031859999996 ], [ -50.317695299999968, -26.110308499999974 ], [ -50.317702599999969, -26.110301 ], [ -50.317709499999985, -26.110292599999983 ], [ -50.317716399999945, -26.110283 ], [ -50.317727, -26.110265899999948 ], [ -50.317737499999957, -26.110246299999972 ], [ -50.317747499999946, -26.110225599999975 ], [ -50.317759199999955, -26.110198099999938 ], [ -50.317770799999948, -26.110167899999968 ], [ -50.317779499999972, -26.110141199999923 ], [ -50.317793199999983, -26.110087399999937 ], [ -50.317803399999946, -26.110052899999971 ], [ -50.317818199999984, -26.110010099999943 ], [ -50.317832099999976, -26.10997679999997 ], [ -50.31783779999995, -26.109965699999972 ], [ -50.317847, -26.109950099999921 ], [ -50.317864799999938, -26.109925299999922 ], [ -50.317877, -26.109910499999952 ], [ -50.317894899999935, -26.109890599999972 ], [ -50.317929, -26.10985589999996 ], [ -50.31798, -26.109808099999956 ], [ -50.318037, -26.109757 ], [ -50.318092599999943, -26.109708599999969 ], [ -50.31822729999994, -26.109593199999946 ], [ -50.318412699999953, -26.109437 ], [ -50.318619499999954, -26.109266899999973 ], [ -50.318685099999982, -26.109214699999939 ], [ -50.318734799999959, -26.109176899999966 ], [ -50.318776599999985, -26.109146799999952 ], [ -50.31880469999993, -26.109127899999979 ], [ -50.318844399999939, -26.109103099999963 ], [ -50.318886, -26.10907869999993 ], [ -50.318922599999958, -26.10905919999993 ], [ -50.3189536, -26.109044799999936 ], [ -50.318994499999981, -26.10902869999995 ], [ -50.319030099999964, -26.109016299999954 ], [ -50.319065, -26.109005399999937 ], [ -50.319091, -26.108998599999953 ], [ -50.319117499999948, -26.108993299999959 ], [ -50.319135899999928, -26.108990599999967 ], [ -50.319164099999959, -26.108987499999955 ], [ -50.319258899999966, -26.108979299999934 ], [ -50.3193, -26.108975 ], [ -50.319344799999953, -26.108968599999972 ], [ -50.319384799999966, -26.108961099999931 ], [ -50.3194132, -26.108954499999975 ], [ -50.319438399999967, -26.108947099999973 ], [ -50.319536499999977, -26.108913 ], [ -50.319585499999967, -26.108896599999987 ], [ -50.319631, -26.108882299999951 ], [ -50.319671, -26.108871599999933 ], [ -50.319719199999952, -26.108861599999955 ], [ -50.319835599999969, -26.108840599999954 ], [ -50.319859699999945, -26.108837 ], [ -50.319884399999978, -26.108834199999929 ], [ -50.319924499999956, -26.108831299999963 ], [ -50.31994629999997, -26.108831 ], [ -50.31997269999993, -26.108832199999942 ], [ -50.319996499999945, -26.108834899999966 ], [ -50.320012699999957, -26.108838 ], [ -50.320027499999988, -26.108842 ], [ -50.320041, -26.108847 ], [ -50.320054, -26.108853199999938 ], [ -50.320071299999931, -26.108863599999953 ], [ -50.320087299999955, -26.108876 ], [ -50.320097099999941, -26.108886199999969 ], [ -50.320105599999977, -26.108897399999929 ], [ -50.320132, -26.108936099999941 ], [ -50.320157599999959, -26.108971599999961 ], [ -50.320175399999975, -26.108994399999968 ], [ -50.320192699999957, -26.109013399999981 ], [ -50.32020689999996, -26.109025699999954 ], [ -50.32022429999995, -26.109038099999971 ], [ -50.320245099999973, -26.109050899999936 ], [ -50.320274199999972, -26.109067 ], [ -50.320301599999937, -26.109080499999937 ], [ -50.320324699999965, -26.109090099999946 ], [ -50.320353399999924, -26.109100499999958 ], [ -50.320386399999968, -26.109111199999973 ], [ -50.320429, -26.109123499999949 ], [ -50.320456399999955, -26.109130299999944 ], [ -50.320481399999942, -26.109135199999983 ], [ -50.320505699999956, -26.109138399999939 ], [ -50.320530399999939, -26.109140299999972 ], [ -50.320565399999964, -26.109141499999968 ], [ -50.320593299999985, -26.109141599999941 ], [ -50.320621899999942, -26.109140599999925 ], [ -50.320640899999951, -26.109139199999952 ], [ -50.320668899999937, -26.109135799999923 ], [ -50.32069649999994, -26.109131099999956 ], [ -50.320723699999974, -26.109125 ], [ -50.320741699999985, -26.109120199999939 ], [ -50.320759599999981, -26.109114499999976 ], [ -50.320777599999985, -26.109107899999966 ], [ -50.320795499999981, -26.109100399999928 ], [ -50.32083049999995, -26.109083599999956 ], [ -50.320922399999972, -26.1090349 ], [ -50.320987599999967, -26.109002099999941 ], [ -50.321031, -26.108982699999949 ], [ -50.321051, -26.108975099999949 ], [ -50.321069, -26.108969 ], [ -50.321091599999939, -26.10896229999998 ], [ -50.321114199999954, -26.108956599999942 ], [ -50.321132199999973, -26.108953199999981 ], [ -50.321152099999949, -26.108950899999968 ], [ -50.321174399999968, -26.108950399999973 ], [ -50.321198799999934, -26.108951699999981 ], [ -50.321224799999989, -26.108955099999942 ], [ -50.321242599999941, -26.108958399999942 ], [ -50.321269699999966, -26.108965099999971 ], [ -50.321287599999955, -26.108970699999926 ], [ -50.321305099999968, -26.108977099999947 ], [ -50.321329899999974, -26.108987599999985 ], [ -50.321352299999944, -26.10899849999992 ], [ -50.321377199999979, -26.10901239999998 ], [ -50.321397899999965, -26.109026 ], [ -50.321412599999974, -26.109037699999941 ], [ -50.32143249999995, -26.109056299999956 ], [ -50.321477899999941, -26.109101799999959 ], [ -50.321612, -26.109239299999967 ], [ -50.321689399999968, -26.109320199999953 ], [ -50.321750599999973, -26.109383099999942 ], [ -50.321816199999951, -26.109449499999982 ], [ -50.321865299999963, -26.109497599999933 ], [ -50.321954799999958, -26.109583 ], [ -50.321984, -26.109608499999975 ], [ -50.321996599999977, -26.109618199999936 ], [ -50.322014299999978, -26.109629699999971 ], [ -50.322025799999956, -26.109636 ], [ -50.322043399999984, -26.109643699999928 ], [ -50.3220616, -26.109649599999951 ], [ -50.322080899999946, -26.109654 ], [ -50.322101399999951, -26.109657099999936 ], [ -50.32213129999996, -26.109659899999933 ], [ -50.322155699999939, -26.109661199999941 ], [ -50.322180899999985, -26.109661499999959 ], [ -50.322241399999932, -26.109659 ], [ -50.32225949999998, -26.109658899999935 ], [ -50.322278299999944, -26.109659499999971 ], [ -50.322306799999978, -26.109662 ], [ -50.322334599999976, -26.109665899999982 ], [ -50.322360599999961, -26.109670899999976 ], [ -50.322385599999961, -26.109677499999979 ], [ -50.322411, -26.109685799999966 ], [ -50.322437299999933, -26.109696199999977 ], [ -50.322463899999953, -26.109708 ], [ -50.322490399999936, -26.109721099999938 ], [ -50.322519499999935, -26.109737 ], [ -50.322556199999951, -26.109758399999979 ], [ -50.322619799999984, -26.109797299999965 ], [ -50.322775799999931, -26.109895499999944 ], [ -50.322815, -26.109918299999947 ], [ -50.322851599999986, -26.109937799999955 ], [ -50.322875899999985, -26.109949499999967 ], [ -50.322890899999948, -26.109956 ], [ -50.322920099999976, -26.109966899999961 ], [ -50.322934799999977, -26.109971399999942 ], [ -50.3229568, -26.109977199999943 ], [ -50.322978299999932, -26.10998189999998 ], [ -50.322999099999947, -26.109985199999983 ], [ -50.323019, -26.109987 ], [ -50.323031799999967, -26.109987099999962 ], [ -50.323044199999963, -26.109986299999946 ], [ -50.323056599999973, -26.109984499999939 ], [ -50.323075599999989, -26.109979699999943 ], [ -50.323088899999959, -26.109975199999944 ], [ -50.323102599999977, -26.109969299999925 ], [ -50.323116799999973, -26.109962199999931 ], [ -50.323138799999981, -26.109948599999935 ], [ -50.323161599999942, -26.109931899999932 ], [ -50.323185199999955, -26.109912699999938 ], [ -50.323249899999951, -26.109858599999942 ], [ -50.323284599999972, -26.109831799999935 ], [ -50.32330189999994, -26.109819799999968 ], [ -50.323316399999953, -26.109810799999934 ], [ -50.323329199999932, -26.109804299999944 ], [ -50.323342199999956, -26.109799499999944 ], [ -50.323351699999932, -26.109796899999935 ], [ -50.323362, -26.109795 ], [ -50.323378499999933, -26.109793499999967 ], [ -50.323395799999957, -26.109794099999938 ], [ -50.323413299999977, -26.109797 ], [ -50.323430399999957, -26.10980219999993 ], [ -50.323446299999944, -26.109809699999975 ], [ -50.323455799999977, -26.109815599999941 ], [ -50.323464099999967, -26.109822099999981 ], [ -50.323473599999943, -26.109832599999947 ], [ -50.323478, -26.109839799999975 ], [ -50.323481, -26.109847399999971 ], [ -50.32348269999995, -26.109855199999966 ], [ -50.323483099999976, -26.109863199999953 ], [ -50.323482, -26.109871799999954 ], [ -50.323479299999974, -26.109881099999932 ], [ -50.323471799999936, -26.109896899999963 ], [ -50.32346019999995, -26.109914899999982 ], [ -50.323440599999977, -26.109941099999968 ], [ -50.323305499999947, -26.110107399999944 ], [ -50.323285, -26.110133899999944 ], [ -50.323272499999973, -26.110151799999979 ], [ -50.323256, -26.110179499999955 ], [ -50.323248799999924, -26.110194399999958 ], [ -50.323245099999951, -26.110203799999972 ], [ -50.323241199999984, -26.110217299999931 ], [ -50.323239599999965, -26.110226399999945 ], [ -50.323238699999933, -26.110235699999979 ], [ -50.323238799999956, -26.110245399999929 ], [ -50.323240399999975, -26.110261199999965 ], [ -50.323244099999961, -26.11027879999995 ], [ -50.32324959999994, -26.110296499999944 ], [ -50.323254199999958, -26.110307399999957 ], [ -50.3232594, -26.110317099999971 ], [ -50.323265099999958, -26.110325799999941 ], [ -50.323289099999954, -26.110357 ], [ -50.323302799999972, -26.110376899999956 ], [ -50.323311799999942, -26.110393199999965 ], [ -50.323318099999938, -26.11040939999997 ], [ -50.323320899999942, -26.11042219999996 ], [ -50.323322699999949, -26.110443699999962 ], [ -50.323323199999948, -26.110472299999966 ], [ -50.323322799999971, -26.11053309999993 ], [ -50.323323299999977, -26.110547299999951 ], [ -50.323324799999959, -26.110562599999973 ], [ -50.323329099999967, -26.110585599999983 ], [ -50.323334399999965, -26.110604899999938 ], [ -50.323617799999965, -26.110694599999938 ], [ -50.324981699999967, -26.109580599999955 ], [ -50.324508099999953, -26.105241399999954 ], [ -50.324918799999978, -26.10493369999994 ], [ -50.325819899999942, -26.103772 ], [ -50.326240899999959, -26.102952599999981 ], [ -50.326530699999978, -26.102639 ], [ -50.327204599999966, -26.101705199999977 ], [ -50.327526699999972, -26.10109279999994 ], [ -50.328261299999951, -26.099553699999944 ], [ -50.328370399999983, -26.099066899999972 ], [ -50.328348399999982, -26.098929399999975 ], [ -50.328300799999965, -26.098431099999964 ], [ -50.327740799999965, -26.098627699999941 ], [ -50.327017399999939, -26.098728499999929 ], [ -50.326563899999933, -26.098821799999943 ], [ -50.326091899999938, -26.098759199999954 ], [ -50.325669299999959, -26.098554399999951 ], [ -50.325659299999984, -26.098549599999952 ], [ -50.32537149999996, -26.098306 ], [ -50.325132799999949, -26.097872199999973 ], [ -50.325133499999936, -26.097839099999923 ], [ -50.325088899999969, -26.097914599999967 ], [ -50.324966299999971, -26.097936099999981 ], [ -50.324861399999982, -26.097959399999976 ], [ -50.324781299999984, -26.097980599999971 ], [ -50.324758599999939, -26.097988499999925 ], [ -50.324688199999969, -26.098031 ], [ -50.324639499999932, -26.098044799999972 ], [ -50.324593799999953, -26.098056299999932 ], [ -50.324551799999938, -26.098062199999948 ], [ -50.324527899999971, -26.098062599999928 ], [ -50.324494199999947, -26.098062 ], [ -50.324458399999969, -26.09806019999996 ], [ -50.324416399999969, -26.098058599999948 ], [ -50.324368299999954, -26.098057199999964 ], [ -50.324341099999977, -26.09805689999996 ], [ -50.324320299999961, -26.098057099999956 ], [ -50.324300199999982, -26.098058399999964 ], [ -50.324264399999954, -26.098061399999946 ], [ -50.324216699999965, -26.098096299999959 ], [ -50.324197799999972, -26.098125299999939 ], [ -50.324185299999961, -26.098162399999982 ], [ -50.324171799999924, -26.098206799999954 ], [ -50.324149199999972, -26.098267199999945 ], [ -50.324131599999937, -26.098306099999949 ], [ -50.324108699999954, -26.098345299999949 ], [ -50.324072699999931, -26.098396899999948 ], [ -50.324038499999972, -26.098434699999924 ], [ -50.323988399999962, -26.098473 ], [ -50.323931199999947, -26.098487699999964 ], [ -50.323883899999942, -26.098494799999973 ], [ -50.323842099999986, -26.098494899999935 ], [ -50.323792499999968, -26.098495 ], [ -50.323763799999938, -26.098495399999919 ], [ -50.323712899999975, -26.098495899999929 ], [ -50.32365029999994, -26.09849869999994 ], [ -50.323571399999935, -26.098504699999975 ], [ -50.323549, -26.098507699999963 ], [ -50.323518199999967, -26.098519499999952 ], [ -50.323472099999947, -26.098542499999947 ], [ -50.323438499999945, -26.098559899999945 ], [ -50.323382899999956, -26.098598799999927 ], [ -50.323363099999938, -26.098610799999964 ], [ -50.323337, -26.098622499999976 ], [ -50.323307699999987, -26.098635299999955 ], [ -50.32326819999998, -26.098652699999935 ], [ -50.32323219999995, -26.098663199999972 ], [ -50.32319659999996, -26.09867149999997 ], [ -50.323163699999952, -26.09868 ], [ -50.323127599999971, -26.098696699999945 ], [ -50.323099199999952, -26.098713299999922 ], [ -50.323042, -26.098743599999963 ], [ -50.323032099999978, -26.098748799999953 ], [ -50.322987599999983, -26.098778299999939 ], [ -50.322967, -26.098790199999939 ], [ -50.322937699999954, -26.098808099999935 ], [ -50.322903, -26.098823599999939 ], [ -50.322892299999978, -26.098827599999943 ], [ -50.322844099999948, -26.098856199999936 ], [ -50.322755399999949, -26.098951699999922 ], [ -50.3227313, -26.098977 ], [ -50.322711499999969, -26.098994699999928 ], [ -50.322666199999958, -26.099018099999974 ], [ -50.322642899999956, -26.099033499999948 ], [ -50.322606599999972, -26.099050599999945 ], [ -50.322568499999925, -26.099065099999965 ], [ -50.322526099999955, -26.099069899999964 ], [ -50.322482, -26.099070299999937 ], [ -50.322428599999967, -26.099069199999974 ], [ -50.322372499999965, -26.099064899999963 ], [ -50.322330499999964, -26.099061199999941 ], [ -50.322287499999952, -26.099050499999976 ], [ -50.322255699999971, -26.09904459999996 ], [ -50.322215599999936, -26.099040699999932 ], [ -50.322164499999985, -26.099035599999965 ], [ -50.322113799999954, -26.099030099999926 ], [ -50.322075799999936, -26.099020099999965 ], [ -50.32205479999994, -26.099004 ], [ -50.32204569999994, -26.098989 ], [ -50.322028, -26.098945899999936 ], [ -50.32201909999997, -26.098927 ], [ -50.322008899999965, -26.098894299999984 ], [ -50.321981699999988, -26.098849 ], [ -50.321953099999973, -26.098802299999928 ], [ -50.321941599999946, -26.09876139999994 ], [ -50.321938, -26.098719099999986 ], [ -50.321937499999933, -26.098676199999947 ], [ -50.3219314, -26.098580499999962 ], [ -50.321919599999944, -26.098537799999974 ], [ -50.321912499999939, -26.098508299999924 ], [ -50.321893799999941, -26.098483199999976 ], [ -50.32186, -26.098450899999921 ], [ -50.321819599999969, -26.098404299999959 ], [ -50.321804199999974, -26.098369799999944 ], [ -50.321794099999977, -26.098342299999945 ], [ -50.321781899999969, -26.098307399999953 ], [ -50.321773399999977, -26.098275499999946 ], [ -50.32176439999995, -26.098239299999925 ], [ -50.321739099999952, -26.098203 ], [ -50.321700899999939, -26.098167799999946 ], [ -50.321671199999976, -26.098135 ], [ -50.321653599999934, -26.098098099999952 ], [ -50.321640099999968, -26.09805219999997 ], [ -50.321613499999955, -26.098020199999954 ], [ -50.321562599999929, -26.097986399999979 ], [ -50.321507899999972, -26.09796909999994 ], [ -50.321458699999937, -26.097966299999946 ], [ -50.321399199999973, -26.097970499999967 ], [ -50.3213684, -26.097994799999984 ], [ -50.32135819999997, -26.098044099999971 ], [ -50.321357399999947, -26.098098899999968 ], [ -50.32135969999996, -26.098134799999965 ], [ -50.321360699999957, -26.098163 ], [ -50.321376599999951, -26.098251799999961 ], [ -50.32141409999997, -26.098307499999976 ], [ -50.321438499999942, -26.098339899999928 ], [ -50.321462299999958, -26.098369499999936 ], [ -50.321511, -26.098431 ], [ -50.321531899999975, -26.098467899999946 ], [ -50.32153, -26.098487199999958 ], [ -50.3215211, -26.098494299999977 ], [ -50.32148989999996, -26.09850089999998 ], [ -50.321447199999973, -26.098507099999956 ], [ -50.321395099999961, -26.098549099999968 ], [ -50.321391699999936, -26.098561599999972 ], [ -50.32138839999994, -26.098684399999964 ], [ -50.321379, -26.098766 ], [ -50.321371099999958, -26.098813399999987 ], [ -50.321363, -26.09885 ], [ -50.32135779999993, -26.098862899999975 ], [ -50.321331499999985, -26.098928299999955 ], [ -50.321313799999984, -26.098983899999944 ], [ -50.321314199999961, -26.099029499999979 ], [ -50.321326399999975, -26.099075099999926 ], [ -50.321332899999959, -26.099109499999933 ], [ -50.321337899999939, -26.099163199999957 ], [ -50.321340199999952, -26.099215299999976 ], [ -50.32132479999995, -26.099249799999949 ], [ -50.321287, -26.099271599999948 ], [ -50.321210199999939, -26.099299399999953 ], [ -50.321080799999947, -26.099323 ], [ -50.321037899999958, -26.099329799999964 ], [ -50.321015599999953, -26.099335199999928 ], [ -50.321005499999956, -26.099340599999955 ], [ -50.320983899999938, -26.099386299999932 ], [ -50.320979299999983, -26.099418399999923 ], [ -50.320973599999945, -26.099497299999943 ], [ -50.3209753, -26.099566599999939 ], [ -50.321001699999961, -26.099660299999986 ], [ -50.321055099999974, -26.099701899999967 ], [ -50.321138099999985, -26.099730499999968 ], [ -50.321205199999952, -26.099766599999949 ], [ -50.321245899999951, -26.099821699999943 ], [ -50.321267699999964, -26.099888099999934 ], [ -50.321302799999962, -26.099945099999957 ], [ -50.321353499999987, -26.100000099999932 ], [ -50.321406599999939, -26.100047499999963 ], [ -50.321435, -26.100091499999962 ], [ -50.32144569999997, -26.100148 ], [ -50.321447799999937, -26.100219299999928 ], [ -50.321445799999942, -26.10029179999998 ], [ -50.32143849999995, -26.100346599999952 ], [ -50.321405699999957, -26.100418599999955 ], [ -50.321356899999962, -26.100475199999956 ], [ -50.321275399999941, -26.100577699999974 ], [ -50.321248899999944, -26.100703799999959 ], [ -50.321248299999979, -26.100790399999934 ], [ -50.321297099999981, -26.100851 ], [ -50.321360899999952, -26.100917599999949 ], [ -50.321406399999937, -26.10096039999997 ], [ -50.321433399999933, -26.101001599999961 ], [ -50.321443799999948, -26.101063199999949 ], [ -50.321436, -26.101135799999941 ], [ -50.321381699999961, -26.10123469999996 ], [ -50.321341799999971, -26.101271199999925 ], [ -50.32131, -26.101305599999922 ], [ -50.32129039999996, -26.101387299999939 ], [ -50.321298799999965, -26.101428699999925 ], [ -50.321335899999958, -26.101497 ], [ -50.3213674, -26.101560199999938 ], [ -50.321373099999967, -26.101626399999926 ], [ -50.321342299999969, -26.101691399999932 ], [ -50.321288799999934, -26.101773599999941 ], [ -50.321281399999975, -26.101824199999953 ], [ -50.321278499999941, -26.101870099999932 ], [ -50.321277599999974, -26.10194829999994 ], [ -50.321283599999958, -26.102012099999964 ], [ -50.321346199999937, -26.102180899999951 ], [ -50.321366599999983, -26.102263199999975 ], [ -50.321392199999934, -26.102330099999964 ], [ -50.321421299999948, -26.102394499999942 ], [ -50.321443299999942, -26.102460599999976 ], [ -50.321447099999951, -26.102523799999975 ], [ -50.321441599999964, -26.102586199999955 ], [ -50.321433699999943, -26.102625 ], [ -50.321413299999961, -26.102653799999917 ], [ -50.32139, -26.102664699999927 ], [ -50.321359399999956, -26.102664899999979 ], [ -50.321281899999981, -26.102662499999969 ], [ -50.321203, -26.102659199999952 ], [ -50.321126699999972, -26.102650299999937 ], [ -50.321081599999964, -26.102643799999953 ], [ -50.321001599999931, -26.10263579999997 ], [ -50.32092229999995, -26.102617399999918 ], [ -50.320825799999973, -26.102601099999958 ], [ -50.320645799999966, -26.102582799999933 ], [ -50.320421499999952, -26.102557899999958 ], [ -50.320314899999978, -26.102556499999942 ], [ -50.320165599999939, -26.102555399999961 ], [ -50.319848399999948, -26.102559099999954 ], [ -50.319481399999972, -26.102564099999928 ], [ -50.319260699999973, -26.1025701 ], [ -50.319163699999933, -26.102574599999979 ], [ -50.319062599999945, -26.102588099999934 ], [ -50.318978299999969, -26.102605 ], [ -50.318888699999945, -26.102642 ], [ -50.318676799999935, -26.10273959999995 ], [ -50.318580399999981, -26.102785699999966 ], [ -50.318518899999958, -26.10281 ], [ -50.318473099999949, -26.102814299999974 ], [ -50.318413599999985, -26.102812099999937 ], [ -50.318358899999964, -26.102796499999954 ], [ -50.318287899999966, -26.102765799999936 ], [ -50.318171799999952, -26.102693099999961 ], [ -50.318041899999976, -26.102615 ], [ -50.317938499999968, -26.10254869999995 ], [ -50.317742599999967, -26.102420099999964 ], [ -50.317538599999978, -26.10229 ], [ -50.317451499999947, -26.102225099999934 ], [ -50.317400199999952, -26.102173199999982 ], [ -50.31733939999998, -26.102087499999985 ], [ -50.317299, -26.102003 ], [ -50.317274299999944, -26.101944499999941 ], [ -50.317232599999954, -26.101799499999956 ], [ -50.317216799999983, -26.101736499999969 ], [ -50.31718689999996, -26.101662299999937 ], [ -50.317139099999963, -26.101602199999942 ], [ -50.317085399999947, -26.101558699999956 ], [ -50.317002499999951, -26.101516 ], [ -50.316934099999969, -26.101494499999934 ], [ -50.316862199999946, -26.10147889999995 ], [ -50.316791, -26.10146549999995 ], [ -50.316692599999953, -26.101453399999958 ], [ -50.316585799999977, -26.101441199999954 ], [ -50.316381899999946, -26.101359 ], [ -50.316171499999939, -26.101281499999967 ], [ -50.315941399999986, -26.101220799999965 ], [ -50.315749799999942, -26.101201 ], [ -50.315562799999952, -26.101206 ], [ -50.315435899999954, -26.101216599999933 ], [ -50.315335, -26.101240299999954 ], [ -50.315265499999953, -26.101260299999979 ], [ -50.315184699999982, -26.101299899999962 ], [ -50.315105199999955, -26.10135 ], [ -50.315022899999967, -26.101419399999944 ], [ -50.31491909999994, -26.10150549999997 ], [ -50.314843599999968, -26.101570599999949 ], [ -50.314781799999935, -26.101625199999948 ], [ -50.314711899999956, -26.101674099999972 ], [ -50.31464619999997, -26.101719199999934 ], [ -50.314572, -26.101759599999983 ], [ -50.314496299999973, -26.101789799999953 ], [ -50.314431599999978, -26.101807199999939 ], [ -50.314368799999961, -26.101818699999967 ], [ -50.314305499999932, -26.101830199999942 ], [ -50.314260599999962, -26.101833399999975 ], [ -50.314199099999939, -26.101848199999946 ], [ -50.314113299999974, -26.101890099999938 ], [ -50.314070699999952, -26.101916699999947 ], [ -50.31402769999994, -26.101927399999955 ], [ -50.313991199999975, -26.101927599999943 ], [ -50.313964, -26.101922099999967 ], [ -50.313948499999988, -26.101910599999929 ], [ -50.313917399999987, -26.101879299999954 ], [ -50.313789299999939, -26.101764199999938 ], [ -50.313640699999958, -26.101673899999973 ], [ -50.313584399999968, -26.101636799999934 ], [ -50.313522599999942, -26.101616 ], [ -50.313439399999936, -26.101581899999928 ], [ -50.313343699999969, -26.101572899999947 ], [ -50.313271499999985, -26.101582899999972 ], [ -50.313199499999946, -26.101623599999972 ], [ -50.313123399999938, -26.101672 ], [ -50.313072599999948, -26.101708699999964 ], [ -50.313006899999948, -26.101734 ], [ -50.312926199999943, -26.101751699999962 ], [ -50.3128263, -26.101756099999928 ], [ -50.312547, -26.101766299999952 ], [ -50.3125, -26.101770399999968 ], [ -50.312419, -26.101764599999964 ], [ -50.312274, -26.101772299999936 ], [ -50.31214749999998, -26.101808099999968 ], [ -50.312024599999972, -26.10189009999992 ], [ -50.311948199999961, -26.101951399999958 ], [ -50.311851199999978, -26.102028699999952 ], [ -50.311629699999976, -26.102195299999948 ], [ -50.311477299999979, -26.102305499999925 ], [ -50.311289, -26.102407299999982 ], [ -50.305142, -26.100408499999961 ], [ -50.303881299999944, -26.102036899999977 ], [ -50.301756, -26.101528499999979 ], [ -50.301165, -26.103801199999968 ], [ -50.307684599999959, -26.103616 ], [ -50.307632499999961, -26.103672 ], [ -50.307368599999961, -26.104168099999978 ], [ -50.307271199999953, -26.104319799999939 ], [ -50.30717379999993, -26.104471399999952 ], [ -50.307087299999978, -26.10455119999995 ], [ -50.30695919999993, -26.10461689999994 ], [ -50.306926499999982, -26.104636599999942 ], [ -50.306762399999968, -26.105135299999965 ], [ -50.306661799999972, -26.105426899999944 ], [ -50.306546099999935, -26.105766299999978 ], [ -50.306458899999939, -26.106077499999977 ], [ -50.306422899999973, -26.106173499999962 ], [ -50.306359799999939, -26.106337299999954 ], [ -50.3063461, -26.10651039999993 ], [ -50.306349099999977, -26.106666 ], [ -50.30632879999996, -26.10682509999998 ], [ -50.306265599999968, -26.106941 ], [ -50.306192099999976, -26.107045199999956 ], [ -50.305952799999943, -26.107200099999947 ], [ -50.305656799999944, -26.107392499999943 ], [ -50.305557199999953, -26.107464099999959 ], [ -50.3054992, -26.107557799999935 ], [ -50.305442699999958, -26.107749699999935 ], [ -50.305371799999932, -26.107890199999922 ], [ -50.305258199999969, -26.10802139999992 ], [ -50.305123799999933, -26.108122199999972 ], [ -50.304885899999931, -26.108288799999961 ], [ -50.304576699999984, -26.108439199999964 ], [ -50.304331, -26.108587099999962 ], [ -50.304081499999931, -26.108791099999966 ], [ -50.303832299999954, -26.109073399999939 ], [ -50.303671799999961, -26.1092513 ], [ -50.303460399999949, -26.109492899999971 ], [ -50.303340399999975, -26.109656699999952 ], [ -50.30326139999994, -26.109791899999951 ], [ -50.303121899999958, -26.109965299999928 ], [ -50.302994, -26.110077899999965 ], [ -50.302826, -26.110208 ], [ -50.302738099999935, -26.110298299999961 ], [ -50.302654299999979, -26.110438799999947 ], [ -50.302629399999944, -26.110504899999967 ], [ -50.302547, -26.110723199999942 ], [ -50.302469, -26.11090229999996 ], [ -50.30243309999998, -26.111033299999967 ], [ -50.302403599999927, -26.11113859999994 ], [ -50.302352, -26.111226399999961 ], [ -50.30231, -26.111287899999986 ], [ -50.302285399999967, -26.111323699999964 ], [ -50.302252899999985, -26.111367499999968 ], [ -50.302161, -26.111494599999961 ], [ -50.302121, -26.111573099999937 ], [ -50.302036299999941, -26.111851599999966 ], [ -50.301951499999973, -26.112130099999945 ], [ -50.301748399999951, -26.112715199999979 ], [ -50.301703299999986, -26.112792499999944 ], [ -50.301606399999969, -26.11290379999997 ], [ -50.301481299999978, -26.11309349999993 ], [ -50.301352699999939, -26.113452799999948 ], [ -50.301189199999953, -26.113850799999973 ], [ -50.3010053, -26.114323599999967 ], [ -50.300857099999966, -26.114639699999934 ], [ -50.300822299999936, -26.11472109999994 ], [ -50.300778, -26.114834 ], [ -50.300549799999942, -26.114791 ], [ -50.300304199999971, -26.11469889999994 ], [ -50.298257599999943, -26.113992799999949 ], [ -50.297479899999985, -26.116326 ], [ -50.300635299999961, -26.117693199999959 ], [ -50.301344599999936, -26.117989399999946 ], [ -50.302053199999925, -26.118267 ], [ -50.302656899999931, -26.118481099999926 ], [ -50.302982399999962, -26.118606199999935 ], [ -50.303366799999935, -26.118652299999951 ], [ -50.305127899999952, -26.118742299999951 ], [ -50.304725299999966, -26.119429399999945 ], [ -50.304017099999953, -26.119187499999953 ], [ -50.303513299999963, -26.120006499999928 ], [ -50.304380499999979, -26.120380199999943 ], [ -50.305128899999943, -26.120738899999935 ], [ -50.303102399999943, -26.124175299999923 ], [ -50.302339399999944, -26.124226 ], [ -50.299319099999934, -26.123488099999975 ], [ -50.298733499999969, -26.123409899999952 ], [ -50.297552, -26.122752 ], [ -50.29745749999995, -26.123557699999932 ], [ -50.296053799999989, -26.123965399999967 ], [ -50.295606099999986, -26.124363599999981 ], [ -50.303332399999931, -26.125812799999956 ], [ -50.304268499999978, -26.125157299999952 ], [ -50.30427009999994, -26.125217199999948 ], [ -50.304272099999935, -26.125293199999927 ], [ -50.304270799999983, -26.125324699999961 ], [ -50.304266199999972, -26.125347699999956 ], [ -50.304258299999958, -26.12537959999997 ], [ -50.304244699999977, -26.125414899999953 ], [ -50.304191399999986, -26.125524599999938 ], [ -50.304149699999982, -26.12562719999994 ], [ -50.304069199999958, -26.12576719999992 ], [ -50.304019599999947, -26.125856699999922 ], [ -50.303991, -26.125911099999946 ], [ -50.30397, -26.125967599999964 ], [ -50.30393909999998, -26.126107399999963 ], [ -50.303882399999964, -26.126384799999972 ], [ -50.303829899999982, -26.126617199999938 ], [ -50.303792099999953, -26.126776 ], [ -50.30375, -26.126926499999964 ], [ -50.303720599999963, -26.127112899999933 ], [ -50.303679699999975, -26.127308499999973 ], [ -50.303643399999942, -26.127537 ], [ -50.303613899999952, -26.127669199999943 ], [ -50.303578099999982, -26.127791899999981 ], [ -50.303554299999973, -26.127849099999921 ], [ -50.303536299999962, -26.127880099999981 ], [ -50.303421899999933, -26.128005499999976 ], [ -50.303268299999964, -26.128158699999979 ], [ -50.303035099999931, -26.128368799999976 ], [ -50.30281679999996, -26.128574199999946 ], [ -50.302661199999932, -26.128741799999943 ], [ -50.302603099999942, -26.128810399999974 ], [ -50.302573399999979, -26.128834899999951 ], [ -50.302528499999937, -26.128878099999959 ], [ -50.302489599999944, -26.128930599999922 ], [ -50.302460499999938, -26.128953799999973 ], [ -50.302399, -26.128993 ], [ -50.302356899999957, -26.129022099999926 ], [ -50.302328499999938, -26.129053599999956 ], [ -50.302293199999959, -26.129104699999967 ], [ -50.302270799999981, -26.129155199999946 ], [ -50.302225899999939, -26.129275499999945 ], [ -50.302183199999945, -26.129386699999937 ], [ -50.302119799999957, -26.129552399999969 ], [ -50.302077399999973, -26.129700099999987 ], [ -50.302055699999983, -26.129783499999963 ], [ -50.302053399999977, -26.129793799999955 ], [ -50.302051199999937, -26.129808199999953 ], [ -50.302045699999958, -26.12985209999994 ], [ -50.302038099999955, -26.129928699999933 ], [ -50.302030599999966, -26.129993299999974 ], [ -50.302019, -26.130044599999959 ], [ -50.301972599999935, -26.130203299999938 ], [ -50.301968199999976, -26.130215599999932 ], [ -50.301916699999943, -26.130408499999916 ], [ -50.301866799999971, -26.13056349999993 ], [ -50.30181969999996, -26.130687799999972 ], [ -50.301802099999975, -26.130737499999949 ], [ -50.301778299999974, -26.130768699999976 ], [ -50.301767599999948, -26.130781799999962 ], [ -50.301763299999948, -26.130797799999975 ], [ -50.301763199999989, -26.130820699999958 ], [ -50.301764799999944, -26.130840699999968 ], [ -50.301769099999945, -26.130860899999945 ], [ -50.301768899999963, -26.130871899999942 ], [ -50.301767899999966, -26.13088 ], [ -50.301765399999965, -26.13088879999998 ], [ -50.301763899999969, -26.130895 ], [ -50.301744, -26.130952899999961 ], [ -50.301737199999934, -26.130986 ], [ -50.301706599999932, -26.131094599999987 ], [ -50.301628499999936, -26.131369299999957 ], [ -50.301582399999972, -26.131542799999973 ], [ -50.301559599999962, -26.131615899999925 ], [ -50.301543299999935, -26.131699499999954 ], [ -50.301533799999952, -26.131788499999974 ], [ -50.301520399999958, -26.131843399999973 ], [ -50.301497799999936, -26.131935399999968 ], [ -50.301468799999952, -26.132009 ], [ -50.30142109999997, -26.132098399999961 ], [ -50.3013936, -26.132134399999927 ], [ -50.301356, -26.132160199999937 ], [ -50.301320899999943, -26.132185399999976 ], [ -50.301289, -26.132203799999949 ], [ -50.301239899999985, -26.132222199999934 ], [ -50.30116959999998, -26.132251099999959 ], [ -50.301089299999951, -26.132285799999977 ], [ -50.301042399999979, -26.132310499999967 ], [ -50.30102659999995, -26.132328 ], [ -50.301010399999946, -26.132347499999973 ], [ -50.300999399999966, -26.132371099999947 ], [ -50.300995499999942, -26.132400299999979 ], [ -50.301000899999963, -26.132437799999934 ], [ -50.301007299999981, -26.132481099999946 ], [ -50.30102009999996, -26.132525499999922 ], [ -50.301093, -26.132665499999973 ], [ -50.301139599999935, -26.132765499999948 ], [ -50.301150899999989, -26.132814899999975 ], [ -50.30114389999995, -26.1328574 ], [ -50.301121599999931, -26.132900899999971 ], [ -50.301096099999938, -26.132939099999923 ], [ -50.30103749999995, -26.132986399999933 ], [ -50.300946799999956, -26.133041399999964 ], [ -50.300879699999939, -26.133076499999962 ], [ -50.300820799999947, -26.13309949999995 ], [ -50.300694199999953, -26.133133599999955 ], [ -50.300579499999969, -26.133170199999949 ], [ -50.300504399999966, -26.133207599999931 ], [ -50.300439299999937, -26.133247899999954 ], [ -50.300388099999964, -26.13328859999995 ], [ -50.300353599999944, -26.133327899999976 ], [ -50.300327399999951, -26.133372899999987 ], [ -50.30026179999993, -26.133478399999944 ], [ -50.300204599999972, -26.133542699999953 ], [ -50.300168199999973, -26.13357939999997 ], [ -50.300162299999954, -26.133587299999931 ], [ -50.300155299999972, -26.133595899999932 ], [ -50.300140499999941, -26.133610799999925 ], [ -50.300076899999972, -26.133658699999962 ], [ -50.300060899999949, -26.133669 ], [ -50.300035099999945, -26.133689599999968 ], [ -50.299993, -26.133717499999918 ], [ -50.299860799999976, -26.133793099999927 ], [ -50.299623299999951, -26.133920499999935 ], [ -50.299476699999957, -26.133996699999958 ], [ -50.299346299999968, -26.134085099999929 ], [ -50.299175599999955, -26.134215299999941 ], [ -50.299027, -26.134337899999935 ], [ -50.298895699999946, -26.134475099999978 ], [ -50.298879099999965, -26.134488299999923 ], [ -50.2988534, -26.134516799999961 ], [ -50.298842399999955, -26.134532099999948 ], [ -50.298836299999948, -26.134541399999936 ], [ -50.298773099999948, -26.134618099999955 ], [ -50.298609799999952, -26.134796399999956 ], [ -50.298526199999969, -26.134913199999968 ], [ -50.298430599999961, -26.135066 ], [ -50.298350599999935, -26.135242299999963 ], [ -50.298307299999983, -26.135380799999943 ], [ -50.298275099999962, -26.135482799999973 ], [ -50.29826269999996, -26.135600699999944 ], [ -50.298258199999964, -26.135827699999936 ], [ -50.298264499999959, -26.136019499999964 ], [ -50.298269699999928, -26.136169799999948 ], [ -50.305537899999926, -26.136385399999945 ], [ -50.30629609999994, -26.136303899999977 ], [ -50.306407299999925, -26.136292 ], [ -50.307309, -26.136277499999942 ], [ -50.308619199999953, -26.136235499999938 ], [ -50.309802, -26.138885899999927 ], [ -50.311204699999962, -26.138462199999928 ], [ -50.311564499999974, -26.139374099999937 ], [ -50.311467, -26.139555899999944 ], [ -50.311272499999973, -26.139894599999927 ], [ -50.310932199999968, -26.140510499999934 ], [ -50.310626799999959, -26.141097099999964 ], [ -50.310322499999977, -26.141638499999939 ], [ -50.30998349999993, -26.142326899999947 ], [ -50.30979079999998, -26.142744899999965 ], [ -50.312615199999982, -26.144404499999947 ], [ -50.316206, -26.147242799999951 ], [ -50.321005799999966, -26.152824099999982 ], [ -50.31995169999994, -26.153432599999963 ], [ -50.319448299999976, -26.153757199999966 ], [ -50.319220399999949, -26.154018 ], [ -50.31852889999994, -26.15470449999998 ], [ -50.318254199999963, -26.154852199999926 ], [ -50.317850399999941, -26.155011599999963 ] ] ] ] } }
]
}
