{
"type": "FeatureCollection",
"name": "4300406",
"crs": { "type": "name", "properties": { "name": "urn:ogc:def:crs:OGC:1.3:CRS84" } },
"features": [
{ "type": "Feature", "properties": { "CD_MUN": "4300406", "NM_MUN": "Alegrete" }, "geometry": { "type": "MultiPolygon", "coordinates": [ [ [ [ -55.820020699999986, -29.8185587 ], [ -55.820752099999936, -29.818400099999966 ], [ -55.821699499999966, -29.818089099999955 ], [ -55.822546299999942, -29.817800699999971 ], [ -55.823097299999979, -29.817580899999932 ], [ -55.823566399999947, -29.817376599999925 ], [ -55.823711599999967, -29.817321799999945 ], [ -55.82425759999996, -29.817115699999921 ], [ -55.825143699999963, -29.816824 ], [ -55.825936499999955, -29.816636099999975 ], [ -55.826900199999962, -29.816349599999967 ], [ -55.82763389999996, -29.816159899999956 ], [ -55.827841599999935, -29.816106199999968 ], [ -55.828464399999973, -29.815928099999937 ], [ -55.82895259999998, -29.815788499999933 ], [ -55.829901899999982, -29.81557489999993 ], [ -55.829955799999929, -29.815559 ], [ -55.830835399999962, -29.815299799999934 ], [ -55.831762099999935, -29.814984099999965 ], [ -55.8327053, -29.81468109999998 ], [ -55.833816899999931, -29.814301099999952 ], [ -55.834779399999945, -29.813929599999934 ], [ -55.835867299999968, -29.813461899999936 ], [ -55.837171099999985, -29.812833599999973 ], [ -55.840029499999957, -29.811458199999944 ], [ -55.839506599999936, -29.811041199999988 ], [ -55.839013399999942, -29.810652499999957 ], [ -55.838505199999986, -29.810219399999937 ], [ -55.838095199999941, -29.809874599999944 ], [ -55.837491, -29.809241299999954 ], [ -55.836846, -29.808643599999982 ], [ -55.836073899999974, -29.80794919999995 ], [ -55.835509, -29.807492099999926 ], [ -55.83502539999995, -29.80707909999996 ], [ -55.834468699999952, -29.806641 ], [ -55.833933499999937, -29.806212199999951 ], [ -55.833537299999939, -29.805851299999965 ], [ -55.833115, -29.805505599999947 ], [ -55.832806299999952, -29.805360299999943 ], [ -55.832410299999935, -29.805154699999942 ], [ -55.832014, -29.804976099999983 ], [ -55.831203899999934, -29.804616099999972 ], [ -55.830907199999956, -29.804411399999932 ], [ -55.830558399999973, -29.804157399999937 ], [ -55.830140099999944, -29.803827 ], [ -55.829722499999953, -29.803521899999957 ], [ -55.82927269999994, -29.803228299999944 ], [ -55.82840659999993, -29.802706299999947 ], [ -55.828020599999945, -29.802446599999943 ], [ -55.827795099999953, -29.80225959999996 ], [ -55.827657199999983, -29.802111299999979 ], [ -55.827535499999954, -29.801981099999971 ], [ -55.827198, -29.801561199999984 ], [ -55.826783599999949, -29.80107119999996 ], [ -55.826393399999979, -29.800640899999966 ], [ -55.825992399999961, -29.800250199999933 ], [ -55.825586399999963, -29.799840499999952 ], [ -55.825157899999965, -29.799326 ], [ -55.824318299999966, -29.79837839999993 ], [ -55.823846399999979, -29.797845799999951 ], [ -55.823428299999939, -29.797346199999925 ], [ -55.823324899999932, -29.797209799999969 ], [ -55.822337699999935, -29.795696699999954 ], [ -55.821772, -29.794651899999952 ], [ -55.821275399999934, -29.793940299999978 ], [ -55.821158399999945, -29.793763799999969 ], [ -55.821053199999938, -29.793606299999968 ], [ -55.820586799999944, -29.792917699999979 ], [ -55.820233699999967, -29.792383199999964 ], [ -55.81926069999998, -29.790664599999953 ], [ -55.818534199999931, -29.789365 ], [ -55.813508599999977, -29.78216459999993 ], [ -55.813475899999958, -29.78211779999998 ], [ -55.813421499999947, -29.782042499999921 ], [ -55.811525499999952, -29.778209199999928 ], [ -55.807002699999941, -29.769145899999945 ], [ -55.806738399999972, -29.768616299999966 ], [ -55.806735099999969, -29.768609699999949 ], [ -55.806664299999959, -29.768670799999938 ], [ -55.806509399999975, -29.768804399999961 ], [ -55.806335199999978, -29.768926499999953 ], [ -55.806058299999968, -29.769164 ], [ -55.805804, -29.769329499999969 ], [ -55.80528829999998, -29.76968339999997 ], [ -55.80525229999995, -29.769708099999942 ], [ -55.805077199999971, -29.76983869999998 ], [ -55.804799399999986, -29.770046 ], [ -55.804325699999936, -29.770329799999967 ], [ -55.804232699999943, -29.770385599999944 ], [ -55.803967499999949, -29.770554799999953 ], [ -55.80368029999994, -29.770737899999968 ], [ -55.803002899999967, -29.771164 ], [ -55.802735699999978, -29.771280699999977 ], [ -55.80213759999998, -29.771566799999967 ], [ -55.801943099999967, -29.771649199999956 ], [ -55.801618799999972, -29.771786799999969 ], [ -55.801422599999974, -29.77189159999994 ], [ -55.801130599999972, -29.772047699999973 ], [ -55.8005007, -29.772386699999977 ], [ -55.799272699999953, -29.773103699999975 ], [ -55.797425899999951, -29.774831099999957 ], [ -55.797273799999964, -29.774620699999957 ], [ -55.796339099999955, -29.77329 ], [ -55.796233799999982, -29.77160589999994 ], [ -55.796211599999928, -29.771249399999924 ], [ -55.795980599999957, -29.77121759999995 ], [ -55.795689, -29.771164399999975 ], [ -55.795307099999945, -29.771182599999971 ], [ -55.794953199999945, -29.771198299999977 ], [ -55.794389399999943, -29.771203099999983 ], [ -55.793958099999941, -29.771444399999961 ], [ -55.79365649999994, -29.771478399999971 ], [ -55.79316579999994, -29.771577399999948 ], [ -55.792727799999973, -29.771457699999932 ], [ -55.792299799999967, -29.771409 ], [ -55.791796599999948, -29.771285099999943 ], [ -55.79130959999997, -29.771141599999961 ], [ -55.790789099999984, -29.770907899999941 ], [ -55.790612899999985, -29.770819499999963 ], [ -55.79023659999995, -29.770550699999944 ], [ -55.789911099999983, -29.770432299999989 ], [ -55.78963269999997, -29.770180799999938 ], [ -55.789477699999964, -29.770027599999928 ], [ -55.788676699999947, -29.76923609999994 ], [ -55.788245, -29.768683199999934 ], [ -55.788029099999967, -29.768314799999938 ], [ -55.787965799999938, -29.767962799999957 ], [ -55.787984699999981, -29.767556099999972 ], [ -55.788030299999946, -29.76713159999996 ], [ -55.788037399999951, -29.766571699999929 ], [ -55.78792789999995, -29.766047399999934 ], [ -55.787736299999956, -29.765379599999971 ], [ -55.787480499999958, -29.764633699999933 ], [ -55.787292599999944, -29.764002099999963 ], [ -55.78721129999996, -29.763455499999967 ], [ -55.786881299999948, -29.762856 ], [ -55.786572399999955, -29.762401899999933 ], [ -55.786293499999942, -29.76202759999995 ], [ -55.785989699999959, -29.761664699999969 ], [ -55.785565199999951, -29.76127009999993 ], [ -55.785219, -29.760992599999952 ], [ -55.784623899999985, -29.760515199999933 ], [ -55.784428499999933, -29.760419599999985 ], [ -55.783888899999958, -29.76013939999995 ], [ -55.782952199999954, -29.760115399999961 ], [ -55.782150799999961, -29.760102599999978 ], [ -55.781638799999939, -29.760195399999922 ], [ -55.78113019999995, -29.76051729999994 ], [ -55.780688899999973, -29.760829099999967 ], [ -55.780450799999983, -29.761148 ], [ -55.780338899999947, -29.761297799999966 ], [ -55.780124399999984, -29.761926599999988 ], [ -55.780068299999989, -29.762371 ], [ -55.780311099999949, -29.763502099999979 ], [ -55.780618499999946, -29.764429899999985 ], [ -55.781084099999987, -29.765867099999973 ], [ -55.781551099999945, -29.767355 ], [ -55.781741699999941, -29.768054099999976 ], [ -55.781901699999942, -29.768641399999979 ], [ -55.781920299999967, -29.769673899999926 ], [ -55.781946399999981, -29.770847199999928 ], [ -55.7819995, -29.772013599999983 ], [ -55.78199979999993, -29.772328499999944 ], [ -55.782000499999981, -29.773212899999983 ], [ -55.781999299999931, -29.773294299999971 ], [ -55.781981199999969, -29.774467899999941 ], [ -55.781922699999939, -29.775286699999981 ], [ -55.781776699999966, -29.775759 ], [ -55.781611599999962, -29.776289099999929 ], [ -55.781280599999938, -29.777077399999939 ], [ -55.781248499999947, -29.777116599999935 ], [ -55.780712899999969, -29.778307599999959 ], [ -55.780536, -29.778724099999977 ], [ -55.779996899999958, -29.779105899999919 ], [ -55.779437299999984, -29.779699899999972 ], [ -55.778922199999961, -29.780206799999981 ], [ -55.778402499999977, -29.780668499999919 ], [ -55.776159599999971, -29.781841899999968 ], [ -55.775346699999943, -29.78247789999994 ], [ -55.768136, -29.782111899999975 ], [ -55.768028, -29.781908099999953 ], [ -55.762968499999936, -29.784263499999948 ], [ -55.762583099999972, -29.784516299999954 ], [ -55.762307499999956, -29.784666499999965 ], [ -55.754697799999974, -29.788563199999942 ], [ -55.751127299999943, -29.790669099999938 ], [ -55.750839199999973, -29.790782399999959 ], [ -55.750631199999987, -29.790885299999946 ], [ -55.750435799999934, -29.791241399999929 ], [ -55.750283199999956, -29.791372499999962 ], [ -55.749435799999965, -29.791931899999962 ], [ -55.748639899999937, -29.792372799999953 ], [ -55.747971399999983, -29.792803199999977 ], [ -55.747424399999943, -29.793199599999987 ], [ -55.747056399999963, -29.793588599999961 ], [ -55.746646899999973, -29.793988099999975 ], [ -55.746220099999952, -29.794367599999923 ], [ -55.745744599999973, -29.794826 ], [ -55.745306099999929, -29.795227899999933 ], [ -55.745045699999935, -29.795454599999967 ], [ -55.74436959999997, -29.79693849999996 ], [ -55.741276399999954, -29.798050599999957 ], [ -55.738375799999979, -29.798984299999983 ], [ -55.738568, -29.799442699999926 ], [ -55.73905, -29.800592299999941 ], [ -55.739362399999941, -29.800934 ], [ -55.739945599999949, -29.801627099999966 ], [ -55.739240799999948, -29.801885199999965 ], [ -55.738976199999961, -29.801989299999949 ], [ -55.738683199999976, -29.8021 ], [ -55.739318099999934, -29.803007199999968 ], [ -55.739659699999947, -29.803485699999953 ], [ -55.740733399999954, -29.805035799999921 ], [ -55.741784, -29.804665199999913 ], [ -55.741793099999938, -29.804669699999977 ], [ -55.742269899999933, -29.804484199999923 ], [ -55.744542499999959, -29.808890799999968 ], [ -55.745456, -29.8109219 ], [ -55.745848899999949, -29.811743299999936 ], [ -55.746314699999978, -29.812952299999957 ], [ -55.742643799999946, -29.814148399999958 ], [ -55.741907199999957, -29.814546899999975 ], [ -55.741498799999931, -29.814949099999978 ], [ -55.740639599999952, -29.819720799999974 ], [ -55.743857399999968, -29.819849799999929 ], [ -55.746515099999954, -29.820158399999976 ], [ -55.748382499999934, -29.820281699999946 ], [ -55.749497699999957, -29.820313899999963 ], [ -55.750906699999973, -29.820347099999928 ], [ -55.752293199999947, -29.820363799999939 ], [ -55.753761199999985, -29.82040109999997 ], [ -55.755062, -29.820313199999934 ], [ -55.756463099999955, -29.82023619999995 ], [ -55.757842499999988, -29.820072299999932 ], [ -55.758973, -29.819958399999962 ], [ -55.760097399999957, -29.819738799999968 ], [ -55.761150399999963, -29.819616 ], [ -55.762129499999958, -29.819347299999947 ], [ -55.763087799999944, -29.819095499999939 ], [ -55.764036799999985, -29.818840899999937 ], [ -55.764904199999933, -29.818563799999925 ], [ -55.765728899999942, -29.818320699999965 ], [ -55.766336899999949, -29.818121099999932 ], [ -55.766616199999987, -29.818029399999944 ], [ -55.767187399999955, -29.817866 ], [ -55.76741449999998, -29.817842099999947 ], [ -55.767833899999964, -29.817798 ], [ -55.768513799999937, -29.817965899999926 ], [ -55.769114799999954, -29.81857969999993 ], [ -55.769640299999935, -29.819097099999961 ], [ -55.770151, -29.819565699999941 ], [ -55.770218399999976, -29.819620299999936 ], [ -55.770507199999948, -29.819813499999952 ], [ -55.770494299999946, -29.819818199999922 ], [ -55.770554799999957, -29.819892299999939 ], [ -55.770781199999924, -29.820076899999933 ], [ -55.771332099999938, -29.820467299999965 ], [ -55.772062, -29.820944299999951 ], [ -55.772842899999944, -29.821402699999958 ], [ -55.773444899999966, -29.821771 ], [ -55.774209199999973, -29.822065099999968 ], [ -55.774706299999927, -29.821943399999959 ], [ -55.775247899999954, -29.821574799999951 ], [ -55.775711699999931, -29.820967299999939 ], [ -55.775961699999975, -29.820490499999945 ], [ -55.776142799999953, -29.819810799999971 ], [ -55.776133499999958, -29.819217 ], [ -55.77593719999998, -29.818341699999955 ], [ -55.775564399999958, -29.81717419999995 ], [ -55.775259299999959, -29.816397099999957 ], [ -55.77488029999995, -29.815315199999926 ], [ -55.774757799999975, -29.814889499999929 ], [ -55.77465489999998, -29.814531699999971 ], [ -55.774518, -29.813287799999955 ], [ -55.774509499999965, -29.81262629999998 ], [ -55.774497, -29.811785199999978 ], [ -55.77462869999993, -29.811166499999946 ], [ -55.774787, -29.810573299999934 ], [ -55.775072499999965, -29.809990299999981 ], [ -55.775583599999955, -29.809568199999944 ], [ -55.776206299999949, -29.80925 ], [ -55.776894299999981, -29.809173399999963 ], [ -55.777510099999972, -29.809156499999965 ], [ -55.778151199999975, -29.809452099999927 ], [ -55.778692599999943, -29.809771099999967 ], [ -55.779169499999966, -29.810117499999933 ], [ -55.779677599999957, -29.810633 ], [ -55.780129599999952, -29.811323899999941 ], [ -55.780468399999961, -29.811972199999953 ], [ -55.780696899999953, -29.812673699999934 ], [ -55.780858, -29.813378099999962 ], [ -55.781089899999984, -29.814137299999974 ], [ -55.781442599999934, -29.814919299999918 ], [ -55.781675899999982, -29.815393399999959 ], [ -55.781786899999979, -29.815812499999932 ], [ -55.782323299999973, -29.815656899999968 ], [ -55.782820799999968, -29.814646799999927 ], [ -55.783111099999985, -29.813342799999937 ], [ -55.794338499999981, -29.820549399999944 ], [ -55.803592399999957, -29.820205399999963 ], [ -55.819054899999976, -29.81875779999995 ], [ -55.819154399999945, -29.818743199999972 ], [ -55.819670699999961, -29.818663899999926 ], [ -55.820020699999986, -29.8185587 ] ] ], [ [ [ -55.545313399999934, -29.680841599999972 ], [ -55.546001099999955, -29.680757199999952 ], [ -55.546539, -29.6806607 ], [ -55.546909099999937, -29.680562399999914 ], [ -55.547429799999982, -29.68040429999996 ], [ -55.547574399999981, -29.68023 ], [ -55.547767699999945, -29.680064399999939 ], [ -55.547888099999966, -29.679892499999937 ], [ -55.54811969999998, -29.67967219999997 ], [ -55.544312899999966, -29.678012899999935 ], [ -55.543499099999963, -29.677616499999939 ], [ -55.541798799999974, -29.677009 ], [ -55.539089, -29.675618 ], [ -55.536973699999976, -29.675218399999956 ], [ -55.534131899999984, -29.674813099999927 ], [ -55.5336152, -29.675960399999944 ], [ -55.533911499999931, -29.676080699999947 ], [ -55.530990399999943, -29.68093779999997 ], [ -55.530456099999981, -29.681824099999968 ], [ -55.529199, -29.682297099999971 ], [ -55.531412799999941, -29.683048699999969 ], [ -55.538700499999948, -29.68515529999997 ], [ -55.539026199999974, -29.68511429999996 ], [ -55.539490799999953, -29.684953699999944 ], [ -55.54179309999995, -29.68434139999993 ], [ -55.541860799999945, -29.682708 ], [ -55.542684399999985, -29.681919499999935 ], [ -55.545343, -29.683224499999938 ], [ -55.546084399999984, -29.682307599999948 ], [ -55.545313399999934, -29.680841599999972 ] ] ] ] } }
]
}
