{
"type": "FeatureCollection",
"name": "4309605",
"crs": { "type": "name", "properties": { "name": "urn:ogc:def:crs:OGC:1.3:CRS84" } },
"features": [
{ "type": "Feature", "properties": { "CD_MUN": "4309605", "NM_MUN": "Horizontina" }, "geometry": { "type": "MultiPolygon", "coordinates": [ [ [ [ -54.308961899999986, -27.6562848 ], [ -54.310200199999933, -27.656228099999971 ], [ -54.31141979999996, -27.656273599999963 ], [ -54.317190799999928, -27.656752799999925 ], [ -54.317975699999977, -27.656719699999933 ], [ -54.318703699999958, -27.656559799999958 ], [ -54.319727299999947, -27.656149 ], [ -54.320688, -27.655448699999958 ], [ -54.322269799999958, -27.653568199999942 ], [ -54.327410899999954, -27.64754559999994 ], [ -54.327882099999954, -27.647112 ], [ -54.328450299999986, -27.646722599999968 ], [ -54.330180699999971, -27.645878499999974 ], [ -54.331601499999969, -27.645121 ], [ -54.332496, -27.644413899999957 ], [ -54.33349939999993, -27.643291599999934 ], [ -54.334165399999961, -27.642534599999969 ], [ -54.334422499999953, -27.642542299999942 ], [ -54.334653599999974, -27.642544499999925 ], [ -54.334703899999965, -27.642442 ], [ -54.335218799999943, -27.641869699999965 ], [ -54.335532399999984, -27.641476599999987 ], [ -54.335199799999948, -27.641470499999972 ], [ -54.334599299999979, -27.641562199999957 ], [ -54.334061899999931, -27.641645799999935 ], [ -54.333521599999983, -27.641729799999936 ], [ -54.333025899999946, -27.641737299999928 ], [ -54.332536499999946, -27.641634499999949 ], [ -54.332032799999979, -27.64154439999994 ], [ -54.331525799999952, -27.641462499999932 ], [ -54.33111729999996, -27.641397299999944 ], [ -54.330333099999962, -27.641409499999948 ], [ -54.329115599999966, -27.641723699999936 ], [ -54.327527, -27.642183799999934 ], [ -54.325622099999975, -27.644289899999944 ], [ -54.324473599999976, -27.645145399999929 ], [ -54.321718499999982, -27.646457299999941 ], [ -54.321287499999983, -27.646514799999988 ], [ -54.320530799999972, -27.646351 ], [ -54.320017899999982, -27.645877099999954 ], [ -54.319335899999949, -27.645136199999964 ], [ -54.319231399999971, -27.645020299999945 ], [ -54.324240599999939, -27.640979099999988 ], [ -54.323552099999972, -27.639791899999981 ], [ -54.321971, -27.637271499999933 ], [ -54.321568299999974, -27.636629599999935 ], [ -54.325713599999965, -27.634370599999951 ], [ -54.323964899999957, -27.631500799999973 ], [ -54.322507399999949, -27.629108899999942 ], [ -54.320366499999977, -27.625595399999952 ], [ -54.320365799999934, -27.625594299999925 ], [ -54.318061599999957, -27.622995199999931 ], [ -54.317180199999939, -27.622130899999945 ], [ -54.317911099999947, -27.621219299999947 ], [ -54.318736299999955, -27.620837 ], [ -54.320453199999967, -27.619778 ], [ -54.320887699999965, -27.619597699999929 ], [ -54.321696199999963, -27.620529299999934 ], [ -54.322001599999957, -27.620485399999957 ], [ -54.3225, -27.620377 ], [ -54.323023499999977, -27.620241499999963 ], [ -54.323331799999949, -27.619950199999948 ], [ -54.3236859, -27.619490399999957 ], [ -54.323895799999946, -27.619242699999962 ], [ -54.323808599999957, -27.618946699999981 ], [ -54.323516, -27.618733599999924 ], [ -54.323817599999984, -27.618412899999946 ], [ -54.324093199999936, -27.61786729999994 ], [ -54.323310399999968, -27.618146599999925 ], [ -54.32300959999997, -27.618067 ], [ -54.321107599999955, -27.615972499999938 ], [ -54.321061699999973, -27.615960599999926 ], [ -54.320463, -27.615277 ], [ -54.320631499999941, -27.61498359999996 ], [ -54.31825, -27.614781599999962 ], [ -54.320022299999948, -27.609879299999932 ], [ -54.328817899999933, -27.607312099999945 ], [ -54.329122399999967, -27.60892519999992 ], [ -54.330262599999969, -27.608787299999953 ], [ -54.330141899999951, -27.607025899999936 ], [ -54.330124599999976, -27.606653299999945 ], [ -54.32732029999994, -27.60668 ], [ -54.325379399999974, -27.606735199999942 ], [ -54.323930099999977, -27.603778399999953 ], [ -54.315069699999974, -27.602929899999939 ], [ -54.31260589999993, -27.607776499999936 ], [ -54.310245599999973, -27.607543099999933 ], [ -54.305354599999987, -27.6067 ], [ -54.304421699999978, -27.611991199999963 ], [ -54.303574199999964, -27.611823299999973 ], [ -54.302693499999975, -27.614184899999938 ], [ -54.302759399999957, -27.614914099999968 ], [ -54.302656299999967, -27.615289 ], [ -54.301881499999979, -27.617728199999927 ], [ -54.301482499999963, -27.618984399999931 ], [ -54.301473499999979, -27.619016299999938 ], [ -54.3004782, -27.622571799999953 ], [ -54.297214, -27.624117699999942 ], [ -54.297051199999949, -27.624141599999966 ], [ -54.294749499999966, -27.625284899999951 ], [ -54.296931299999983, -27.628488899999976 ], [ -54.296675299999947, -27.632544599999946 ], [ -54.296556199999934, -27.635173199999933 ], [ -54.295446399999946, -27.635955099999926 ], [ -54.293497499999951, -27.637017799999956 ], [ -54.292150799999945, -27.637363199999978 ], [ -54.290247699999952, -27.637433499999922 ], [ -54.290157399999948, -27.637963199999945 ], [ -54.291948299999945, -27.640357299999948 ], [ -54.299461699999938, -27.651028899999964 ], [ -54.300925199999938, -27.650957799999954 ], [ -54.302330499999982, -27.652058 ], [ -54.302932199999987, -27.652685899999938 ], [ -54.303879299999949, -27.653095199999932 ], [ -54.304125199999937, -27.653490699999967 ], [ -54.30400179999998, -27.653989799999973 ], [ -54.303224299999947, -27.654232699999966 ], [ -54.302288199999964, -27.654470699999933 ], [ -54.301474499999976, -27.655447499999973 ], [ -54.301145399999946, -27.656723799999956 ], [ -54.300705699999988, -27.657914399999981 ], [ -54.300004299999962, -27.658327299999936 ], [ -54.299759699999974, -27.658790599999964 ], [ -54.300113799999963, -27.659785 ], [ -54.29990209999994, -27.660274799999957 ], [ -54.299894199999983, -27.661093099999952 ], [ -54.301272799999943, -27.659553399999933 ], [ -54.303332199999943, -27.659675399999959 ], [ -54.304889699999926, -27.659875 ], [ -54.305234199999973, -27.659191 ], [ -54.305659499999926, -27.658351 ], [ -54.305920699999938, -27.657835099999939 ], [ -54.306308, -27.657414399999933 ], [ -54.306839899999943, -27.656905299999952 ], [ -54.307971299999963, -27.656587299999948 ], [ -54.308452699999975, -27.656383 ], [ -54.308961899999986, -27.6562848 ] ] ], [ [ [ -54.24212509999996, -27.530934099999975 ], [ -54.246234099999981, -27.529356099999973 ], [ -54.24409449999996, -27.523030599999963 ], [ -54.240560799999976, -27.52341569999993 ], [ -54.237563899999941, -27.523760699999976 ], [ -54.236818199999959, -27.523694899999953 ], [ -54.237125599999949, -27.526137699999936 ], [ -54.237766199999953, -27.528132 ], [ -54.237766199999953, -27.529215499999964 ], [ -54.238579399999935, -27.532116399999943 ], [ -54.238813, -27.532949499999969 ], [ -54.239991799999984, -27.532263599999961 ], [ -54.24212509999996, -27.530934099999975 ] ] ], [ [ [ -54.233626099999981, -27.5215 ], [ -54.233608899999979, -27.521179099999969 ], [ -54.233581299999969, -27.520834 ], [ -54.233572599999945, -27.520537299999937 ], [ -54.233612299999947, -27.520397599999971 ], [ -54.233672699999943, -27.520288899999972 ], [ -54.233793499999933, -27.520168099999974 ], [ -54.233959099999936, -27.520081899999976 ], [ -54.234145399999939, -27.520033599999973 ], [ -54.234333399999976, -27.51999909999995 ], [ -54.23337419999995, -27.518032399999985 ], [ -54.230869299999945, -27.518411899999929 ], [ -54.230948599999984, -27.518625799999946 ], [ -54.23099689999998, -27.518803499999926 ], [ -54.231024599999955, -27.519008799999934 ], [ -54.231067699999983, -27.519160599999964 ], [ -54.231135, -27.519295199999931 ], [ -54.231310899999983, -27.51955739999994 ], [ -54.231669799999956, -27.520123299999963 ], [ -54.232049299999971, -27.520651199999971 ], [ -54.232208, -27.520913399999987 ], [ -54.232325299999957, -27.521234299999946 ], [ -54.23245639999994, -27.521472399999929 ], [ -54.232811799999986, -27.521865699999978 ], [ -54.233127499999966, -27.522145199999954 ], [ -54.233488099999931, -27.52178629999997 ], [ -54.233579499999962, -27.521655199999941 ], [ -54.233626099999981, -27.5215 ] ] ] ] } }
]
}
