{
"type": "FeatureCollection",
"name": "4310603",
"crs": { "type": "name", "properties": { "name": "urn:ogc:def:crs:OGC:1.3:CRS84" } },
"features": [
{ "type": "Feature", "properties": { "CD_MUN": "4310603", "NM_MUN": "Itaqui" }, "geometry": { "type": "MultiPolygon", "coordinates": [ [ [ [ -55.763596699999944, -29.224456299999929 ], [ -55.76230019999997, -29.226640699999958 ], [ -55.764267799999971, -29.22702929999997 ], [ -55.764337499999954, -29.226941799999949 ], [ -55.76489289999995, -29.226244599999958 ], [ -55.765989699999984, -29.224561899999969 ], [ -55.763818299999969, -29.224035599999976 ], [ -55.763663399999984, -29.22436179999994 ], [ -55.763596699999944, -29.224456299999929 ] ] ], [ [ [ -56.56162889999996, -29.15199129999997 ], [ -56.562886299999946, -29.151663099999951 ], [ -56.561974599999978, -29.146464199999972 ], [ -56.560234, -29.146696899999945 ], [ -56.558982799999974, -29.146859 ], [ -56.558428099999958, -29.144290699999949 ], [ -56.558596, -29.144199599999975 ], [ -56.559352, -29.143945599999938 ], [ -56.559797799999949, -29.14379579999995 ], [ -56.561405899999954, -29.142436499999967 ], [ -56.561396599999966, -29.142373299999967 ], [ -56.56110549999994, -29.141027899999976 ], [ -56.562576899999947, -29.140773199999956 ], [ -56.562281499999976, -29.139379699999946 ], [ -56.563889399999937, -29.139009799999943 ], [ -56.563998599999934, -29.138986399999958 ], [ -56.564453399999934, -29.137996199999971 ], [ -56.564660699999941, -29.137635 ], [ -56.564903, -29.137212899999948 ], [ -56.565157899999981, -29.136942 ], [ -56.565408899999973, -29.136725799999958 ], [ -56.565547199999969, -29.136550299999946 ], [ -56.566076199999941, -29.136238699999989 ], [ -56.566096299999963, -29.136223 ], [ -56.566246099999944, -29.136105399999952 ], [ -56.566425799999934, -29.135964299999969 ], [ -56.566502, -29.135911299999975 ], [ -56.566827199999985, -29.135685399999939 ], [ -56.567398, -29.135309499999938 ], [ -56.567948899999976, -29.134967 ], [ -56.568216699999937, -29.134702299999955 ], [ -56.568330899999978, -29.134347699999974 ], [ -56.569006399999978, -29.13400879999994 ], [ -56.56927989999997, -29.133500699999956 ], [ -56.569450699999948, -29.133012899999969 ], [ -56.569655799999964, -29.132765799999952 ], [ -56.569666299999938, -29.132435099999952 ], [ -56.569874899999938, -29.131921699999968 ], [ -56.569922, -29.131322 ], [ -56.569950899999988, -29.130566199999969 ], [ -56.570394799999967, -29.130029799999939 ], [ -56.570789799999943, -29.129451899999928 ], [ -56.5715441, -29.129170199999979 ], [ -56.571845099999962, -29.128434499999962 ], [ -56.571888599999966, -29.12833489999997 ], [ -56.572057799999989, -29.127946699999931 ], [ -56.572221699999943, -29.127496899999979 ], [ -56.572714799999972, -29.12721 ], [ -56.57313819999996, -29.127044 ], [ -56.57343069999996, -29.126603799999941 ], [ -56.573348099999968, -29.126012 ], [ -56.573131499999931, -29.125765199999918 ], [ -56.573018399999967, -29.12543809999995 ], [ -56.572930199999981, -29.125119699999981 ], [ -56.572950799999951, -29.124847199999966 ], [ -56.572945, -29.124268699999956 ], [ -56.572941499999956, -29.123879699999982 ], [ -56.573074499999962, -29.12346339999992 ], [ -56.573196799999948, -29.123268399999969 ], [ -56.573403099999958, -29.123219799999944 ], [ -56.574173, -29.12270349999994 ], [ -56.573656499999963, -29.121946199999968 ], [ -56.573386, -29.121689699999934 ], [ -56.573330099999964, -29.12156889999995 ], [ -56.573336, -29.12155649999994 ], [ -56.573368499999951, -29.121544099999941 ], [ -56.573681699999952, -29.121424099999949 ], [ -56.57383549999998, -29.12090539999997 ], [ -56.573299899999938, -29.120666699999962 ], [ -56.57295669999997, -29.120486 ], [ -56.572574, -29.120514499999956 ], [ -56.572007799999938, -29.120499699999982 ], [ -56.57200679999994, -29.12049879999995 ], [ -56.572090199999941, -29.120252799999957 ], [ -56.572204799999945, -29.120223599999974 ], [ -56.572496, -29.120297499999932 ], [ -56.572809, -29.120367899999959 ], [ -56.573633499999978, -29.120414299999926 ], [ -56.573968899999961, -29.120032199999958 ], [ -56.574067799999966, -29.119497699999958 ], [ -56.574318399999981, -29.119067199999972 ], [ -56.574572199999984, -29.118794599999948 ], [ -56.576869799999933, -29.115198699999954 ], [ -56.567982, -29.114083499999936 ], [ -56.56039549999997, -29.114802799999939 ], [ -56.557474199999945, -29.115079799999929 ], [ -56.557035299999939, -29.115121399999964 ], [ -56.554425099999946, -29.115700599999958 ], [ -56.551054499999964, -29.116448499999933 ], [ -56.550131299999975, -29.116653399999951 ], [ -56.544307499999945, -29.115737299999964 ], [ -56.543962599999986, -29.115515899999927 ], [ -56.54395459999995, -29.115510799999967 ], [ -56.544613199999958, -29.119931499999961 ], [ -56.544556, -29.120634299999953 ], [ -56.544684799999978, -29.121481699999947 ], [ -56.544813499999968, -29.122329199999964 ], [ -56.545695499999965, -29.125749399999965 ], [ -56.545682699999986, -29.125751 ], [ -56.544206199999962, -29.125935099999932 ], [ -56.54277559999997, -29.126126 ], [ -56.541433799999936, -29.127014299999932 ], [ -56.541603299999963, -29.128051299999978 ], [ -56.540629099999933, -29.128386399999954 ], [ -56.540141899999973, -29.128653599999947 ], [ -56.53737689999997, -29.130182199999972 ], [ -56.537570299999963, -29.131055699999926 ], [ -56.537503799999961, -29.131063799999939 ], [ -56.5373714, -29.131147699999936 ], [ -56.536726599999959, -29.131651099999932 ], [ -56.536580899999933, -29.131677599999939 ], [ -56.536483699999962, -29.13164669999998 ], [ -56.535931699999935, -29.131381799999929 ], [ -56.536291499999948, -29.132595799999926 ], [ -56.535953799999959, -29.13266909999993 ], [ -56.535768299999972, -29.132850099999931 ], [ -56.534712799999966, -29.133185699999952 ], [ -56.534293399999974, -29.133241299999959 ], [ -56.533482499999934, -29.133311899999963 ], [ -56.529044399999975, -29.133698499999976 ], [ -56.529890699999946, -29.137671599999969 ], [ -56.531244199999946, -29.1375 ], [ -56.531460799999927, -29.138658 ], [ -56.532605799999935, -29.142939 ], [ -56.53389309999995, -29.144185499999946 ], [ -56.53491, -29.144948699999926 ], [ -56.536547799999944, -29.146314199999956 ], [ -56.540821599999958, -29.149789299999956 ], [ -56.542605399999957, -29.149527699999958 ], [ -56.542789899999946, -29.150554099999969 ], [ -56.543025599999972, -29.151319499999943 ], [ -56.542724699999958, -29.152055399999931 ], [ -56.541445899999985, -29.154428899999957 ], [ -56.541421199999945, -29.15443509999994 ], [ -56.541406099999953, -29.154439599999932 ], [ -56.541253499999982, -29.154710099999924 ], [ -56.540795199999927, -29.155350599999959 ], [ -56.540692599999936, -29.155428299999969 ], [ -56.540642699999978, -29.155456 ], [ -56.540622399999961, -29.15548839999996 ], [ -56.540448699999956, -29.155824499999927 ], [ -56.540139, -29.156318399999961 ], [ -56.540057, -29.156341899999973 ], [ -56.539984099999977, -29.156382299999962 ], [ -56.539887599999986, -29.156521499999933 ], [ -56.539832599999954, -29.156662899999954 ], [ -56.53958339999997, -29.157055199999952 ], [ -56.539438099999984, -29.157242 ], [ -56.539307899999983, -29.157474399999952 ], [ -56.539836499999986, -29.157742599999956 ], [ -56.539901599999951, -29.157794199999962 ], [ -56.539928499999974, -29.157829 ], [ -56.539939799999956, -29.15787279999995 ], [ -56.539899, -29.158060399999947 ], [ -56.539772599999942, -29.158524699999944 ], [ -56.539634, -29.159140899999937 ], [ -56.539129499999945, -29.160177899999955 ], [ -56.538689599999941, -29.161089299999961 ], [ -56.538312699999949, -29.161778 ], [ -56.543017799999973, -29.163007899999968 ], [ -56.544043099999961, -29.158608299999958 ], [ -56.544196299999953, -29.1586106 ], [ -56.544231499999974, -29.158362 ], [ -56.544539199999974, -29.156213799999932 ], [ -56.544865099999981, -29.156293699999939 ], [ -56.545531699999977, -29.156436599999932 ], [ -56.547496399999943, -29.15674509999997 ], [ -56.549078899999984, -29.156965899999939 ], [ -56.549561499999975, -29.153722699999939 ], [ -56.55021069999998, -29.153900799999978 ], [ -56.559559399999955, -29.152570599999926 ], [ -56.56162889999996, -29.15199129999997 ] ] ] ] } }
]
}
