{
"type": "FeatureCollection",
"name": "4315305",
"crs": { "type": "name", "properties": { "name": "urn:ogc:def:crs:OGC:1.3:CRS84" } },
"features": [
{ "type": "Feature", "properties": { "CD_MUN": "4315305", "NM_MUN": "Quaraí" }, "geometry": { "type": "Polygon", "coordinates": [ [ [ -56.457709299999983, -30.389991099999968 ], [ -56.459182399999975, -30.387997799999937 ], [ -56.459293299999956, -30.387847799999967 ], [ -56.460783099999958, -30.385639499999971 ], [ -56.461075199999975, -30.385397199999936 ], [ -56.462178199999983, -30.384482199999983 ], [ -56.463883199999934, -30.385046099999958 ], [ -56.466101199999969, -30.385266899999969 ], [ -56.467043199999985, -30.385308099999968 ], [ -56.467059799999959, -30.385338199999971 ], [ -56.467578099999962, -30.386277099999965 ], [ -56.468630499999961, -30.386821799999943 ], [ -56.470177099999937, -30.387193599999929 ], [ -56.471713, -30.387321399999969 ], [ -56.474033599999977, -30.388171099999965 ], [ -56.476445299999966, -30.389444 ], [ -56.477828899999963, -30.390336699999978 ], [ -56.478421599999933, -30.390746099999937 ], [ -56.479172899999973, -30.389860799999955 ], [ -56.479291399999966, -30.389595899999957 ], [ -56.479323099999931, -30.389412399999969 ], [ -56.479671, -30.38903449999998 ], [ -56.479763, -30.388782399999972 ], [ -56.479977399999932, -30.388405 ], [ -56.48027959999996, -30.38834 ], [ -56.48163169999998, -30.385741699999976 ], [ -56.481633199999976, -30.385738799999956 ], [ -56.481715399999985, -30.385422699999943 ], [ -56.482744899999943, -30.383444399999977 ], [ -56.482725199999948, -30.382787699999938 ], [ -56.482613099999973, -30.382505 ], [ -56.482386099999978, -30.382017 ], [ -56.482077599999968, -30.381354 ], [ -56.481635, -30.380313299999965 ], [ -56.482378599999947, -30.378934199999939 ], [ -56.4821123, -30.37839839999998 ], [ -56.480495599999983, -30.377845499999978 ], [ -56.477780599999967, -30.377181899999986 ], [ -56.473052099999961, -30.375933499999977 ], [ -56.474211199999957, -30.373818 ], [ -56.469320899999964, -30.372409499999947 ], [ -56.470140399999934, -30.369422599999954 ], [ -56.46328079999995, -30.367507199999981 ], [ -56.461995799999954, -30.370566799999942 ], [ -56.460645199999931, -30.370190499999971 ], [ -56.461261, -30.368509699999947 ], [ -56.46140759999998, -30.368040699999931 ], [ -56.461397299999987, -30.367981299999954 ], [ -56.456890399999963, -30.3666444 ], [ -56.45496629999996, -30.366046299999926 ], [ -56.454869099999932, -30.366019299999952 ], [ -56.455062899999973, -30.365410799999943 ], [ -56.455163699999964, -30.365295599999964 ], [ -56.455815, -30.363570799999941 ], [ -56.456189399999971, -30.362608199999947 ], [ -56.456286699999971, -30.361988099999984 ], [ -56.45633909999998, -30.360915699999971 ], [ -56.456451399999928, -30.358925899999974 ], [ -56.456608599999988, -30.356238399999945 ], [ -56.456706, -30.354726699999958 ], [ -56.456728399999967, -30.354461799999964 ], [ -56.456593699999978, -30.3542098 ], [ -56.45652629999995, -30.354067699999966 ], [ -56.456578699999966, -30.35386739999996 ], [ -56.456129499999982, -30.354377799999938 ], [ -56.455473299999937, -30.354744499999985 ], [ -56.4554687, -30.354750499999955 ], [ -56.455433199999959, -30.354791299999921 ], [ -56.454969, -30.355224099999923 ], [ -56.454904699999986, -30.355282099999943 ], [ -56.454287699999945, -30.355837899999983 ], [ -56.453726199999949, -30.356296599999961 ], [ -56.452782799999966, -30.356949099999952 ], [ -56.452443599999981, -30.357186899999931 ], [ -56.451352199999974, -30.357943599999938 ], [ -56.45074639999995, -30.358357399999932 ], [ -56.450087499999938, -30.358796699999985 ], [ -56.449518499999954, -30.359242499999937 ], [ -56.449106799999981, -30.359617199999946 ], [ -56.448490299999946, -30.360226699999945 ], [ -56.448388, -30.36032779999994 ], [ -56.447624399999938, -30.361329099999974 ], [ -56.447167699999966, -30.361929899999957 ], [ -56.446962099999951, -30.362203299999976 ], [ -56.446400199999971, -30.362950599999973 ], [ -56.445284699999945, -30.364397599999958 ], [ -56.444152199999962, -30.365797499999935 ], [ -56.440598899999941, -30.364787299999922 ], [ -56.436881399999947, -30.363747799999938 ], [ -56.4349883, -30.363225899999978 ], [ -56.434218899999962, -30.363021 ], [ -56.43163629999998, -30.369401199999963 ], [ -56.431486799999966, -30.369651899999962 ], [ -56.431200099999955, -30.370133 ], [ -56.429339, -30.373558699999926 ], [ -56.42881959999994, -30.383633699999955 ], [ -56.428794799999935, -30.384114299999951 ], [ -56.42804759999995, -30.398607 ], [ -56.428559199999945, -30.398740699999969 ], [ -56.428853599999968, -30.398817599999969 ], [ -56.429503699999948, -30.398987499999976 ], [ -56.432069, -30.399658099999954 ], [ -56.432279699999981, -30.399713099999925 ], [ -56.437083499999972, -30.40096879999993 ], [ -56.437246199999954, -30.401011299999936 ], [ -56.437409699999925, -30.401054 ], [ -56.451111899999944, -30.404635399999965 ], [ -56.451438699999983, -30.404622199999956 ], [ -56.451612799999971, -30.404446399999987 ], [ -56.451969199999951, -30.404086499999941 ], [ -56.453866, -30.402206 ], [ -56.454817299999945, -30.399789699999918 ], [ -56.455454599999939, -30.396938299999931 ], [ -56.455648199999985, -30.394410799999939 ], [ -56.455656099999942, -30.394307799999975 ], [ -56.455817699999955, -30.392856399999975 ], [ -56.455941299999949, -30.392620099999931 ], [ -56.456451399999942, -30.391644599999946 ], [ -56.457709299999983, -30.389991099999968 ] ] ] } }
]
}
