{
"type": "FeatureCollection",
"name": "4318804",
"crs": { "type": "name", "properties": { "name": "urn:ogc:def:crs:OGC:1.3:CRS84" } },
"features": [
{ "type": "Feature", "properties": { "CD_MUN": "4318804", "NM_MUN": "São Lourenço do Sul" }, "geometry": { "type": "MultiPolygon", "coordinates": [ [ [ [ -52.007263899999941, -31.377818899999955 ], [ -52.007619299999931, -31.377555399999942 ], [ -52.007986399999936, -31.377183699999936 ], [ -52.008267899999964, -31.376718 ], [ -52.008510799999954, -31.376239 ], [ -52.008648199999989, -31.37570419999998 ], [ -52.008649599999963, -31.375337599999959 ], [ -52.008631299999934, -31.37490129999998 ], [ -52.008584699999972, -31.37454909999996 ], [ -52.008431599999938, -31.374196 ], [ -52.008264699999984, -31.373937499999961 ], [ -52.008071799999982, -31.373642399999934 ], [ -52.007821299999939, -31.373468099999972 ], [ -52.007321199999971, -31.37321269999995 ], [ -52.007105099999933, -31.373146 ], [ -52.006975599999976, -31.373129299999963 ], [ -52.006822099999972, -31.37308789999997 ], [ -52.006743899999947, -31.372959899999966 ], [ -52.006738899999952, -31.372775399999973 ], [ -52.006879099999942, -31.372584199999942 ], [ -52.007051699999977, -31.37229769999993 ], [ -52.007240099999926, -31.37197869999995 ], [ -52.00750569999996, -31.371742 ], [ -52.007640799999926, -31.371366299999977 ], [ -52.007626399999936, -31.371200499999933 ], [ -52.007573299999926, -31.37101849999992 ], [ -52.007548399999962, -31.370874 ], [ -52.007587299999962, -31.370693599999981 ], [ -52.007695099999978, -31.370497899999982 ], [ -52.007982399999946, -31.370417799999974 ], [ -52.008192399999984, -31.370341199999977 ], [ -52.008276099999932, -31.370236 ], [ -52.008389, -31.3687609 ], [ -52.00852249999997, -31.367278199999934 ], [ -52.008546, -31.367016399999951 ], [ -52.006702299999979, -31.365322299999939 ], [ -52.006044699999961, -31.3576882 ], [ -52.006777099999958, -31.355509799999929 ], [ -52.008103699999928, -31.35157339999996 ], [ -52.010013699999938, -31.34961449999998 ], [ -52.012335699999937, -31.347233099999976 ], [ -52.015896599999962, -31.339259899999934 ], [ -52.01544279999996, -31.338908799999956 ], [ -52.014836699999933, -31.33812249999994 ], [ -52.014492, -31.33754179999994 ], [ -52.014033299999937, -31.336564599999985 ], [ -52.013172599999955, -31.335710099999964 ], [ -52.012232599999948, -31.335497399999952 ], [ -52.011461399999966, -31.3350167 ], [ -52.010571699999957, -31.334397799999977 ], [ -52.009970899999978, -31.333779899999964 ], [ -52.009127799999924, -31.333853299999927 ], [ -52.008567899999953, -31.334262199999952 ], [ -52.007875699999936, -31.334211699999972 ], [ -52.00578569999994, -31.33418909999995 ], [ -52.005459699999953, -31.333265399999959 ], [ -52.004842199999985, -31.332779899999938 ], [ -52.004100299999948, -31.332381899999973 ], [ -52.003053199999954, -31.332211699999952 ], [ -51.994577799999952, -31.340844599999969 ], [ -51.993494799999951, -31.339381199999938 ], [ -51.992697899999939, -31.337928299999934 ], [ -51.991992799999927, -31.336538 ], [ -51.991321399999947, -31.334941899999937 ], [ -51.989782899999966, -31.335282799999963 ], [ -51.987399, -31.335576299999953 ], [ -51.98422, -31.335966199999969 ], [ -51.981115399999972, -31.336252599999966 ], [ -51.979196699999932, -31.344072499999974 ], [ -51.985876, -31.351361399999973 ], [ -51.98236419999995, -31.357944299999932 ], [ -51.977828699999982, -31.355909799999942 ], [ -51.975646899999965, -31.360373199999973 ], [ -51.974134, -31.359795 ], [ -51.971988099999969, -31.358938599999931 ], [ -51.967864199999951, -31.357275199999943 ], [ -51.967232899999949, -31.357021799999988 ], [ -51.965620599999973, -31.356428699999977 ], [ -51.965611899999935, -31.356425499999947 ], [ -51.964971399999975, -31.356155799999947 ], [ -51.964232899999956, -31.355876699999953 ], [ -51.963579199999963, -31.354098599999915 ], [ -51.962661299999979, -31.353010699999974 ], [ -51.960375199999937, -31.353570599999959 ], [ -51.960458899999935, -31.353839499999932 ], [ -51.960959899999985, -31.355450099999921 ], [ -51.961544099999969, -31.357328 ], [ -51.96159369999998, -31.357487499999934 ], [ -51.961946599999983, -31.358622 ], [ -51.963224099999934, -31.362728699999934 ], [ -51.96322879999996, -31.363062599999978 ], [ -51.963263, -31.365501199999983 ], [ -51.963265399999955, -31.365672799999963 ], [ -51.963272399999944, -31.366172699999932 ], [ -51.963285, -31.367071 ], [ -51.962733, -31.36896 ], [ -51.962670599999967, -31.369173799999938 ], [ -51.962421199999945, -31.370027399999966 ], [ -51.961874299999977, -31.370957599999937 ], [ -51.961179799999968, -31.372138899999982 ], [ -51.960679199999966, -31.372990399999928 ], [ -51.959951599999954, -31.37309719999994 ], [ -51.959868799999988, -31.37310929999996 ], [ -51.955190499999958, -31.37379569999996 ], [ -51.951779199999976, -31.375468 ], [ -51.947823, -31.374687899999973 ], [ -51.9486065, -31.375499299999952 ], [ -51.956291, -31.376329699999928 ], [ -51.959674799999952, -31.377853399999932 ], [ -51.960149599999966, -31.378067199999975 ], [ -51.960354399999979, -31.378159399999959 ], [ -51.961173, -31.378528 ], [ -51.961253199999923, -31.378564099999956 ], [ -51.961989599999981, -31.378895799999952 ], [ -51.962258599999977, -31.379016899999957 ], [ -51.965716799999939, -31.379015899999956 ], [ -51.96726909999996, -31.377924199999931 ], [ -51.96757579999997, -31.37800309999994 ], [ -51.967699399999958, -31.37765179999997 ], [ -51.967840799999976, -31.377379199999943 ], [ -51.967939399999977, -31.377129099999927 ], [ -51.968137199999944, -31.376879299999931 ], [ -51.968392399999971, -31.376670499999921 ], [ -51.968965099999934, -31.376486699999926 ], [ -51.96950749999997, -31.376306699999923 ], [ -51.96985779999995, -31.376036199999934 ], [ -51.970317699999953, -31.375849799999962 ], [ -51.970749499999947, -31.375613099999956 ], [ -51.971058899999939, -31.375430799999936 ], [ -51.971321599999953, -31.375058199999945 ], [ -51.97157679999998, -31.374854 ], [ -51.971788199999935, -31.374612899999931 ], [ -51.972106, -31.374458599999965 ], [ -51.972353799999951, -31.374256499999948 ], [ -51.972620399999983, -31.374082099999949 ], [ -51.972886899999942, -31.374016399999963 ], [ -51.973226299999972, -31.37404609999993 ], [ -51.973545699999931, -31.374199 ], [ -51.973806499999959, -31.37441229999996 ], [ -51.974076599999933, -31.374745099999963 ], [ -51.974621399999933, -31.375081399999939 ], [ -51.975411499999943, -31.375462399999943 ], [ -51.976135099999965, -31.375660199999974 ], [ -51.976723399999969, -31.375552599999931 ], [ -51.97724379999994, -31.375352199999945 ], [ -51.977928499999962, -31.375014699999952 ], [ -51.978424099999984, -31.374675299999989 ], [ -51.97879439999997, -31.374317299999973 ], [ -51.979265399999974, -31.373611199999971 ], [ -51.979423599999961, -31.373263099999971 ], [ -51.979401, -31.372990599999959 ], [ -51.979357499999935, -31.372779099999946 ], [ -51.979401599999967, -31.37260109999994 ], [ -51.97957729999996, -31.372423399999949 ], [ -51.979777899999924, -31.3724084 ], [ -51.980394899999965, -31.372596 ], [ -51.981093599999944, -31.372667399999958 ], [ -51.981877, -31.372661099999966 ], [ -51.98280989999995, -31.372613199999929 ], [ -51.983662099999947, -31.37268489999996 ], [ -51.984190299999966, -31.372902899999936 ], [ -51.984524199999953, -31.373177699999921 ], [ -51.984754599999967, -31.373522799999929 ], [ -51.985005799999946, -31.373900099999958 ], [ -51.985343599999965, -31.374350299999932 ], [ -51.985781899999949, -31.374708399999971 ], [ -51.986079599999975, -31.374845299999947 ], [ -51.987365599999976, -31.372954699999976 ], [ -51.987841499999952, -31.373296 ], [ -51.98879479999993, -31.373561699999982 ], [ -51.989917199999987, -31.37397169999997 ], [ -51.99117659999996, -31.374167699999923 ], [ -51.99236819999993, -31.374365 ], [ -51.992776399999968, -31.37453029999995 ], [ -51.992742799999981, -31.374710599999968 ], [ -51.992299699999933, -31.374815199999947 ], [ -51.991754499999956, -31.374773299999951 ], [ -51.991107799999952, -31.374855599999925 ], [ -51.990767099999978, -31.375016099999975 ], [ -51.990733299999938, -31.375345399999951 ], [ -51.991039199999932, -31.375453899999972 ], [ -51.991345299999971, -31.375384099999966 ], [ -51.991822899999931, -31.375218899999929 ], [ -51.992504, -31.375165699999972 ], [ -51.993388599999946, -31.375284799999964 ], [ -51.99427309999998, -31.375493399999975 ], [ -51.994545699999946, -31.375543599999954 ], [ -51.995022299999967, -31.376124299999962 ], [ -51.995565899999967, -31.376642499999924 ], [ -51.995735799999977, -31.376964 ], [ -51.995599599999935, -31.377296799999947 ], [ -51.995258599999943, -31.377606299999968 ], [ -51.994985499999984, -31.37803329999997 ], [ -51.995052899999962, -31.378448699999982 ], [ -51.995222499999961, -31.378919199999977 ], [ -51.995188699999979, -31.379218399999967 ], [ -51.994949399999939, -31.379316099999986 ], [ -51.99450759999997, -31.379301799999936 ], [ -51.993859899999961, -31.37929349999996 ], [ -51.993553699999957, -31.379423599999932 ], [ -51.993485399999948, -31.379723899999924 ], [ -51.993757899999927, -31.379863699999941 ], [ -51.994404099999933, -31.380139799999935 ], [ -51.994607499999972, -31.380400799999958 ], [ -51.994335299999939, -31.380917299999961 ], [ -51.993994099999952, -31.381375799999944 ], [ -51.993993899999964, -31.381584299999908 ], [ -51.994537499999979, -31.382073199999979 ], [ -51.994901499999969, -31.382573699999956 ], [ -51.995351299999989, -31.382952399999965 ], [ -51.995840899999962, -31.383186299999966 ], [ -51.996617199999946, -31.383052099999937 ], [ -51.997108599999933, -31.382785 ], [ -51.99764, -31.3821948 ], [ -51.998375599999981, -31.38199069999996 ], [ -51.999070499999959, -31.381824499999933 ], [ -51.999968799999984, -31.381865399999988 ], [ -52.000214399999948, -31.381821399999968 ], [ -52.00058219999994, -31.381702 ], [ -52.000787199999934, -31.381480199999945 ], [ -52.001032099999982, -31.381149199999985 ], [ -52.001237199999935, -31.38082049999997 ], [ -52.0015236, -31.380668199999946 ], [ -52.003995399999951, -31.379612699999939 ], [ -52.004171, -31.379508 ], [ -52.00486919999998, -31.379175299999925 ], [ -52.005933599999942, -31.37867979999994 ], [ -52.006111199999971, -31.378602799999953 ], [ -52.006699299999973, -31.378228299999936 ], [ -52.007263899999941, -31.377818899999955 ] ] ], [ [ [ -52.103035499999976, -31.285829399999962 ], [ -52.103294699999942, -31.285984099999951 ], [ -52.105363299999972, -31.286616899999959 ], [ -52.104747699999962, -31.285717199999969 ], [ -52.104297199999962, -31.285327799999941 ], [ -52.103938399999954, -31.28504739999995 ], [ -52.103663599999948, -31.284592 ], [ -52.103408199999933, -31.284303099999931 ], [ -52.102303199999945, -31.283833699999946 ], [ -52.102018799999939, -31.283319199999934 ], [ -52.101563899999974, -31.283137199999945 ], [ -52.100439799999947, -31.282679499999965 ], [ -52.099158099999954, -31.283218299999934 ], [ -52.098071799999957, -31.283596499999927 ], [ -52.09800249999995, -31.282845599999952 ], [ -52.096364099999967, -31.28161 ], [ -52.095183099999986, -31.281322399999965 ], [ -52.092290099999957, -31.281329899999943 ], [ -52.089668599999975, -31.281917799999974 ], [ -52.088826099999956, -31.282291199999978 ], [ -52.088805099999945, -31.282292299999927 ], [ -52.088506499999937, -31.282179399999958 ], [ -52.087165399999947, -31.281657499999934 ], [ -52.086710899999964, -31.281330199999964 ], [ -52.08660169999996, -31.281241 ], [ -52.086544, -31.281157499999953 ], [ -52.086248799999964, -31.280418399999967 ], [ -52.083612399999936, -31.280476299999961 ], [ -52.082645399999926, -31.280497499999964 ], [ -52.081277699999987, -31.280408899999941 ], [ -52.080297399999957, -31.279929099999947 ], [ -52.078059699999983, -31.279544599999955 ], [ -52.076371599999959, -31.280188499999952 ], [ -52.074175, -31.281119 ], [ -52.073478399999942, -31.281352799999979 ], [ -52.072439199999955, -31.281735199999954 ], [ -52.071267899999953, -31.281923699999943 ], [ -52.070012499999969, -31.282382499999983 ], [ -52.068512799999951, -31.28343969999997 ], [ -52.067913899999951, -31.285367199999932 ], [ -52.07722519999998, -31.289566799999932 ], [ -52.087179699999979, -31.290682199999939 ], [ -52.090638599999977, -31.290436299999957 ], [ -52.092295, -31.29027 ], [ -52.094863199999963, -31.290182899999945 ], [ -52.098079599999956, -31.288325299999954 ], [ -52.099584099999966, -31.287909399999929 ], [ -52.099996, -31.287065299999934 ], [ -52.101134, -31.286546699999974 ], [ -52.102695899999965, -31.28589 ], [ -52.103035499999976, -31.285829399999962 ] ] ] ] } }
]
}
