{
"type": "FeatureCollection",
"name": "4319505",
"crs": { "type": "name", "properties": { "name": "urn:ogc:def:crs:OGC:1.3:CRS84" } },
"features": [
{ "type": "Feature", "properties": { "CD_MUN": "4319505", "NM_MUN": "São Sebastião do Caí" }, "geometry": { "type": "Polygon", "coordinates": [ [ [ -51.382483, -29.60391379999993 ], [ -51.382463799999982, -29.603022499999952 ], [ -51.382498299999952, -29.602069699999962 ], [ -51.382675099999972, -29.601070799999956 ], [ -51.382706499999983, -29.60093639999997 ], [ -51.382824899999946, -29.600429199999951 ], [ -51.383116899999955, -29.600029699999943 ], [ -51.38356639999995, -29.599657 ], [ -51.384782499999972, -29.598842399999953 ], [ -51.38551039999993, -29.598220199999965 ], [ -51.385991299999944, -29.59756619999996 ], [ -51.3864478, -29.5968678 ], [ -51.386789699999945, -29.596137899999984 ], [ -51.386966499999971, -29.595365599999973 ], [ -51.387035599999933, -29.594935399999947 ], [ -51.387043299999959, -29.594520399999961 ], [ -51.386939599999948, -29.594117 ], [ -51.386751299999958, -29.593782799999914 ], [ -51.386346, -29.593231499999952 ], [ -51.385863799999989, -29.592491899999974 ], [ -51.385322099999939, -29.591800399999943 ], [ -51.384302499999933, -29.590670099999961 ], [ -51.384169899999961, -29.590516399999949 ], [ -51.384058899999957, -29.590370399999976 ], [ -51.3838641, -29.59005709999996 ], [ -51.38375689999998, -29.589928599999944 ], [ -51.38364009999998, -29.589821 ], [ -51.383475099999941, -29.589680299999948 ], [ -51.383376199999987, -29.589596099999952 ], [ -51.383221299999946, -29.58939259999994 ], [ -51.383122699999952, -29.589196499999957 ], [ -51.383088799999932, -29.589064199999942 ], [ -51.383080399999983, -29.588927599999973 ], [ -51.383105, -29.588784 ], [ -51.383126499999946, -29.588658699999936 ], [ -51.383251399999942, -29.588362799999974 ], [ -51.383931399999945, -29.587346699999951 ], [ -51.384313599999977, -29.586808799999975 ], [ -51.384705499999939, -29.586330499999974 ], [ -51.385400499999946, -29.585650399999963 ], [ -51.38600409999998, -29.585083799999953 ], [ -51.386298, -29.584747599999957 ], [ -51.386484299999957, -29.584455699999985 ], [ -51.386580399999964, -29.584213599999938 ], [ -51.386618799999958, -29.584035 ], [ -51.386647599999947, -29.583641199999924 ], [ -51.380641299999979, -29.584205199999936 ], [ -51.38060749999994, -29.584130699999946 ], [ -51.380290099999975, -29.583312799999916 ], [ -51.380261499999961, -29.583151599999951 ], [ -51.379805199999964, -29.582692699999928 ], [ -51.379762399999954, -29.582184199999972 ], [ -51.379577, -29.58186179999996 ], [ -51.37907789999997, -29.581663399999968 ], [ -51.377922799999965, -29.580782799999945 ], [ -51.377409399999976, -29.580038699999925 ], [ -51.377323799999942, -29.579679 ], [ -51.377024299999967, -29.579009299999935 ], [ -51.377095599999961, -29.5786 ], [ -51.376853199999971, -29.578066699999969 ], [ -51.377380899999942, -29.577719499999944 ], [ -51.377723099999969, -29.577285399999948 ], [ -51.37849319999998, -29.577161399999966 ], [ -51.37907789999997, -29.576739699999965 ], [ -51.379491499999972, -29.5761816 ], [ -51.380104699999947, -29.57585909999996 ], [ -51.380832, -29.574556799999975 ], [ -51.380988799999962, -29.574321199999929 ], [ -51.381134399999951, -29.57336839999995 ], [ -51.381279099999972, -29.572299399999967 ], [ -51.380035699999944, -29.570499699999967 ], [ -51.379131499999978, -29.569736 ], [ -51.3778, -29.568852299999939 ], [ -51.377710899999961, -29.568139199999976 ], [ -51.377562199999936, -29.566941 ], [ -51.377064299999972, -29.56586289999996 ], [ -51.377396399999945, -29.564940699999958 ], [ -51.378523899999955, -29.561941799999946 ], [ -51.377753899999959, -29.560610899999961 ], [ -51.376110799999935, -29.559533 ], [ -51.374705199999944, -29.558631699999985 ], [ -51.373743299999944, -29.558592499999975 ], [ -51.37275429999994, -29.558164799999918 ], [ -51.372762799999968, -29.55815419999993 ], [ -51.372571099999959, -29.558121599999929 ], [ -51.371928799999978, -29.558127199999937 ], [ -51.371548299999972, -29.558448699999936 ], [ -51.370442099999941, -29.557870499999964 ], [ -51.364098799999965, -29.56006049999996 ], [ -51.364030899999939, -29.559335099999938 ], [ -51.363872899999933, -29.557285099999941 ], [ -51.363533399999945, -29.554403299999937 ], [ -51.363318899999975, -29.549361899999941 ], [ -51.363396, -29.54479 ], [ -51.362913799999944, -29.543653899999981 ], [ -51.361759499999955, -29.542841299999967 ], [ -51.360265199999958, -29.539248799999942 ], [ -51.359889299999963, -29.539306099999973 ], [ -51.35960189999998, -29.539440899999935 ], [ -51.359319599999942, -29.539744599999949 ], [ -51.359129899999971, -29.540036199999975 ], [ -51.35903849999994, -29.540379599999934 ], [ -51.359058399999981, -29.540510199999964 ], [ -51.359235899999938, -29.540610099999988 ], [ -51.359281099999976, -29.54069979999996 ], [ -51.35923669999994, -29.540830599999936 ], [ -51.359154199999971, -29.540993599999972 ], [ -51.359104099999968, -29.541381199999943 ], [ -51.359020299999941, -29.541573699999947 ], [ -51.35883919999997, -29.541929799999934 ], [ -51.358817699999967, -29.541972099999953 ], [ -51.358628499999952, -29.542376699999974 ], [ -51.358232899999962, -29.542314599999926 ], [ -51.356944099999964, -29.542112099999954 ], [ -51.355789899999941, -29.541849099999983 ], [ -51.358360099999963, -29.546873799999961 ], [ -51.358597799999984, -29.547919799999928 ], [ -51.357813499999963, -29.548009099999938 ], [ -51.356489299999964, -29.547878799999982 ], [ -51.355161, -29.548057499999985 ], [ -51.354386799999986, -29.548520099999962 ], [ -51.352885, -29.548979399999943 ], [ -51.351601599999981, -29.549882 ], [ -51.351638099999946, -29.550784699999937 ], [ -51.351733599999932, -29.55101429999997 ], [ -51.351419599999986, -29.551251799999928 ], [ -51.351506099999945, -29.551635799999929 ], [ -51.351929299999938, -29.552178199999958 ], [ -51.353990899999985, -29.550697599999975 ], [ -51.355151799999938, -29.550333499999958 ], [ -51.356503, -29.549684099999975 ], [ -51.357633099999987, -29.549879099999945 ], [ -51.358637199999976, -29.549809 ], [ -51.358610699999986, -29.549944799999928 ], [ -51.358515399999931, -29.551822 ], [ -51.358422799999978, -29.554892799999951 ], [ -51.358314099999973, -29.558487499999959 ], [ -51.358597899999957, -29.561774199999942 ], [ -51.352652899999953, -29.562130299999986 ], [ -51.34995379999998, -29.562344099999958 ], [ -51.343579699999964, -29.561322299999972 ], [ -51.342302399999944, -29.56180929999995 ], [ -51.341869499999973, -29.56138709999993 ], [ -51.34065789999994, -29.560087599999974 ], [ -51.340378899999969, -29.559396399999976 ], [ -51.3392482, -29.558781899999939 ], [ -51.338240599999949, -29.558640099999931 ], [ -51.337488, -29.558801299999967 ], [ -51.337729699999954, -29.559713599999945 ], [ -51.337720799999943, -29.55975259999996 ], [ -51.337980799999968, -29.560649799999965 ], [ -51.338526899999977, -29.560491499999966 ], [ -51.338963699999965, -29.560649799999972 ], [ -51.339437, -29.561520699999956 ], [ -51.340656699999961, -29.562803299999924 ], [ -51.341166399999963, -29.563151599999973 ], [ -51.341858099999975, -29.563452499999968 ], [ -51.342859299999986, -29.563452499999975 ], [ -51.343915099999947, -29.563009099999931 ], [ -51.345298599999978, -29.563341599999955 ], [ -51.346991599999967, -29.564149099999952 ], [ -51.347392, -29.565384199999976 ], [ -51.34842969999994, -29.566524199999954 ], [ -51.347701499999971, -29.567585 ], [ -51.347676799999938, -29.568264599999967 ], [ -51.346250199999986, -29.569509799999935 ], [ -51.346098299999944, -29.570061899999921 ], [ -51.342827399999983, -29.570393199999952 ], [ -51.340437599999973, -29.570515499999932 ], [ -51.340332799999942, -29.573778 ], [ -51.340421299999946, -29.575333899999972 ], [ -51.341554599999945, -29.57487669999994 ], [ -51.34269919999997, -29.574256199999965 ], [ -51.343530399999963, -29.574195699999962 ], [ -51.344356, -29.574069099999967 ], [ -51.345176399999957, -29.573793099999939 ], [ -51.34658079999997, -29.573453399999948 ], [ -51.347220599999957, -29.573305 ], [ -51.347852699999976, -29.57294 ], [ -51.347997899999939, -29.573906699999952 ], [ -51.348219699999966, -29.574390199999968 ], [ -51.343337199999944, -29.582649 ], [ -51.343810799999972, -29.587881299999928 ], [ -51.343427199999944, -29.58777839999993 ], [ -51.342960499999954, -29.587585799999935 ], [ -51.342462699999942, -29.587152199999935 ], [ -51.342559, -29.588751599999977 ], [ -51.343894399999947, -29.588833899999944 ], [ -51.346390799999945, -29.58947969999997 ], [ -51.349030399999954, -29.588807 ], [ -51.352070399999945, -29.587374399999931 ], [ -51.351742699999924, -29.5942444 ], [ -51.351208599999957, -29.604782499999938 ], [ -51.351228699999979, -29.604897499999929 ], [ -51.351051499999976, -29.605409199999944 ], [ -51.350431499999949, -29.606218199999937 ], [ -51.35028, -29.606805599999976 ], [ -51.350420799999938, -29.607228599999921 ], [ -51.350757699999974, -29.607513699999963 ], [ -51.3500696, -29.60762109999995 ], [ -51.349657899999947, -29.60745089999995 ], [ -51.349067499999926, -29.606690299999961 ], [ -51.348477299999956, -29.606234599999926 ], [ -51.3476505, -29.606366299999941 ], [ -51.347219199999984, -29.60674239999997 ], [ -51.347097899999937, -29.607646599999949 ], [ -51.346769699999982, -29.608096899999968 ], [ -51.346319599999958, -29.608380299999951 ], [ -51.345032099999976, -29.608912799999928 ], [ -51.344308899999938, -29.609355399999981 ], [ -51.34359429999995, -29.609367599999917 ], [ -51.342880399999956, -29.607500399999942 ], [ -51.342631799999943, -29.60683859999995 ], [ -51.34240669999997, -29.606210199999961 ], [ -51.341940199999961, -29.607157699999973 ], [ -51.341734699999968, -29.607405599999939 ], [ -51.341748799999941, -29.6071166 ], [ -51.341661, -29.606734499999952 ], [ -51.341412499999933, -29.606541799999935 ], [ -51.341171399999951, -29.60642189999994 ], [ -51.340734199999986, -29.606303799999967 ], [ -51.337708799999973, -29.607746399999943 ], [ -51.33301669999998, -29.607425299999928 ], [ -51.333483499999943, -29.609121499999951 ], [ -51.333396299999947, -29.609538699999966 ], [ -51.33312119999993, -29.609990399999962 ], [ -51.333189399999981, -29.610605699999951 ], [ -51.333277, -29.611002599999956 ], [ -51.333411699999935, -29.611594299999982 ], [ -51.333530899999971, -29.612346 ], [ -51.333629099999939, -29.612543099999979 ], [ -51.334025899999972, -29.61257 ], [ -51.334116, -29.612853399999938 ], [ -51.334038199999952, -29.612934599999964 ], [ -51.333643399999971, -29.6127231 ], [ -51.33276769999997, -29.612613 ], [ -51.332315199999982, -29.612549799999957 ], [ -51.332016199999934, -29.612567899999938 ], [ -51.331650799999984, -29.612824799999938 ], [ -51.330963199999985, -29.61306739999997 ], [ -51.330080499999951, -29.613794299999942 ], [ -51.329872799999976, -29.61410589999997 ], [ -51.329600199999966, -29.614196799999934 ], [ -51.329275599999967, -29.614131899999951 ], [ -51.329003, -29.614222699999971 ], [ -51.32871739999996, -29.614092899999942 ], [ -51.328587599999942, -29.614378499999923 ], [ -51.327951499999983, -29.614339599999941 ], [ -51.327743799999951, -29.614495299999934 ], [ -51.327362, -29.614747899999951 ], [ -51.327237499999967, -29.614888599999986 ], [ -51.327237499999974, -29.615222299999964 ], [ -51.327155599999969, -29.615619 ], [ -51.326886899999977, -29.615849499999957 ], [ -51.326458299999963, -29.615952399999966 ], [ -51.32632429999996, -29.615934399999954 ], [ -51.326179899999936, -29.61591239999996 ], [ -51.325829, -29.615863499999925 ], [ -51.325154199999986, -29.616370899999936 ], [ -51.324666699999966, -29.616648299999955 ], [ -51.323545499999959, -29.61755889999996 ], [ -51.322925, -29.618279299999983 ], [ -51.322506, -29.618222199999934 ], [ -51.321670499999982, -29.618436199999966 ], [ -51.321344299999971, -29.618481499999966 ], [ -51.321118299999966, -29.618453699999979 ], [ -51.320950599999954, -29.618297799999937 ], [ -51.320789099999949, -29.618420199999946 ], [ -51.320471599999955, -29.618379299999955 ], [ -51.320246499999946, -29.618640499999962 ], [ -51.3192, -29.618684699999967 ], [ -51.318175199999985, -29.618561299999953 ], [ -51.317076899999961, -29.618682199999952 ], [ -51.316440499999935, -29.618838699999959 ], [ -51.315718199999935, -29.618843399999953 ], [ -51.314827599999944, -29.618997199999978 ], [ -51.314196899999956, -29.618944899999981 ], [ -51.313385299999936, -29.618812699999985 ], [ -51.312031599999948, -29.618639499999986 ], [ -51.311358, -29.618653899999963 ], [ -51.310892099999926, -29.618962799999959 ], [ -51.309992199999947, -29.614097499999946 ], [ -51.308995799999941, -29.612146499999934 ], [ -51.309037499999938, -29.612132 ], [ -51.308688899999936, -29.611905099999944 ], [ -51.306543, -29.611551799999969 ], [ -51.304759099999956, -29.611773299999971 ], [ -51.304267599999946, -29.611377699999931 ], [ -51.304275699999948, -29.608595099999942 ], [ -51.304482299999961, -29.607864399999983 ], [ -51.304358599999944, -29.606772199999956 ], [ -51.306670399999973, -29.606977899999944 ], [ -51.311021099999948, -29.606123199999956 ], [ -51.311350299999958, -29.605458799999951 ], [ -51.311348799999969, -29.605031199999932 ], [ -51.314734699999981, -29.604683 ], [ -51.315092199999981, -29.604176299999953 ], [ -51.314949399999932, -29.603017299999973 ], [ -51.314498, -29.602388 ], [ -51.315025899999959, -29.601707399999952 ], [ -51.313147899999933, -29.59075409999997 ], [ -51.312619599999948, -29.590623499999925 ], [ -51.311838199999954, -29.590456 ], [ -51.311215899999979, -29.590777199999938 ], [ -51.310934199999963, -29.591626499999961 ], [ -51.311382899999955, -29.592731299999958 ], [ -51.31107929999996, -29.592966399999966 ], [ -51.310474399999968, -29.592934699999951 ], [ -51.309660799999961, -29.592630799999942 ], [ -51.309058399999969, -29.591515299999958 ], [ -51.309240199999977, -29.591050499999941 ], [ -51.307794499999943, -29.590959799999951 ], [ -51.307612499999955, -29.59152969999996 ], [ -51.30752149999995, -29.591925399999973 ], [ -51.307193799999929, -29.591972899999984 ], [ -51.307266599999942, -29.593001799999964 ], [ -51.3065931, -29.593207599999964 ], [ -51.306283599999972, -29.593888199999981 ], [ -51.30586489999996, -29.593999 ], [ -51.304736299999945, -29.594473899999976 ], [ -51.304572499999956, -29.595297 ], [ -51.30278009999995, -29.596340699999914 ], [ -51.302804299999941, -29.596391599999937 ], [ -51.302133199999957, -29.59680069999995 ], [ -51.301704399999949, -29.596685 ], [ -51.301377699999939, -29.596816499999942 ], [ -51.301987599999968, -29.597726699999953 ], [ -51.302196899999956, -29.599143299999987 ], [ -51.300722399999984, -29.600718199999964 ], [ -51.300840699999981, -29.602562099999936 ], [ -51.301605299999949, -29.603266399999939 ], [ -51.300931699999978, -29.605411 ], [ -51.301132, -29.605988699999944 ], [ -51.301669, -29.607128299999943 ], [ -51.301314, -29.608695099999981 ], [ -51.301483599999976, -29.612454099999972 ], [ -51.30215, -29.612171599999961 ], [ -51.303157799999951, -29.612042899999935 ], [ -51.303407399999969, -29.6123 ], [ -51.303798099999945, -29.612554899999949 ], [ -51.304362699999956, -29.612885899999974 ], [ -51.304751799999963, -29.61287619999996 ], [ -51.305419499999971, -29.612622899999963 ], [ -51.305740599999986, -29.612609399999929 ], [ -51.306350899999984, -29.612817499999935 ], [ -51.306770299999982, -29.612866499999932 ], [ -51.307253699999933, -29.613855499999929 ], [ -51.307540599999982, -29.614628 ], [ -51.307780599999944, -29.617193399999962 ], [ -51.308489099999981, -29.620234299999936 ], [ -51.308632199999977, -29.620837799999943 ], [ -51.307560499999965, -29.621056899999921 ], [ -51.307684, -29.621968599999946 ], [ -51.307799099999954, -29.622802699999966 ], [ -51.30751019999996, -29.623184899999959 ], [ -51.307448499999964, -29.623396299999971 ], [ -51.307421899999945, -29.62348719999995 ], [ -51.306780699999933, -29.623986799999965 ], [ -51.306710099999975, -29.62407039999993 ], [ -51.306502, -29.624543299999971 ], [ -51.306527399999936, -29.62534509999994 ], [ -51.306182399999955, -29.626856099999952 ], [ -51.305520299999962, -29.629288599999946 ], [ -51.304517399999952, -29.629937099999946 ], [ -51.302143299999962, -29.630733 ], [ -51.302157499999971, -29.63075959999998 ], [ -51.301896499999941, -29.6307313 ], [ -51.299457199999949, -29.632076199999975 ], [ -51.296308, -29.634481299999941 ], [ -51.290355399999953, -29.639322899999968 ], [ -51.288977, -29.64040829999994 ], [ -51.288901, -29.639749699999975 ], [ -51.28858089999995, -29.63924379999996 ], [ -51.288604699999951, -29.63747629999995 ], [ -51.288189099999961, -29.636655299999969 ], [ -51.287852199999982, -29.636547199999939 ], [ -51.286529799999975, -29.636700799999968 ], [ -51.28578, -29.636948299999982 ], [ -51.28592139999995, -29.64054219999997 ], [ -51.285528799999959, -29.641112399999937 ], [ -51.284639499999969, -29.641105 ], [ -51.284249, -29.641572799999942 ], [ -51.283828, -29.641857699999942 ], [ -51.282604799999945, -29.643157 ], [ -51.282157499999983, -29.643298499999958 ], [ -51.281171699999959, -29.644607199999939 ], [ -51.278624199999967, -29.647011699999947 ], [ -51.277800799999966, -29.649448799999938 ], [ -51.277199399999972, -29.651228099999962 ], [ -51.277220899999982, -29.651293099999972 ], [ -51.277264699999932, -29.651425299999985 ], [ -51.277330399999983, -29.651619799999942 ], [ -51.277361799999944, -29.651677699999929 ], [ -51.277424599999961, -29.651734399999953 ], [ -51.277489599999967, -29.65182249999998 ], [ -51.277521499999978, -29.651910399999963 ], [ -51.27750489999994, -29.651996299999954 ], [ -51.277442799999953, -29.652113 ], [ -51.277465599999971, -29.652255799999974 ], [ -51.277524199999966, -29.652414799999981 ], [ -51.277637799999972, -29.652662599999935 ], [ -51.277697099999955, -29.652851799999947 ], [ -51.277647199999933, -29.653023799999971 ], [ -51.277018399999974, -29.654039199999936 ], [ -51.27687009999994, -29.654338299999953 ], [ -51.276829799999966, -29.654621799999958 ], [ -51.276764199999946, -29.65487729999996 ], [ -51.276599399999945, -29.655240199999984 ], [ -51.276512399999945, -29.655494399999952 ], [ -51.276518499999952, -29.655659099999976 ], [ -51.276596899999952, -29.655791299999972 ], [ -51.276748399999974, -29.655947499999954 ], [ -51.287164799999971, -29.646165199999921 ], [ -51.292229799999973, -29.646420099999947 ], [ -51.292307399999977, -29.646424099999937 ], [ -51.292328299999951, -29.646425099999934 ], [ -51.292352899999976, -29.646426299999959 ], [ -51.292388399999943, -29.646394499999928 ], [ -51.292410899999936, -29.64637439999996 ], [ -51.292840599999977, -29.645990099999945 ], [ -51.295484899999963, -29.643919499999978 ], [ -51.29893, -29.64787039999992 ], [ -51.29920019999998, -29.647608199999972 ], [ -51.299382599999944, -29.647304599999984 ], [ -51.2995552, -29.647091399999958 ], [ -51.299823199999935, -29.64699789999997 ], [ -51.300104899999951, -29.646755599999942 ], [ -51.300351799999937, -29.646641499999941 ], [ -51.300699699999939, -29.646658299999949 ], [ -51.301242699999925, -29.646868399999967 ], [ -51.301423399999976, -29.646934699999967 ], [ -51.3020638, -29.64697729999995 ], [ -51.302195599999948, -29.646896899999941 ], [ -51.302176699999961, -29.646627299999977 ], [ -51.302323, -29.646465 ], [ -51.302501399999983, -29.646444 ], [ -51.302642499999934, -29.646480899999968 ], [ -51.302861, -29.64660339999995 ], [ -51.303106699999944, -29.646586 ], [ -51.303462799999977, -29.646452799999949 ], [ -51.30366529999997, -29.6462782 ], [ -51.303682299999934, -29.645981699999933 ], [ -51.303866099999937, -29.64583719999996 ], [ -51.304060599999957, -29.645885599999939 ], [ -51.30428349999994, -29.646165799999942 ], [ -51.304580799999933, -29.646413799999948 ], [ -51.304672799999935, -29.646167699999967 ], [ -51.304407699999956, -29.645702499999974 ], [ -51.304426499999977, -29.64512579999997 ], [ -51.304728299999972, -29.644756699999963 ], [ -51.305175799999979, -29.644407799999954 ], [ -51.305724599999962, -29.643899799999929 ], [ -51.306105299999956, -29.643677399999945 ], [ -51.3059684, -29.642862699999959 ], [ -51.305762299999969, -29.64175889999995 ], [ -51.305538499999955, -29.640672799999944 ], [ -51.30548669999996, -29.639142599999953 ], [ -51.305536299999972, -29.638588 ], [ -51.305562099999975, -29.638018399999961 ], [ -51.30549289999994, -29.637812399999973 ], [ -51.305244, -29.637254199999973 ], [ -51.304965399999958, -29.636743299999967 ], [ -51.304836399999942, -29.63650489999997 ], [ -51.304623799999938, -29.636091799999971 ], [ -51.304492, -29.635521499999978 ], [ -51.304493099999945, -29.634688099999956 ], [ -51.304625499999986, -29.634339 ], [ -51.30477, -29.633957299999956 ], [ -51.308620599999983, -29.632144499999981 ], [ -51.310365899999965, -29.630517499999954 ], [ -51.312206499999952, -29.628187099999941 ], [ -51.313454699999959, -29.62667719999995 ], [ -51.314247299999977, -29.626019399999972 ], [ -51.31567129999997, -29.625463 ], [ -51.317399399999942, -29.624946799999968 ], [ -51.326830599999944, -29.621215799999963 ], [ -51.335920399999964, -29.617600599999946 ], [ -51.336019799999974, -29.6183468 ], [ -51.336103699999974, -29.618976099999934 ], [ -51.336120299999948, -29.619555399999971 ], [ -51.336095899999975, -29.620930299999944 ], [ -51.336159799999962, -29.622142299999947 ], [ -51.336233399999969, -29.622843799999931 ], [ -51.336379099999931, -29.623219299999949 ], [ -51.337117499999977, -29.623981899999944 ], [ -51.337159399999962, -29.624948899999929 ], [ -51.340142399999934, -29.623017199999936 ], [ -51.342590799999982, -29.622621599999945 ], [ -51.344666, -29.620928299999932 ], [ -51.345612599999988, -29.620501099999959 ], [ -51.350627699999961, -29.619844399999973 ], [ -51.352639299999964, -29.619765199999961 ], [ -51.359382199999978, -29.621424 ], [ -51.359323599999982, -29.621589799999978 ], [ -51.360553299999935, -29.621731499999946 ], [ -51.360680699999925, -29.62019649999997 ], [ -51.359370099999978, -29.617901799999974 ], [ -51.358933199999967, -29.616113599999945 ], [ -51.360207399999979, -29.614151199999966 ], [ -51.36037129999994, -29.613898 ], [ -51.360717099999931, -29.611998899999946 ], [ -51.361481699999963, -29.608912699999955 ], [ -51.362737699999975, -29.607488299999943 ], [ -51.362992799999972, -29.607454399999934 ], [ -51.363007299999936, -29.607382799999979 ], [ -51.369082399999975, -29.606582799999948 ], [ -51.37024009999994, -29.608572499999983 ], [ -51.373053499999976, -29.610924899999922 ], [ -51.373618899999947, -29.611194099999963 ], [ -51.375153499999954, -29.611287699999938 ], [ -51.376257399999986, -29.611123899999939 ], [ -51.377006299999948, -29.610798199999973 ], [ -51.380040099999974, -29.609285299999943 ], [ -51.381190499999953, -29.608431699999986 ], [ -51.381963799999937, -29.608000899999976 ], [ -51.382509899999945, -29.607832599999934 ], [ -51.382510599999932, -29.606978899999937 ], [ -51.38249449999995, -29.606192099999923 ], [ -51.382525199999975, -29.605185499999962 ], [ -51.382483, -29.60391379999993 ] ] ] } }
]
}
