{
"type": "FeatureCollection",
"name": "4321451",
"crs": { "type": "name", "properties": { "name": "urn:ogc:def:crs:OGC:1.3:CRS84" } },
"features": [
{ "type": "Feature", "properties": { "CD_MUN": "4321451", "NM_MUN": "Teutônia" }, "geometry": { "type": "MultiPolygon", "coordinates": [ [ [ [ -51.826442199999981, -29.53106 ], [ -51.827270499999941, -29.530400599999947 ], [ -51.827442899999937, -29.530544599999907 ], [ -51.830339, -29.530040699999972 ], [ -51.829911399999965, -29.52742469999998 ], [ -51.828525399999933, -29.527598699999935 ], [ -51.826884299999961, -29.518610499999973 ], [ -51.827256699999957, -29.518550499999932 ], [ -51.828015199999982, -29.51798639999998 ], [ -51.828084099999963, -29.516282299999951 ], [ -51.829159799999957, -29.514542099999957 ], [ -51.828401299999946, -29.510461599999925 ], [ -51.826801599999953, -29.509237399999968 ], [ -51.826401599999947, -29.507017 ], [ -51.823409, -29.507053 ], [ -51.823278399999943, -29.498029199999959 ], [ -51.82855, -29.497951699999941 ], [ -51.828485599999965, -29.480365 ], [ -51.829877299999971, -29.478471699999943 ], [ -51.83623, -29.477824599999956 ], [ -51.836105799999984, -29.477500499999955 ], [ -51.835995499999967, -29.477260399999977 ], [ -51.835871399999981, -29.477032299999955 ], [ -51.835733499999954, -29.47682819999995 ], [ -51.835554199999933, -29.476600099999924 ], [ -51.835650699999974, -29.476492 ], [ -51.835678299999984, -29.476408 ], [ -51.835678299999984, -29.476311899999928 ], [ -51.835254499999955, -29.475102099999969 ], [ -51.839138199999979, -29.474081899999927 ], [ -51.839220799999957, -29.473777499999972 ], [ -51.835163799999982, -29.474843199999945 ], [ -51.834350099999938, -29.472512 ], [ -51.838892299999934, -29.466399499999959 ], [ -51.83839039999998, -29.466114899999983 ], [ -51.837782599999969, -29.46559029999997 ], [ -51.837197299999957, -29.465088399999956 ], [ -51.836833799999972, -29.464875099999972 ], [ -51.836505299999949, -29.464790199999978 ], [ -51.836005599999964, -29.46479369999998 ], [ -51.834745299999952, -29.464945899999979 ], [ -51.833701899999937, -29.465012899999984 ], [ -51.832613399999964, -29.464956199999961 ], [ -51.832148699999948, -29.464793599999943 ], [ -51.831841899999972, -29.464745799999946 ], [ -51.831488399999955, -29.464763099999978 ], [ -51.831237899999962, -29.464841099999934 ], [ -51.830916499999951, -29.465050099999921 ], [ -51.830655299999933, -29.465223699999957 ], [ -51.830453199999965, -29.465324899999924 ], [ -51.830057799999963, -29.465375499999944 ], [ -51.82971409999994, -29.465320499999951 ], [ -51.829382, -29.465200299999939 ], [ -51.828967899999952, -29.464880499999939 ], [ -51.828747699999951, -29.464646399999928 ], [ -51.828535199999983, -29.464344599999936 ], [ -51.82842549999998, -29.463931299999945 ], [ -51.828423899999962, -29.46350219999993 ], [ -51.828611199999948, -29.463157299999963 ], [ -51.828895699999975, -29.462753699999954 ], [ -51.8308967, -29.460706899999934 ], [ -51.831447399999945, -29.460246699999978 ], [ -51.832278499999973, -29.45989789999993 ], [ -51.832891899999943, -29.459638799999937 ], [ -51.833062299999938, -29.459483199999973 ], [ -51.833169199999986, -29.459290099999969 ], [ -51.833178499999974, -29.459117899999949 ], [ -51.833156699999961, -29.458964199999969 ], [ -51.833088499999974, -29.458801499999943 ], [ -51.832976499999972, -29.458649 ], [ -51.832583099999965, -29.458322399999933 ], [ -51.831813799999971, -29.457973199999969 ], [ -51.830142099999939, -29.45760139999992 ], [ -51.828400499999987, -29.457107899999986 ], [ -51.828364, -29.447132599999971 ], [ -51.828355399999964, -29.444792899999985 ], [ -51.827317099999959, -29.444366199999926 ], [ -51.826343399999985, -29.443962099999954 ], [ -51.824552799999935, -29.443214699999935 ], [ -51.823895, -29.442941399999935 ], [ -51.823194499999943, -29.442650299999965 ], [ -51.82214, -29.4421943 ], [ -51.821141199999943, -29.441725599999977 ], [ -51.819222499999974, -29.440792899999959 ], [ -51.81705089999997, -29.439756899999971 ], [ -51.815633099999957, -29.439072599999974 ], [ -51.815284299999966, -29.43890429999994 ], [ -51.813792399999961, -29.438172699999953 ], [ -51.811957099999979, -29.437291099999982 ], [ -51.810385499999938, -29.43651849999998 ], [ -51.809415299999955, -29.436083199999928 ], [ -51.808610199999976, -29.435765099999966 ], [ -51.807548299999951, -29.435410799999946 ], [ -51.806111899999969, -29.435037799999989 ], [ -51.805118799999953, -29.434843199999936 ], [ -51.805283699999961, -29.432606799999977 ], [ -51.803662499999973, -29.432539799999962 ], [ -51.803814299999942, -29.432087799999973 ], [ -51.803917699999943, -29.431709499999947 ], [ -51.803986199999933, -29.431359499999932 ], [ -51.804041299999938, -29.430945099999981 ], [ -51.804043, -29.430926899999974 ], [ -51.804070599999925, -29.430428399999986 ], [ -51.80407, -29.4299013 ], [ -51.804033099999977, -29.429504699999939 ], [ -51.803943899999979, -29.428978799999989 ], [ -51.80391179999998, -29.428760699999945 ], [ -51.80390569999998, -29.428561699999932 ], [ -51.803918899999985, -29.428290299999965 ], [ -51.803934799999979, -29.428031499999971 ], [ -51.80534329999994, -29.428003699999977 ], [ -51.805342899999978, -29.430067599999973 ], [ -51.805756699999961, -29.430067599999973 ], [ -51.805756699999968, -29.429695199999955 ], [ -51.806618599999979, -29.429694699999974 ], [ -51.806617499999952, -29.429522699999936 ], [ -51.807001299999968, -29.429521 ], [ -51.807003499999951, -29.429077 ], [ -51.808614799999987, -29.429076599999959 ], [ -51.808625199999938, -29.4265842 ], [ -51.793413699999974, -29.426668299999957 ], [ -51.793401499999952, -29.427259499999934 ], [ -51.793381799999963, -29.428218 ], [ -51.793508499999973, -29.428286899999929 ], [ -51.793641399999963, -29.428348 ], [ -51.793862099999956, -29.428432099999945 ], [ -51.794035899999983, -29.428482799999973 ], [ -51.79418069999997, -29.428512799999961 ], [ -51.794305, -29.428531699999947 ], [ -51.794582699999985, -29.428555 ], [ -51.79489719999998, -29.428560799999964 ], [ -51.795464199999969, -29.428579 ], [ -51.796217099999978, -29.428567199999975 ], [ -51.797316699999953, -29.428573099999941 ], [ -51.79777119999995, -29.428566799999945 ], [ -51.798049299999946, -29.428559299999964 ], [ -51.79825139999997, -29.428548 ], [ -51.798478899999957, -29.428543099999956 ], [ -51.798730899999953, -29.428554899999931 ], [ -51.799338499999976, -29.428567099999945 ], [ -51.801535699999931, -29.428546099999949 ], [ -51.801535199999933, -29.428608599999961 ], [ -51.801542099999956, -29.428830799999968 ], [ -51.801558199999931, -29.42901239999998 ], [ -51.801598099999985, -29.429281099999969 ], [ -51.801677499999983, -29.429749 ], [ -51.80169989999996, -29.429994699999945 ], [ -51.80169989999996, -29.430371599999948 ], [ -51.801678099999947, -29.430765499999957 ], [ -51.801637299999989, -29.431071699999954 ], [ -51.801595899999938, -29.431284199999933 ], [ -51.801520699999969, -29.431559199999985 ], [ -51.801338599999944, -29.432126899999961 ], [ -51.801276599999937, -29.432403199999957 ], [ -51.801240099999973, -29.432622599999938 ], [ -51.801226199999974, -29.432765199999938 ], [ -51.801219299999957, -29.432897299999976 ], [ -51.801217099999974, -29.432979699999983 ], [ -51.801217099999974, -29.433165899999953 ], [ -51.80122769999997, -29.433420899999941 ], [ -51.801245399999978, -29.433731199999947 ], [ -51.801252199999965, -29.43400309999998 ], [ -51.801262499999957, -29.434180299999969 ], [ -51.800977599999953, -29.434699099999929 ], [ -51.800888, -29.434879299999974 ], [ -51.800846599999943, -29.435017399999932 ], [ -51.800839699999983, -29.435179599999966 ], [ -51.8008397, -29.435353699999943 ], [ -51.800859799999955, -29.435447799999956 ], [ -51.800898399999937, -29.435569899999955 ], [ -51.800950099999966, -29.43569 ], [ -51.80107419999996, -29.435846199999958 ], [ -51.80115, -29.435954299999938 ], [ -51.801281, -29.436194499999935 ], [ -51.80131549999993, -29.436278499999943 ], [ -51.801328599999984, -29.436333899999966 ], [ -51.80133619999998, -29.436392599999969 ], [ -51.801312099999961, -29.436700399999953 ], [ -51.80126039999994, -29.436909099999973 ], [ -51.80120519999997, -29.437032199999972 ], [ -51.801112099999955, -29.437131299999972 ], [ -51.800984499999963, -29.437209399999979 ], [ -51.800763899999943, -29.437245399999931 ], [ -51.800074299999949, -29.43725139999998 ], [ -51.799605399999969, -29.437269399999931 ], [ -51.79912969999998, -29.437287399999938 ], [ -51.798984899999937, -29.437287399999953 ], [ -51.798874499999961, -29.437317399999987 ], [ -51.798778, -29.437353499999968 ], [ -51.798626299999974, -29.43743759999996 ], [ -51.798495299999956, -29.43752759999996 ], [ -51.798336699999929, -29.437683799999945 ], [ -51.797985, -29.438074099999927 ], [ -51.797729899999979, -29.438398399999976 ], [ -51.797431099999983, -29.438723299999939 ], [ -51.797148299999947, -29.438946899999962 ], [ -51.796775399999937, -29.439174199999968 ], [ -51.79607969999995, -29.43953839999994 ], [ -51.79523259999997, -29.439972499999957 ], [ -51.794909, -29.440155399999977 ], [ -51.794647899999973, -29.440351899999932 ], [ -51.794380899999965, -29.440595799999976 ], [ -51.794228399999952, -29.440760899999933 ], [ -51.794111799999932, -29.440920899999981 ], [ -51.794033499999962, -29.441072299999977 ], [ -51.794007599999986, -29.441228699999943 ], [ -51.794014299999958, -29.441427099999949 ], [ -51.794060399999978, -29.441636299999963 ], [ -51.794052899999947, -29.444802299999942 ], [ -51.791998, -29.444780599999937 ], [ -51.791176299999961, -29.444771899999978 ], [ -51.789660499999968, -29.444755899999961 ], [ -51.786933099999942, -29.444732699999975 ], [ -51.785458499999947, -29.44471 ], [ -51.78485029999996, -29.44469869999995 ], [ -51.784646799999969, -29.444688099999954 ], [ -51.784531499999957, -29.444679499999943 ], [ -51.784271799999935, -29.444646499999958 ], [ -51.784047899999962, -29.444612699999947 ], [ -51.783696199999959, -29.444569299999969 ], [ -51.783520099999969, -29.444553699999975 ], [ -51.782884, -29.444516499999953 ], [ -51.782552099999975, -29.444513399999956 ], [ -51.781794699999978, -29.444524099999974 ], [ -51.781225099999972, -29.444532099999947 ], [ -51.781231699999978, -29.446788499999968 ], [ -51.781231899999959, -29.446861699999939 ], [ -51.781233399999962, -29.447384199999924 ], [ -51.781276299999945, -29.449044399999934 ], [ -51.782646799999952, -29.449025 ], [ -51.783088, -29.449050799999959 ], [ -51.783216599999946, -29.449066199999947 ], [ -51.783497199999942, -29.449107699999953 ], [ -51.783866, -29.449154599999925 ], [ -51.7840169, -29.449169799999936 ], [ -51.784306, -29.449190699999971 ], [ -51.78469129999997, -29.44920919999992 ], [ -51.78583569999995, -29.449228899999977 ], [ -51.787766699999956, -29.449252399999978 ], [ -51.789607499999931, -29.449268 ], [ -51.791169399999951, -29.449284499999983 ], [ -51.791164499999972, -29.452443299999967 ], [ -51.793159199999941, -29.45246439999994 ], [ -51.795821199999985, -29.452457299999931 ], [ -51.797778899999976, -29.452435799999929 ], [ -51.799392699999935, -29.452417699999948 ], [ -51.799957699999936, -29.452411199999968 ], [ -51.803137399999969, -29.452379699999952 ], [ -51.803189699999962, -29.45256389999998 ], [ -51.803230099999958, -29.452773199999967 ], [ -51.803266699999938, -29.453064199999968 ], [ -51.803292, -29.453161 ], [ -51.80331909999996, -29.453228 ], [ -51.8033435, -29.453264 ], [ -51.803368499999976, -29.453288 ], [ -51.803395199999954, -29.453309299999937 ], [ -51.803428599999961, -29.453327499999951 ], [ -51.803457499999986, -29.453339599999914 ], [ -51.803488699999946, -29.453348899999988 ], [ -51.803489699999943, -29.454405699999942 ], [ -51.803500799999938, -29.455643199999944 ], [ -51.80351289999993, -29.457347799999983 ], [ -51.803532899999936, -29.458730699999936 ], [ -51.803619299999987, -29.460981499999967 ], [ -51.803578499999958, -29.46218609999994 ], [ -51.803559, -29.463815599999982 ], [ -51.803189699999962, -29.463814 ], [ -51.802223599999941, -29.463837599999962 ], [ -51.802081899999969, -29.463851699999964 ], [ -51.801981699999949, -29.463883599999964 ], [ -51.801895, -29.463922499999963 ], [ -51.801673499999936, -29.464038 ], [ -51.801189399999942, -29.464316899999972 ], [ -51.800493899999942, -29.464693299999961 ], [ -51.799891099999968, -29.465011499999942 ], [ -51.799458799999968, -29.465336799999932 ], [ -51.797809499999971, -29.467053599999929 ], [ -51.796849699999939, -29.467708399999928 ], [ -51.79663, -29.467758 ], [ -51.796474, -29.467768499999973 ], [ -51.796298099999937, -29.467743 ], [ -51.795964799999979, -29.467584199999976 ], [ -51.795661699999989, -29.467408599999942 ], [ -51.795106899999951, -29.466978699999967 ], [ -51.794584, -29.466708899999958 ], [ -51.79421739999998, -29.466549 ], [ -51.794096199999956, -29.466508899999951 ], [ -51.793962299999976, -29.466490299999975 ], [ -51.793879799999957, -29.466489899999946 ], [ -51.793804399999942, -29.466504899999954 ], [ -51.793676699999935, -29.466564499999944 ], [ -51.793572, -29.466646099999942 ], [ -51.79340579999996, -29.466814099999961 ], [ -51.792882199999951, -29.467595899999928 ], [ -51.79255, -29.467895099999975 ], [ -51.792183899999934, -29.46811589999993 ], [ -51.791890099999939, -29.468243899999948 ], [ -51.791643799999974, -29.468335899999929 ], [ -51.791381599999966, -29.46835819999994 ], [ -51.791176499999949, -29.468348799999951 ], [ -51.790893699999963, -29.468303699999979 ], [ -51.790598899999964, -29.468134499999969 ], [ -51.790254799999964, -29.46791 ], [ -51.789886399999951, -29.46773989999997 ], [ -51.78958049999995, -29.467678099999944 ], [ -51.789261099999983, -29.467658099999934 ], [ -51.788943699999948, -29.467684799999972 ], [ -51.788668299999983, -29.467699699999969 ], [ -51.788444299999973, -29.467690299999969 ], [ -51.788230799999951, -29.467649699999981 ], [ -51.788062799999977, -29.46759209999993 ], [ -51.787519599999946, -29.467339299999935 ], [ -51.786441799999977, -29.466831099999979 ], [ -51.78601539999994, -29.466668 ], [ -51.785681099999977, -29.466526 ], [ -51.785433799999964, -29.466398699999964 ], [ -51.785176499999984, -29.466233 ], [ -51.784854599999967, -29.465999599999975 ], [ -51.783896099999936, -29.464999 ], [ -51.782947799999938, -29.464206699999966 ], [ -51.782319599999937, -29.463761599999934 ], [ -51.781964, -29.463537099999943 ], [ -51.780804899999964, -29.462887099999932 ], [ -51.779388299999937, -29.462043199999982 ], [ -51.77736919999996, -29.460256399999928 ], [ -51.775260399999979, -29.458615099999967 ], [ -51.772440199999949, -29.456646199999966 ], [ -51.771754299999941, -29.456421899999949 ], [ -51.769087299999967, -29.455984899999965 ], [ -51.767770899999952, -29.456445299999931 ], [ -51.766965399999954, -29.457824199999941 ], [ -51.766848499999981, -29.458611 ], [ -51.766839599999969, -29.458670699999981 ], [ -51.767230799999936, -29.460013799999963 ], [ -51.76782129999998, -29.460783 ], [ -51.768862, -29.461852 ], [ -51.769292599999972, -29.462573399999929 ], [ -51.769416899999953, -29.463397099999945 ], [ -51.769186, -29.463863899999968 ], [ -51.768672699999961, -29.46413849999994 ], [ -51.76796249999996, -29.463939 ], [ -51.767197199999941, -29.46357 ], [ -51.766910699999976, -29.463503099999961 ], [ -51.767059299999971, -29.4698734 ], [ -51.767101499999967, -29.471681399999966 ], [ -51.767398, -29.471303199999962 ], [ -51.767513399999977, -29.47113869999998 ], [ -51.767593899999952, -29.470994099999913 ], [ -51.767783799999961, -29.470542499999961 ], [ -51.767809299999954, -29.470503699999938 ], [ -51.768151899999971, -29.470338799999983 ], [ -51.768411199999946, -29.470200399999936 ], [ -51.768502, -29.470147199999928 ], [ -51.768639899999982, -29.470057199999921 ], [ -51.768750499999953, -29.469973699999962 ], [ -51.768840199999943, -29.469895599999973 ], [ -51.768904, -29.469828499999952 ], [ -51.768963499999977, -29.469766 ], [ -51.769178199999942, -29.469484299999976 ], [ -51.769480599999952, -29.469240199999955 ], [ -51.769809399999978, -29.468994 ], [ -51.770370099999987, -29.468577 ], [ -51.770862699999952, -29.468206399999925 ], [ -51.771019599999931, -29.46806839999994 ], [ -51.771129899999956, -29.467948299999914 ], [ -51.771265799999981, -29.467754899999935 ], [ -51.771366, -29.467561099999958 ], [ -51.77145749999994, -29.467208499999966 ], [ -51.77145969999998, -29.46711879999998 ], [ -51.771686599999946, -29.467071599999944 ], [ -51.77185, -29.467028 ], [ -51.772118099999943, -29.466941299999984 ], [ -51.772279599999933, -29.46689409999993 ], [ -51.772407599999958, -29.46687919999993 ], [ -51.772538099999963, -29.466880399999983 ], [ -51.772629299999956, -29.466911399999951 ], [ -51.772713399999979, -29.466976299999939 ], [ -51.772764099999961, -29.467044 ], [ -51.772802099999979, -29.467135199999976 ], [ -51.772869299999968, -29.467292 ], [ -51.772899399999972, -29.467330299999958 ], [ -51.772929499999982, -29.467353099999976 ], [ -51.772968199999987, -29.467374 ], [ -51.773015599999958, -29.46738339999996 ], [ -51.773071699999946, -29.467388099999937 ], [ -51.773134599999942, -29.467385799999942 ], [ -51.773194599999954, -29.467377699999929 ], [ -51.773303499999948, -29.467359 ], [ -51.77366109999997, -29.467248899999952 ], [ -51.774248899999982, -29.467073399999951 ], [ -51.774798899999944, -29.466895699999952 ], [ -51.775003799999986, -29.466858499999937 ], [ -51.775198399999958, -29.466852799999977 ], [ -51.775367499999966, -29.466891199999967 ], [ -51.775563, -29.466982499999958 ], [ -51.775758399999972, -29.467146499999949 ], [ -51.776172799999976, -29.467656299999931 ], [ -51.776551499999982, -29.468158099999979 ], [ -51.776861, -29.468551299999945 ], [ -51.777168499999959, -29.468895699999948 ], [ -51.777273, -29.469018799999962 ], [ -51.7773423, -29.469085599999968 ], [ -51.77740689999996, -29.469134199999928 ], [ -51.777460499999961, -29.469154399999987 ], [ -51.77752159999995, -29.469168199999956 ], [ -51.777572, -29.469173499999961 ], [ -51.777630399999957, -29.469173 ], [ -51.777725499999974, -29.469155299999965 ], [ -51.777845599999985, -29.469105099999982 ], [ -51.778017499999969, -29.468986399999945 ], [ -51.778164, -29.468865099999956 ], [ -51.778338, -29.4687 ], [ -51.778484399999968, -29.46852879999993 ], [ -51.778614, -29.468366699999937 ], [ -51.778721899999937, -29.468233199999922 ], [ -51.778763699999949, -29.468194899999965 ], [ -51.778809799999983, -29.468164599999952 ], [ -51.778848699999969, -29.468146399999963 ], [ -51.778893299999943, -29.468132499999967 ], [ -51.778938599999947, -29.468125199999971 ], [ -51.778979299999953, -29.468124 ], [ -51.779081099999985, -29.468136799999971 ], [ -51.779241299999974, -29.468171799999936 ], [ -51.77946739999993, -29.468252799999942 ], [ -51.779544899999962, -29.468283899999946 ], [ -51.779560599999961, -29.468288099999931 ], [ -51.779569599999945, -29.468289299999977 ], [ -51.779578099999981, -29.468289199999965 ], [ -51.779597499999973, -29.46828719999997 ], [ -51.779616199999964, -29.468284499999978 ], [ -51.779746199999984, -29.468262199999959 ], [ -51.779903599999955, -29.468242 ], [ -51.780086099999941, -29.468233299999941 ], [ -51.780249699999956, -29.468235499999931 ], [ -51.780312599999945, -29.468245499999956 ], [ -51.780384699999956, -29.468262 ], [ -51.780450499999972, -29.468279599999967 ], [ -51.780514099999941, -29.468302199999986 ], [ -51.780563599999937, -29.468331199999955 ], [ -51.780619199999926, -29.468371899999958 ], [ -51.780674, -29.468425399999941 ], [ -51.780707399999983, -29.468457699999927 ], [ -51.780733199999986, -29.468478599999955 ], [ -51.780760699999973, -29.468491499999963 ], [ -51.780796, -29.468497399999944 ], [ -51.780854, -29.46850129999995 ], [ -51.780970399999944, -29.468502 ], [ -51.781090899999981, -29.468511399999947 ], [ -51.781143699999973, -29.468527299999955 ], [ -51.781201199999948, -29.468551899999955 ], [ -51.781246099999976, -29.46858 ], [ -51.78128669999996, -29.468612599999975 ], [ -51.781344499999932, -29.468669699999975 ], [ -51.78138609999997, -29.468725499999941 ], [ -51.781474299999957, -29.468866399999953 ], [ -51.781494199999933, -29.468887699999986 ], [ -51.781517399999977, -29.468906699999934 ], [ -51.781559099999988, -29.468920399999931 ], [ -51.781606199999942, -29.468925199999948 ], [ -51.781655299999954, -29.468922499999962 ], [ -51.781688199999962, -29.468917699999984 ], [ -51.781713599999932, -29.468908599999967 ], [ -51.782365199999965, -29.469057 ], [ -51.782451399999964, -29.469076699999956 ], [ -51.7822063, -29.472021099999946 ], [ -51.783945, -29.47204639999995 ], [ -51.783952499999941, -29.470147199999928 ], [ -51.784616799999981, -29.470174699999959 ], [ -51.78538889999998, -29.470200099999943 ], [ -51.786195299999974, -29.470187299999964 ], [ -51.786731699999969, -29.470171199999985 ], [ -51.787157, -29.470181299999982 ], [ -51.787579499999936, -29.470206099999935 ], [ -51.788189, -29.470290299999931 ], [ -51.788903499999954, -29.470415799999962 ], [ -51.789695699999982, -29.470560499999984 ], [ -51.789997, -29.470632599999934 ], [ -51.7902079, -29.470753099999964 ], [ -51.789759299999957, -29.474257299999973 ], [ -51.799976899999933, -29.474352399999923 ], [ -51.799985299999953, -29.4772 ], [ -51.803909599999947, -29.477262099999951 ], [ -51.803718499999945, -29.487980299999961 ], [ -51.803525599999936, -29.48846 ], [ -51.803442699999955, -29.488718799999951 ], [ -51.80339859999998, -29.488916699999951 ], [ -51.803386299999936, -29.488971899999967 ], [ -51.803358699999933, -29.489152 ], [ -51.803343499999983, -29.489339299999987 ], [ -51.803325599999937, -29.489560499999989 ], [ -51.803317099999958, -29.489910499999937 ], [ -51.803308199999947, -29.490272499999957 ], [ -51.803301699999963, -29.491502799999978 ], [ -51.80329439999997, -29.492787399999948 ], [ -51.803294299999948, -29.49384369999995 ], [ -51.803297199999982, -29.494171599999945 ], [ -51.803302599999938, -29.494800499999933 ], [ -51.80080989999994, -29.494800199999908 ], [ -51.798230899999965, -29.494799799999942 ], [ -51.798229, -29.495866299999918 ], [ -51.798226299999946, -29.497294699999937 ], [ -51.798223199999946, -29.498965 ], [ -51.79728369999998, -29.498965 ], [ -51.795394399999964, -29.498965 ], [ -51.793378599999983, -29.498965 ], [ -51.791539799999953, -29.498965 ], [ -51.789512499999944, -29.498965 ], [ -51.787671, -29.498937699999939 ], [ -51.786450699999932, -29.498933899999926 ], [ -51.786437, -29.501186199999957 ], [ -51.785495099999928, -29.501183699999959 ], [ -51.785489, -29.501437 ], [ -51.785569199999941, -29.502010199999969 ], [ -51.785375899999963, -29.502270499999948 ], [ -51.785072499999956, -29.502714599999926 ], [ -51.784985299999967, -29.502856199999943 ], [ -51.784819799999987, -29.503156299999944 ], [ -51.78474319999998, -29.503313799999937 ], [ -51.784652799999947, -29.503527299999966 ], [ -51.784548599999944, -29.503860399999958 ], [ -51.784465899999987, -29.504292299999978 ], [ -51.784420299999965, -29.50453019999998 ], [ -51.7843941, -29.504849 ], [ -51.784396499999957, -29.505108399999976 ], [ -51.78440789999997, -29.50533629999995 ], [ -51.78440789999997, -29.505506799999957 ], [ -51.784381, -29.505647399999937 ], [ -51.784365399999956, -29.505701599999938 ], [ -51.784311199999927, -29.505843 ], [ -51.784271399999966, -29.505957799999972 ], [ -51.784216199999939, -29.506137799999983 ], [ -51.784157799999953, -29.50635329999994 ], [ -51.784110599999963, -29.506622 ], [ -51.784096799999979, -29.506778 ], [ -51.784092, -29.506955499999943 ], [ -51.784096699999971, -29.507120599999951 ], [ -51.784076199999951, -29.50728649999996 ], [ -51.784053899999947, -29.507331799999967 ], [ -51.78386739999997, -29.507646299999976 ], [ -51.783676, -29.507973799999942 ], [ -51.78344089999996, -29.508376299999956 ], [ -51.783349699999974, -29.508556 ], [ -51.783156599999984, -29.509 ], [ -51.78307279999995, -29.509234 ], [ -51.782989, -29.509493599999924 ], [ -51.782941, -29.509679299999956 ], [ -51.782885899999933, -29.509961399999948 ], [ -51.782862499999972, -29.510124799999979 ], [ -51.782826199999931, -29.510491 ], [ -51.782798599999978, -29.510863 ], [ -51.782795799999974, -29.511050899999937 ], [ -51.782809, -29.511342499999948 ], [ -51.782814899999948, -29.511638199999936 ], [ -51.782776099999971, -29.511888899999981 ], [ -51.782816699999955, -29.511890499999932 ], [ -51.783068299999968, -29.511917499999981 ], [ -51.783344199999931, -29.511959499999925 ], [ -51.783768199999948, -29.51204649999994 ], [ -51.784099199999964, -29.512130499999941 ], [ -51.784391599999942, -29.512260099999928 ], [ -51.784682299999979, -29.512455399999961 ], [ -51.784737299999954, -29.512516899999984 ], [ -51.785309, -29.513155399999963 ], [ -51.785470599999933, -29.513312 ], [ -51.785543499999953, -29.513356799999954 ], [ -51.785633399999938, -29.513381299999935 ], [ -51.785714199999973, -29.513386299999969 ], [ -51.785784499999977, -29.51337759999997 ], [ -51.78584769999997, -29.51335529999994 ], [ -51.785961, -29.51329469999996 ], [ -51.786209199999981, -29.513102599999954 ], [ -51.78641609999994, -29.512970599999939 ], [ -51.786510499999963, -29.512943299999961 ], [ -51.786616099999939, -29.51292859999996 ], [ -51.78673329999998, -29.512934799999979 ], [ -51.786838399999965, -29.51296009999993 ], [ -51.786995299999944, -29.513018599999953 ], [ -51.78710719999998, -29.513087899999952 ], [ -51.787243599999947, -29.51318659999998 ], [ -51.787353899999971, -29.51328269999992 ], [ -51.787464199999938, -29.513414699999949 ], [ -51.787602099999958, -29.513702699999957 ], [ -51.78774, -29.514146799999935 ], [ -51.788015899999955, -29.514926799999955 ], [ -51.788236499999982, -29.515454899999945 ], [ -51.788326399999953, -29.515635299999918 ], [ -51.788677599999971, -29.516340399999937 ], [ -51.788808799999977, -29.516510099999952 ], [ -51.789408099999953, -29.517285 ], [ -51.790209699999934, -29.51742639999997 ], [ -51.791222399999981, -29.517605099999965 ], [ -51.792466499999932, -29.517824599999987 ], [ -51.793685, -29.519107799999965 ], [ -51.802992, -29.519204499999937 ], [ -51.804560699999975, -29.519220799999978 ], [ -51.809502199999947, -29.519072399999974 ], [ -51.811435099999983, -29.5197037 ], [ -51.811714399999971, -29.519952 ], [ -51.813260399999933, -29.521325899999969 ], [ -51.813708499999969, -29.521870699999965 ], [ -51.814674499999967, -29.523045 ], [ -51.815367699999967, -29.52440369999993 ], [ -51.814708299999943, -29.525644499999931 ], [ -51.81460519999996, -29.525838499999963 ], [ -51.814007699999934, -29.526267199999943 ], [ -51.816760399999971, -29.529374799999964 ], [ -51.821503, -29.528863699999938 ], [ -51.826080299999944, -29.530628599999957 ], [ -51.826442199999981, -29.53106 ] ] ], [ [ [ -51.712207299999939, -29.454116099999961 ], [ -51.712676199999969, -29.454032 ], [ -51.713153199999965, -29.453987099999956 ], [ -51.713326599999967, -29.453978499999955 ], [ -51.71300489999993, -29.454908799999945 ], [ -51.713264599999945, -29.454884299999947 ], [ -51.71414939999994, -29.454849799999984 ], [ -51.714917799999959, -29.454828899999942 ], [ -51.716412099999957, -29.454760399999937 ], [ -51.716806799999979, -29.454737099999925 ], [ -51.717091799999935, -29.454718099999976 ], [ -51.717296799999986, -29.454691699999952 ], [ -51.71764479999996, -29.454615899999954 ], [ -51.717798199999947, -29.454576199999959 ], [ -51.718198099999938, -29.454444099999929 ], [ -51.718455099999964, -29.454350499999968 ], [ -51.718615499999942, -29.454283199999967 ], [ -51.719856099999966, -29.453635199999955 ], [ -51.720265799999936, -29.453434 ], [ -51.720804099999953, -29.453384799999974 ], [ -51.722314099999949, -29.453286199999972 ], [ -51.723814099999977, -29.453193299999953 ], [ -51.724084, -29.453193299999949 ], [ -51.724775199999961, -29.45325709999997 ], [ -51.72502529999997, -29.453282 ], [ -51.726104699999951, -29.453417499999958 ], [ -51.726161599999955, -29.447297299999935 ], [ -51.726009899999951, -29.447057099999931 ], [ -51.725816799999961, -29.446828899999964 ], [ -51.725651299999981, -29.446720799999976 ], [ -51.725347899999974, -29.446600699999983 ], [ -51.72509969999993, -29.446480699999928 ], [ -51.724713799999961, -29.446127299999947 ], [ -51.724442799999963, -29.445879 ], [ -51.724213299999974, -29.445662199999955 ], [ -51.723849299999983, -29.445300799999981 ], [ -51.723610299999969, -29.445063499999939 ], [ -51.723347399999973, -29.444829899999942 ], [ -51.723066, -29.44457969999997 ], [ -51.722948299999985, -29.444475099999984 ], [ -51.722589699999958, -29.444270899999939 ], [ -51.722245, -29.444126799999935 ], [ -51.72210709999996, -29.444102799999939 ], [ -51.72194159999998, -29.444102799999943 ], [ -51.721803699999953, -29.444150799999932 ], [ -51.721681599999954, -29.444278399999973 ], [ -51.721569199999983, -29.444403 ], [ -51.721374899999951, -29.444738399999956 ], [ -51.721252, -29.444943399999932 ], [ -51.721003799999949, -29.445183599999954 ], [ -51.720190099999968, -29.445688 ], [ -51.719804, -29.445904199999969 ], [ -51.719473, -29.446168399999987 ], [ -51.719169599999987, -29.446480699999942 ], [ -51.718990299999973, -29.446744899999938 ], [ -51.71888, -29.446997099999979 ], [ -51.718824799999943, -29.447225199999934 ], [ -51.718824799999943, -29.447417399999949 ], [ -51.718893799999925, -29.447633499999942 ], [ -51.71903169999996, -29.447837699999969 ], [ -51.719279899999947, -29.44810189999998 ], [ -51.719500599999947, -29.448246 ], [ -51.719790199999984, -29.448378099999964 ], [ -51.719859099999951, -29.448450199999975 ], [ -51.719872899999984, -29.448534199999987 ], [ -51.719817799999937, -29.448618299999968 ], [ -51.719707399999955, -29.448738399999968 ], [ -51.71945919999996, -29.448990599999945 ], [ -51.719004099999957, -29.449350899999942 ], [ -51.71857, -29.449665799999931 ], [ -51.718194099999955, -29.449945699999947 ], [ -51.717900799999938, -29.450167499999971 ], [ -51.717418099999975, -29.450383599999956 ], [ -51.716935399999947, -29.450515699999979 ], [ -51.716563099999973, -29.450575799999953 ], [ -51.71635619999995, -29.450551799999978 ], [ -51.716176899999937, -29.450479699999963 ], [ -51.715832199999973, -29.450251499999975 ], [ -51.715570099999979, -29.45009539999996 ], [ -51.715377099999962, -29.450035399999926 ], [ -51.715087499999989, -29.449975299999959 ], [ -51.714922, -29.449963299999983 ], [ -51.714756499999964, -29.450011399999934 ], [ -51.714604799999968, -29.450095399999949 ], [ -51.714508199999955, -29.450203499999919 ], [ -51.714439299999988, -29.450383599999956 ], [ -51.714287599999984, -29.450852 ], [ -51.714094499999938, -29.451260299999937 ], [ -51.713846299999936, -29.451668599999955 ], [ -51.71348769999998, -29.452100899999945 ], [ -51.713363599999987, -29.452221 ], [ -51.713170499999926, -29.452257 ], [ -51.712977399999943, -29.452233 ], [ -51.712811899999963, -29.452124899999937 ], [ -51.712597799999969, -29.451835299999971 ], [ -51.712370599999986, -29.451416399999975 ], [ -51.712276899999942, -29.451136699999946 ], [ -51.712177599999961, -29.45084 ], [ -51.712122399999934, -29.450743899999974 ], [ -51.712039599999969, -29.450695899999975 ], [ -51.711943099999985, -29.450659799999986 ], [ -51.711763799999972, -29.45062379999996 ], [ -51.711584499999958, -29.45062379999997 ], [ -51.711253599999964, -29.450683899999945 ], [ -51.710784699999969, -29.450803899999983 ], [ -51.710495099999946, -29.45084 ], [ -51.710067499999987, -29.450864 ], [ -51.709612399999969, -29.450912 ], [ -51.709391799999935, -29.450972099999955 ], [ -51.709198699999952, -29.451068099999926 ], [ -51.708991799999978, -29.451284299999962 ], [ -51.709026799999947, -29.455192799999967 ], [ -51.709374299999979, -29.454968699999942 ], [ -51.70967, -29.454831599999981 ], [ -51.709872899999944, -29.454742799999966 ], [ -51.710271499999976, -29.454608499999953 ], [ -51.710910899999931, -29.454416299999934 ], [ -51.711504, -29.454260199999972 ], [ -51.712207299999939, -29.454116099999961 ] ] ] ] } }
]
}
