{
"type": "FeatureCollection",
"name": "4322400",
"crs": { "type": "name", "properties": { "name": "urn:ogc:def:crs:OGC:1.3:CRS84" } },
"features": [
{ "type": "Feature", "properties": { "CD_MUN": "4322400", "NM_MUN": "Uruguaiana" }, "geometry": { "type": "MultiPolygon", "coordinates": [ [ [ [ -57.100075499999946, -29.80162939999996 ], [ -57.10148449999997, -29.801247499999924 ], [ -57.102572, -29.801182299999944 ], [ -57.103039699999954, -29.801154299999954 ], [ -57.103580699999952, -29.80092819999993 ], [ -57.104651099999948, -29.800406599999974 ], [ -57.105548899999974, -29.800033199999969 ], [ -57.107330099999956, -29.799400899999959 ], [ -57.108792799999939, -29.798996399999957 ], [ -57.109688799999958, -29.798909899999959 ], [ -57.109716599999949, -29.798906299999945 ], [ -57.110716199999963, -29.798779099999937 ], [ -57.111353899999976, -29.798819899999959 ], [ -57.111899, -29.798854799999951 ], [ -57.112989899999953, -29.799080399999976 ], [ -57.113987699999939, -29.799339399999951 ], [ -57.114922099999944, -29.799345 ], [ -57.115663399999967, -29.798774899999959 ], [ -57.116603099999963, -29.798045699999925 ], [ -57.117701099999977, -29.797248799999977 ], [ -57.118865299999982, -29.796474299999943 ], [ -57.119882699999948, -29.795814599999964 ], [ -57.120807199999938, -29.795406699999948 ], [ -57.121532299999956, -29.795203899999937 ], [ -57.122681199999931, -29.794625299999947 ], [ -57.123657499999979, -29.794264299999949 ], [ -57.124607, -29.793982699999958 ], [ -57.12537059999994, -29.793907099999956 ], [ -57.126623199999983, -29.793581 ], [ -57.127454599999965, -29.793241799999979 ], [ -57.128338799999931, -29.792868199999909 ], [ -57.129472499999963, -29.792587299999987 ], [ -57.130591, -29.792606099999936 ], [ -57.131498499999971, -29.792635 ], [ -57.132353199999955, -29.792697299999929 ], [ -57.132934299999938, -29.792367299999967 ], [ -57.133320499999968, -29.791818199999955 ], [ -57.133391099999983, -29.791175599999974 ], [ -57.133476799999983, -29.790291899999939 ], [ -57.133297899999945, -29.78959 ], [ -57.133645599999973, -29.788810799999965 ], [ -57.134058499999973, -29.788147099999939 ], [ -57.134602899999948, -29.787448899999958 ], [ -57.135184799999926, -29.78702769999995 ], [ -57.135740899999966, -29.786605699999935 ], [ -57.136258399999974, -29.786023099999952 ], [ -57.136380799999984, -29.78549589999994 ], [ -57.136494899999946, -29.784935399999938 ], [ -57.135723, -29.78485309999995 ], [ -57.135097899999948, -29.784713 ], [ -57.134526, -29.78490579999993 ], [ -57.133896299999947, -29.785202399999957 ], [ -57.133460699999944, -29.785159499999956 ], [ -57.133016799999943, -29.785100399999966 ], [ -57.132812599999973, -29.78480009999998 ], [ -57.132358899999986, -29.784458499999968 ], [ -57.131376099999954, -29.783696899999942 ], [ -57.130382699999984, -29.783544499999955 ], [ -57.129309699999958, -29.783449799999982 ], [ -57.12866049999996, -29.783042499999969 ], [ -57.127944399999933, -29.782100099999973 ], [ -57.127815499999933, -29.781624699999949 ], [ -57.127721, -29.780539099999935 ], [ -57.127820199999974, -29.779765499999936 ], [ -57.127857199999937, -29.779476699999979 ], [ -57.128321699999958, -29.778605399999943 ], [ -57.1287698, -29.777946099999948 ], [ -57.129432099999974, -29.777251499999977 ], [ -57.129851199999962, -29.776514599999917 ], [ -57.133635899999945, -29.771125399999953 ], [ -57.133981399999982, -29.770633499999974 ], [ -57.133979099999976, -29.770632899999946 ], [ -57.131905399999937, -29.770160099999948 ], [ -57.123991299999943, -29.764531 ], [ -57.123984, -29.76452589999996 ], [ -57.120582499999962, -29.762106499999962 ], [ -57.111857, -29.75633989999994 ], [ -57.111822199999942, -29.756316899999948 ], [ -57.106311, -29.752674599999963 ], [ -57.106295799999941, -29.752664599999942 ], [ -57.1030583, -29.750524899999959 ], [ -57.103054599999943, -29.750522499999935 ], [ -57.101968799999952, -29.749804899999958 ], [ -57.099722099999951, -29.748320099999951 ], [ -57.095105599999954, -29.7445638 ], [ -57.093660599999957, -29.743388 ], [ -57.090106, -29.747468199999958 ], [ -57.090002099999943, -29.747416199999975 ], [ -57.089752699999956, -29.747305399999952 ], [ -57.089591299999938, -29.747223399999939 ], [ -57.089441199999953, -29.747105199999954 ], [ -57.089249799999948, -29.746945599999957 ], [ -57.08901069999996, -29.746811299999941 ], [ -57.088785099999932, -29.746617399999923 ], [ -57.088612199999943, -29.746376599999959 ], [ -57.088405199999954, -29.746184499999959 ], [ -57.088053399999978, -29.745997 ], [ -57.087705699999958, -29.745855599999967 ], [ -57.087312599999962, -29.745687 ], [ -57.086443399999951, -29.745124499999978 ], [ -57.086334699999952, -29.745038799999968 ], [ -57.0860833, -29.744883699999949 ], [ -57.085817299999974, -29.744660099999972 ], [ -57.085553399999974, -29.744426499999967 ], [ -57.085250199999962, -29.744283199999987 ], [ -57.084955299999933, -29.744092099999932 ], [ -57.084674799999959, -29.743775499999963 ], [ -57.084322, -29.743600599999979 ], [ -57.083992, -29.743503399999955 ], [ -57.083655799999981, -29.743398 ], [ -57.083185199999946, -29.743315199999987 ], [ -57.082825199999945, -29.743248699999981 ], [ -57.082609, -29.743165799999929 ], [ -57.08239379999997, -29.743018799999959 ], [ -57.082168199999956, -29.74284659999995 ], [ -57.081948899999986, -29.742822299999951 ], [ -57.081573399999968, -29.742740399999942 ], [ -57.081133699999953, -29.742468199999966 ], [ -57.080951599999942, -29.742334 ], [ -57.080859499999981, -29.742266199999968 ], [ -57.080577099999964, -29.742228399999924 ], [ -57.080521299999987, -29.742224 ], [ -57.080413599999979, -29.742058899999964 ], [ -57.080387599999938, -29.741925299999934 ], [ -57.080543599999942, -29.741705899999943 ], [ -57.080407899999955, -29.741375699999928 ], [ -57.080224599999944, -29.741127599999974 ], [ -57.08019249999996, -29.74105 ], [ -57.080240099999976, -29.741023799999944 ], [ -57.080455099999938, -29.740989399999933 ], [ -57.080735299999958, -29.740924199999942 ], [ -57.081106599999941, -29.74096459999997 ], [ -57.081346399999973, -29.740708199999965 ], [ -57.081248899999942, -29.740432099999957 ], [ -57.08127049999996, -29.740245299999966 ], [ -57.081199, -29.74005219999998 ], [ -57.081068599999981, -29.739913299999955 ], [ -57.081074699999931, -29.739879 ], [ -57.080894699999924, -29.739740099999949 ], [ -57.080603, -29.739689699999921 ], [ -57.080364099999947, -29.739693499999934 ], [ -57.08036, -29.73968809999996 ], [ -57.080394, -29.739494899999954 ], [ -57.080227399999963, -29.739380399999952 ], [ -57.079882799999957, -29.739174799999937 ], [ -57.079580799999974, -29.739029699999939 ], [ -57.079370699999977, -29.738848399999934 ], [ -57.079012699999964, -29.738633899999982 ], [ -57.078602, -29.738495099999959 ], [ -57.078181, -29.738376199999948 ], [ -57.07781909999995, -29.73837549999995 ], [ -57.07742, -29.738429 ], [ -57.077098499999984, -29.7385998 ], [ -57.076809, -29.738660399999961 ], [ -57.076394399999963, -29.738800499999954 ], [ -57.076087299999976, -29.738940599999982 ], [ -57.075886, -29.739311599999944 ], [ -57.075718699999982, -29.739690799999948 ], [ -57.075548499999968, -29.740300099999956 ], [ -57.075434199999968, -29.740958 ], [ -57.07535809999996, -29.741438199999951 ], [ -57.075277699999958, -29.741778499999953 ], [ -57.075032799999974, -29.742049399999928 ], [ -57.074827099999936, -29.7422544 ], [ -57.074749699999984, -29.742445699999973 ], [ -57.074738399999944, -29.742512499999968 ], [ -57.074686799999938, -29.742639799999935 ], [ -57.074658, -29.742884399999983 ], [ -57.074611599999962, -29.743111799999937 ], [ -57.074545799999953, -29.74356669999997 ], [ -57.074556299999983, -29.743798699999953 ], [ -57.074640099999954, -29.743934 ], [ -57.074640199999976, -29.744026099999921 ], [ -57.074549299999951, -29.744120899999924 ], [ -57.074589899999978, -29.744469199999966 ], [ -57.074673899999944, -29.744865299999958 ], [ -57.074641, -29.745089199999942 ], [ -57.074615399999963, -29.745393299999932 ], [ -57.074657899999984, -29.745633399999981 ], [ -57.074648699999955, -29.745697499999949 ], [ -57.074536, -29.745733599999934 ], [ -57.074483399999963, -29.745956599999939 ], [ -57.074662399999973, -29.746120699999949 ], [ -57.074786599999982, -29.74617569999997 ], [ -57.074861099999957, -29.746240599999947 ], [ -57.075093799999927, -29.746258599999962 ], [ -57.0752634, -29.746242199999983 ], [ -57.075291399999969, -29.74627739999994 ], [ -57.075221099999972, -29.746320799999982 ], [ -57.075196399999982, -29.746465199999932 ], [ -57.075172599999966, -29.746460699999943 ], [ -57.074906799999951, -29.746492399999962 ], [ -57.074892599999941, -29.746854299999935 ], [ -57.074908099999952, -29.746921099999955 ], [ -57.074816099999964, -29.746915699999917 ], [ -57.074816099999964, -29.746889599999982 ], [ -57.074696, -29.746733499999934 ], [ -57.074499499999945, -29.74669479999995 ], [ -57.07443539999997, -29.746721 ], [ -57.074319599999967, -29.746757199999934 ], [ -57.074200699999942, -29.746808699999978 ], [ -57.073916299999944, -29.746825099999956 ], [ -57.07387609999995, -29.747088599999973 ], [ -57.073896799999943, -29.747171599999941 ], [ -57.073773799999969, -29.747225899999933 ], [ -57.073500899999942, -29.747389399999978 ], [ -57.073292199999969, -29.747663799999941 ], [ -57.073156899999958, -29.747903099999963 ], [ -57.073048299999982, -29.747937399999945 ], [ -57.072852799999971, -29.747914099999949 ], [ -57.0727505, -29.748049499999972 ], [ -57.072742299999959, -29.748050399999947 ], [ -57.07258609999996, -29.748050499999977 ], [ -57.072421799999972, -29.748276199999967 ], [ -57.072331899999945, -29.748364699999954 ], [ -57.07204449999994, -29.748470399999967 ], [ -57.07185839999994, -29.748599599999977 ], [ -57.071675499999969, -29.748811799999945 ], [ -57.071397499999932, -29.749107 ], [ -57.071231099999977, -29.749360699999947 ], [ -57.070935499999962, -29.749630699999948 ], [ -57.070939499999952, -29.74935639999995 ], [ -57.070913599999983, -29.749342799999958 ], [ -57.071021, -29.74904319999996 ], [ -57.071042699999957, -29.749008899999964 ], [ -57.071063199999969, -29.748786799999941 ], [ -57.071077499999951, -29.748566599999954 ], [ -57.071263599999959, -29.748532199999936 ], [ -57.071498299999973, -29.748393099999916 ], [ -57.071523, -29.74820809999995 ], [ -57.071529199999986, -29.748192699999954 ], [ -57.071589199999949, -29.748177399999978 ], [ -57.071739099999952, -29.748124 ], [ -57.071968599999934, -29.747947899999929 ], [ -57.072028499999931, -29.747877499999959 ], [ -57.072268299999962, -29.747687899999956 ], [ -57.072461599999947, -29.747446799999981 ], [ -57.072517199999936, -29.747158 ], [ -57.072488099999987, -29.746933299999966 ], [ -57.072337, -29.74676009999996 ], [ -57.07217559999998, -29.746712299999956 ], [ -57.071945899999946, -29.746663699999939 ], [ -57.0715436, -29.746673799999932 ], [ -57.071254099999983, -29.746699299999939 ], [ -57.070909699999959, -29.746722 ], [ -57.070612799999935, -29.746668 ], [ -57.070355199999938, -29.746537299999954 ], [ -57.070134799999956, -29.746387599999938 ], [ -57.070008599999937, -29.746278499999967 ], [ -57.070000199999974, -29.746156599999942 ], [ -57.070053899999948, -29.746031199999951 ], [ -57.070123199999955, -29.745957099999934 ], [ -57.070281299999976, -29.74583789999997 ], [ -57.070472499999937, -29.745695199999933 ], [ -57.070673099999965, -29.745567899999966 ], [ -57.070844699999959, -29.745457699999974 ], [ -57.071141399999938, -29.745251699999987 ], [ -57.071167, -29.74499 ], [ -57.071184399999943, -29.744741799999922 ], [ -57.071181199999955, -29.744532399999969 ], [ -57.07119949999997, -29.744166899999986 ], [ -57.071223099999941, -29.743862799999938 ], [ -57.071213599999972, -29.743557699999947 ], [ -57.071190699999924, -29.743312299999953 ], [ -57.071127399999966, -29.743045199999983 ], [ -57.07100619999995, -29.742701399999923 ], [ -57.070809599999961, -29.742588699999946 ], [ -57.070499299999938, -29.742524799999959 ], [ -57.07013829999994, -29.742506899999967 ], [ -57.069858099999983, -29.742502499999954 ], [ -57.069495199999949, -29.742615499999935 ], [ -57.069216099999949, -29.742883699999929 ], [ -57.069097399999968, -29.74315 ], [ -57.069037499999979, -29.743379299999958 ], [ -57.068949799999984, -29.743620299999971 ], [ -57.068861, -29.743832399999967 ], [ -57.068731899999932, -29.744105899999962 ], [ -57.06864, -29.744325299999957 ], [ -57.068436499999962, -29.744579899999966 ], [ -57.068257599999988, -29.74474239999995 ], [ -57.068084, -29.744894099999954 ], [ -57.067806899999937, -29.745030599999954 ], [ -57.067506, -29.745098399999968 ], [ -57.067058199999963, -29.745082399999955 ], [ -57.066655799999978, -29.744947199999945 ], [ -57.066315399999958, -29.744788499999984 ], [ -57.066068199999961, -29.744640699999941 ], [ -57.065672899999988, -29.744363799999967 ], [ -57.06525709999994, -29.744207899999932 ], [ -57.064993299999969, -29.744125899999965 ], [ -57.064700599999981, -29.744017699999965 ], [ -57.064509199999982, -29.74396 ], [ -57.064395299999944, -29.743822899999941 ], [ -57.064345599999967, -29.743723699999968 ], [ -57.064193599999953, -29.74363169999998 ], [ -57.064033099999961, -29.74340159999997 ], [ -57.063847799999962, -29.743115599999964 ], [ -57.063625299999956, -29.742848599999938 ], [ -57.063498899999956, -29.742566199999946 ], [ -57.063253799999984, -29.74246159999996 ], [ -57.062995199999932, -29.742412099999964 ], [ -57.062570099999967, -29.742369 ], [ -57.062296099999969, -29.742426899999931 ], [ -57.06206759999997, -29.742513599999924 ], [ -57.06171919999997, -29.742636499999957 ], [ -57.061271499999975, -29.742903899999927 ], [ -57.061158799999987, -29.742907499999951 ], [ -57.06090439999997, -29.742886 ], [ -57.060673699999938, -29.742788599999976 ], [ -57.060424399999924, -29.742745399999919 ], [ -57.060100699999971, -29.742730199999979 ], [ -57.059800799999948, -29.742684299999947 ], [ -57.059469799999931, -29.742637499999947 ], [ -57.059154299999925, -29.742506799999937 ], [ -57.058941199999936, -29.742367899999969 ], [ -57.058717699999931, -29.742181199999944 ], [ -57.058487, -29.742035099999949 ], [ -57.058167399999945, -29.741948599999944 ], [ -57.057821, -29.742045299999976 ], [ -57.05756979999996, -29.742196099999937 ], [ -57.057237899999969, -29.74231 ], [ -57.057158299999969, -29.742380399999931 ], [ -57.056559799999945, -29.742909499999946 ], [ -57.055908299999949, -29.743052399999954 ], [ -57.055737699999945, -29.74310749999994 ], [ -57.055572299999938, -29.743196899999916 ], [ -57.055417199999972, -29.743314299999948 ], [ -57.055255899999963, -29.743364 ], [ -57.054823599999963, -29.743191799999963 ], [ -57.054492599999946, -29.743164899999954 ], [ -57.053956899999953, -29.743129899999918 ], [ -57.053421199999946, -29.743145499999958 ], [ -57.053120299999932, -29.743257499999967 ], [ -57.053111, -29.743259299999963 ], [ -57.052750099999969, -29.743347899999954 ], [ -57.0523831, -29.743589899999961 ], [ -57.052038799999941, -29.743813 ], [ -57.05152389999995, -29.744064099999957 ], [ -57.051058599999976, -29.744259199999931 ], [ -57.050489899999953, -29.744377599999947 ], [ -57.050076299999937, -29.744492399999949 ], [ -57.049590299999977, -29.744655 ], [ -57.049166399999933, -29.745010799999928 ], [ -57.04888219999998, -29.745353799999968 ], [ -57.04869, -29.745675199999937 ], [ -57.048513299999968, -29.746050699999952 ], [ -57.048341799999953, -29.746452299999923 ], [ -57.048110299999962, -29.746808 ], [ -57.047902499999964, -29.74704179999997 ], [ -57.047662699999925, -29.747243199999968 ], [ -57.047326699999985, -29.747477 ], [ -57.046811899999966, -29.748061099999976 ], [ -57.046760199999937, -29.74810169999995 ], [ -57.046514199999933, -29.748343699999953 ], [ -57.046299199999964, -29.74860459999995 ], [ -57.046145199999955, -29.748976499999973 ], [ -57.046022299999954, -29.749275199999936 ], [ -57.045987299999979, -29.749606499999967 ], [ -57.045939799999985, -29.749768 ], [ -57.045856, -29.749807799999932 ], [ -57.045774399999971, -29.749913399999961 ], [ -57.04574139999994, -29.750114599999961 ], [ -57.045684599999959, -29.750276199999963 ], [ -57.045525399999974, -29.750485599999934 ], [ -57.045288599999935, -29.750658099999953 ], [ -57.045014599999945, -29.750715899999921 ], [ -57.044807699999978, -29.750723199999978 ], [ -57.044561499999986, -29.750668299999969 ], [ -57.04424809999994, -29.75060609999997 ], [ -57.043922299999963, -29.750637799999939 ], [ -57.043604799999962, -29.750608099999965 ], [ -57.043295499999942, -29.750530599999934 ], [ -57.043001799999949, -29.750533399999931 ], [ -57.042748499999959, -29.750646299999964 ], [ -57.042578899999967, -29.750740199999932 ], [ -57.042432, -29.750831399999971 ], [ -57.042315199999962, -29.750966799999969 ], [ -57.042211899999977, -29.751120299999965 ], [ -57.042086799999929, -29.751372099999973 ], [ -57.041985599999975, -29.751679 ], [ -57.041917499999947, -29.751985 ], [ -57.041813099999956, -29.752329699999958 ], [ -57.041665399999943, -29.752642899999959 ], [ -57.041627099999971, -29.752724199999928 ], [ -57.041498899999965, -29.752879399999976 ], [ -57.041374899999937, -29.752944499999959 ], [ -57.040983799999928, -29.753358099999961 ], [ -57.040939599999952, -29.753392199999944 ], [ -57.040736, -29.753655799999926 ], [ -57.040544699999941, -29.753947399999962 ], [ -57.04031729999997, -29.754163099999971 ], [ -57.040166399999976, -29.754391499999947 ], [ -57.040038199999962, -29.75460089999995 ], [ -57.040045499999962, -29.754743499999964 ], [ -57.039730099999986, -29.754823 ], [ -57.03935869999998, -29.754821299999946 ], [ -57.039103299999965, -29.754955 ], [ -57.038917199999958, -29.755226699999977 ], [ -57.037258799999961, -29.755988499999951 ], [ -57.032449299999939, -29.750249899999975 ], [ -57.026601299999989, -29.743691399999935 ], [ -57.024497099999969, -29.741231899999939 ], [ -57.020370699999944, -29.740576099999942 ], [ -57.015069299999936, -29.739783599999949 ], [ -57.012336599999969, -29.73920969999995 ], [ -57.010396399999934, -29.738936499999969 ], [ -57.009849799999984, -29.7387998 ], [ -57.009231, -29.73854769999998 ], [ -57.007353099999939, -29.740015199999959 ], [ -57.004345099999973, -29.741622499999941 ], [ -57.004807899999946, -29.742827899999938 ], [ -57.002262599999931, -29.745238799999985 ], [ -56.999254499999942, -29.746645099999977 ], [ -56.996709199999941, -29.746645099999963 ], [ -56.99370109999996, -29.747850499999963 ], [ -56.992312799999979, -29.749658499999935 ], [ -56.992544199999941, -29.750462099999943 ], [ -56.992514, -29.750521 ], [ -56.992152299999987, -29.751253899999934 ], [ -56.99605769999993, -29.754560599999934 ], [ -57.007835899999975, -29.765924699999967 ], [ -57.009655099999975, -29.766885 ], [ -57.012424, -29.767307899999931 ], [ -57.019693099999984, -29.767167299999986 ], [ -57.021669899999942, -29.767117399999947 ], [ -57.03157269999997, -29.765904599999949 ], [ -57.031724, -29.765887099999937 ], [ -57.03381289999998, -29.765647099999967 ], [ -57.033574599999952, -29.766329499999983 ], [ -57.033474399999932, -29.766706 ], [ -57.03331739999998, -29.766794499999939 ], [ -57.032992399999962, -29.76697779999995 ], [ -57.031893099999934, -29.767909399999962 ], [ -57.031653299999952, -29.768356199999971 ], [ -57.031121699999971, -29.768926699999955 ], [ -57.030656399999941, -29.769498099999964 ], [ -57.030167199999937, -29.769816699999975 ], [ -57.029468, -29.770041599999953 ], [ -57.028993199999945, -29.770198799999939 ], [ -57.028490499999982, -29.770505699999941 ], [ -57.028038599999945, -29.770953399999943 ], [ -57.027996299999984, -29.771352299999933 ], [ -57.027813599999945, -29.77279909999994 ], [ -57.027775399999939, -29.773495399999955 ], [ -57.027775399999939, -29.774377899999926 ], [ -57.027836299999933, -29.775686399999987 ], [ -57.028203099999985, -29.779619299999975 ], [ -57.028132199999959, -29.780084799999926 ], [ -57.027925599999946, -29.781105499999974 ], [ -57.028048899999987, -29.782048599999943 ], [ -57.028721799999964, -29.783420199999963 ], [ -57.029323, -29.783803699999975 ], [ -57.029833199999985, -29.78415189999998 ], [ -57.030278199999948, -29.78445319999997 ], [ -57.030655799999977, -29.784570499999973 ], [ -57.036607799999949, -29.79546919999996 ], [ -57.036764899999987, -29.795078399999973 ], [ -57.037046099999941, -29.794506099999975 ], [ -57.037325399999986, -29.794311099999963 ], [ -57.037748599999986, -29.794126899999977 ], [ -57.03785409999994, -29.794034799999952 ], [ -57.038535799999984, -29.793747599999953 ], [ -57.03929939999994, -29.793764499999952 ], [ -57.04018, -29.79375789999995 ], [ -57.041448399999979, -29.793388399999976 ], [ -57.043457699999976, -29.793203699999925 ], [ -57.0446745, -29.79314549999998 ], [ -57.046095699999967, -29.793277099999951 ], [ -57.046629099999961, -29.79329469999994 ], [ -57.047581099999945, -29.793386399999967 ], [ -57.048772099999958, -29.793571899999964 ], [ -57.049524599999984, -29.793800099999938 ], [ -57.05019939999994, -29.794012699999936 ], [ -57.051056099999983, -29.794328199999946 ], [ -57.051387299999931, -29.794583499999927 ], [ -57.052309499999986, -29.795108399999947 ], [ -57.053735399999937, -29.796348099999925 ], [ -57.054659099999981, -29.79653239999994 ], [ -57.055287399999941, -29.796880499999933 ], [ -57.055562699999946, -29.796997799999932 ], [ -57.056244299999939, -29.797407599999929 ], [ -57.056374199999937, -29.797485699999967 ], [ -57.057067699999948, -29.797938399999964 ], [ -57.058083399999987, -29.798535099999977 ], [ -57.060465099999938, -29.800267799999975 ], [ -57.063694199999979, -29.80001969999995 ], [ -57.065007199999975, -29.799647399999966 ], [ -57.065171899999946, -29.799600699999935 ], [ -57.065777199999957, -29.799569699999946 ], [ -57.066373, -29.799171399999981 ], [ -57.066835399999945, -29.799002399999942 ], [ -57.067848399999946, -29.798974799999936 ], [ -57.068611, -29.798956399999952 ], [ -57.069626899999946, -29.798618299999941 ], [ -57.07094979999993, -29.797857699999952 ], [ -57.073998299999978, -29.797773599999971 ], [ -57.074120299999947, -29.79781 ], [ -57.075143, -29.798322 ], [ -57.07566479999997, -29.798784699999938 ], [ -57.076462199999973, -29.799525199999948 ], [ -57.077025299999946, -29.799850599999953 ], [ -57.078244599999948, -29.800294899999983 ], [ -57.079349799999925, -29.80027889999997 ], [ -57.080114299999934, -29.800111399999945 ], [ -57.080643799999962, -29.799747399999944 ], [ -57.081291299999982, -29.799384199999963 ], [ -57.081780599999945, -29.79918089999995 ], [ -57.082256299999983, -29.798827699999944 ], [ -57.082548799999984, -29.798462 ], [ -57.08330559999996, -29.797697199999959 ], [ -57.084020199999941, -29.79717329999994 ], [ -57.084721299999956, -29.796649399999975 ], [ -57.085988499999985, -29.79617479999996 ], [ -57.086978299999942, -29.795768 ], [ -57.08776689999997, -29.795829799999982 ], [ -57.08892289999995, -29.79614759999998 ], [ -57.088999699999931, -29.796412799999921 ], [ -57.089482399999952, -29.796920599999957 ], [ -57.090556899999967, -29.797421699999969 ], [ -57.091844399999957, -29.797669399999965 ], [ -57.092670399999975, -29.798055599999934 ], [ -57.093154899999952, -29.798311499999954 ], [ -57.093951299999958, -29.79906359999995 ], [ -57.094644199999941, -29.799688599999968 ], [ -57.095441599999951, -29.800336899999937 ], [ -57.09646249999998, -29.801009399999938 ], [ -57.0965743, -29.801048699999974 ], [ -57.097394099999974, -29.801337199999988 ], [ -57.097982299999956, -29.801788899999963 ], [ -57.09906059999998, -29.80184139999994 ], [ -57.100075499999946, -29.80162939999996 ] ] ], [ [ [ -56.516331299999933, -29.767682 ], [ -56.5163462, -29.768057399999979 ], [ -56.516354399999955, -29.768399 ], [ -56.516392099999962, -29.768571 ], [ -56.516537199999959, -29.768780599999946 ], [ -56.516698399999946, -29.768915 ], [ -56.516913399999964, -29.769022499999945 ], [ -56.517104199999956, -29.769060099999937 ], [ -56.517295, -29.76909779999993 ], [ -56.517733, -29.769117099999967 ], [ -56.518374599999959, -29.769145499999986 ], [ -56.520237099999974, -29.769227899999965 ], [ -56.520331899999967, -29.76923209999995 ], [ -56.520412499999964, -29.769240199999953 ], [ -56.52049309999996, -29.769248299999965 ], [ -56.520568399999945, -29.769291299999949 ], [ -56.520611399999957, -29.769366499999929 ], [ -56.520600599999973, -29.769468199999952 ], [ -56.520266, -29.770101599999972 ], [ -56.5204993, -29.770240699999949 ], [ -56.520920899999972, -29.770408 ], [ -56.521266199999964, -29.770030399999939 ], [ -56.525547299999978, -29.769182199999921 ], [ -56.531258499999979, -29.767025299999947 ], [ -56.53118029999996, -29.76477 ], [ -56.531179099999974, -29.764736199999952 ], [ -56.531169799999979, -29.764467099999933 ], [ -56.531168499999985, -29.764430099999977 ], [ -56.531116499999939, -29.762932699999975 ], [ -56.5162964, -29.763801399999984 ], [ -56.51625649999994, -29.763909399999932 ], [ -56.516218699999975, -29.763911899999982 ], [ -56.516169199999986, -29.763915199999921 ], [ -56.516258299999954, -29.765684299999968 ], [ -56.516270799999965, -29.765932299999971 ], [ -56.516268299999979, -29.765992499999985 ], [ -56.516267299999981, -29.766084099999944 ], [ -56.516263099999946, -29.766088899999939 ], [ -56.516199099999938, -29.766162499999947 ], [ -56.516331299999933, -29.767682 ] ] ], [ [ [ -56.80620179999994, -29.54785 ], [ -56.806508099999967, -29.54688949999996 ], [ -56.80603259999998, -29.545698899999937 ], [ -56.807564299999967, -29.544970599999953 ], [ -56.811148099999961, -29.550306899999949 ], [ -56.811716099999948, -29.550137299999964 ], [ -56.811598899999979, -29.548901 ], [ -56.812899499999965, -29.546650799999963 ], [ -56.813638799999978, -29.546289099999981 ], [ -56.814319799999964, -29.54596619999996 ], [ -56.815334, -29.545986099999933 ], [ -56.816557199999977, -29.545842499999935 ], [ -56.817467899999933, -29.545657 ], [ -56.818164899999942, -29.545248699999934 ], [ -56.818574599999977, -29.545023199999935 ], [ -56.818692399999975, -29.544754299999955 ], [ -56.819856199999947, -29.545131699999942 ], [ -56.819761699999958, -29.53882809999994 ], [ -56.821410899999933, -29.537669799999932 ], [ -56.821580899999958, -29.53591009999996 ], [ -56.82077419999996, -29.534229699999972 ], [ -56.816089899999952, -29.533176299999976 ], [ -56.815805299999973, -29.534386599999944 ], [ -56.815483, -29.536143099999943 ], [ -56.815156199999933, -29.536382299999957 ], [ -56.812815199999932, -29.534300399999946 ], [ -56.812387399999977, -29.534064299999951 ], [ -56.811682799999971, -29.534006799999929 ], [ -56.808688499999967, -29.536766699999941 ], [ -56.807043499999963, -29.536620099999936 ], [ -56.8056304, -29.537233699999948 ], [ -56.804281699999933, -29.540041599999945 ], [ -56.803951899999966, -29.540976599999972 ], [ -56.803683299999939, -29.542240099999958 ], [ -56.804796099999976, -29.54287829999998 ], [ -56.805435399999965, -29.543327599999945 ], [ -56.805428799999959, -29.544336399999956 ], [ -56.803597299999979, -29.546075799999979 ], [ -56.803438399999948, -29.54900769999994 ], [ -56.804389, -29.549861499999963 ], [ -56.805506099999945, -29.550390199999981 ], [ -56.80620179999994, -29.54785 ] ] ], [ [ [ -56.77296, -29.527759099999962 ], [ -56.773191199999985, -29.527634 ], [ -56.773544299999976, -29.527451799999938 ], [ -56.773611799999969, -29.527084199999944 ], [ -56.773608199999956, -29.526694499999959 ], [ -56.773413299999959, -29.5263935 ], [ -56.77295259999994, -29.526018 ], [ -56.772175199999936, -29.525316099999934 ], [ -56.771386799999952, -29.524688699999956 ], [ -56.770764099999951, -29.524176899999922 ], [ -56.770273199999963, -29.523739399999958 ], [ -56.770057699999946, -29.523643 ], [ -56.770376499999941, -29.528596799999953 ], [ -56.770376799999951, -29.528603899999954 ], [ -56.773253, -29.529543799999946 ], [ -56.773397, -29.529080499999967 ], [ -56.773244, -29.528795299999956 ], [ -56.772763299999944, -29.528586199999967 ], [ -56.772242599999963, -29.52819489999996 ], [ -56.772295399999969, -29.52803489999997 ], [ -56.772348199999946, -29.527874899999979 ], [ -56.772588499999983, -29.527784499999939 ], [ -56.77296, -29.527759099999962 ] ] ], [ [ [ -56.846064599999977, -29.506253199999946 ], [ -56.84518989999998, -29.506112299999984 ], [ -56.844150599999978, -29.50634389999993 ], [ -56.843493699999954, -29.506807 ], [ -56.843055599999957, -29.507224399999984 ], [ -56.842672, -29.507734699999954 ], [ -56.841960399999948, -29.508197799999948 ], [ -56.841960899999947, -29.507826899999937 ], [ -56.842782299999953, -29.507131099999974 ], [ -56.842947, -29.506713399999974 ], [ -56.842291, -29.506573599999975 ], [ -56.841250599999967, -29.507501099999953 ], [ -56.839774199999965, -29.508103099999975 ], [ -56.838592399999982, -29.508332699999983 ], [ -56.834893, -29.513713499999934 ], [ -56.833505, -29.518236099999978 ], [ -56.834162899999967, -29.51824589999995 ], [ -56.837653099999955, -29.518298099999988 ], [ -56.839741299999964, -29.517853899999967 ], [ -56.844544299999939, -29.516780199999975 ], [ -56.851414099999936, -29.515619299999976 ], [ -56.851527, -29.508890799999953 ], [ -56.851529499999977, -29.508746 ], [ -56.851530399999952, -29.508688099999979 ], [ -56.849562199999973, -29.507696699999936 ], [ -56.848469699999953, -29.50695179999996 ], [ -56.847431399999948, -29.506486699999979 ], [ -56.846064599999977, -29.506253199999946 ] ] ], [ [ [ -56.683872499999957, -29.472088 ], [ -56.683686, -29.472120599999986 ], [ -56.683719599999968, -29.472542299999922 ], [ -56.682716499999962, -29.472779099999954 ], [ -56.679172199999982, -29.473615299999935 ], [ -56.67966389999998, -29.475010199999939 ], [ -56.679795899999931, -29.475377099999946 ], [ -56.683659699999971, -29.474563399999965 ], [ -56.683772, -29.474566799999927 ], [ -56.683767499999931, -29.475053099999958 ], [ -56.68461, -29.475069699999938 ], [ -56.684640399999978, -29.472474 ], [ -56.684657699999946, -29.472249199999961 ], [ -56.684670599999947, -29.471753 ], [ -56.683873399999989, -29.471840399999962 ], [ -56.683872499999957, -29.472088 ] ] ] ] } }
]
}
