{
"type": "FeatureCollection",
"name": "5005681",
"crs": { "type": "name", "properties": { "name": "urn:ogc:def:crs:OGC:1.3:CRS84" } },
"features": [
{ "type": "Feature", "properties": { "CD_MUN": "5005681", "NM_MUN": "Mundo Novo" }, "geometry": { "type": "Polygon", "coordinates": [ [ [ -54.289683499999967, -23.946473 ], [ -54.289956399999944, -23.946175299999936 ], [ -54.290303699999981, -23.946299399999933 ], [ -54.290711799999947, -23.946257599999967 ], [ -54.29105549999997, -23.946135199999958 ], [ -54.291176199999938, -23.946092299999975 ], [ -54.291221699999944, -23.946076099999964 ], [ -54.291618599999936, -23.946249699999949 ], [ -54.291941099999974, -23.946175299999943 ], [ -54.292326899999971, -23.946120599999968 ], [ -54.292759799999942, -23.946125699999975 ], [ -54.293125499999974, -23.945842799999976 ], [ -54.293280799999934, -23.94594139999997 ], [ -54.293400799999972, -23.946017599999951 ], [ -54.29389579999998, -23.945715 ], [ -54.294442099999969, -23.945743699999962 ], [ -54.294560799999935, -23.945740199999925 ], [ -54.295362, -23.945787799999945 ], [ -54.297281, -23.945305499999954 ], [ -54.299316199999971, -23.944806399999941 ], [ -54.299392399999938, -23.944785099999937 ], [ -54.299762, -23.944703799999942 ], [ -54.300466299999989, -23.944555299999923 ], [ -54.301497799999936, -23.944333299999968 ], [ -54.301518899999962, -23.94405619999997 ], [ -54.30226539999996, -23.94416509999996 ], [ -54.302514, -23.944175099999946 ], [ -54.307171299999936, -23.943242199999929 ], [ -54.306472399999961, -23.942208299999947 ], [ -54.304996899999935, -23.940104099999921 ], [ -54.30422, -23.938982 ], [ -54.301853299999948, -23.939674699999944 ], [ -54.301437699999951, -23.939785599999926 ], [ -54.302622499999984, -23.936448399999964 ], [ -54.30263709999997, -23.936275499999965 ], [ -54.30263089999994, -23.93618819999994 ], [ -54.302618899999977, -23.936066699999976 ], [ -54.30256989999998, -23.93593 ], [ -54.302488499999974, -23.935726599999946 ], [ -54.302162199999941, -23.935030499999982 ], [ -54.302092499999958, -23.934860499999946 ], [ -54.3042382, -23.934255299999958 ], [ -54.307382899999944, -23.933400599999977 ], [ -54.312336, -23.93199 ], [ -54.314391799999953, -23.931392499999944 ], [ -54.315363599999962, -23.931144099999972 ], [ -54.315543899999966, -23.930906899999972 ], [ -54.315610299999953, -23.930745599999966 ], [ -54.31565779999994, -23.930660199999984 ], [ -54.315676799999949, -23.930527299999934 ], [ -54.315686299999982, -23.930375499999961 ], [ -54.31565779999994, -23.930261599999938 ], [ -54.315610299999953, -23.93013829999995 ], [ -54.315562899999968, -23.930024399999983 ], [ -54.315515499999947, -23.929872599999957 ], [ -54.315543899999959, -23.929654299999978 ], [ -54.315638799999938, -23.929388699999947 ], [ -54.315687399999945, -23.929288799999945 ], [ -54.31513579999995, -23.929428799999979 ], [ -54.3076, -23.931499199999951 ], [ -54.304549799999968, -23.932346799999941 ], [ -54.304370699999936, -23.931908799999974 ], [ -54.3033688, -23.932196099999949 ], [ -54.30296089999996, -23.930192199999968 ], [ -54.300420099999947, -23.93089459999992 ], [ -54.30021279999994, -23.930386299999952 ], [ -54.299926099999936, -23.929755799999953 ], [ -54.2995294, -23.928767 ], [ -54.298945099999969, -23.928324199999956 ], [ -54.299118399999948, -23.928135299999958 ], [ -54.299225399999955, -23.928017799999957 ], [ -54.299158499999976, -23.927876399999942 ], [ -54.298571299999928, -23.926464899999932 ], [ -54.298481599999938, -23.926293499999922 ], [ -54.297581599999944, -23.924300099999982 ], [ -54.297158799999977, -23.923632 ], [ -54.296933799999984, -23.92283349999996 ], [ -54.296706699999966, -23.922470099999945 ], [ -54.296687599999984, -23.922177799999929 ], [ -54.296294599999953, -23.922148099999959 ], [ -54.295985, -23.921811299999938 ], [ -54.295875299999977, -23.921584 ], [ -54.295704199999932, -23.921272699999975 ], [ -54.295751299999949, -23.921005199999964 ], [ -54.295663199999979, -23.920741 ], [ -54.295537099999933, -23.920378299999982 ], [ -54.295582599999932, -23.920165899999972 ], [ -54.295346199999976, -23.919966 ], [ -54.295099599999958, -23.919966 ], [ -54.294993899999952, -23.919966 ], [ -54.294870599999967, -23.919825099999969 ], [ -54.294729699999955, -23.919543299999937 ], [ -54.294718099999962, -23.919437899999938 ], [ -54.29461189999995, -23.919043599999952 ], [ -54.294271799999933, -23.918838799999939 ], [ -54.294130899999971, -23.918557 ], [ -54.294078099999972, -23.918169499999976 ], [ -54.2940076, -23.917940499999929 ], [ -54.293919499999959, -23.9176763 ], [ -54.293690599999927, -23.917429799999976 ], [ -54.293514399999935, -23.917306499999945 ], [ -54.293267899999933, -23.916883799999937 ], [ -54.293109399999935, -23.916602 ], [ -54.292880399999945, -23.916373 ], [ -54.292739499999975, -23.916056 ], [ -54.292616199999941, -23.915721299999969 ], [ -54.292613, -23.915264199999974 ], [ -54.29261189999994, -23.915108099999937 ], [ -54.292362, -23.914928899999961 ], [ -54.292320699999948, -23.9149 ], [ -54.289791699999967, -23.917886399999922 ], [ -54.289062699999931, -23.91875339999995 ], [ -54.288313399999943, -23.919634099999939 ], [ -54.287623099999955, -23.920462 ], [ -54.286948, -23.921281799999974 ], [ -54.286835899999978, -23.921419 ], [ -54.28608509999998, -23.922307 ], [ -54.285911899999974, -23.922115099999928 ], [ -54.280892399999971, -23.91698659999998 ], [ -54.280467799999933, -23.916583599999967 ], [ -54.279543, -23.915591499999952 ], [ -54.271985799999982, -23.922315399999945 ], [ -54.272058199999947, -23.922701599999979 ], [ -54.263164599999982, -23.929447299999929 ], [ -54.269782799999973, -23.939135699999952 ], [ -54.270746199999962, -23.940511699999938 ], [ -54.27047129999994, -23.940820899999952 ], [ -54.269623199999963, -23.941739499999983 ], [ -54.268935099999965, -23.942490399999937 ], [ -54.268637499999961, -23.942076199999974 ], [ -54.268551399999978, -23.94198879999993 ], [ -54.268452499999974, -23.941942099999949 ], [ -54.268363199999953, -23.941927599999929 ], [ -54.268216499999944, -23.94198 ], [ -54.264401499999963, -23.943717599999957 ], [ -54.264338399999978, -23.943741 ], [ -54.265465699999936, -23.94507729999998 ], [ -54.266007499999944, -23.945668 ], [ -54.268894399999965, -23.942534799999969 ], [ -54.272945099999966, -23.948817899999945 ], [ -54.274238199999949, -23.950478899999947 ], [ -54.274451599999956, -23.950173899999982 ], [ -54.274525799999935, -23.949876799999974 ], [ -54.274692199999947, -23.949813099999957 ], [ -54.274784499999953, -23.94961609999995 ], [ -54.274992599999962, -23.94938859999997 ], [ -54.275194599999971, -23.949229799999951 ], [ -54.275380299999945, -23.948998899999935 ], [ -54.275498099999936, -23.948622 ], [ -54.276061299999981, -23.948418399999969 ], [ -54.276092699999936, -23.947686 ], [ -54.276861599999968, -23.947162199999983 ], [ -54.277165399999944, -23.946765299999985 ], [ -54.277292399999965, -23.946745599999925 ], [ -54.277638799999977, -23.946119399999926 ], [ -54.278358299999979, -23.945563 ], [ -54.278716, -23.945391399999949 ], [ -54.2792209, -23.945312099999963 ], [ -54.279636799999935, -23.945246399999981 ], [ -54.279671599999972, -23.945240599999973 ], [ -54.280200499999971, -23.94515239999998 ], [ -54.281050899999975, -23.944936299999938 ], [ -54.281424299999969, -23.944801199999976 ], [ -54.2820493, -23.944662299999951 ], [ -54.282307199999934, -23.944478499999942 ], [ -54.282369699999947, -23.944463399999961 ], [ -54.282539299999939, -23.944423699999966 ], [ -54.282596399999939, -23.944410199999933 ], [ -54.28271639999997, -23.944410199999918 ], [ -54.282785, -23.944410199999929 ], [ -54.282986499999936, -23.944410199999929 ], [ -54.283188399999979, -23.944410199999933 ], [ -54.283834199999944, -23.944457 ], [ -54.283892899999955, -23.944461199999978 ], [ -54.283903199999941, -23.944462 ], [ -54.283959, -23.944466 ], [ -54.284271499999939, -23.944488699999969 ], [ -54.284792299999928, -23.944627599999929 ], [ -54.285209, -23.944801199999976 ], [ -54.285590899999939, -23.945009499999966 ], [ -54.286304199999961, -23.945139899999958 ], [ -54.28659179999994, -23.945484899999933 ], [ -54.28665019999994, -23.945608899999961 ], [ -54.287500299999969, -23.945852799999951 ], [ -54.288294199999946, -23.946100899999976 ], [ -54.289010699999949, -23.946292799999977 ], [ -54.289683499999967, -23.946473 ] ] ] } }
]
}
