{
"type": "FeatureCollection",
"name": "5108600",
"crs": { "type": "name", "properties": { "name": "urn:ogc:def:crs:OGC:1.3:CRS84" } },
"features": [
{ "type": "Feature", "properties": { "CD_MUN": "5108600", "NM_MUN": "Vila Rica" }, "geometry": { "type": "Polygon", "coordinates": [ [ [ -51.120274599999959, -10.023442699999979 ], [ -51.121205299999986, -10.019560799999962 ], [ -51.121256799999969, -10.019573499999986 ], [ -51.121321, -10.019589299999927 ], [ -51.121414699999946, -10.019612399999971 ], [ -51.122886499999936, -10.019975299999928 ], [ -51.123106299999961, -10.019434199999974 ], [ -51.123124599999983, -10.019389099999964 ], [ -51.125169699999951, -10.01987539999994 ], [ -51.125815499999931, -10.020034799999952 ], [ -51.12651249999994, -10.020211799999952 ], [ -51.127222499999959, -10.020392099999986 ], [ -51.12817, -10.020632699999975 ], [ -51.128173299999958, -10.020633499999969 ], [ -51.129529699999985, -10.020955799999964 ], [ -51.13125679999996, -10.021405199999936 ], [ -51.131520799999976, -10.021453299999955 ], [ -51.132527499999981, -10.021752499999932 ], [ -51.1329176, -10.021784099999939 ], [ -51.133252399999947, -10.021623499999953 ], [ -51.133464199999935, -10.021549499999924 ], [ -51.133883199999957, -10.022014699999952 ], [ -51.134084499999972, -10.022151399999951 ], [ -51.134461099999953, -10.022261299999986 ], [ -51.136776, -10.022829099999976 ], [ -51.137359199999935, -10.02045 ], [ -51.137218299999979, -10.02044689999995 ], [ -51.137782299999969, -10.017992499999945 ], [ -51.137794499999984, -10.017939799999976 ], [ -51.137950699999983, -10.01767 ], [ -51.13798689999993, -10.017487599999974 ], [ -51.138047799999981, -10.017452299999935 ], [ -51.138847299999945, -10.016987899999942 ], [ -51.140229, -10.017314 ], [ -51.14043369999996, -10.016444199999956 ], [ -51.140448299999953, -10.01638209999993 ], [ -51.140456599999936, -10.016346899999965 ], [ -51.141230399999984, -10.013083299999961 ], [ -51.139341799999954, -10.012631099999957 ], [ -51.13855609999996, -10.015896799999952 ], [ -51.136813699999955, -10.015391799999971 ], [ -51.133679499999971, -10.01462049999996 ], [ -51.132120199999974, -10.014234399999976 ], [ -51.131691699999976, -10.014121599999958 ], [ -51.131299799999965, -10.014055699999949 ], [ -51.130533399999933, -10.014004699999914 ], [ -51.129534899999953, -10.013760099999939 ], [ -51.128725199999963, -10.01355879999994 ], [ -51.128209, -10.013433099999913 ], [ -51.124744699999958, -10.012578799999961 ], [ -51.124688699999986, -10.012565099999964 ], [ -51.123306599999978, -10.012227099999965 ], [ -51.123182099999951, -10.012196599999983 ], [ -51.123072599999944, -10.012168 ], [ -51.123026899999957, -10.012156 ], [ -51.123434199999956, -10.010525499999956 ], [ -51.123572299999978, -10.00997229999995 ], [ -51.123578, -10.009973699999916 ], [ -51.124744299999975, -10.005299599999933 ], [ -51.125445099999979, -10.002444899999954 ], [ -51.125455, -10.002402099999909 ], [ -51.125451, -10.002400799999961 ], [ -51.124073199999941, -10.002058899999955 ], [ -51.123302899999949, -10.004909799999934 ], [ -51.122503, -10.007870099999932 ], [ -51.122081099999953, -10.007756 ], [ -51.121989199999973, -10.007731099999953 ], [ -51.121885199999952, -10.007560499999942 ], [ -51.121468399999976, -10.007365499999915 ], [ -51.121397799999954, -10.007332499999945 ], [ -51.121141899999948, -10.007332499999965 ], [ -51.121026099999938, -10.007374499999969 ], [ -51.120910399999957, -10.007416499999977 ], [ -51.12053869999994, -10.007428499999932 ], [ -51.120459699999962, -10.007390599999946 ], [ -51.120110599999975, -10.007223099999964 ], [ -51.119850799999938, -10.007152899999946 ], [ -51.119698699999965, -10.007111799999942 ], [ -51.119283599999967, -10.0070565 ], [ -51.11916169999995, -10.006924499999954 ], [ -51.118642199999961, -10.006725099999921 ], [ -51.117943199999957, -10.006468499999949 ], [ -51.117872599999941, -10.006425699999975 ], [ -51.117626299999984, -10.006276499999949 ], [ -51.117407, -10.006048499999951 ], [ -51.117297299999962, -10.005964499999951 ], [ -51.117187699999931, -10.005880499999934 ], [ -51.117065799999985, -10.00583249999994 ], [ -51.11666369999994, -10.00557149999997 ], [ -51.11661869999994, -10.005530099999936 ], [ -51.116480899999942, -10.005403499999959 ], [ -51.116304699999944, -10.005147699999936 ], [ -51.11612839999998, -10.004891799999925 ], [ -51.115944699999943, -10.004683499999947 ], [ -51.115714399999945, -10.004409399999926 ], [ -51.115696699999944, -10.004388399999922 ], [ -51.115563899999984, -10.004230399999921 ], [ -51.115186199999982, -10.003582399999985 ], [ -51.115052099999957, -10.003414399999926 ], [ -51.114771899999937, -10.003246399999972 ], [ -51.114613499999962, -10.003066399999973 ], [ -51.114455, -10.002934399999948 ], [ -51.114096699999948, -10.00241979999995 ], [ -51.113748299999941, -10.001893399999968 ], [ -51.11328519999995, -10.001629399999933 ], [ -51.112992799999972, -10.001425399999954 ], [ -51.112858699999947, -10.001293399999948 ], [ -51.112785599999945, -10.00113739999993 ], [ -51.112364499999956, -10.000856899999958 ], [ -51.111990499999926, -10.000624299999949 ], [ -51.111637099999939, -10.000444299999955 ], [ -51.111381199999983, -10.000348299999919 ], [ -51.110918199999965, -10.000096299999923 ], [ -51.110662299999944, -10.000012299999987 ], [ -51.110534299999983, -9.99994629999998 ], [ -51.110406399999931, -9.999880299999951 ], [ -51.110199199999954, -9.999664299999962 ], [ -51.110101699999973, -9.999532299999929 ], [ -51.109869099999969, -9.999364499999968 ], [ -51.109651, -9.999135499999976 ], [ -51.109736199999986, -9.999524799999968 ], [ -51.109809299999938, -9.999872799999949 ], [ -51.109821499999946, -9.999992799999978 ], [ -51.109742299999937, -10.0002148 ], [ -51.1097362, -10.000262799999986 ], [ -51.109730099999986, -10.000310799999948 ], [ -51.1096874, -10.000514799999953 ], [ -51.109632599999941, -10.000604799999962 ], [ -51.109597599999972, -10.000716 ], [ -51.109516799999938, -10.000874799999966 ], [ -51.109502199999959, -10.001055599999988 ], [ -51.109492399999972, -10.001174499999934 ], [ -51.109460499999955, -10.0013759 ], [ -51.109405599999945, -10.001531899999973 ], [ -51.109436099999982, -10.001849899999968 ], [ -51.109356899999966, -10.002080899999941 ], [ -51.109277699999957, -10.002311899999944 ], [ -51.109320299999979, -10.002455899999964 ], [ -51.109411699999953, -10.002629899999944 ], [ -51.109356899999966, -10.003010899999945 ], [ -51.109302099999972, -10.003112899999969 ], [ -51.109009599999979, -10.003346899999931 ], [ -51.108979099999935, -10.00353289999993 ], [ -51.108979099999942, -10.003748899999945 ], [ -51.108924299999963, -10.003862899999946 ], [ -51.108839, -10.003982899999938 ], [ -51.108794, -10.004107199999957 ], [ -51.108772, -10.004276899999956 ], [ -51.108713299999977, -10.0043818 ], [ -51.108617499999987, -10.004552399999971 ], [ -51.108577, -10.004664 ], [ -51.108577, -10.00488 ], [ -51.108321099999955, -10.005184499999945 ], [ -51.108244599999978, -10.005291899999973 ], [ -51.106952099999944, -10.00446849999998 ], [ -51.106343, -10.003825299999946 ], [ -51.10631, -10.003787399999956 ], [ -51.106097199999965, -10.004596799999955 ], [ -51.105830399999945, -10.004999299999962 ], [ -51.105752299999949, -10.005117099999957 ], [ -51.105796299999959, -10.005182199999986 ], [ -51.105715599999947, -10.005500199999954 ], [ -51.105906399999981, -10.005558 ], [ -51.105347399999964, -10.0078607 ], [ -51.105440699999974, -10.00787049999996 ], [ -51.105217299999936, -10.008533699999942 ], [ -51.105046199999947, -10.009172199999966 ], [ -51.104952399999938, -10.009607199999961 ], [ -51.102795799999967, -10.009137299999951 ], [ -51.097586799999931, -10.00791319999994 ], [ -51.096608899999978, -10.012084599999985 ], [ -51.096442899999943, -10.012891 ], [ -51.096350399999949, -10.013295399999935 ], [ -51.096184499999936, -10.014000499999941 ], [ -51.095914899999968, -10.015169099999969 ], [ -51.095766499999975, -10.015773699999963 ], [ -51.095610199999953, -10.016407899999921 ], [ -51.095511299999941, -10.016840199999924 ], [ -51.095383699999957, -10.01736029999995 ], [ -51.095297499999958, -10.017698499999941 ], [ -51.096271499999951, -10.017921799999964 ], [ -51.09937309999998, -10.018671899999964 ], [ -51.09935349999995, -10.018674599999938 ], [ -51.102649, -10.019443599999954 ], [ -51.103187899999973, -10.019581399999932 ], [ -51.103338899999983, -10.01962 ], [ -51.103386499999942, -10.019632099999944 ], [ -51.106460599999934, -10.020396399999989 ], [ -51.106736799999965, -10.020465099999951 ], [ -51.106694699999942, -10.020638599999907 ], [ -51.106652499999939, -10.020812199999986 ], [ -51.106211599999945, -10.022627699999934 ], [ -51.107415, -10.022913 ], [ -51.107986, -10.023048399999945 ], [ -51.110864099999958, -10.02372919999994 ], [ -51.113220099999978, -10.024289399999937 ], [ -51.114958, -10.024719799999966 ], [ -51.115027099999963, -10.024428399999953 ], [ -51.119702, -10.025536399999968 ], [ -51.119756299999949, -10.025549299999977 ], [ -51.120203599999968, -10.023729099999985 ], [ -51.120274599999959, -10.023442699999979 ] ] ] } }
]
}
