{
"type": "FeatureCollection",
"name": "aoi_Barbacena",
"crs": { "type": "name", "properties": { "name": "urn:ogc:def:crs:EPSG::31983" } },
"features": [
{ "type": "Feature", "properties": { "id": 272.0, "left": 627728.9205, "top": 7653062.9095000001, "right": 628228.9205, "bottom": 7652562.9095000001, "row_index": 7.0, "col_index": 12.0, "area_km2": 62.03 }, "geometry": { "type": "MultiPolygon", "coordinates": [ [ [ [ 621728.9205, 7646562.9095 ], [ 621728.9205, 7647062.9095 ], [ 621728.9205, 7647562.9095 ], [ 621728.9205, 7648062.9095 ], [ 621728.9205, 7648562.9095 ], [ 621728.9205, 7649062.9095 ], [ 621728.9205, 7649562.9095 ], [ 621728.9205, 7650062.9095 ], [ 621728.9205, 7650562.9095 ], [ 622228.9205, 7650562.9095 ], [ 622728.9205, 7650562.9095 ], [ 623228.9205, 7650562.9095 ], [ 623228.9205, 7651062.9095 ], [ 623228.9205, 7651562.9095 ], [ 623228.9205, 7652062.9095 ], [ 623228.9205, 7652562.9095 ], [ 623228.9205, 7653062.9095 ], [ 623228.9205, 7653562.9095 ], [ 623728.9205, 7653562.9095 ], [ 623728.9205, 7654062.9095 ], [ 623728.9205, 7654562.9095 ], [ 623728.9205, 7655062.9095 ], [ 623728.9205, 7655562.9095 ], [ 623728.9205, 7656062.9095 ], [ 623728.9205, 7656562.9095 ], [ 624228.9205, 7656562.9095 ], [ 624728.9205, 7656562.9095 ], [ 625228.9205, 7656562.9095 ], [ 625728.9205, 7656562.9095 ], [ 626228.9205, 7656562.9095 ], [ 626728.9205, 7656562.9095 ], [ 626728.9205, 7656062.9095 ], [ 626728.9205, 7655562.9095 ], [ 627228.9205, 7655562.9095 ], [ 627728.9205, 7655562.9095 ], [ 628228.9205, 7655562.9095 ], [ 628728.9205, 7655562.9095 ], [ 629228.9205, 7655562.9095 ], [ 629728.9205, 7655562.9095 ], [ 630228.9205, 7655562.9095 ], [ 630728.9205, 7655562.9095 ], [ 630728.9205, 7655062.9095 ], [ 630728.9205, 7654562.9095 ], [ 630728.9205, 7654062.9095 ], [ 630728.9205, 7653562.9095 ], [ 631228.9205, 7653562.9095 ], [ 631728.9205, 7653562.9095 ], [ 632228.9205, 7653562.9095 ], [ 632228.9205, 7653062.9095 ], [ 632228.9205, 7652562.9095 ], [ 632228.9205, 7652062.9095 ], [ 632228.9205, 7651562.9095 ], [ 632228.9205, 7651062.9095 ], [ 632228.9205, 7650562.9095 ], [ 631728.9205, 7650562.9095 ], [ 631228.9205, 7650562.9095 ], [ 630728.9205, 7650562.9095 ], [ 630228.9205, 7650562.9095 ], [ 629728.9205, 7650562.9095 ], [ 629228.9205, 7650562.9095 ], [ 628728.9205, 7650562.9095 ], [ 628228.9205, 7650562.9095 ], [ 628228.9205, 7650062.9095 ], [ 628228.9205, 7649562.9095 ], [ 628228.9205, 7649062.9095 ], [ 628228.9205, 7648562.9095 ], [ 627728.9205, 7648562.9095 ], [ 627228.9205, 7648562.9095 ], [ 626728.9205, 7648562.9095 ], [ 626228.9205, 7648562.9095 ], [ 625728.9205, 7648562.9095 ], [ 625228.9205, 7648562.9095 ], [ 624728.9205, 7648562.9095 ], [ 624228.9205, 7648562.9095 ], [ 623728.9205, 7648562.9095 ], [ 623728.9205, 7648062.9095 ], [ 623728.9205, 7647562.9095 ], [ 623728.9205, 7647062.9095 ], [ 623728.9205, 7646562.9095 ], [ 623728.9205, 7646062.9095 ], [ 623228.9205, 7646062.9095 ], [ 622728.9205, 7646062.9095 ], [ 622228.9205, 7646062.9095 ], [ 621728.9205, 7646062.9095 ], [ 621728.9205, 7646562.9095 ] ] ] ] } }
]
}
